<?xml version="1.0" encoding="UTF-8"?>
<gpx version="1.1" creator="AIS-to-GPX Converter" xmlns="http://www.topografix.com/GPX/1/1">
                <trk>
                    <name>anon0165</name>
                    <trkseg>
                                            <trkpt lat="54.693470000000005" lon="10.045116666666667">
                        <ele>0</ele>
                        <time>2022-08-18T12:25:47Z</time>
                                                <extensions>
                            <sog>5.0</sog>
<cog>168.0</cog>
                        </extensions>
                    </trkpt>
                    <trkpt lat="54.692105" lon="10.045593333333333">
                        <ele>0</ele>
                        <time>2022-08-18T12:26:47Z</time>
                                                <extensions>
                            <sog>5.0</sog>
<cog>166.8</cog>
                        </extensions>
                    </trkpt>
                    <trkpt lat="54.687175" lon="10.047123333333333">
                        <ele>0</ele>
                        <time>2022-08-18T12:30:19Z</time>
                                                <extensions>
                            <sog>5.1</sog>
<cog>179.0</cog>
                        </extensions>
                    </trkpt>
                    <trkpt lat="54.68288666666667" lon="10.047106666666668">
                        <ele>0</ele>
                        <time>2022-08-18T12:33:20Z</time>
                                                <extensions>
                            <sog>5.3</sog>
<cog>184.2</cog>
                        </extensions>
                    </trkpt>
                    <trkpt lat="54.682175" lon="10.047001666666667">
                        <ele>0</ele>
                        <time>2022-08-18T12:33:50Z</time>
                                                <extensions>
                            <sog>5.1</sog>
<cog>183.7</cog>
                        </extensions>
                    </trkpt>
                    <trkpt lat="54.681468333333335" lon="10.046926666666668">
                        <ele>0</ele>
                        <time>2022-08-18T12:34:20Z</time>
                                                <extensions>
                            <sog>5.1</sog>
<cog>183.7</cog>
                        </extensions>
                    </trkpt>
                    <trkpt lat="54.68076666666666" lon="10.046865">
                        <ele>0</ele>
                        <time>2022-08-18T12:34:50Z</time>
                                                <extensions>
                            <sog>5.0</sog>
<cog>182.9</cog>
                        </extensions>
                    </trkpt>
                    <trkpt lat="54.679361666666665" lon="10.046719999999999">
                        <ele>0</ele>
                        <time>2022-08-18T12:35:50Z</time>
                                                <extensions>
                            <sog>5.0</sog>
<cog>183.8</cog>
                        </extensions>
                    </trkpt>
                    <trkpt lat="54.67866" lon="10.046658333333333">
                        <ele>0</ele>
                        <time>2022-08-18T12:36:20Z</time>
                                                <extensions>
                            <sog>5.0</sog>
<cog>182.2</cog>
                        </extensions>
                    </trkpt>
                    <trkpt lat="54.67655666666667" lon="10.04627">
                        <ele>0</ele>
                        <time>2022-08-18T12:37:50Z</time>
                                                <extensions>
                            <sog>5.1</sog>
<cog>191.0</cog>
                        </extensions>
                    </trkpt>
                    <trkpt lat="54.67590499999999" lon="10.045985">
                        <ele>0</ele>
                        <time>2022-08-18T12:38:20Z</time>
                                                <extensions>
                            <sog>5.0</sog>
<cog>183.0</cog>
                        </extensions>
                    </trkpt>
                    <trkpt lat="54.67458833333333" lon="10.04565">
                        <ele>0</ele>
                        <time>2022-08-18T12:39:17Z</time>
                                                <extensions>
                            <sog>5.2</sog>
<cog>191.8</cog>
                        </extensions>
                    </trkpt>
                    <trkpt lat="54.67142166666667" lon="10.043278333333335">
                        <ele>0</ele>
                        <time>2022-08-18T12:41:46Z</time>
                                                <extensions>
                            <sog>5.1</sog>
<cog>229.5</cog>
                        </extensions>
                    </trkpt>
                    <trkpt lat="54.671095" lon="10.042148333333333">
                        <ele>0</ele>
                        <time>2022-08-18T12:42:17Z</time>
                                                <extensions>
                            <sog>5.2</sog>
<cog>242.5</cog>
                        </extensions>
                    </trkpt>
                    <trkpt lat="54.67071833333333" lon="10.041153333333334">
                        <ele>0</ele>
                        <time>2022-08-18T12:42:46Z</time>
                                                <extensions>
                            <sog>5.2</sog>
<cog>241.2</cog>
                        </extensions>
                    </trkpt>
                    <trkpt lat="54.67044" lon="10.037878333333333">
                        <ele>0</ele>
                        <time>2022-08-18T12:44:17Z</time>
                                                <extensions>
                            <sog>4.4</sog>
<cog>291.0</cog>
                        </extensions>
                    </trkpt>
                    <trkpt lat="54.67059833333334" lon="10.036891666666666">
                        <ele>0</ele>
                        <time>2022-08-18T12:44:46Z</time>
                                                <extensions>
                            <sog>4.7</sog>
<cog>294.9</cog>
                        </extensions>
                    </trkpt>
                    <trkpt lat="54.67331" lon="10.028995">
                        <ele>0</ele>
                        <time>2022-08-18T12:48:48Z</time>
                                                <extensions>
                            <sog>5.0</sog>
<cog>301.6</cog>
                        </extensions>
                    </trkpt>
                    <trkpt lat="54.676665" lon="10.006298333333332">
                        <ele>0</ele>
                        <time>2022-08-18T12:57:47Z</time>
                                                <extensions>
                            <sog>5.5</sog>
<cog>277.8</cog>
                        </extensions>
                    </trkpt>
                    </trkseg>
                </trk>
</gpx>