<?xml version="1.0" encoding="UTF-8"?>
<gpx version="1.1" creator="AIS-to-GPX Converter" xmlns="http://www.topografix.com/GPX/1/1">
                <trk>
                    <name>anon0457</name>
                    <trkseg>
                                            <trkpt lat="53.908633333333334" lon="9.17373">
                        <ele>0</ele>
                        <time>2022-08-18T01:10:08Z</time>
                                                <extensions>
                            <sog>0.8</sog>
<cog>266.2</cog>
                        </extensions>
                    </trkpt>
                    <trkpt lat="53.90863" lon="9.173658333333332">
                        <ele>0</ele>
                        <time>2022-08-18T01:10:17Z</time>
                                                <extensions>
                            <sog>0.9</sog>
<cog>263.9</cog>
                        </extensions>
                    </trkpt>
                    <trkpt lat="53.90862166666667" lon="9.173575">
                        <ele>0</ele>
                        <time>2022-08-18T01:10:28Z</time>
                                                <extensions>
                            <sog>1.1</sog>
<cog>262.4</cog>
                        </extensions>
                    </trkpt>
                    <trkpt lat="53.90861333333333" lon="9.173488333333333">
                        <ele>0</ele>
                        <time>2022-08-18T01:10:37Z</time>
                                                <extensions>
                            <sog>1.2</sog>
<cog>260.6</cog>
                        </extensions>
                    </trkpt>
                    <trkpt lat="53.90860166666666" lon="9.173385">
                        <ele>0</ele>
                        <time>2022-08-18T01:10:47Z</time>
                                                <extensions>
                            <sog>1.3</sog>
<cog>258.7</cog>
                        </extensions>
                    </trkpt>
                    <trkpt lat="53.908588333333334" lon="9.173276666666668">
                        <ele>0</ele>
                        <time>2022-08-18T01:10:57Z</time>
                                                <extensions>
                            <sog>1.5</sog>
<cog>257.0</cog>
                        </extensions>
                    </trkpt>
                    <trkpt lat="53.908543333333334" lon="9.173">
                        <ele>0</ele>
                        <time>2022-08-18T01:11:17Z</time>
                                                <extensions>
                            <sog>1.8</sog>
<cog>255.0</cog>
                        </extensions>
                    </trkpt>
                    <trkpt lat="53.908515" lon="9.172859999999998">
                        <ele>0</ele>
                        <time>2022-08-18T01:11:28Z</time>
                                                <extensions>
                            <sog>1.8</sog>
<cog>253.3</cog>
                        </extensions>
                    </trkpt>
                    <trkpt lat="53.90848833333334" lon="9.172731666666666">
                        <ele>0</ele>
                        <time>2022-08-18T01:11:37Z</time>
                                                <extensions>
                            <sog>1.8</sog>
<cog>250.0</cog>
                        </extensions>
                    </trkpt>
                    <trkpt lat="53.907338333333335" lon="9.169203333333334">
                        <ele>0</ele>
                        <time>2022-08-18T01:16:08Z</time>
                                                <extensions>
                            <sog>1.8</sog>
<cog>252.1</cog>
                        </extensions>
                    </trkpt>
                    <trkpt lat="53.90732" lon="9.169108333333332">
                        <ele>0</ele>
                        <time>2022-08-18T01:16:15Z</time>
                                                <extensions>
                            <sog>1.8</sog>
<cog>254.4</cog>
                        </extensions>
                    </trkpt>
                    <trkpt lat="53.90730666666666" lon="9.169031666666665">
                        <ele>0</ele>
                        <time>2022-08-18T01:16:21Z</time>
                                                <extensions>
                            <sog>1.7</sog>
<cog>255.8</cog>
                        </extensions>
                    </trkpt>
                    <trkpt lat="53.894795" lon="9.146423333333333">
                        <ele>0</ele>
                        <time>2022-08-18T01:52:38Z</time>
                                                <extensions>
                            <sog>1.4</sog>
<cog>224.4</cog>
                        </extensions>
                    </trkpt>
                    <trkpt lat="53.89466166666667" lon="9.146191666666665">
                        <ele>0</ele>
                        <time>2022-08-18T01:53:08Z</time>
                                                <extensions>
                            <sog>1.4</sog>
<cog>226.8</cog>
                        </extensions>
                    </trkpt>
                    <trkpt lat="53.89433666666666" lon="9.145588333333334">
                        <ele>0</ele>
                        <time>2022-08-18T01:54:17Z</time>
                                                <extensions>
                            <sog>1.6</sog>
<cog>227.1</cog>
                        </extensions>
                    </trkpt>
                    <trkpt lat="53.89373166666667" lon="9.144471666666668">
                        <ele>0</ele>
                        <time>2022-08-18T01:58:07Z</time>
                                                <extensions>
                            <sog>0.4</sog>
<cog>230.5</cog>
                        </extensions>
                    </trkpt>
                    <trkpt lat="53.893723333333334" lon="9.144451666666667">
                        <ele>0</ele>
                        <time>2022-08-18T01:58:17Z</time>
                                                <extensions>
                            <sog>0.4</sog>
<cog>229.4</cog>
                        </extensions>
                    </trkpt>
                    <trkpt lat="53.893620000000006" lon="9.144316666666667">
                        <ele>0</ele>
                        <time>2022-08-18T02:04:08Z</time>
                                                <extensions>
                            <sog>0.0</sog>
<cog>210.3</cog>
                        </extensions>
                    </trkpt>
                    <trkpt lat="53.89361833333333" lon="9.144316666666667">
                        <ele>0</ele>
                        <time>2022-08-18T02:04:17Z</time>
                                                <extensions>
                            <sog>0.0</sog>
<cog>210.3</cog>
                        </extensions>
                    </trkpt>
                    <trkpt lat="53.89361666666667" lon="9.144311666666665">
                        <ele>0</ele>
                        <time>2022-08-18T02:04:58Z</time>
                                                <extensions>
                            <sog>0.0</sog>
<cog>210.3</cog>
                        </extensions>
                    </trkpt>
                    <trkpt lat="53.893620000000006" lon="9.144315">
                        <ele>0</ele>
                        <time>2022-08-18T02:05:08Z</time>
                                                <extensions>
                            <sog>0.0</sog>
<cog>210.3</cog>
                        </extensions>
                    </trkpt>
                    <trkpt lat="53.893620000000006" lon="9.144316666666667">
                        <ele>0</ele>
                        <time>2022-08-18T02:05:17Z</time>
                                                <extensions>
                            <sog>0.0</sog>
<cog>210.3</cog>
                        </extensions>
                    </trkpt>
                    <trkpt lat="53.89361666666667" lon="9.144323333333334">
                        <ele>0</ele>
                        <time>2022-08-18T02:06:08Z</time>
                                                <extensions>
                            <sog>0.0</sog>
<cog>210.3</cog>
                        </extensions>
                    </trkpt>
                    <trkpt lat="53.89361833333333" lon="9.144328333333334">
                        <ele>0</ele>
                        <time>2022-08-18T02:06:17Z</time>
                                                <extensions>
                            <sog>0.0</sog>
<cog>210.3</cog>
                        </extensions>
                    </trkpt>
                    <trkpt lat="53.89361833333333" lon="9.144328333333334">
                        <ele>0</ele>
                        <time>2022-08-18T02:06:28Z</time>
                                                <extensions>
                            <sog>0.0</sog>
<cog>210.3</cog>
                        </extensions>
                    </trkpt>
                    <trkpt lat="53.893620000000006" lon="9.144328333333334">
                        <ele>0</ele>
                        <time>2022-08-18T02:06:37Z</time>
                                                <extensions>
                            <sog>0.0</sog>
<cog>210.3</cog>
                        </extensions>
                    </trkpt>
                    <trkpt lat="53.89361666666667" lon="9.144321666666666">
                        <ele>0</ele>
                        <time>2022-08-18T02:07:17Z</time>
                                                <extensions>
                            <sog>0.0</sog>
<cog>210.3</cog>
                        </extensions>
                    </trkpt>
                    <trkpt lat="53.89361666666667" lon="9.144323333333334">
                        <ele>0</ele>
                        <time>2022-08-18T02:07:28Z</time>
                                                <extensions>
                            <sog>0.0</sog>
<cog>210.3</cog>
                        </extensions>
                    </trkpt>
                    <trkpt lat="53.893620000000006" lon="9.144325">
                        <ele>0</ele>
                        <time>2022-08-18T02:07:47Z</time>
                                                <extensions>
                            <sog>0.0</sog>
<cog>210.3</cog>
                        </extensions>
                    </trkpt>
                    <trkpt lat="53.893620000000006" lon="9.144325">
                        <ele>0</ele>
                        <time>2022-08-18T02:07:57Z</time>
                                                <extensions>
                            <sog>0.0</sog>
<cog>210.3</cog>
                        </extensions>
                    </trkpt>
                    <trkpt lat="53.89362333333334" lon="9.144323333333334">
                        <ele>0</ele>
                        <time>2022-08-18T02:08:18Z</time>
                                                <extensions>
                            <sog>0.0</sog>
<cog>210.3</cog>
                        </extensions>
                    </trkpt>
                    <trkpt lat="53.893625" lon="9.14432">
                        <ele>0</ele>
                        <time>2022-08-18T02:08:48Z</time>
                                                <extensions>
                            <sog>0.0</sog>
<cog>210.3</cog>
                        </extensions>
                    </trkpt>
                    <trkpt lat="53.893625" lon="9.14432">
                        <ele>0</ele>
                        <time>2022-08-18T02:08:57Z</time>
                                                <extensions>
                            <sog>0.0</sog>
<cog>210.3</cog>
                        </extensions>
                    </trkpt>
                    <trkpt lat="53.893625" lon="9.144321666666666">
                        <ele>0</ele>
                        <time>2022-08-18T02:09:08Z</time>
                                                <extensions>
                            <sog>0.0</sog>
<cog>210.3</cog>
                        </extensions>
                    </trkpt>
                    <trkpt lat="53.893625" lon="9.144315">
                        <ele>0</ele>
                        <time>2022-08-18T02:09:18Z</time>
                                                <extensions>
                            <sog>0.0</sog>
<cog>210.3</cog>
                        </extensions>
                    </trkpt>
                    <trkpt lat="53.893615" lon="9.144326666666666">
                        <ele>0</ele>
                        <time>2022-08-18T02:09:37Z</time>
                                                <extensions>
                            <sog>0.0</sog>
<cog>210.3</cog>
                        </extensions>
                    </trkpt>
                    <trkpt lat="53.893615" lon="9.144325">
                        <ele>0</ele>
                        <time>2022-08-18T02:09:57Z</time>
                                                <extensions>
                            <sog>0.0</sog>
<cog>210.3</cog>
                        </extensions>
                    </trkpt>
                    <trkpt lat="53.89362666666667" lon="9.144316666666667">
                        <ele>0</ele>
                        <time>2022-08-18T02:10:37Z</time>
                                                <extensions>
                            <sog>0.0</sog>
<cog>210.3</cog>
                        </extensions>
                    </trkpt>
                    <trkpt lat="53.89362833333333" lon="9.144318333333333">
                        <ele>0</ele>
                        <time>2022-08-18T02:10:48Z</time>
                                                <extensions>
                            <sog>0.0</sog>
<cog>210.3</cog>
                        </extensions>
                    </trkpt>
                    <trkpt lat="53.89363" lon="9.144316666666667">
                        <ele>0</ele>
                        <time>2022-08-18T02:10:57Z</time>
                                                <extensions>
                            <sog>0.0</sog>
<cog>210.3</cog>
                        </extensions>
                    </trkpt>
                    <trkpt lat="53.893633333333334" lon="9.144316666666667">
                        <ele>0</ele>
                        <time>2022-08-18T02:11:08Z</time>
                                                <extensions>
                            <sog>0.0</sog>
<cog>210.3</cog>
                        </extensions>
                    </trkpt>
                    <trkpt lat="53.89362833333333" lon="9.144306666666667">
                        <ele>0</ele>
                        <time>2022-08-18T02:11:38Z</time>
                                                <extensions>
                            <sog>0.0</sog>
<cog>210.3</cog>
                        </extensions>
                    </trkpt>
                    <trkpt lat="53.89361833333333" lon="9.144311666666665">
                        <ele>0</ele>
                        <time>2022-08-18T02:11:48Z</time>
                                                <extensions>
                            <sog>0.0</sog>
<cog>210.3</cog>
                        </extensions>
                    </trkpt>
                    <trkpt lat="53.89361833333333" lon="9.144316666666667">
                        <ele>0</ele>
                        <time>2022-08-18T02:11:57Z</time>
                                                <extensions>
                            <sog>0.0</sog>
<cog>210.3</cog>
                        </extensions>
                    </trkpt>
                    <trkpt lat="53.89362166666667" lon="9.144315">
                        <ele>0</ele>
                        <time>2022-08-18T02:12:08Z</time>
                                                <extensions>
                            <sog>0.0</sog>
<cog>210.3</cog>
                        </extensions>
                    </trkpt>
                    <trkpt lat="53.893625" lon="9.144315">
                        <ele>0</ele>
                        <time>2022-08-18T02:12:27Z</time>
                                                <extensions>
                            <sog>0.0</sog>
<cog>210.3</cog>
                        </extensions>
                    </trkpt>
                    <trkpt lat="53.893633333333334" lon="9.144316666666667">
                        <ele>0</ele>
                        <time>2022-08-18T02:12:48Z</time>
                                                <extensions>
                            <sog>0.0</sog>
<cog>210.3</cog>
                        </extensions>
                    </trkpt>
                    <trkpt lat="53.893633333333334" lon="9.144316666666667">
                        <ele>0</ele>
                        <time>2022-08-18T02:12:57Z</time>
                                                <extensions>
                            <sog>0.0</sog>
<cog>210.3</cog>
                        </extensions>
                    </trkpt>
                    <trkpt lat="53.893633333333334" lon="9.144318333333333">
                        <ele>0</ele>
                        <time>2022-08-18T02:13:08Z</time>
                                                <extensions>
                            <sog>0.0</sog>
<cog>210.3</cog>
                        </extensions>
                    </trkpt>
                    <trkpt lat="53.893633333333334" lon="9.144315">
                        <ele>0</ele>
                        <time>2022-08-18T02:13:38Z</time>
                                                <extensions>
                            <sog>0.0</sog>
<cog>210.3</cog>
                        </extensions>
                    </trkpt>
                    <trkpt lat="53.89362833333333" lon="9.144309999999999">
                        <ele>0</ele>
                        <time>2022-08-18T02:17:58Z</time>
                                                <extensions>
                            <sog>0.0</sog>
<cog>210.3</cog>
                        </extensions>
                    </trkpt>
                    <trkpt lat="53.89363" lon="9.144315">
                        <ele>0</ele>
                        <time>2022-08-18T02:18:28Z</time>
                                                <extensions>
                            <sog>0.0</sog>
<cog>210.3</cog>
                        </extensions>
                    </trkpt>
                    <trkpt lat="53.89361833333333" lon="9.144309999999999">
                        <ele>0</ele>
                        <time>2022-08-18T02:19:28Z</time>
                                                <extensions>
                            <sog>0.0</sog>
<cog>210.3</cog>
                        </extensions>
                    </trkpt>
                    <trkpt lat="53.893615" lon="9.144308333333333">
                        <ele>0</ele>
                        <time>2022-08-18T02:19:47Z</time>
                                                <extensions>
                            <sog>0.0</sog>
<cog>210.3</cog>
                        </extensions>
                    </trkpt>
                    </trkseg>
                </trk>
</gpx>