<?xml version="1.0" encoding="UTF-8"?>
<gpx version="1.1" creator="AIS-to-GPX Converter" xmlns="http://www.topografix.com/GPX/1/1">
                <trk>
                    <name>anon0108</name>
                    <trkseg>
                                            <trkpt lat="54.38722666666667" lon="10.167183333333332">
                        <ele>0</ele>
                        <time>2022-08-18T00:02:14Z</time>
                                                <extensions>
                            <sog>0.0</sog>
<cog>11.1</cog>
                        </extensions>
                    </trkpt>
                    <trkpt lat="54.387269999999994" lon="10.167221666666668">
                        <ele>0</ele>
                        <time>2022-08-18T00:05:15Z</time>
                                                <extensions>
                            <sog>0.0</sog>
<cog>8.6</cog>
                        </extensions>
                    </trkpt>
                    <trkpt lat="54.38736166666667" lon="10.167271666666666">
                        <ele>0</ele>
                        <time>2022-08-18T00:08:14Z</time>
                                                <extensions>
                            <sog>0.0</sog>
<cog>344.7</cog>
                        </extensions>
                    </trkpt>
                    <trkpt lat="54.387168333333335" lon="10.16719">
                        <ele>0</ele>
                        <time>2022-08-18T00:11:13Z</time>
                                                <extensions>
                            <sog>0.0</sog>
<cog>343.9</cog>
                        </extensions>
                    </trkpt>
                    <trkpt lat="54.38720333333333" lon="10.167225">
                        <ele>0</ele>
                        <time>2022-08-18T00:14:14Z</time>
                                                <extensions>
                            <sog>0.0</sog>
<cog>304.0</cog>
                        </extensions>
                    </trkpt>
                    <trkpt lat="54.387215" lon="10.167251666666667">
                        <ele>0</ele>
                        <time>2022-08-18T00:17:15Z</time>
                                                <extensions>
                            <sog>0.0</sog>
<cog>318.5</cog>
                        </extensions>
                    </trkpt>
                    <trkpt lat="54.387265" lon="10.167235">
                        <ele>0</ele>
                        <time>2022-08-18T00:20:11Z</time>
                                                <extensions>
                            <sog>0.0</sog>
<cog>347.7</cog>
                        </extensions>
                    </trkpt>
                    <trkpt lat="54.387245" lon="10.167276666666668">
                        <ele>0</ele>
                        <time>2022-08-18T00:23:15Z</time>
                                                <extensions>
                            <sog>0.0</sog>
<cog>357.7</cog>
                        </extensions>
                    </trkpt>
                    <trkpt lat="54.38721666666667" lon="10.16725">
                        <ele>0</ele>
                        <time>2022-08-18T00:26:12Z</time>
                                                <extensions>
                            <sog>0.0</sog>
<cog>355.0</cog>
                        </extensions>
                    </trkpt>
                    <trkpt lat="54.387195" lon="10.167258333333333">
                        <ele>0</ele>
                        <time>2022-08-18T00:32:14Z</time>
                                                <extensions>
                            <sog>0.0</sog>
<cog>346.1</cog>
                        </extensions>
                    </trkpt>
                    <trkpt lat="54.38717666666666" lon="10.167176666666668">
                        <ele>0</ele>
                        <time>2022-08-18T00:35:13Z</time>
                                                <extensions>
                            <sog>0.0</sog>
<cog>339.2</cog>
                        </extensions>
                    </trkpt>
                    <trkpt lat="54.38726" lon="10.16728">
                        <ele>0</ele>
                        <time>2022-08-18T00:38:13Z</time>
                                                <extensions>
                            <sog>0.0</sog>
<cog>335.1</cog>
                        </extensions>
                    </trkpt>
                    <trkpt lat="54.38728833333333" lon="10.167281666666666">
                        <ele>0</ele>
                        <time>2022-08-18T00:41:13Z</time>
                                                <extensions>
                            <sog>0.0</sog>
<cog>329.6</cog>
                        </extensions>
                    </trkpt>
                    <trkpt lat="54.387215" lon="10.167218333333333">
                        <ele>0</ele>
                        <time>2022-08-18T00:44:15Z</time>
                                                <extensions>
                            <sog>0.0</sog>
<cog>333.2</cog>
                        </extensions>
                    </trkpt>
                    <trkpt lat="54.387283333333336" lon="10.167233333333334">
                        <ele>0</ele>
                        <time>2022-08-18T00:47:12Z</time>
                                                <extensions>
                            <sog>0.0</sog>
<cog>356.9</cog>
                        </extensions>
                    </trkpt>
                    <trkpt lat="54.387148333333336" lon="10.167325">
                        <ele>0</ele>
                        <time>2022-08-18T00:56:13Z</time>
                                                <extensions>
                            <sog>0.0</sog>
<cog>357.4</cog>
                        </extensions>
                    </trkpt>
                    <trkpt lat="54.387145000000004" lon="10.167248333333333">
                        <ele>0</ele>
                        <time>2022-08-18T00:59:12Z</time>
                                                <extensions>
                            <sog>0.0</sog>
<cog>294.9</cog>
                        </extensions>
                    </trkpt>
                    <trkpt lat="54.38731666666667" lon="10.167325">
                        <ele>0</ele>
                        <time>2022-08-18T01:02:12Z</time>
                                                <extensions>
                            <sog>0.0</sog>
<cog>334.0</cog>
                        </extensions>
                    </trkpt>
                    <trkpt lat="54.387215" lon="10.167286666666666">
                        <ele>0</ele>
                        <time>2022-08-18T01:05:12Z</time>
                                                <extensions>
                            <sog>0.0</sog>
<cog>337.2</cog>
                        </extensions>
                    </trkpt>
                    <trkpt lat="54.38717166666667" lon="10.167185">
                        <ele>0</ele>
                        <time>2022-08-18T01:11:11Z</time>
                                                <extensions>
                            <sog>0.0</sog>
<cog>18.1</cog>
                        </extensions>
                    </trkpt>
                    <trkpt lat="54.38708666666666" lon="10.167176666666668">
                        <ele>0</ele>
                        <time>2022-08-18T01:14:12Z</time>
                                                <extensions>
                            <sog>0.1</sog>
<cog>26.9</cog>
                        </extensions>
                    </trkpt>
                    <trkpt lat="54.38727666666667" lon="10.167268333333334">
                        <ele>0</ele>
                        <time>2022-08-18T01:17:14Z</time>
                                                <extensions>
                            <sog>0.0</sog>
<cog>21.9</cog>
                        </extensions>
                    </trkpt>
                    <trkpt lat="54.38727666666667" lon="10.167335000000001">
                        <ele>0</ele>
                        <time>2022-08-18T01:20:15Z</time>
                                                <extensions>
                            <sog>0.0</sog>
<cog>19.3</cog>
                        </extensions>
                    </trkpt>
                    <trkpt lat="54.38725" lon="10.167338333333333">
                        <ele>0</ele>
                        <time>2022-08-18T01:26:12Z</time>
                                                <extensions>
                            <sog>0.0</sog>
<cog>17.4</cog>
                        </extensions>
                    </trkpt>
                    <trkpt lat="54.387265" lon="10.16725">
                        <ele>0</ele>
                        <time>2022-08-18T01:29:14Z</time>
                                                <extensions>
                            <sog>0.0</sog>
<cog>16.2</cog>
                        </extensions>
                    </trkpt>
                    <trkpt lat="54.38739666666667" lon="10.167326666666666">
                        <ele>0</ele>
                        <time>2022-08-18T01:32:12Z</time>
                                                <extensions>
                            <sog>0.0</sog>
<cog>7.3</cog>
                        </extensions>
                    </trkpt>
                    <trkpt lat="54.387235000000004" lon="10.167255">
                        <ele>0</ele>
                        <time>2022-08-18T01:35:14Z</time>
                                                <extensions>
                            <sog>0.0</sog>
<cog>11.2</cog>
                        </extensions>
                    </trkpt>
                    <trkpt lat="54.387185" lon="10.167168333333333">
                        <ele>0</ele>
                        <time>2022-08-18T01:38:12Z</time>
                                                <extensions>
                            <sog>0.0</sog>
<cog>11.7</cog>
                        </extensions>
                    </trkpt>
                    <trkpt lat="54.38724666666667" lon="10.167195">
                        <ele>0</ele>
                        <time>2022-08-18T01:41:14Z</time>
                                                <extensions>
                            <sog>0.0</sog>
<cog>6.6</cog>
                        </extensions>
                    </trkpt>
                    <trkpt lat="54.38735833333333" lon="10.167335000000001">
                        <ele>0</ele>
                        <time>2022-08-18T01:44:13Z</time>
                                                <extensions>
                            <sog>0.0</sog>
<cog>0.5</cog>
                        </extensions>
                    </trkpt>
                    <trkpt lat="54.38723166666667" lon="10.167251666666667">
                        <ele>0</ele>
                        <time>2022-08-18T01:47:14Z</time>
                                                <extensions>
                            <sog>0.0</sog>
<cog>9.1</cog>
                        </extensions>
                    </trkpt>
                    <trkpt lat="54.38731166666666" lon="10.167268333333334">
                        <ele>0</ele>
                        <time>2022-08-18T01:50:11Z</time>
                                                <extensions>
                            <sog>0.1</sog>
<cog>18.2</cog>
                        </extensions>
                    </trkpt>
                    <trkpt lat="54.387233333333334" lon="10.167216666666667">
                        <ele>0</ele>
                        <time>2022-08-18T01:53:13Z</time>
                                                <extensions>
                            <sog>0.1</sog>
<cog>20.6</cog>
                        </extensions>
                    </trkpt>
                    <trkpt lat="54.38715" lon="10.167276666666668">
                        <ele>0</ele>
                        <time>2022-08-18T01:56:15Z</time>
                                                <extensions>
                            <sog>0.1</sog>
<cog>18.0</cog>
                        </extensions>
                    </trkpt>
                    <trkpt lat="54.387085" lon="10.167219999999999">
                        <ele>0</ele>
                        <time>2022-08-18T01:59:14Z</time>
                                                <extensions>
                            <sog>0.1</sog>
<cog>14.8</cog>
                        </extensions>
                    </trkpt>
                    <trkpt lat="54.387185" lon="10.167263333333333">
                        <ele>0</ele>
                        <time>2022-08-18T02:02:13Z</time>
                                                <extensions>
                            <sog>0.0</sog>
<cog>19.7</cog>
                        </extensions>
                    </trkpt>
                    <trkpt lat="54.387245" lon="10.167251666666667">
                        <ele>0</ele>
                        <time>2022-08-18T02:05:14Z</time>
                                                <extensions>
                            <sog>0.0</sog>
<cog>14.9</cog>
                        </extensions>
                    </trkpt>
                    <trkpt lat="54.38722833333334" lon="10.167256666666667">
                        <ele>0</ele>
                        <time>2022-08-18T02:08:13Z</time>
                                                <extensions>
                            <sog>0.0</sog>
<cog>9.7</cog>
                        </extensions>
                    </trkpt>
                    <trkpt lat="54.38719666666667" lon="10.167301666666667">
                        <ele>0</ele>
                        <time>2022-08-18T02:11:15Z</time>
                                                <extensions>
                            <sog>0.0</sog>
<cog>10.3</cog>
                        </extensions>
                    </trkpt>
                    <trkpt lat="54.387343333333334" lon="10.167308333333333">
                        <ele>0</ele>
                        <time>2022-08-18T02:14:12Z</time>
                                                <extensions>
                            <sog>0.0</sog>
<cog>11.2</cog>
                        </extensions>
                    </trkpt>
                    <trkpt lat="54.387299999999996" lon="10.167291666666667">
                        <ele>0</ele>
                        <time>2022-08-18T02:17:14Z</time>
                                                <extensions>
                            <sog>0.1</sog>
<cog>8.6</cog>
                        </extensions>
                    </trkpt>
                    <trkpt lat="54.387341666666664" lon="10.167301666666667">
                        <ele>0</ele>
                        <time>2022-08-18T02:20:13Z</time>
                                                <extensions>
                            <sog>0.1</sog>
<cog>6.0</cog>
                        </extensions>
                    </trkpt>
                    <trkpt lat="54.38715" lon="10.167221666666668">
                        <ele>0</ele>
                        <time>2022-08-18T02:23:15Z</time>
                                                <extensions>
                            <sog>0.1</sog>
<cog>1.4</cog>
                        </extensions>
                    </trkpt>
                    <trkpt lat="54.38728833333333" lon="10.167256666666667">
                        <ele>0</ele>
                        <time>2022-08-18T02:26:11Z</time>
                                                <extensions>
                            <sog>0.1</sog>
<cog>359.6</cog>
                        </extensions>
                    </trkpt>
                    <trkpt lat="54.386975" lon="10.167258333333333">
                        <ele>0</ele>
                        <time>2022-08-18T02:29:12Z</time>
                                                <extensions>
                            <sog>0.0</sog>
<cog>12.6</cog>
                        </extensions>
                    </trkpt>
                    <trkpt lat="54.38725" lon="10.167275">
                        <ele>0</ele>
                        <time>2022-08-18T02:32:11Z</time>
                                                <extensions>
                            <sog>0.1</sog>
<cog>9.3</cog>
                        </extensions>
                    </trkpt>
                    <trkpt lat="54.38724666666667" lon="10.167188333333334">
                        <ele>0</ele>
                        <time>2022-08-18T02:35:14Z</time>
                                                <extensions>
                            <sog>0.0</sog>
<cog>346.4</cog>
                        </extensions>
                    </trkpt>
                    <trkpt lat="54.38726666666666" lon="10.167216666666667">
                        <ele>0</ele>
                        <time>2022-08-18T02:38:13Z</time>
                                                <extensions>
                            <sog>0.0</sog>
<cog>345.0</cog>
                        </extensions>
                    </trkpt>
                    <trkpt lat="54.387208333333334" lon="10.167203333333333">
                        <ele>0</ele>
                        <time>2022-08-18T02:41:13Z</time>
                                                <extensions>
                            <sog>0.0</sog>
<cog>343.9</cog>
                        </extensions>
                    </trkpt>
                    <trkpt lat="54.38725833333333" lon="10.167158333333333">
                        <ele>0</ele>
                        <time>2022-08-18T02:44:11Z</time>
                                                <extensions>
                            <sog>0.1</sog>
<cog>349.2</cog>
                        </extensions>
                    </trkpt>
                    <trkpt lat="54.387224999999994" lon="10.167238333333334">
                        <ele>0</ele>
                        <time>2022-08-18T02:47:14Z</time>
                                                <extensions>
                            <sog>0.1</sog>
<cog>345.8</cog>
                        </extensions>
                    </trkpt>
                    <trkpt lat="54.38722333333333" lon="10.167156666666667">
                        <ele>0</ele>
                        <time>2022-08-18T02:50:12Z</time>
                                                <extensions>
                            <sog>0.1</sog>
<cog>344.7</cog>
                        </extensions>
                    </trkpt>
                    <trkpt lat="54.38722166666666" lon="10.167206666666667">
                        <ele>0</ele>
                        <time>2022-08-18T02:53:13Z</time>
                                                <extensions>
                            <sog>0.0</sog>
<cog>10.5</cog>
                        </extensions>
                    </trkpt>
                    <trkpt lat="54.38724333333333" lon="10.16717">
                        <ele>0</ele>
                        <time>2022-08-18T02:56:14Z</time>
                                                <extensions>
                            <sog>0.0</sog>
<cog>8.9</cog>
                        </extensions>
                    </trkpt>
                    <trkpt lat="54.38718333333334" lon="10.1671">
                        <ele>0</ele>
                        <time>2022-08-18T02:59:12Z</time>
                                                <extensions>
                            <sog>0.0</sog>
<cog>5.4</cog>
                        </extensions>
                    </trkpt>
                    <trkpt lat="54.387335" lon="10.167278333333334">
                        <ele>0</ele>
                        <time>2022-08-18T03:02:11Z</time>
                                                <extensions>
                            <sog>0.0</sog>
<cog>4.9</cog>
                        </extensions>
                    </trkpt>
                    <trkpt lat="54.387305" lon="10.167235">
                        <ele>0</ele>
                        <time>2022-08-18T03:05:11Z</time>
                                                <extensions>
                            <sog>0.0</sog>
<cog>2.8</cog>
                        </extensions>
                    </trkpt>
                    <trkpt lat="54.38723166666667" lon="10.16719">
                        <ele>0</ele>
                        <time>2022-08-18T03:08:11Z</time>
                                                <extensions>
                            <sog>0.0</sog>
<cog>2.1</cog>
                        </extensions>
                    </trkpt>
                    <trkpt lat="54.38728166666667" lon="10.167203333333333">
                        <ele>0</ele>
                        <time>2022-08-18T03:11:14Z</time>
                                                <extensions>
                            <sog>0.0</sog>
<cog>357.7</cog>
                        </extensions>
                    </trkpt>
                    <trkpt lat="54.38727333333333" lon="10.167245000000001">
                        <ele>0</ele>
                        <time>2022-08-18T03:17:12Z</time>
                                                <extensions>
                            <sog>0.0</sog>
<cog>349.0</cog>
                        </extensions>
                    </trkpt>
                    <trkpt lat="54.38726333333333" lon="10.167198333333333">
                        <ele>0</ele>
                        <time>2022-08-18T03:20:12Z</time>
                                                <extensions>
                            <sog>0.0</sog>
<cog>0.1</cog>
                        </extensions>
                    </trkpt>
                    <trkpt lat="54.3872" lon="10.167226666666666">
                        <ele>0</ele>
                        <time>2022-08-18T03:23:13Z</time>
                                                <extensions>
                            <sog>0.0</sog>
<cog>352.6</cog>
                        </extensions>
                    </trkpt>
                    <trkpt lat="54.38727333333333" lon="10.167290000000001">
                        <ele>0</ele>
                        <time>2022-08-18T03:26:14Z</time>
                                                <extensions>
                            <sog>0.0</sog>
<cog>336.0</cog>
                        </extensions>
                    </trkpt>
                    <trkpt lat="54.38720166666667" lon="10.167191666666668">
                        <ele>0</ele>
                        <time>2022-08-18T03:29:14Z</time>
                                                <extensions>
                            <sog>0.0</sog>
<cog>358.5</cog>
                        </extensions>
                    </trkpt>
                    <trkpt lat="54.387188333333334" lon="10.167200000000001">
                        <ele>0</ele>
                        <time>2022-08-18T03:32:12Z</time>
                                                <extensions>
                            <sog>0.0</sog>
<cog>349.2</cog>
                        </extensions>
                    </trkpt>
                    <trkpt lat="54.38724666666667" lon="10.167233333333334">
                        <ele>0</ele>
                        <time>2022-08-18T03:35:11Z</time>
                                                <extensions>
                            <sog>0.0</sog>
<cog>5.3</cog>
                        </extensions>
                    </trkpt>
                    <trkpt lat="54.38720333333333" lon="10.167215">
                        <ele>0</ele>
                        <time>2022-08-18T03:38:13Z</time>
                                                <extensions>
                            <sog>0.0</sog>
<cog>43.8</cog>
                        </extensions>
                    </trkpt>
                    <trkpt lat="54.38715166666667" lon="10.167108333333335">
                        <ele>0</ele>
                        <time>2022-08-18T03:41:11Z</time>
                                                <extensions>
                            <sog>0.0</sog>
<cog>353.4</cog>
                        </extensions>
                    </trkpt>
                    <trkpt lat="54.38723666666667" lon="10.16724">
                        <ele>0</ele>
                        <time>2022-08-18T03:44:13Z</time>
                                                <extensions>
                            <sog>0.0</sog>
<cog>14.9</cog>
                        </extensions>
                    </trkpt>
                    <trkpt lat="54.38728833333333" lon="10.167253333333333">
                        <ele>0</ele>
                        <time>2022-08-18T03:47:14Z</time>
                                                <extensions>
                            <sog>0.0</sog>
<cog>298.5</cog>
                        </extensions>
                    </trkpt>
                    <trkpt lat="54.38726" lon="10.167191666666668">
                        <ele>0</ele>
                        <time>2022-08-18T03:50:15Z</time>
                                                <extensions>
                            <sog>0.0</sog>
<cog>60.5</cog>
                        </extensions>
                    </trkpt>
                    <trkpt lat="54.38719666666667" lon="10.167266666666666">
                        <ele>0</ele>
                        <time>2022-08-18T03:56:11Z</time>
                                                <extensions>
                            <sog>0.0</sog>
<cog>4.3</cog>
                        </extensions>
                    </trkpt>
                    <trkpt lat="54.38724666666667" lon="10.167308333333333">
                        <ele>0</ele>
                        <time>2022-08-18T03:59:15Z</time>
                                                <extensions>
                            <sog>0.0</sog>
<cog>0.6</cog>
                        </extensions>
                    </trkpt>
                    <trkpt lat="54.38726666666666" lon="10.167328333333334">
                        <ele>0</ele>
                        <time>2022-08-18T04:02:15Z</time>
                                                <extensions>
                            <sog>0.0</sog>
<cog>3.1</cog>
                        </extensions>
                    </trkpt>
                    <trkpt lat="54.38729333333333" lon="10.167263333333333">
                        <ele>0</ele>
                        <time>2022-08-18T04:05:11Z</time>
                                                <extensions>
                            <sog>0.0</sog>
<cog>347.1</cog>
                        </extensions>
                    </trkpt>
                    <trkpt lat="54.387265" lon="10.167186666666668">
                        <ele>0</ele>
                        <time>2022-08-18T04:08:15Z</time>
                                                <extensions>
                            <sog>0.0</sog>
<cog>16.8</cog>
                        </extensions>
                    </trkpt>
                    <trkpt lat="54.387188333333334" lon="10.167201666666667">
                        <ele>0</ele>
                        <time>2022-08-18T04:11:11Z</time>
                                                <extensions>
                            <sog>0.0</sog>
<cog>9.2</cog>
                        </extensions>
                    </trkpt>
                    <trkpt lat="54.387211666666666" lon="10.167253333333333">
                        <ele>0</ele>
                        <time>2022-08-18T04:14:11Z</time>
                                                <extensions>
                            <sog>0.0</sog>
<cog>359.5</cog>
                        </extensions>
                    </trkpt>
                    <trkpt lat="54.38722166666666" lon="10.167351666666667">
                        <ele>0</ele>
                        <time>2022-08-18T04:17:13Z</time>
                                                <extensions>
                            <sog>0.0</sog>
<cog>356.6</cog>
                        </extensions>
                    </trkpt>
                    <trkpt lat="54.387301666666666" lon="10.167463333333334">
                        <ele>0</ele>
                        <time>2022-08-18T04:20:13Z</time>
                                                <extensions>
                            <sog>0.0</sog>
<cog>3.9</cog>
                        </extensions>
                    </trkpt>
                    <trkpt lat="54.387215" lon="10.167263333333333">
                        <ele>0</ele>
                        <time>2022-08-18T04:23:14Z</time>
                                                <extensions>
                            <sog>0.0</sog>
<cog>22.2</cog>
                        </extensions>
                    </trkpt>
                    <trkpt lat="54.387296666666664" lon="10.167261666666667">
                        <ele>0</ele>
                        <time>2022-08-18T04:26:13Z</time>
                                                <extensions>
                            <sog>0.0</sog>
<cog>29.9</cog>
                        </extensions>
                    </trkpt>
                    <trkpt lat="54.387164999999996" lon="10.167273333333332">
                        <ele>0</ele>
                        <time>2022-08-18T04:32:13Z</time>
                                                <extensions>
                            <sog>0.0</sog>
<cog>29.7</cog>
                        </extensions>
                    </trkpt>
                    <trkpt lat="54.38708333333333" lon="10.167221666666668">
                        <ele>0</ele>
                        <time>2022-08-18T04:35:14Z</time>
                                                <extensions>
                            <sog>0.0</sog>
<cog>158.2</cog>
                        </extensions>
                    </trkpt>
                    <trkpt lat="54.38734" lon="10.167396666666667">
                        <ele>0</ele>
                        <time>2022-08-18T04:38:13Z</time>
                                                <extensions>
                            <sog>0.0</sog>
<cog>171.6</cog>
                        </extensions>
                    </trkpt>
                    <trkpt lat="54.387280000000004" lon="10.16724">
                        <ele>0</ele>
                        <time>2022-08-18T04:41:14Z</time>
                                                <extensions>
                            <sog>0.0</sog>
<cog>159.3</cog>
                        </extensions>
                    </trkpt>
                    <trkpt lat="54.387179999999994" lon="10.167268333333334">
                        <ele>0</ele>
                        <time>2022-08-18T04:44:14Z</time>
                                                <extensions>
                            <sog>0.0</sog>
<cog>168.7</cog>
                        </extensions>
                    </trkpt>
                    <trkpt lat="54.38717666666666" lon="10.167278333333334">
                        <ele>0</ele>
                        <time>2022-08-18T04:47:14Z</time>
                                                <extensions>
                            <sog>0.0</sog>
<cog>44.4</cog>
                        </extensions>
                    </trkpt>
                    <trkpt lat="54.387161666666664" lon="10.167255">
                        <ele>0</ele>
                        <time>2022-08-18T04:50:11Z</time>
                                                <extensions>
                            <sog>0.0</sog>
<cog>62.1</cog>
                        </extensions>
                    </trkpt>
                    <trkpt lat="54.38715666666667" lon="10.16724">
                        <ele>0</ele>
                        <time>2022-08-18T04:53:12Z</time>
                                                <extensions>
                            <sog>0.0</sog>
<cog>16.7</cog>
                        </extensions>
                    </trkpt>
                    <trkpt lat="54.387253333333334" lon="10.167246666666667">
                        <ele>0</ele>
                        <time>2022-08-18T04:56:13Z</time>
                                                <extensions>
                            <sog>0.0</sog>
<cog>78.0</cog>
                        </extensions>
                    </trkpt>
                    <trkpt lat="54.38719666666667" lon="10.167361666666666">
                        <ele>0</ele>
                        <time>2022-08-18T04:59:13Z</time>
                                                <extensions>
                            <sog>0.0</sog>
<cog>88.5</cog>
                        </extensions>
                    </trkpt>
                    <trkpt lat="54.38710666666667" lon="10.167191666666668">
                        <ele>0</ele>
                        <time>2022-08-18T05:05:13Z</time>
                                                <extensions>
                            <sog>0.0</sog>
<cog>14.9</cog>
                        </extensions>
                    </trkpt>
                    <trkpt lat="54.38736666666667" lon="10.167243333333333">
                        <ele>0</ele>
                        <time>2022-08-18T05:08:11Z</time>
                                                <extensions>
                            <sog>0.0</sog>
<cog>341.4</cog>
                        </extensions>
                    </trkpt>
                    <trkpt lat="54.38726166666667" lon="10.167121666666667">
                        <ele>0</ele>
                        <time>2022-08-18T05:11:11Z</time>
                                                <extensions>
                            <sog>0.0</sog>
<cog>347.7</cog>
                        </extensions>
                    </trkpt>
                    <trkpt lat="54.387275" lon="10.167245000000001">
                        <ele>0</ele>
                        <time>2022-08-18T05:14:14Z</time>
                                                <extensions>
                            <sog>0.0</sog>
<cog>345.8</cog>
                        </extensions>
                    </trkpt>
                    <trkpt lat="54.38731833333333" lon="10.167176666666668">
                        <ele>0</ele>
                        <time>2022-08-18T05:17:13Z</time>
                                                <extensions>
                            <sog>0.0</sog>
<cog>338.8</cog>
                        </extensions>
                    </trkpt>
                    <trkpt lat="54.387188333333334" lon="10.167328333333334">
                        <ele>0</ele>
                        <time>2022-08-18T05:20:11Z</time>
                                                <extensions>
                            <sog>0.1</sog>
<cog>342.5</cog>
                        </extensions>
                    </trkpt>
                    <trkpt lat="54.38726166666667" lon="10.167174999999999">
                        <ele>0</ele>
                        <time>2022-08-18T05:26:11Z</time>
                                                <extensions>
                            <sog>0.0</sog>
<cog>325.8</cog>
                        </extensions>
                    </trkpt>
                    <trkpt lat="54.387245" lon="10.167208333333333">
                        <ele>0</ele>
                        <time>2022-08-18T05:29:14Z</time>
                                                <extensions>
                            <sog>0.0</sog>
<cog>327.4</cog>
                        </extensions>
                    </trkpt>
                    <trkpt lat="54.387116666666664" lon="10.167145">
                        <ele>0</ele>
                        <time>2022-08-18T05:32:15Z</time>
                                                <extensions>
                            <sog>0.0</sog>
<cog>323.6</cog>
                        </extensions>
                    </trkpt>
                    <trkpt lat="54.38730666666667" lon="10.167228333333332">
                        <ele>0</ele>
                        <time>2022-08-18T05:35:15Z</time>
                                                <extensions>
                            <sog>0.0</sog>
<cog>13.4</cog>
                        </extensions>
                    </trkpt>
                    <trkpt lat="54.387224999999994" lon="10.167286666666666">
                        <ele>0</ele>
                        <time>2022-08-18T05:38:14Z</time>
                                                <extensions>
                            <sog>0.0</sog>
<cog>18.5</cog>
                        </extensions>
                    </trkpt>
                    <trkpt lat="54.387209999999996" lon="10.16721">
                        <ele>0</ele>
                        <time>2022-08-18T05:41:13Z</time>
                                                <extensions>
                            <sog>0.0</sog>
<cog>353.8</cog>
                        </extensions>
                    </trkpt>
                    <trkpt lat="54.387211666666666" lon="10.167268333333334">
                        <ele>0</ele>
                        <time>2022-08-18T05:44:11Z</time>
                                                <extensions>
                            <sog>0.0</sog>
<cog>355.1</cog>
                        </extensions>
                    </trkpt>
                    <trkpt lat="54.38724" lon="10.167366666666668">
                        <ele>0</ele>
                        <time>2022-08-18T05:50:15Z</time>
                                                <extensions>
                            <sog>0.0</sog>
<cog>359.5</cog>
                        </extensions>
                    </trkpt>
                    <trkpt lat="54.387245" lon="10.167301666666667">
                        <ele>0</ele>
                        <time>2022-08-18T05:53:12Z</time>
                                                <extensions>
                            <sog>0.0</sog>
<cog>352.2</cog>
                        </extensions>
                    </trkpt>
                    <trkpt lat="54.38722666666667" lon="10.167153333333333">
                        <ele>0</ele>
                        <time>2022-08-18T05:56:14Z</time>
                                                <extensions>
                            <sog>0.0</sog>
<cog>349.8</cog>
                        </extensions>
                    </trkpt>
                    <trkpt lat="54.38722" lon="10.167301666666667">
                        <ele>0</ele>
                        <time>2022-08-18T05:59:13Z</time>
                                                <extensions>
                            <sog>0.0</sog>
<cog>341.8</cog>
                        </extensions>
                    </trkpt>
                    <trkpt lat="54.387211666666666" lon="10.167173333333333">
                        <ele>0</ele>
                        <time>2022-08-18T06:02:12Z</time>
                                                <extensions>
                            <sog>0.0</sog>
<cog>334.9</cog>
                        </extensions>
                    </trkpt>
                    <trkpt lat="54.38728666666667" lon="10.167353333333333">
                        <ele>0</ele>
                        <time>2022-08-18T06:05:14Z</time>
                                                <extensions>
                            <sog>0.0</sog>
<cog>327.9</cog>
                        </extensions>
                    </trkpt>
                    <trkpt lat="54.38726333333333" lon="10.167345000000001">
                        <ele>0</ele>
                        <time>2022-08-18T06:08:14Z</time>
                                                <extensions>
                            <sog>0.0</sog>
<cog>355.9</cog>
                        </extensions>
                    </trkpt>
                    <trkpt lat="54.38718166666667" lon="10.167200000000001">
                        <ele>0</ele>
                        <time>2022-08-18T06:11:12Z</time>
                                                <extensions>
                            <sog>0.0</sog>
<cog>345.1</cog>
                        </extensions>
                    </trkpt>
                    <trkpt lat="54.38720166666667" lon="10.167178333333334">
                        <ele>0</ele>
                        <time>2022-08-18T06:14:15Z</time>
                                                <extensions>
                            <sog>0.0</sog>
<cog>1.7</cog>
                        </extensions>
                    </trkpt>
                    <trkpt lat="54.38722833333334" lon="10.167219999999999">
                        <ele>0</ele>
                        <time>2022-08-18T06:17:13Z</time>
                                                <extensions>
                            <sog>0.0</sog>
<cog>337.9</cog>
                        </extensions>
                    </trkpt>
                    <trkpt lat="54.387305" lon="10.167266666666666">
                        <ele>0</ele>
                        <time>2022-08-18T06:20:12Z</time>
                                                <extensions>
                            <sog>0.0</sog>
<cog>353.6</cog>
                        </extensions>
                    </trkpt>
                    <trkpt lat="54.387205" lon="10.16717">
                        <ele>0</ele>
                        <time>2022-08-18T06:23:12Z</time>
                                                <extensions>
                            <sog>0.0</sog>
<cog>33.2</cog>
                        </extensions>
                    </trkpt>
                    <trkpt lat="54.387295" lon="10.167191666666668">
                        <ele>0</ele>
                        <time>2022-08-18T06:26:14Z</time>
                                                <extensions>
                            <sog>0.0</sog>
<cog>349.0</cog>
                        </extensions>
                    </trkpt>
                    <trkpt lat="54.38727166666667" lon="10.167216666666667">
                        <ele>0</ele>
                        <time>2022-08-18T06:29:13Z</time>
                                                <extensions>
                            <sog>0.0</sog>
<cog>349.9</cog>
                        </extensions>
                    </trkpt>
                    <trkpt lat="54.387211666666666" lon="10.167225">
                        <ele>0</ele>
                        <time>2022-08-18T06:32:13Z</time>
                                                <extensions>
                            <sog>0.0</sog>
<cog>6.6</cog>
                        </extensions>
                    </trkpt>
                    <trkpt lat="54.38723" lon="10.167268333333334">
                        <ele>0</ele>
                        <time>2022-08-18T06:35:13Z</time>
                                                <extensions>
                            <sog>0.0</sog>
<cog>0.0</cog>
                        </extensions>
                    </trkpt>
                    <trkpt lat="54.38724166666667" lon="10.167253333333333">
                        <ele>0</ele>
                        <time>2022-08-18T06:38:12Z</time>
                                                <extensions>
                            <sog>0.0</sog>
<cog>353.2</cog>
                        </extensions>
                    </trkpt>
                    <trkpt lat="54.38724333333333" lon="10.167286666666666">
                        <ele>0</ele>
                        <time>2022-08-18T06:41:11Z</time>
                                                <extensions>
                            <sog>0.0</sog>
<cog>349.1</cog>
                        </extensions>
                    </trkpt>
                    <trkpt lat="54.38724166666667" lon="10.167283333333334">
                        <ele>0</ele>
                        <time>2022-08-18T06:44:11Z</time>
                                                <extensions>
                            <sog>0.0</sog>
<cog>352.9</cog>
                        </extensions>
                    </trkpt>
                    <trkpt lat="54.38725833333333" lon="10.167236666666668">
                        <ele>0</ele>
                        <time>2022-08-18T06:47:13Z</time>
                                                <extensions>
                            <sog>0.0</sog>
<cog>47.1</cog>
                        </extensions>
                    </trkpt>
                    <trkpt lat="54.387233333333334" lon="10.167341666666665">
                        <ele>0</ele>
                        <time>2022-08-18T06:50:14Z</time>
                                                <extensions>
                            <sog>0.0</sog>
<cog>45.5</cog>
                        </extensions>
                    </trkpt>
                    <trkpt lat="54.38723166666667" lon="10.16728">
                        <ele>0</ele>
                        <time>2022-08-18T06:56:12Z</time>
                                                <extensions>
                            <sog>0.0</sog>
<cog>47.2</cog>
                        </extensions>
                    </trkpt>
                    <trkpt lat="54.38717166666667" lon="10.167106666666665">
                        <ele>0</ele>
                        <time>2022-08-18T06:59:12Z</time>
                                                <extensions>
                            <sog>0.0</sog>
<cog>37.1</cog>
                        </extensions>
                    </trkpt>
                    <trkpt lat="54.387208333333334" lon="10.167316666666666">
                        <ele>0</ele>
                        <time>2022-08-18T07:02:13Z</time>
                                                <extensions>
                            <sog>0.0</sog>
<cog>36.1</cog>
                        </extensions>
                    </trkpt>
                    <trkpt lat="54.38723" lon="10.167296666666665">
                        <ele>0</ele>
                        <time>2022-08-18T07:11:11Z</time>
                                                <extensions>
                            <sog>0.0</sog>
<cog>14.3</cog>
                        </extensions>
                    </trkpt>
                    <trkpt lat="54.38723" lon="10.167300000000001">
                        <ele>0</ele>
                        <time>2022-08-18T07:14:14Z</time>
                                                <extensions>
                            <sog>0.0</sog>
<cog>13.9</cog>
                        </extensions>
                    </trkpt>
                    <trkpt lat="54.38724" lon="10.167300000000001">
                        <ele>0</ele>
                        <time>2022-08-18T07:17:13Z</time>
                                                <extensions>
                            <sog>0.0</sog>
<cog>16.5</cog>
                        </extensions>
                    </trkpt>
                    </trkseg>
                </trk>
</gpx>