<?xml version="1.0" encoding="UTF-8"?>
<gpx version="1.1" creator="AIS-to-GPX Converter" xmlns="http://www.topografix.com/GPX/1/1">
                <trk>
                    <name>anon0293</name>
                    <trkseg>
                                            <trkpt lat="54.67314833333333" lon="10.061116666666667">
                        <ele>0</ele>
                        <time>2022-08-18T16:46:39Z</time>
                                                <extensions>
                            <sog>6.1</sog>
<cog>206.5</cog>
                        </extensions>
                    </trkpt>
                    <trkpt lat="54.66875" lon="10.057198333333334">
                        <ele>0</ele>
                        <time>2022-08-18T16:49:39Z</time>
                                                <extensions>
                            <sog>6.0</sog>
<cog>205.5</cog>
                        </extensions>
                    </trkpt>
                    <trkpt lat="54.663156666666666" lon="10.053721666666666">
                        <ele>0</ele>
                        <time>2022-08-18T16:53:07Z</time>
                                                <extensions>
                            <sog>6.5</sog>
<cog>197.7</cog>
                        </extensions>
                    </trkpt>
                    <trkpt lat="54.66007166666667" lon="10.047564999999999">
                        <ele>0</ele>
                        <time>2022-08-18T16:56:07Z</time>
                                                <extensions>
                            <sog>6.2</sog>
<cog>250.6</cog>
                        </extensions>
                    </trkpt>
                    <trkpt lat="54.66014666666667" lon="10.037678333333334">
                        <ele>0</ele>
                        <time>2022-08-18T16:59:38Z</time>
                                                <extensions>
                            <sog>6.2</sog>
<cog>311.0</cog>
                        </extensions>
                    </trkpt>
                    <trkpt lat="54.66107" lon="10.03522">
                        <ele>0</ele>
                        <time>2022-08-18T17:00:37Z</time>
                                                <extensions>
                            <sog>6.2</sog>
<cog>284.7</cog>
                        </extensions>
                    </trkpt>
                    <trkpt lat="54.66107" lon="10.03522">
                        <ele>0</ele>
                        <time>2022-08-18T17:00:37Z</time>
                                                <extensions>
                            <sog>6.2</sog>
<cog>284.7</cog>
                        </extensions>
                    </trkpt>
                    </trkseg>
                </trk>
</gpx>