<?xml version="1.0" encoding="UTF-8"?>
<gpx version="1.1" creator="AIS-to-GPX Converter" xmlns="http://www.topografix.com/GPX/1/1">
                <trk>
                    <name>anon0134</name>
                    <trkseg>
                                            <trkpt lat="54.65909666666666" lon="10.247711666666667">
                        <ele>0</ele>
                        <time>2022-08-18T01:00:58Z</time>
                                                <extensions>
                            <sog>1.2</sog>
<cog>281.4</cog>
                        </extensions>
                    </trkpt>
                    <trkpt lat="54.65909666666666" lon="10.247711666666667">
                        <ele>0</ele>
                        <time>2022-08-18T01:00:58Z</time>
                                                <extensions>
                            <sog>1.2</sog>
<cog>281.4</cog>
                        </extensions>
                    </trkpt>
                    <trkpt lat="54.658496666666665" lon="10.244585">
                        <ele>0</ele>
                        <time>2022-08-18T01:03:58Z</time>
                                                <extensions>
                            <sog>3.9</sog>
<cog>289.2</cog>
                        </extensions>
                    </trkpt>
                    <trkpt lat="54.65915666666667" lon="10.24221">
                        <ele>0</ele>
                        <time>2022-08-18T01:05:17Z</time>
                                                <extensions>
                            <sog>4.3</sog>
<cog>267.5</cog>
                        </extensions>
                    </trkpt>
                    <trkpt lat="54.65923" lon="10.240833333333335">
                        <ele>0</ele>
                        <time>2022-08-18T01:06:03Z</time>
                                                <extensions>
                            <sog>4.3</sog>
<cog>292.6</cog>
                        </extensions>
                    </trkpt>
                    <trkpt lat="54.65948" lon="10.24031">
                        <ele>0</ele>
                        <time>2022-08-18T01:06:16Z</time>
                                                <extensions>
                            <sog>4.4</sog>
<cog>309.6</cog>
                        </extensions>
                    </trkpt>
                    <trkpt lat="54.66055666666667" lon="10.235673333333333">
                        <ele>0</ele>
                        <time>2022-08-18T01:08:37Z</time>
                                                <extensions>
                            <sog>4.2</sog>
<cog>273.1</cog>
                        </extensions>
                    </trkpt>
                    </trkseg>
                </trk>
</gpx>