<?xml version="1.0" encoding="UTF-8"?>
<gpx version="1.1" creator="AIS-to-GPX Converter" xmlns="http://www.topografix.com/GPX/1/1">
                <trk>
                    <name>anon0128</name>
                    <trkseg>
                                            <trkpt lat="53.86075833333334" lon="9.041085">
                        <ele>0</ele>
                        <time>2022-08-18T02:05:05Z</time>
                                                <extensions>
                            <sog>10.3</sog>
<cog>67.8</cog>
                        </extensions>
                    </trkpt>
                    <trkpt lat="53.86393833333333" lon="9.05381">
                        <ele>0</ele>
                        <time>2022-08-18T02:07:56Z</time>
                                                <extensions>
                            <sog>10.3</sog>
<cog>67.1</cog>
                        </extensions>
                    </trkpt>
                    <trkpt lat="53.86431" lon="9.055303333333335">
                        <ele>0</ele>
                        <time>2022-08-18T02:08:16Z</time>
                                                <extensions>
                            <sog>10.3</sog>
<cog>67.1</cog>
                        </extensions>
                    </trkpt>
                    <trkpt lat="53.865046666666665" lon="9.058298333333333">
                        <ele>0</ele>
                        <time>2022-08-18T02:08:56Z</time>
                                                <extensions>
                            <sog>10.4</sog>
<cog>67.1</cog>
                        </extensions>
                    </trkpt>
                    <trkpt lat="53.870223333333335" lon="9.079428333333334">
                        <ele>0</ele>
                        <time>2022-08-18T02:13:35Z</time>
                                                <extensions>
                            <sog>10.5</sog>
<cog>68.4</cog>
                        </extensions>
                    </trkpt>
                    <trkpt lat="53.873045000000005" lon="9.091831666666668">
                        <ele>0</ele>
                        <time>2022-08-18T02:16:15Z</time>
                                                <extensions>
                            <sog>10.6</sog>
<cog>69.0</cog>
                        </extensions>
                    </trkpt>
                    </trkseg>
                </trk>
</gpx>