<?xml version="1.0" encoding="UTF-8"?>
<gpx version="1.1" creator="AIS-to-GPX Converter" xmlns="http://www.topografix.com/GPX/1/1">
                <trk>
                    <name>anon0404</name>
                    <trkseg>
                                            <trkpt lat="54.39973333333333" lon="10.212359999999999">
                        <ele>0</ele>
                        <time>2022-08-18T00:02:09Z</time>
                        <extensions>
    <sog>0.1</sog>
</extensions>
                    </trkpt>
                    <trkpt lat="54.39971333333334" lon="10.212358333333333">
                        <ele>0</ele>
                        <time>2022-08-18T00:08:10Z</time>
                        <extensions>
    <sog>0.0</sog>
</extensions>
                    </trkpt>
                    <trkpt lat="54.39969833333334" lon="10.212361666666668">
                        <ele>0</ele>
                        <time>2022-08-18T00:11:11Z</time>
                        <extensions>
    <sog>0.1</sog>
</extensions>
                    </trkpt>
                    <trkpt lat="54.399708333333336" lon="10.212346666666667">
                        <ele>0</ele>
                        <time>2022-08-18T00:14:12Z</time>
                        <extensions>
    <sog>0.0</sog>
</extensions>
                    </trkpt>
                    <trkpt lat="54.399715" lon="10.212338333333333">
                        <ele>0</ele>
                        <time>2022-08-18T00:17:10Z</time>
                        <extensions>
    <sog>0.0</sog>
</extensions>
                    </trkpt>
                    <trkpt lat="54.399705000000004" lon="10.212355">
                        <ele>0</ele>
                        <time>2022-08-18T00:20:12Z</time>
                        <extensions>
    <sog>0.1</sog>
</extensions>
                    </trkpt>
                    <trkpt lat="54.399715" lon="10.212349999999999">
                        <ele>0</ele>
                        <time>2022-08-18T00:23:12Z</time>
                        <extensions>
    <sog>0.0</sog>
</extensions>
                    </trkpt>
                    <trkpt lat="54.39971" lon="10.212363333333334">
                        <ele>0</ele>
                        <time>2022-08-18T00:29:09Z</time>
                        <extensions>
    <sog>0.0</sog>
</extensions>
                    </trkpt>
                    <trkpt lat="54.39970666666667" lon="10.212356666666667">
                        <ele>0</ele>
                        <time>2022-08-18T00:38:11Z</time>
                        <extensions>
    <sog>0.0</sog>
</extensions>
                    </trkpt>
                    <trkpt lat="54.39969166666666" lon="10.212338333333333">
                        <ele>0</ele>
                        <time>2022-08-18T00:41:12Z</time>
                        <extensions>
    <sog>0.0</sog>
</extensions>
                    </trkpt>
                    <trkpt lat="54.39969" lon="10.212348333333333">
                        <ele>0</ele>
                        <time>2022-08-18T00:44:13Z</time>
                        <extensions>
    <sog>0.0</sog>
</extensions>
                    </trkpt>
                    <trkpt lat="54.39972" lon="10.212371666666666">
                        <ele>0</ele>
                        <time>2022-08-18T00:50:13Z</time>
                        <extensions>
    <sog>0.0</sog>
</extensions>
                    </trkpt>
                    <trkpt lat="54.399708333333336" lon="10.212349999999999">
                        <ele>0</ele>
                        <time>2022-08-18T00:56:12Z</time>
                        <extensions>
    <sog>0.0</sog>
</extensions>
                    </trkpt>
                    <trkpt lat="54.39968833333333" lon="10.212385000000001">
                        <ele>0</ele>
                        <time>2022-08-18T01:02:12Z</time>
                        <extensions>
    <sog>0.0</sog>
</extensions>
                    </trkpt>
                    <trkpt lat="54.39969166666666" lon="10.212359999999999">
                        <ele>0</ele>
                        <time>2022-08-18T01:08:11Z</time>
                        <extensions>
    <sog>0.0</sog>
</extensions>
                    </trkpt>
                    <trkpt lat="54.39968666666667" lon="10.212341666666667">
                        <ele>0</ele>
                        <time>2022-08-18T01:14:10Z</time>
                        <extensions>
    <sog>0.0</sog>
</extensions>
                    </trkpt>
                    <trkpt lat="54.399705000000004" lon="10.212336666666666">
                        <ele>0</ele>
                        <time>2022-08-18T01:17:12Z</time>
                        <extensions>
    <sog>0.0</sog>
</extensions>
                    </trkpt>
                    <trkpt lat="54.399696666666664" lon="10.212365">
                        <ele>0</ele>
                        <time>2022-08-18T01:20:11Z</time>
                        <extensions>
    <sog>0.0</sog>
</extensions>
                    </trkpt>
                    <trkpt lat="54.39970666666667" lon="10.212359999999999">
                        <ele>0</ele>
                        <time>2022-08-18T01:29:12Z</time>
                        <extensions>
    <sog>0.0</sog>
</extensions>
                    </trkpt>
                    <trkpt lat="54.39973" lon="10.212359999999999">
                        <ele>0</ele>
                        <time>2022-08-18T01:32:10Z</time>
                        <extensions>
    <sog>0.0</sog>
</extensions>
                    </trkpt>
                    <trkpt lat="54.39973" lon="10.212363333333334">
                        <ele>0</ele>
                        <time>2022-08-18T01:38:10Z</time>
                        <extensions>
    <sog>0.0</sog>
</extensions>
                    </trkpt>
                    <trkpt lat="54.39973666666666" lon="10.212371666666666">
                        <ele>0</ele>
                        <time>2022-08-18T01:44:12Z</time>
                        <extensions>
    <sog>0.0</sog>
</extensions>
                    </trkpt>
                    <trkpt lat="54.39971333333334" lon="10.21239">
                        <ele>0</ele>
                        <time>2022-08-18T01:50:13Z</time>
                        <extensions>
    <sog>0.0</sog>
</extensions>
                    </trkpt>
                    <trkpt lat="54.399728333333336" lon="10.212388333333333">
                        <ele>0</ele>
                        <time>2022-08-18T01:56:12Z</time>
                        <extensions>
    <sog>0.0</sog>
</extensions>
                    </trkpt>
                    <trkpt lat="54.399723333333334" lon="10.21237">
                        <ele>0</ele>
                        <time>2022-08-18T01:59:09Z</time>
                        <extensions>
    <sog>0.0</sog>
</extensions>
                    </trkpt>
                    <trkpt lat="54.399715" lon="10.212359999999999">
                        <ele>0</ele>
                        <time>2022-08-18T02:02:09Z</time>
                        <extensions>
    <sog>0.0</sog>
</extensions>
                    </trkpt>
                    <trkpt lat="54.399748333333335" lon="10.21237">
                        <ele>0</ele>
                        <time>2022-08-18T02:05:09Z</time>
                        <extensions>
    <sog>0.0</sog>
</extensions>
                    </trkpt>
                    <trkpt lat="54.39975333333334" lon="10.21237">
                        <ele>0</ele>
                        <time>2022-08-18T02:08:12Z</time>
                        <extensions>
    <sog>0.0</sog>
</extensions>
                    </trkpt>
                    <trkpt lat="54.399726666666666" lon="10.212371666666666">
                        <ele>0</ele>
                        <time>2022-08-18T02:17:11Z</time>
                        <extensions>
    <sog>0.0</sog>
</extensions>
                    </trkpt>
                    <trkpt lat="54.39972" lon="10.212415">
                        <ele>0</ele>
                        <time>2022-08-18T02:23:12Z</time>
                        <extensions>
    <sog>0.1</sog>
</extensions>
                    </trkpt>
                    <trkpt lat="54.39973333333333" lon="10.212381666666666">
                        <ele>0</ele>
                        <time>2022-08-18T02:29:11Z</time>
                        <extensions>
    <sog>0.0</sog>
</extensions>
                    </trkpt>
                    <trkpt lat="54.39971166666667" lon="10.212376666666668">
                        <ele>0</ele>
                        <time>2022-08-18T02:32:12Z</time>
                        <extensions>
    <sog>0.0</sog>
</extensions>
                    </trkpt>
                    <trkpt lat="54.39970166666667" lon="10.212378333333334">
                        <ele>0</ele>
                        <time>2022-08-18T02:35:10Z</time>
                        <extensions>
    <sog>0.0</sog>
</extensions>
                    </trkpt>
                    <trkpt lat="54.39971166666667" lon="10.212381666666666">
                        <ele>0</ele>
                        <time>2022-08-18T02:38:11Z</time>
                        <extensions>
    <sog>0.0</sog>
</extensions>
                    </trkpt>
                    <trkpt lat="54.39971333333334" lon="10.21237">
                        <ele>0</ele>
                        <time>2022-08-18T02:41:09Z</time>
                        <extensions>
    <sog>0.0</sog>
</extensions>
                    </trkpt>
                    <trkpt lat="54.39971666666667" lon="10.21238">
                        <ele>0</ele>
                        <time>2022-08-18T02:44:11Z</time>
                        <extensions>
    <sog>0.0</sog>
</extensions>
                    </trkpt>
                    <trkpt lat="54.399726666666666" lon="10.212359999999999">
                        <ele>0</ele>
                        <time>2022-08-18T02:47:10Z</time>
                        <extensions>
    <sog>0.0</sog>
</extensions>
                    </trkpt>
                    <trkpt lat="54.399721666666665" lon="10.212375">
                        <ele>0</ele>
                        <time>2022-08-18T02:50:11Z</time>
                        <extensions>
    <sog>0.0</sog>
</extensions>
                    </trkpt>
                    <trkpt lat="54.39971833333333" lon="10.212346666666667">
                        <ele>0</ele>
                        <time>2022-08-18T02:53:10Z</time>
                        <extensions>
    <sog>0.0</sog>
</extensions>
                    </trkpt>
                    <trkpt lat="54.399745" lon="10.212368333333334">
                        <ele>0</ele>
                        <time>2022-08-18T02:59:09Z</time>
                        <extensions>
    <sog>0.0</sog>
</extensions>
                    </trkpt>
                    <trkpt lat="54.39971666666667" lon="10.212325">
                        <ele>0</ele>
                        <time>2022-08-18T03:02:12Z</time>
                        <extensions>
    <sog>0.0</sog>
</extensions>
                    </trkpt>
                    <trkpt lat="54.39975166666667" lon="10.212353333333335">
                        <ele>0</ele>
                        <time>2022-08-18T03:05:09Z</time>
                        <extensions>
    <sog>0.0</sog>
</extensions>
                    </trkpt>
                    <trkpt lat="54.399725" lon="10.212346666666667">
                        <ele>0</ele>
                        <time>2022-08-18T03:11:12Z</time>
                        <extensions>
    <sog>0.0</sog>
</extensions>
                    </trkpt>
                    <trkpt lat="54.39970166666667" lon="10.212351666666667">
                        <ele>0</ele>
                        <time>2022-08-18T03:17:11Z</time>
                        <extensions>
    <sog>0.0</sog>
</extensions>
                    </trkpt>
                    <trkpt lat="54.39973666666666" lon="10.212345">
                        <ele>0</ele>
                        <time>2022-08-18T03:20:11Z</time>
                        <extensions>
    <sog>0.0</sog>
</extensions>
                    </trkpt>
                    <trkpt lat="54.39973833333333" lon="10.212325">
                        <ele>0</ele>
                        <time>2022-08-18T03:26:10Z</time>
                        <extensions>
    <sog>0.0</sog>
</extensions>
                    </trkpt>
                    <trkpt lat="54.39977666666667" lon="10.212306666666667">
                        <ele>0</ele>
                        <time>2022-08-18T03:29:11Z</time>
                        <extensions>
    <sog>0.0</sog>
</extensions>
                    </trkpt>
                    <trkpt lat="54.39974666666667" lon="10.2123">
                        <ele>0</ele>
                        <time>2022-08-18T03:32:11Z</time>
                        <extensions>
    <sog>0.0</sog>
</extensions>
                    </trkpt>
                    <trkpt lat="54.39976" lon="10.212295000000001">
                        <ele>0</ele>
                        <time>2022-08-18T03:38:09Z</time>
                        <extensions>
    <sog>0.0</sog>
</extensions>
                    </trkpt>
                    <trkpt lat="54.39973833333333" lon="10.212335">
                        <ele>0</ele>
                        <time>2022-08-18T03:41:11Z</time>
                        <extensions>
    <sog>0.0</sog>
</extensions>
                    </trkpt>
                    <trkpt lat="54.39973666666666" lon="10.212326666666666">
                        <ele>0</ele>
                        <time>2022-08-18T03:44:11Z</time>
                        <extensions>
    <sog>0.0</sog>
</extensions>
                    </trkpt>
                    <trkpt lat="54.399735" lon="10.212351666666667">
                        <ele>0</ele>
                        <time>2022-08-18T03:50:12Z</time>
                        <extensions>
    <sog>0.0</sog>
</extensions>
                    </trkpt>
                    <trkpt lat="54.399735" lon="10.212318333333334">
                        <ele>0</ele>
                        <time>2022-08-18T03:53:10Z</time>
                        <extensions>
    <sog>0.0</sog>
</extensions>
                    </trkpt>
                    <trkpt lat="54.39971666666667" lon="10.212353333333335">
                        <ele>0</ele>
                        <time>2022-08-18T03:56:10Z</time>
                        <extensions>
    <sog>0.0</sog>
</extensions>
                    </trkpt>
                    <trkpt lat="54.399739999999994" lon="10.212359999999999">
                        <ele>0</ele>
                        <time>2022-08-18T04:05:12Z</time>
                        <extensions>
    <sog>0.0</sog>
</extensions>
                    </trkpt>
                    <trkpt lat="54.399728333333336" lon="10.212383333333333">
                        <ele>0</ele>
                        <time>2022-08-18T04:08:10Z</time>
                        <extensions>
    <sog>0.0</sog>
</extensions>
                    </trkpt>
                    <trkpt lat="54.399725" lon="10.212338333333333">
                        <ele>0</ele>
                        <time>2022-08-18T04:14:11Z</time>
                        <extensions>
    <sog>0.0</sog>
</extensions>
                    </trkpt>
                    <trkpt lat="54.399723333333334" lon="10.212356666666667">
                        <ele>0</ele>
                        <time>2022-08-18T04:17:13Z</time>
                        <extensions>
    <sog>0.0</sog>
</extensions>
                    </trkpt>
                    <trkpt lat="54.39971833333333" lon="10.212345">
                        <ele>0</ele>
                        <time>2022-08-18T04:23:11Z</time>
                        <extensions>
    <sog>0.0</sog>
</extensions>
                    </trkpt>
                    <trkpt lat="54.399735" lon="10.212345">
                        <ele>0</ele>
                        <time>2022-08-18T04:26:10Z</time>
                        <extensions>
    <sog>0.0</sog>
</extensions>
                    </trkpt>
                    <trkpt lat="54.399703333333335" lon="10.212325">
                        <ele>0</ele>
                        <time>2022-08-18T04:32:10Z</time>
                        <extensions>
    <sog>0.0</sog>
</extensions>
                    </trkpt>
                    <trkpt lat="54.39972" lon="10.212336666666666">
                        <ele>0</ele>
                        <time>2022-08-18T04:41:11Z</time>
                        <extensions>
    <sog>0.0</sog>
</extensions>
                    </trkpt>
                    <trkpt lat="54.399728333333336" lon="10.212348333333333">
                        <ele>0</ele>
                        <time>2022-08-18T04:44:12Z</time>
                        <extensions>
    <sog>0.0</sog>
</extensions>
                    </trkpt>
                    <trkpt lat="54.39977" lon="10.2124">
                        <ele>0</ele>
                        <time>2022-08-18T04:47:10Z</time>
                        <extensions>
    <sog>0.0</sog>
</extensions>
                    </trkpt>
                    <trkpt lat="54.39971666666667" lon="10.212359999999999">
                        <ele>0</ele>
                        <time>2022-08-18T04:50:12Z</time>
                        <extensions>
    <sog>0.0</sog>
</extensions>
                    </trkpt>
                    <trkpt lat="54.39972" lon="10.212353333333335">
                        <ele>0</ele>
                        <time>2022-08-18T04:53:10Z</time>
                        <extensions>
    <sog>0.0</sog>
</extensions>
                    </trkpt>
                    <trkpt lat="54.399728333333336" lon="10.212349999999999">
                        <ele>0</ele>
                        <time>2022-08-18T04:56:09Z</time>
                        <extensions>
    <sog>0.0</sog>
</extensions>
                    </trkpt>
                    <trkpt lat="54.399739999999994" lon="10.212355">
                        <ele>0</ele>
                        <time>2022-08-18T05:02:10Z</time>
                        <extensions>
    <sog>0.0</sog>
</extensions>
                    </trkpt>
                    <trkpt lat="54.39973833333333" lon="10.212335">
                        <ele>0</ele>
                        <time>2022-08-18T05:08:09Z</time>
                        <extensions>
    <sog>0.0</sog>
</extensions>
                    </trkpt>
                    <trkpt lat="54.39975166666667" lon="10.212331666666667">
                        <ele>0</ele>
                        <time>2022-08-18T05:11:12Z</time>
                        <extensions>
    <sog>0.0</sog>
</extensions>
                    </trkpt>
                    <trkpt lat="54.399721666666665" lon="10.212358333333333">
                        <ele>0</ele>
                        <time>2022-08-18T05:14:12Z</time>
                        <extensions>
    <sog>0.0</sog>
</extensions>
                    </trkpt>
                    <trkpt lat="54.399726666666666" lon="10.212356666666667">
                        <ele>0</ele>
                        <time>2022-08-18T05:17:11Z</time>
                        <extensions>
    <sog>0.0</sog>
</extensions>
                    </trkpt>
                    <trkpt lat="54.399726666666666" lon="10.212381666666666">
                        <ele>0</ele>
                        <time>2022-08-18T05:20:12Z</time>
                        <extensions>
    <sog>0.0</sog>
</extensions>
                    </trkpt>
                    <trkpt lat="54.39971" lon="10.212363333333334">
                        <ele>0</ele>
                        <time>2022-08-18T05:26:10Z</time>
                        <extensions>
    <sog>0.0</sog>
</extensions>
                    </trkpt>
                    <trkpt lat="54.39973666666666" lon="10.212326666666666">
                        <ele>0</ele>
                        <time>2022-08-18T05:29:10Z</time>
                        <extensions>
    <sog>0.0</sog>
</extensions>
                    </trkpt>
                    <trkpt lat="54.39971" lon="10.212345">
                        <ele>0</ele>
                        <time>2022-08-18T05:32:11Z</time>
                        <extensions>
    <sog>0.0</sog>
</extensions>
                    </trkpt>
                    <trkpt lat="54.39973833333333" lon="10.212359999999999">
                        <ele>0</ele>
                        <time>2022-08-18T05:38:12Z</time>
                        <extensions>
    <sog>0.0</sog>
</extensions>
                    </trkpt>
                    <trkpt lat="54.399705000000004" lon="10.212356666666667">
                        <ele>0</ele>
                        <time>2022-08-18T05:41:12Z</time>
                        <extensions>
    <sog>0.0</sog>
</extensions>
                    </trkpt>
                    <trkpt lat="54.399725" lon="10.212348333333333">
                        <ele>0</ele>
                        <time>2022-08-18T05:44:10Z</time>
                        <extensions>
    <sog>0.0</sog>
</extensions>
                    </trkpt>
                    <trkpt lat="54.39971833333333" lon="10.212343333333333">
                        <ele>0</ele>
                        <time>2022-08-18T05:47:13Z</time>
                        <extensions>
    <sog>0.0</sog>
</extensions>
                    </trkpt>
                    <trkpt lat="54.399725" lon="10.212366666666666">
                        <ele>0</ele>
                        <time>2022-08-18T05:50:10Z</time>
                        <extensions>
    <sog>0.0</sog>
</extensions>
                    </trkpt>
                    <trkpt lat="54.399741666666664" lon="10.212375">
                        <ele>0</ele>
                        <time>2022-08-18T05:53:11Z</time>
                        <extensions>
    <sog>0.1</sog>
</extensions>
                    </trkpt>
                    <trkpt lat="54.399708333333336" lon="10.212368333333334">
                        <ele>0</ele>
                        <time>2022-08-18T05:59:10Z</time>
                        <extensions>
    <sog>0.0</sog>
</extensions>
                    </trkpt>
                    <trkpt lat="54.39969" lon="10.212355">
                        <ele>0</ele>
                        <time>2022-08-18T06:02:13Z</time>
                        <extensions>
    <sog>0.0</sog>
</extensions>
                    </trkpt>
                    <trkpt lat="54.399708333333336" lon="10.212349999999999">
                        <ele>0</ele>
                        <time>2022-08-18T06:08:12Z</time>
                        <extensions>
    <sog>0.1</sog>
</extensions>
                    </trkpt>
                    <trkpt lat="54.39972" lon="10.212359999999999">
                        <ele>0</ele>
                        <time>2022-08-18T06:11:10Z</time>
                        <extensions>
    <sog>0.0</sog>
</extensions>
                    </trkpt>
                    <trkpt lat="54.39970166666667" lon="10.212355">
                        <ele>0</ele>
                        <time>2022-08-18T06:14:11Z</time>
                        <extensions>
    <sog>0.0</sog>
</extensions>
                    </trkpt>
                    <trkpt lat="54.399696666666664" lon="10.212366666666666">
                        <ele>0</ele>
                        <time>2022-08-18T06:17:10Z</time>
                        <extensions>
    <sog>0.0</sog>
</extensions>
                    </trkpt>
                    <trkpt lat="54.399696666666664" lon="10.212371666666666">
                        <ele>0</ele>
                        <time>2022-08-18T06:23:09Z</time>
                        <extensions>
    <sog>0.0</sog>
</extensions>
                    </trkpt>
                    <trkpt lat="54.39971333333334" lon="10.212381666666666">
                        <ele>0</ele>
                        <time>2022-08-18T06:26:10Z</time>
                        <extensions>
    <sog>0.0</sog>
</extensions>
                    </trkpt>
                    <trkpt lat="54.39971333333334" lon="10.212361666666668">
                        <ele>0</ele>
                        <time>2022-08-18T06:29:09Z</time>
                        <extensions>
    <sog>0.0</sog>
</extensions>
                    </trkpt>
                    <trkpt lat="54.39971666666667" lon="10.212348333333333">
                        <ele>0</ele>
                        <time>2022-08-18T06:32:09Z</time>
                        <extensions>
    <sog>0.0</sog>
</extensions>
                    </trkpt>
                    <trkpt lat="54.399725" lon="10.212346666666667">
                        <ele>0</ele>
                        <time>2022-08-18T06:35:12Z</time>
                        <extensions>
    <sog>0.0</sog>
</extensions>
                    </trkpt>
                    <trkpt lat="54.399705000000004" lon="10.212328333333334">
                        <ele>0</ele>
                        <time>2022-08-18T06:38:11Z</time>
                        <extensions>
    <sog>0.0</sog>
</extensions>
                    </trkpt>
                    <trkpt lat="54.39970666666667" lon="10.212343333333333">
                        <ele>0</ele>
                        <time>2022-08-18T06:41:10Z</time>
                        <extensions>
    <sog>0.0</sog>
</extensions>
                    </trkpt>
                    <trkpt lat="54.399726666666666" lon="10.212386666666667">
                        <ele>0</ele>
                        <time>2022-08-18T06:44:11Z</time>
                        <extensions>
    <sog>0.0</sog>
</extensions>
                    </trkpt>
                    <trkpt lat="54.399708333333336" lon="10.212378333333334">
                        <ele>0</ele>
                        <time>2022-08-18T06:50:10Z</time>
                        <extensions>
    <sog>0.0</sog>
</extensions>
                    </trkpt>
                    <trkpt lat="54.39971666666667" lon="10.212365">
                        <ele>0</ele>
                        <time>2022-08-18T06:56:12Z</time>
                        <extensions>
    <sog>0.0</sog>
</extensions>
                    </trkpt>
                    <trkpt lat="54.399721666666665" lon="10.212356666666667">
                        <ele>0</ele>
                        <time>2022-08-18T06:59:11Z</time>
                        <extensions>
    <sog>0.0</sog>
</extensions>
                    </trkpt>
                    <trkpt lat="54.39972" lon="10.212368333333334">
                        <ele>0</ele>
                        <time>2022-08-18T07:02:09Z</time>
                        <extensions>
    <sog>0.1</sog>
</extensions>
                    </trkpt>
                    <trkpt lat="54.39971" lon="10.212373333333334">
                        <ele>0</ele>
                        <time>2022-08-18T07:08:10Z</time>
                        <extensions>
    <sog>0.0</sog>
</extensions>
                    </trkpt>
                    <trkpt lat="54.39971666666667" lon="10.212335">
                        <ele>0</ele>
                        <time>2022-08-18T07:11:09Z</time>
                        <extensions>
    <sog>0.0</sog>
</extensions>
                    </trkpt>
                    <trkpt lat="54.39971666666667" lon="10.212361666666668">
                        <ele>0</ele>
                        <time>2022-08-18T07:14:11Z</time>
                        <extensions>
    <sog>0.0</sog>
</extensions>
                    </trkpt>
                    <trkpt lat="54.39971333333334" lon="10.212375">
                        <ele>0</ele>
                        <time>2022-08-18T07:17:09Z</time>
                        <extensions>
    <sog>0.0</sog>
</extensions>
                    </trkpt>
                    <trkpt lat="54.399696666666664" lon="10.212376666666668">
                        <ele>0</ele>
                        <time>2022-08-18T07:23:13Z</time>
                        <extensions>
    <sog>0.0</sog>
</extensions>
                    </trkpt>
                    <trkpt lat="54.39970666666667" lon="10.212371666666666">
                        <ele>0</ele>
                        <time>2022-08-18T07:26:10Z</time>
                        <extensions>
    <sog>0.0</sog>
</extensions>
                    </trkpt>
                    <trkpt lat="54.399728333333336" lon="10.212356666666667">
                        <ele>0</ele>
                        <time>2022-08-18T07:29:12Z</time>
                        <extensions>
    <sog>0.0</sog>
</extensions>
                    </trkpt>
                    <trkpt lat="54.39971" lon="10.212341666666667">
                        <ele>0</ele>
                        <time>2022-08-18T07:32:11Z</time>
                        <extensions>
    <sog>0.0</sog>
</extensions>
                    </trkpt>
                    <trkpt lat="54.39971" lon="10.212346666666667">
                        <ele>0</ele>
                        <time>2022-08-18T07:38:10Z</time>
                        <extensions>
    <sog>0.1</sog>
</extensions>
                    </trkpt>
                    <trkpt lat="54.399665" lon="10.212396666666667">
                        <ele>0</ele>
                        <time>2022-08-18T07:41:11Z</time>
                        <extensions>
    <sog>0.0</sog>
</extensions>
                    </trkpt>
                    <trkpt lat="54.39970166666667" lon="10.21239">
                        <ele>0</ele>
                        <time>2022-08-18T07:44:09Z</time>
                        <extensions>
    <sog>0.0</sog>
</extensions>
                    </trkpt>
                    <trkpt lat="54.399735" lon="10.212335">
                        <ele>0</ele>
                        <time>2022-08-18T07:47:12Z</time>
                        <extensions>
    <sog>0.0</sog>
</extensions>
                    </trkpt>
                    <trkpt lat="54.399725" lon="10.212356666666667">
                        <ele>0</ele>
                        <time>2022-08-18T07:50:10Z</time>
                        <extensions>
    <sog>0.0</sog>
</extensions>
                    </trkpt>
                    <trkpt lat="54.399743333333326" lon="10.212336666666666">
                        <ele>0</ele>
                        <time>2022-08-18T07:53:12Z</time>
                        <extensions>
    <sog>0.0</sog>
</extensions>
                    </trkpt>
                    <trkpt lat="54.399726666666666" lon="10.212368333333334">
                        <ele>0</ele>
                        <time>2022-08-18T07:56:11Z</time>
                        <extensions>
    <sog>0.0</sog>
</extensions>
                    </trkpt>
                    <trkpt lat="54.399728333333336" lon="10.212328333333334">
                        <ele>0</ele>
                        <time>2022-08-18T07:59:09Z</time>
                        <extensions>
    <sog>0.0</sog>
</extensions>
                    </trkpt>
                    <trkpt lat="54.399685" lon="10.212346666666667">
                        <ele>0</ele>
                        <time>2022-08-18T08:08:09Z</time>
                        <extensions>
    <sog>0.0</sog>
</extensions>
                    </trkpt>
                    <trkpt lat="54.399735" lon="10.212351666666667">
                        <ele>0</ele>
                        <time>2022-08-18T08:11:12Z</time>
                        <extensions>
    <sog>0.0</sog>
</extensions>
                    </trkpt>
                    <trkpt lat="54.39969833333334" lon="10.212351666666667">
                        <ele>0</ele>
                        <time>2022-08-18T08:14:12Z</time>
                        <extensions>
    <sog>0.0</sog>
</extensions>
                    </trkpt>
                    <trkpt lat="54.399694999999994" lon="10.212348333333333">
                        <ele>0</ele>
                        <time>2022-08-18T08:20:12Z</time>
                        <extensions>
    <sog>0.0</sog>
</extensions>
                    </trkpt>
                    <trkpt lat="54.399696666666664" lon="10.212359999999999">
                        <ele>0</ele>
                        <time>2022-08-18T08:23:11Z</time>
                        <extensions>
    <sog>0.0</sog>
</extensions>
                    </trkpt>
                    <trkpt lat="54.39968" lon="10.212358333333333">
                        <ele>0</ele>
                        <time>2022-08-18T08:26:11Z</time>
                        <extensions>
    <sog>0.0</sog>
</extensions>
                    </trkpt>
                    <trkpt lat="54.399696666666664" lon="10.212378333333334">
                        <ele>0</ele>
                        <time>2022-08-18T08:29:10Z</time>
                        <extensions>
    <sog>0.0</sog>
</extensions>
                    </trkpt>
                    <trkpt lat="54.399694999999994" lon="10.212359999999999">
                        <ele>0</ele>
                        <time>2022-08-18T08:32:11Z</time>
                        <extensions>
    <sog>0.0</sog>
</extensions>
                    </trkpt>
                    <trkpt lat="54.39971" lon="10.212358333333333">
                        <ele>0</ele>
                        <time>2022-08-18T08:38:12Z</time>
                        <extensions>
    <sog>0.0</sog>
</extensions>
                    </trkpt>
                    <trkpt lat="54.39969" lon="10.212355">
                        <ele>0</ele>
                        <time>2022-08-18T08:44:09Z</time>
                        <extensions>
    <sog>0.0</sog>
</extensions>
                    </trkpt>
                    <trkpt lat="54.399721666666665" lon="10.212351666666667">
                        <ele>0</ele>
                        <time>2022-08-18T08:47:11Z</time>
                        <extensions>
    <sog>0.0</sog>
</extensions>
                    </trkpt>
                    <trkpt lat="54.399696666666664" lon="10.212361666666668">
                        <ele>0</ele>
                        <time>2022-08-18T08:53:10Z</time>
                        <extensions>
    <sog>0.0</sog>
</extensions>
                    </trkpt>
                    <trkpt lat="54.39969" lon="10.212356666666667">
                        <ele>0</ele>
                        <time>2022-08-18T08:56:09Z</time>
                        <extensions>
    <sog>0.0</sog>
</extensions>
                    </trkpt>
                    <trkpt lat="54.39970166666667" lon="10.212346666666667">
                        <ele>0</ele>
                        <time>2022-08-18T08:59:10Z</time>
                        <extensions>
    <sog>0.0</sog>
</extensions>
                    </trkpt>
                    <trkpt lat="54.39971333333334" lon="10.212356666666667">
                        <ele>0</ele>
                        <time>2022-08-18T09:02:11Z</time>
                        <extensions>
    <sog>0.0</sog>
</extensions>
                    </trkpt>
                    <trkpt lat="54.399723333333334" lon="10.212353333333335">
                        <ele>0</ele>
                        <time>2022-08-18T09:05:11Z</time>
                        <extensions>
    <sog>0.0</sog>
</extensions>
                    </trkpt>
                    <trkpt lat="54.39973" lon="10.212349999999999">
                        <ele>0</ele>
                        <time>2022-08-18T09:11:11Z</time>
                        <extensions>
    <sog>0.0</sog>
</extensions>
                    </trkpt>
                    <trkpt lat="54.399721666666665" lon="10.212365">
                        <ele>0</ele>
                        <time>2022-08-18T09:14:11Z</time>
                        <extensions>
    <sog>0.0</sog>
</extensions>
                    </trkpt>
                    <trkpt lat="54.39973333333333" lon="10.212365">
                        <ele>0</ele>
                        <time>2022-08-18T09:17:10Z</time>
                        <extensions>
    <sog>0.0</sog>
</extensions>
                    </trkpt>
                    <trkpt lat="54.39971333333334" lon="10.212351666666667">
                        <ele>0</ele>
                        <time>2022-08-18T09:29:12Z</time>
                        <extensions>
    <sog>0.0</sog>
</extensions>
                    </trkpt>
                    <trkpt lat="54.39974666666667" lon="10.212381666666666">
                        <ele>0</ele>
                        <time>2022-08-18T09:35:11Z</time>
                        <extensions>
    <sog>0.0</sog>
</extensions>
                    </trkpt>
                    <trkpt lat="54.399723333333334" lon="10.212353333333335">
                        <ele>0</ele>
                        <time>2022-08-18T09:38:12Z</time>
                        <extensions>
    <sog>0.0</sog>
</extensions>
                    </trkpt>
                    <trkpt lat="54.39971833333333" lon="10.212325">
                        <ele>0</ele>
                        <time>2022-08-18T09:41:09Z</time>
                        <extensions>
    <sog>0.0</sog>
</extensions>
                    </trkpt>
                    <trkpt lat="54.39976333333333" lon="10.212340000000001">
                        <ele>0</ele>
                        <time>2022-08-18T09:44:10Z</time>
                        <extensions>
    <sog>0.0</sog>
</extensions>
                    </trkpt>
                    <trkpt lat="54.399748333333335" lon="10.212340000000001">
                        <ele>0</ele>
                        <time>2022-08-18T09:47:11Z</time>
                        <extensions>
    <sog>0.0</sog>
</extensions>
                    </trkpt>
                    <trkpt lat="54.39974666666667" lon="10.212338333333333">
                        <ele>0</ele>
                        <time>2022-08-18T09:50:10Z</time>
                        <extensions>
    <sog>0.0</sog>
</extensions>
                    </trkpt>
                    <trkpt lat="54.39973166666667" lon="10.212338333333333">
                        <ele>0</ele>
                        <time>2022-08-18T09:53:09Z</time>
                        <extensions>
    <sog>0.0</sog>
</extensions>
                    </trkpt>
                    <trkpt lat="54.39973333333333" lon="10.212373333333334">
                        <ele>0</ele>
                        <time>2022-08-18T09:56:12Z</time>
                        <extensions>
    <sog>0.0</sog>
</extensions>
                    </trkpt>
                    <trkpt lat="54.399745" lon="10.212304999999999">
                        <ele>0</ele>
                        <time>2022-08-18T10:02:12Z</time>
                        <extensions>
    <sog>0.0</sog>
</extensions>
                    </trkpt>
                    <trkpt lat="54.399708333333336" lon="10.212295000000001">
                        <ele>0</ele>
                        <time>2022-08-18T10:05:11Z</time>
                        <extensions>
    <sog>0.0</sog>
</extensions>
                    </trkpt>
                    <trkpt lat="54.399725" lon="10.212376666666668">
                        <ele>0</ele>
                        <time>2022-08-18T10:08:13Z</time>
                        <extensions>
    <sog>0.1</sog>
</extensions>
                    </trkpt>
                    <trkpt lat="54.399723333333334" lon="10.212338333333333">
                        <ele>0</ele>
                        <time>2022-08-18T10:11:10Z</time>
                        <extensions>
    <sog>0.0</sog>
</extensions>
                    </trkpt>
                    <trkpt lat="54.39975166666667" lon="10.212346666666667">
                        <ele>0</ele>
                        <time>2022-08-18T10:17:12Z</time>
                        <extensions>
    <sog>0.0</sog>
</extensions>
                    </trkpt>
                    <trkpt lat="54.39979" lon="10.212358333333333">
                        <ele>0</ele>
                        <time>2022-08-18T10:20:12Z</time>
                        <extensions>
    <sog>0.0</sog>
</extensions>
                    </trkpt>
                    <trkpt lat="54.399741666666664" lon="10.212358333333333">
                        <ele>0</ele>
                        <time>2022-08-18T10:26:12Z</time>
                        <extensions>
    <sog>0.0</sog>
</extensions>
                    </trkpt>
                    <trkpt lat="54.399748333333335" lon="10.212355">
                        <ele>0</ele>
                        <time>2022-08-18T10:29:13Z</time>
                        <extensions>
    <sog>0.0</sog>
</extensions>
                    </trkpt>
                    <trkpt lat="54.39976166666667" lon="10.212348333333333">
                        <ele>0</ele>
                        <time>2022-08-18T10:32:10Z</time>
                        <extensions>
    <sog>0.0</sog>
</extensions>
                    </trkpt>
                    <trkpt lat="54.399735" lon="10.212335">
                        <ele>0</ele>
                        <time>2022-08-18T10:38:13Z</time>
                        <extensions>
    <sog>0.0</sog>
</extensions>
                    </trkpt>
                    <trkpt lat="54.399739999999994" lon="10.212346666666667">
                        <ele>0</ele>
                        <time>2022-08-18T10:41:09Z</time>
                        <extensions>
    <sog>0.0</sog>
</extensions>
                    </trkpt>
                    <trkpt lat="54.39973666666666" lon="10.212363333333334">
                        <ele>0</ele>
                        <time>2022-08-18T10:44:12Z</time>
                        <extensions>
    <sog>0.0</sog>
</extensions>
                    </trkpt>
                    <trkpt lat="54.399765" lon="10.212333333333333">
                        <ele>0</ele>
                        <time>2022-08-18T10:47:10Z</time>
                        <extensions>
    <sog>0.0</sog>
</extensions>
                    </trkpt>
                    <trkpt lat="54.39975166666667" lon="10.212333333333333">
                        <ele>0</ele>
                        <time>2022-08-18T10:50:10Z</time>
                        <extensions>
    <sog>0.0</sog>
</extensions>
                    </trkpt>
                    <trkpt lat="54.39973666666666" lon="10.212349999999999">
                        <ele>0</ele>
                        <time>2022-08-18T10:56:12Z</time>
                        <extensions>
    <sog>0.0</sog>
</extensions>
                    </trkpt>
                    <trkpt lat="54.39975833333333" lon="10.212331666666667">
                        <ele>0</ele>
                        <time>2022-08-18T10:59:13Z</time>
                        <extensions>
    <sog>0.0</sog>
</extensions>
                    </trkpt>
                    <trkpt lat="54.399715" lon="10.212323333333334">
                        <ele>0</ele>
                        <time>2022-08-18T11:05:12Z</time>
                        <extensions>
    <sog>0.0</sog>
</extensions>
                    </trkpt>
                    <trkpt lat="54.399726666666666" lon="10.212338333333333">
                        <ele>0</ele>
                        <time>2022-08-18T11:11:11Z</time>
                        <extensions>
    <sog>0.0</sog>
</extensions>
                    </trkpt>
                    <trkpt lat="54.399725" lon="10.212343333333333">
                        <ele>0</ele>
                        <time>2022-08-18T11:14:11Z</time>
                        <extensions>
    <sog>0.0</sog>
</extensions>
                    </trkpt>
                    <trkpt lat="54.399735" lon="10.212308333333334">
                        <ele>0</ele>
                        <time>2022-08-18T11:17:12Z</time>
                        <extensions>
    <sog>0.0</sog>
</extensions>
                    </trkpt>
                    <trkpt lat="54.39973166666667" lon="10.212361666666668">
                        <ele>0</ele>
                        <time>2022-08-18T11:20:11Z</time>
                        <extensions>
    <sog>0.0</sog>
</extensions>
                    </trkpt>
                    <trkpt lat="54.399725" lon="10.212338333333333">
                        <ele>0</ele>
                        <time>2022-08-18T11:23:10Z</time>
                        <extensions>
    <sog>0.0</sog>
</extensions>
                    </trkpt>
                    <trkpt lat="54.39969833333334" lon="10.21233">
                        <ele>0</ele>
                        <time>2022-08-18T11:26:12Z</time>
                        <extensions>
    <sog>0.0</sog>
</extensions>
                    </trkpt>
                    <trkpt lat="54.39970166666667" lon="10.212341666666667">
                        <ele>0</ele>
                        <time>2022-08-18T11:29:10Z</time>
                        <extensions>
    <sog>0.0</sog>
</extensions>
                    </trkpt>
                    <trkpt lat="54.399676666666664" lon="10.212336666666666">
                        <ele>0</ele>
                        <time>2022-08-18T11:32:10Z</time>
                        <extensions>
    <sog>0.0</sog>
</extensions>
                    </trkpt>
                    <trkpt lat="54.39969166666666" lon="10.21233">
                        <ele>0</ele>
                        <time>2022-08-18T11:38:11Z</time>
                        <extensions>
    <sog>0.0</sog>
</extensions>
                    </trkpt>
                    <trkpt lat="54.39966666666667" lon="10.212358333333333">
                        <ele>0</ele>
                        <time>2022-08-18T11:41:10Z</time>
                        <extensions>
    <sog>0.0</sog>
</extensions>
                    </trkpt>
                    <trkpt lat="54.39966833333334" lon="10.212306666666667">
                        <ele>0</ele>
                        <time>2022-08-18T11:44:09Z</time>
                        <extensions>
    <sog>0.0</sog>
</extensions>
                    </trkpt>
                    <trkpt lat="54.399685" lon="10.212296666666667">
                        <ele>0</ele>
                        <time>2022-08-18T11:47:12Z</time>
                        <extensions>
    <sog>0.0</sog>
</extensions>
                    </trkpt>
                    <trkpt lat="54.399685" lon="10.212314999999998">
                        <ele>0</ele>
                        <time>2022-08-18T11:50:11Z</time>
                        <extensions>
    <sog>0.0</sog>
</extensions>
                    </trkpt>
                    <trkpt lat="54.399694999999994" lon="10.212278333333334">
                        <ele>0</ele>
                        <time>2022-08-18T11:53:12Z</time>
                        <extensions>
    <sog>0.0</sog>
</extensions>
                    </trkpt>
                    <trkpt lat="54.399681666666666" lon="10.212306666666667">
                        <ele>0</ele>
                        <time>2022-08-18T11:56:12Z</time>
                        <extensions>
    <sog>0.0</sog>
</extensions>
                    </trkpt>
                    <trkpt lat="54.399685" lon="10.212316666666668">
                        <ele>0</ele>
                        <time>2022-08-18T12:02:09Z</time>
                        <extensions>
    <sog>0.0</sog>
</extensions>
                    </trkpt>
                    <trkpt lat="54.39966166666667" lon="10.212303333333333">
                        <ele>0</ele>
                        <time>2022-08-18T12:05:12Z</time>
                        <extensions>
    <sog>0.0</sog>
</extensions>
                    </trkpt>
                    <trkpt lat="54.39965666666667" lon="10.212283333333334">
                        <ele>0</ele>
                        <time>2022-08-18T12:08:10Z</time>
                        <extensions>
    <sog>0.0</sog>
</extensions>
                    </trkpt>
                    <trkpt lat="54.39966166666667" lon="10.212313333333332">
                        <ele>0</ele>
                        <time>2022-08-18T12:11:12Z</time>
                        <extensions>
    <sog>0.0</sog>
</extensions>
                    </trkpt>
                    <trkpt lat="54.399636666666666" lon="10.212303333333333">
                        <ele>0</ele>
                        <time>2022-08-18T12:14:11Z</time>
                        <extensions>
    <sog>0.0</sog>
</extensions>
                    </trkpt>
                    <trkpt lat="54.39968" lon="10.21232">
                        <ele>0</ele>
                        <time>2022-08-18T12:20:12Z</time>
                        <extensions>
    <sog>0.0</sog>
</extensions>
                    </trkpt>
                    <trkpt lat="54.399663333333336" lon="10.212316666666668">
                        <ele>0</ele>
                        <time>2022-08-18T12:23:10Z</time>
                        <extensions>
    <sog>0.0</sog>
</extensions>
                    </trkpt>
                    <trkpt lat="54.39967166666667" lon="10.212348333333333">
                        <ele>0</ele>
                        <time>2022-08-18T12:26:12Z</time>
                        <extensions>
    <sog>0.0</sog>
</extensions>
                    </trkpt>
                    <trkpt lat="54.39968666666667" lon="10.212340000000001">
                        <ele>0</ele>
                        <time>2022-08-18T12:29:12Z</time>
                        <extensions>
    <sog>0.0</sog>
</extensions>
                    </trkpt>
                    <trkpt lat="54.399683333333336" lon="10.212345">
                        <ele>0</ele>
                        <time>2022-08-18T12:32:11Z</time>
                        <extensions>
    <sog>0.0</sog>
</extensions>
                    </trkpt>
                    <trkpt lat="54.399663333333336" lon="10.212306666666667">
                        <ele>0</ele>
                        <time>2022-08-18T12:35:09Z</time>
                        <extensions>
    <sog>0.0</sog>
</extensions>
                    </trkpt>
                    <trkpt lat="54.399681666666666" lon="10.212358333333333">
                        <ele>0</ele>
                        <time>2022-08-18T12:38:13Z</time>
                        <extensions>
    <sog>0.0</sog>
</extensions>
                    </trkpt>
                    <trkpt lat="54.39969166666666" lon="10.212355">
                        <ele>0</ele>
                        <time>2022-08-18T12:41:12Z</time>
                        <extensions>
    <sog>0.0</sog>
</extensions>
                    </trkpt>
                    <trkpt lat="54.39969333333333" lon="10.212345">
                        <ele>0</ele>
                        <time>2022-08-18T12:44:11Z</time>
                        <extensions>
    <sog>0.0</sog>
</extensions>
                    </trkpt>
                    <trkpt lat="54.39969166666666" lon="10.212326666666666">
                        <ele>0</ele>
                        <time>2022-08-18T12:47:10Z</time>
                        <extensions>
    <sog>0.0</sog>
</extensions>
                    </trkpt>
                    <trkpt lat="54.399678333333334" lon="10.212303333333333">
                        <ele>0</ele>
                        <time>2022-08-18T12:50:11Z</time>
                        <extensions>
    <sog>0.0</sog>
</extensions>
                    </trkpt>
                    <trkpt lat="54.39971" lon="10.212348333333333">
                        <ele>0</ele>
                        <time>2022-08-18T12:53:12Z</time>
                        <extensions>
    <sog>0.0</sog>
</extensions>
                    </trkpt>
                    <trkpt lat="54.399681666666666" lon="10.212323333333334">
                        <ele>0</ele>
                        <time>2022-08-18T12:56:09Z</time>
                        <extensions>
    <sog>0.0</sog>
</extensions>
                    </trkpt>
                    <trkpt lat="54.39968" lon="10.212336666666666">
                        <ele>0</ele>
                        <time>2022-08-18T12:59:10Z</time>
                        <extensions>
    <sog>0.0</sog>
</extensions>
                    </trkpt>
                    <trkpt lat="54.39968666666667" lon="10.212355">
                        <ele>0</ele>
                        <time>2022-08-18T13:02:12Z</time>
                        <extensions>
    <sog>0.0</sog>
</extensions>
                    </trkpt>
                    <trkpt lat="54.399705000000004" lon="10.212363333333334">
                        <ele>0</ele>
                        <time>2022-08-18T13:05:09Z</time>
                        <extensions>
    <sog>0.0</sog>
</extensions>
                    </trkpt>
                    <trkpt lat="54.39970666666667" lon="10.212351666666667">
                        <ele>0</ele>
                        <time>2022-08-18T13:08:10Z</time>
                        <extensions>
    <sog>0.0</sog>
</extensions>
                    </trkpt>
                    <trkpt lat="54.399696666666664" lon="10.212386666666667">
                        <ele>0</ele>
                        <time>2022-08-18T13:14:12Z</time>
                        <extensions>
    <sog>0.0</sog>
</extensions>
                    </trkpt>
                    <trkpt lat="54.399705000000004" lon="10.212373333333334">
                        <ele>0</ele>
                        <time>2022-08-18T13:17:09Z</time>
                        <extensions>
    <sog>0.0</sog>
</extensions>
                    </trkpt>
                    <trkpt lat="54.39969166666666" lon="10.212355">
                        <ele>0</ele>
                        <time>2022-08-18T13:23:10Z</time>
                        <extensions>
    <sog>0.0</sog>
</extensions>
                    </trkpt>
                    <trkpt lat="54.39969833333334" lon="10.212355">
                        <ele>0</ele>
                        <time>2022-08-18T13:26:09Z</time>
                        <extensions>
    <sog>0.0</sog>
</extensions>
                    </trkpt>
                    <trkpt lat="54.39969833333334" lon="10.212359999999999">
                        <ele>0</ele>
                        <time>2022-08-18T13:29:12Z</time>
                        <extensions>
    <sog>0.0</sog>
</extensions>
                    </trkpt>
                    <trkpt lat="54.399725" lon="10.212341666666667">
                        <ele>0</ele>
                        <time>2022-08-18T13:32:11Z</time>
                        <extensions>
    <sog>0.0</sog>
</extensions>
                    </trkpt>
                    <trkpt lat="54.39969833333334" lon="10.212356666666667">
                        <ele>0</ele>
                        <time>2022-08-18T13:35:10Z</time>
                        <extensions>
    <sog>0.0</sog>
</extensions>
                    </trkpt>
                    <trkpt lat="54.39971166666667" lon="10.212371666666666">
                        <ele>0</ele>
                        <time>2022-08-18T13:38:11Z</time>
                        <extensions>
    <sog>0.0</sog>
</extensions>
                    </trkpt>
                    <trkpt lat="54.399715" lon="10.212366666666666">
                        <ele>0</ele>
                        <time>2022-08-18T13:41:09Z</time>
                        <extensions>
    <sog>0.0</sog>
</extensions>
                    </trkpt>
                    <trkpt lat="54.399703333333335" lon="10.212383333333333">
                        <ele>0</ele>
                        <time>2022-08-18T13:44:12Z</time>
                        <extensions>
    <sog>0.0</sog>
</extensions>
                    </trkpt>
                    <trkpt lat="54.399703333333335" lon="10.212359999999999">
                        <ele>0</ele>
                        <time>2022-08-18T13:47:12Z</time>
                        <extensions>
    <sog>0.0</sog>
</extensions>
                    </trkpt>
                    <trkpt lat="54.399726666666666" lon="10.212359999999999">
                        <ele>0</ele>
                        <time>2022-08-18T13:50:11Z</time>
                        <extensions>
    <sog>0.0</sog>
</extensions>
                    </trkpt>
                    <trkpt lat="54.399728333333336" lon="10.212363333333334">
                        <ele>0</ele>
                        <time>2022-08-18T13:53:09Z</time>
                        <extensions>
    <sog>0.0</sog>
</extensions>
                    </trkpt>
                    <trkpt lat="54.3997" lon="10.212366666666666">
                        <ele>0</ele>
                        <time>2022-08-18T13:56:09Z</time>
                        <extensions>
    <sog>0.0</sog>
</extensions>
                    </trkpt>
                    <trkpt lat="54.399723333333334" lon="10.212345">
                        <ele>0</ele>
                        <time>2022-08-18T13:59:10Z</time>
                        <extensions>
    <sog>0.0</sog>
</extensions>
                    </trkpt>
                    <trkpt lat="54.39971833333333" lon="10.212365">
                        <ele>0</ele>
                        <time>2022-08-18T14:02:11Z</time>
                        <extensions>
    <sog>0.0</sog>
</extensions>
                    </trkpt>
                    <trkpt lat="54.39971166666667" lon="10.212359999999999">
                        <ele>0</ele>
                        <time>2022-08-18T14:05:09Z</time>
                        <extensions>
    <sog>0.0</sog>
</extensions>
                    </trkpt>
                    <trkpt lat="54.39971333333334" lon="10.212378333333334">
                        <ele>0</ele>
                        <time>2022-08-18T14:08:09Z</time>
                        <extensions>
    <sog>0.0</sog>
</extensions>
                    </trkpt>
                    <trkpt lat="54.39971166666667" lon="10.212363333333334">
                        <ele>0</ele>
                        <time>2022-08-18T14:11:13Z</time>
                        <extensions>
    <sog>0.0</sog>
</extensions>
                    </trkpt>
                    <trkpt lat="54.39972" lon="10.212375">
                        <ele>0</ele>
                        <time>2022-08-18T14:14:12Z</time>
                        <extensions>
    <sog>0.0</sog>
</extensions>
                    </trkpt>
                    <trkpt lat="54.399715" lon="10.2124">
                        <ele>0</ele>
                        <time>2022-08-18T14:17:09Z</time>
                        <extensions>
    <sog>0.0</sog>
</extensions>
                    </trkpt>
                    <trkpt lat="54.39969833333334" lon="10.212404999999999">
                        <ele>0</ele>
                        <time>2022-08-18T14:20:10Z</time>
                        <extensions>
    <sog>0.0</sog>
</extensions>
                    </trkpt>
                    <trkpt lat="54.399723333333334" lon="10.21237">
                        <ele>0</ele>
                        <time>2022-08-18T14:23:13Z</time>
                        <extensions>
    <sog>0.0</sog>
</extensions>
                    </trkpt>
                    <trkpt lat="54.399726666666666" lon="10.212393333333333">
                        <ele>0</ele>
                        <time>2022-08-18T14:29:10Z</time>
                        <extensions>
    <sog>0.0</sog>
</extensions>
                    </trkpt>
                    <trkpt lat="54.39973666666666" lon="10.212381666666666">
                        <ele>0</ele>
                        <time>2022-08-18T14:35:10Z</time>
                        <extensions>
    <sog>0.0</sog>
</extensions>
                    </trkpt>
                    <trkpt lat="54.39973166666667" lon="10.21237">
                        <ele>0</ele>
                        <time>2022-08-18T14:38:09Z</time>
                        <extensions>
    <sog>0.0</sog>
</extensions>
                    </trkpt>
                    <trkpt lat="54.399728333333336" lon="10.212411666666666">
                        <ele>0</ele>
                        <time>2022-08-18T14:44:09Z</time>
                        <extensions>
    <sog>0.0</sog>
</extensions>
                    </trkpt>
                    <trkpt lat="54.39973166666667" lon="10.2124">
                        <ele>0</ele>
                        <time>2022-08-18T14:47:10Z</time>
                        <extensions>
    <sog>0.0</sog>
</extensions>
                    </trkpt>
                    <trkpt lat="54.39971666666667" lon="10.212366666666666">
                        <ele>0</ele>
                        <time>2022-08-18T14:50:12Z</time>
                        <extensions>
    <sog>0.0</sog>
</extensions>
                    </trkpt>
                    <trkpt lat="54.399723333333334" lon="10.212386666666667">
                        <ele>0</ele>
                        <time>2022-08-18T14:53:11Z</time>
                        <extensions>
    <sog>0.0</sog>
</extensions>
                    </trkpt>
                    <trkpt lat="54.39973833333333" lon="10.21237">
                        <ele>0</ele>
                        <time>2022-08-18T14:56:09Z</time>
                        <extensions>
    <sog>0.0</sog>
</extensions>
                    </trkpt>
                    <trkpt lat="54.39973666666666" lon="10.212363333333334">
                        <ele>0</ele>
                        <time>2022-08-18T14:59:12Z</time>
                        <extensions>
    <sog>0.0</sog>
</extensions>
                    </trkpt>
                    <trkpt lat="54.39973166666667" lon="10.212363333333334">
                        <ele>0</ele>
                        <time>2022-08-18T15:02:12Z</time>
                        <extensions>
    <sog>0.0</sog>
</extensions>
                    </trkpt>
                    <trkpt lat="54.39973833333333" lon="10.212386666666667">
                        <ele>0</ele>
                        <time>2022-08-18T15:05:12Z</time>
                        <extensions>
    <sog>0.0</sog>
</extensions>
                    </trkpt>
                    <trkpt lat="54.39975166666667" lon="10.212353333333335">
                        <ele>0</ele>
                        <time>2022-08-18T15:11:12Z</time>
                        <extensions>
    <sog>0.0</sog>
</extensions>
                    </trkpt>
                    <trkpt lat="54.399725" lon="10.212373333333334">
                        <ele>0</ele>
                        <time>2022-08-18T15:14:10Z</time>
                        <extensions>
    <sog>0.0</sog>
</extensions>
                    </trkpt>
                    <trkpt lat="54.39971" lon="10.212375">
                        <ele>0</ele>
                        <time>2022-08-18T15:17:12Z</time>
                        <extensions>
    <sog>0.0</sog>
</extensions>
                    </trkpt>
                    <trkpt lat="54.399723333333334" lon="10.212401666666667">
                        <ele>0</ele>
                        <time>2022-08-18T15:20:11Z</time>
                        <extensions>
    <sog>0.0</sog>
</extensions>
                    </trkpt>
                    <trkpt lat="54.39971833333333" lon="10.212385000000001">
                        <ele>0</ele>
                        <time>2022-08-18T15:23:10Z</time>
                        <extensions>
    <sog>0.0</sog>
</extensions>
                    </trkpt>
                    <trkpt lat="54.39969166666666" lon="10.21239">
                        <ele>0</ele>
                        <time>2022-08-18T15:26:12Z</time>
                        <extensions>
    <sog>0.0</sog>
</extensions>
                    </trkpt>
                    <trkpt lat="54.399725" lon="10.21239">
                        <ele>0</ele>
                        <time>2022-08-18T15:29:09Z</time>
                        <extensions>
    <sog>0.0</sog>
</extensions>
                    </trkpt>
                    <trkpt lat="54.39971" lon="10.212375">
                        <ele>0</ele>
                        <time>2022-08-18T15:35:12Z</time>
                        <extensions>
    <sog>0.0</sog>
</extensions>
                    </trkpt>
                    <trkpt lat="54.399703333333335" lon="10.212365">
                        <ele>0</ele>
                        <time>2022-08-18T15:38:09Z</time>
                        <extensions>
    <sog>0.0</sog>
</extensions>
                    </trkpt>
                    <trkpt lat="54.399696666666664" lon="10.212375">
                        <ele>0</ele>
                        <time>2022-08-18T15:44:13Z</time>
                        <extensions>
    <sog>0.0</sog>
</extensions>
                    </trkpt>
                    <trkpt lat="54.39970666666667" lon="10.212378333333334">
                        <ele>0</ele>
                        <time>2022-08-18T15:50:10Z</time>
                        <extensions>
    <sog>0.0</sog>
</extensions>
                    </trkpt>
                    <trkpt lat="54.3997" lon="10.212378333333334">
                        <ele>0</ele>
                        <time>2022-08-18T15:56:09Z</time>
                        <extensions>
    <sog>0.0</sog>
</extensions>
                    </trkpt>
                    <trkpt lat="54.39971833333333" lon="10.212404999999999">
                        <ele>0</ele>
                        <time>2022-08-18T15:59:12Z</time>
                        <extensions>
    <sog>0.0</sog>
</extensions>
                    </trkpt>
                    <trkpt lat="54.399705000000004" lon="10.212376666666668">
                        <ele>0</ele>
                        <time>2022-08-18T16:02:11Z</time>
                        <extensions>
    <sog>0.0</sog>
</extensions>
                    </trkpt>
                    <trkpt lat="54.399694999999994" lon="10.212375">
                        <ele>0</ele>
                        <time>2022-08-18T16:05:12Z</time>
                        <extensions>
    <sog>0.0</sog>
</extensions>
                    </trkpt>
                    <trkpt lat="54.39969333333333" lon="10.212378333333334">
                        <ele>0</ele>
                        <time>2022-08-18T16:08:11Z</time>
                        <extensions>
    <sog>0.0</sog>
</extensions>
                    </trkpt>
                    <trkpt lat="54.399705000000004" lon="10.212383333333333">
                        <ele>0</ele>
                        <time>2022-08-18T16:11:11Z</time>
                        <extensions>
    <sog>0.0</sog>
</extensions>
                    </trkpt>
                    <trkpt lat="54.39971" lon="10.212368333333334">
                        <ele>0</ele>
                        <time>2022-08-18T16:14:12Z</time>
                        <extensions>
    <sog>0.0</sog>
</extensions>
                    </trkpt>
                    <trkpt lat="54.399705000000004" lon="10.212398333333335">
                        <ele>0</ele>
                        <time>2022-08-18T16:17:10Z</time>
                        <extensions>
    <sog>0.0</sog>
</extensions>
                    </trkpt>
                    <trkpt lat="54.39970666666667" lon="10.212386666666667">
                        <ele>0</ele>
                        <time>2022-08-18T16:20:09Z</time>
                        <extensions>
    <sog>0.0</sog>
</extensions>
                    </trkpt>
                    <trkpt lat="54.39968666666667" lon="10.212404999999999">
                        <ele>0</ele>
                        <time>2022-08-18T16:23:10Z</time>
                        <extensions>
    <sog>0.0</sog>
</extensions>
                    </trkpt>
                    <trkpt lat="54.399703333333335" lon="10.212388333333333">
                        <ele>0</ele>
                        <time>2022-08-18T16:26:10Z</time>
                        <extensions>
    <sog>0.0</sog>
</extensions>
                    </trkpt>
                    <trkpt lat="54.399685" lon="10.212386666666667">
                        <ele>0</ele>
                        <time>2022-08-18T16:29:11Z</time>
                        <extensions>
    <sog>0.0</sog>
</extensions>
                    </trkpt>
                    <trkpt lat="54.39969833333334" lon="10.2124">
                        <ele>0</ele>
                        <time>2022-08-18T16:32:11Z</time>
                        <extensions>
    <sog>0.0</sog>
</extensions>
                    </trkpt>
                    <trkpt lat="54.39969166666666" lon="10.212403333333333">
                        <ele>0</ele>
                        <time>2022-08-18T16:35:11Z</time>
                        <extensions>
    <sog>0.0</sog>
</extensions>
                    </trkpt>
                    <trkpt lat="54.399694999999994" lon="10.212368333333334">
                        <ele>0</ele>
                        <time>2022-08-18T16:47:12Z</time>
                        <extensions>
    <sog>0.0</sog>
</extensions>
                    </trkpt>
                    <trkpt lat="54.39970666666667" lon="10.21238">
                        <ele>0</ele>
                        <time>2022-08-18T16:56:12Z</time>
                        <extensions>
    <sog>0.0</sog>
</extensions>
                    </trkpt>
                    <trkpt lat="54.399696666666664" lon="10.212386666666667">
                        <ele>0</ele>
                        <time>2022-08-18T16:59:10Z</time>
                        <extensions>
    <sog>0.0</sog>
</extensions>
                    </trkpt>
                    <trkpt lat="54.39970666666667" lon="10.212386666666667">
                        <ele>0</ele>
                        <time>2022-08-18T17:02:12Z</time>
                        <extensions>
    <sog>0.0</sog>
</extensions>
                    </trkpt>
                    <trkpt lat="54.399705000000004" lon="10.212391666666667">
                        <ele>0</ele>
                        <time>2022-08-18T17:08:13Z</time>
                        <extensions>
    <sog>0.0</sog>
</extensions>
                    </trkpt>
                    <trkpt lat="54.399703333333335" lon="10.212378333333334">
                        <ele>0</ele>
                        <time>2022-08-18T17:11:12Z</time>
                        <extensions>
    <sog>0.0</sog>
</extensions>
                    </trkpt>
                    <trkpt lat="54.39971166666667" lon="10.212393333333333">
                        <ele>0</ele>
                        <time>2022-08-18T17:14:09Z</time>
                        <extensions>
    <sog>0.0</sog>
</extensions>
                    </trkpt>
                    <trkpt lat="54.39971666666667" lon="10.212393333333333">
                        <ele>0</ele>
                        <time>2022-08-18T17:20:10Z</time>
                        <extensions>
    <sog>0.0</sog>
</extensions>
                    </trkpt>
                    <trkpt lat="54.399725" lon="10.212385000000001">
                        <ele>0</ele>
                        <time>2022-08-18T17:26:09Z</time>
                        <extensions>
    <sog>0.0</sog>
</extensions>
                    </trkpt>
                    <trkpt lat="54.399715" lon="10.212394999999999">
                        <ele>0</ele>
                        <time>2022-08-18T17:29:11Z</time>
                        <extensions>
    <sog>0.0</sog>
</extensions>
                    </trkpt>
                    <trkpt lat="54.39971666666667" lon="10.212386666666667">
                        <ele>0</ele>
                        <time>2022-08-18T17:32:11Z</time>
                        <extensions>
    <sog>0.0</sog>
</extensions>
                    </trkpt>
                    <trkpt lat="54.39971666666667" lon="10.212406666666668">
                        <ele>0</ele>
                        <time>2022-08-18T17:35:12Z</time>
                        <extensions>
    <sog>0.0</sog>
</extensions>
                    </trkpt>
                    <trkpt lat="54.39974666666667" lon="10.212378333333334">
                        <ele>0</ele>
                        <time>2022-08-18T17:38:10Z</time>
                        <extensions>
    <sog>0.0</sog>
</extensions>
                    </trkpt>
                    <trkpt lat="54.39973" lon="10.212398333333335">
                        <ele>0</ele>
                        <time>2022-08-18T17:41:10Z</time>
                        <extensions>
    <sog>0.0</sog>
</extensions>
                    </trkpt>
                    <trkpt lat="54.399705000000004" lon="10.212425">
                        <ele>0</ele>
                        <time>2022-08-18T17:44:10Z</time>
                        <extensions>
    <sog>0.0</sog>
</extensions>
                    </trkpt>
                    <trkpt lat="54.399703333333335" lon="10.212408333333334">
                        <ele>0</ele>
                        <time>2022-08-18T17:47:09Z</time>
                        <extensions>
    <sog>0.0</sog>
</extensions>
                    </trkpt>
                    <trkpt lat="54.39971333333334" lon="10.212404999999999">
                        <ele>0</ele>
                        <time>2022-08-18T17:50:11Z</time>
                        <extensions>
    <sog>0.0</sog>
</extensions>
                    </trkpt>
                    <trkpt lat="54.39972" lon="10.212393333333333">
                        <ele>0</ele>
                        <time>2022-08-18T17:53:13Z</time>
                        <extensions>
    <sog>0.0</sog>
</extensions>
                    </trkpt>
                    <trkpt lat="54.39971666666667" lon="10.212398333333335">
                        <ele>0</ele>
                        <time>2022-08-18T17:56:12Z</time>
                        <extensions>
    <sog>0.0</sog>
</extensions>
                    </trkpt>
                    <trkpt lat="54.399723333333334" lon="10.212393333333333">
                        <ele>0</ele>
                        <time>2022-08-18T17:59:12Z</time>
                        <extensions>
    <sog>0.0</sog>
</extensions>
                    </trkpt>
                    <trkpt lat="54.39972" lon="10.212386666666667">
                        <ele>0</ele>
                        <time>2022-08-18T18:02:12Z</time>
                        <extensions>
    <sog>0.0</sog>
</extensions>
                    </trkpt>
                    <trkpt lat="54.399715" lon="10.21239">
                        <ele>0</ele>
                        <time>2022-08-18T18:05:09Z</time>
                        <extensions>
    <sog>0.0</sog>
</extensions>
                    </trkpt>
                    <trkpt lat="54.39971166666667" lon="10.212381666666666">
                        <ele>0</ele>
                        <time>2022-08-18T18:11:09Z</time>
                        <extensions>
    <sog>0.0</sog>
</extensions>
                    </trkpt>
                    <trkpt lat="54.39971833333333" lon="10.212406666666668">
                        <ele>0</ele>
                        <time>2022-08-18T18:14:12Z</time>
                        <extensions>
    <sog>0.0</sog>
</extensions>
                    </trkpt>
                    <trkpt lat="54.39971333333334" lon="10.212388333333333">
                        <ele>0</ele>
                        <time>2022-08-18T18:17:09Z</time>
                        <extensions>
    <sog>0.0</sog>
</extensions>
                    </trkpt>
                    <trkpt lat="54.399705000000004" lon="10.212378333333334">
                        <ele>0</ele>
                        <time>2022-08-18T18:23:12Z</time>
                        <extensions>
    <sog>0.0</sog>
</extensions>
                    </trkpt>
                    <trkpt lat="54.399681666666666" lon="10.212349999999999">
                        <ele>0</ele>
                        <time>2022-08-18T18:26:12Z</time>
                        <extensions>
    <sog>0.0</sog>
</extensions>
                    </trkpt>
                    <trkpt lat="54.399696666666664" lon="10.212363333333334">
                        <ele>0</ele>
                        <time>2022-08-18T18:29:10Z</time>
                        <extensions>
    <sog>0.0</sog>
</extensions>
                    </trkpt>
                    <trkpt lat="54.39970166666667" lon="10.21237">
                        <ele>0</ele>
                        <time>2022-08-18T18:35:11Z</time>
                        <extensions>
    <sog>0.0</sog>
</extensions>
                    </trkpt>
                    <trkpt lat="54.399694999999994" lon="10.212368333333334">
                        <ele>0</ele>
                        <time>2022-08-18T18:38:12Z</time>
                        <extensions>
    <sog>0.0</sog>
</extensions>
                    </trkpt>
                    <trkpt lat="54.39970666666667" lon="10.212383333333333">
                        <ele>0</ele>
                        <time>2022-08-18T18:41:12Z</time>
                        <extensions>
    <sog>0.0</sog>
</extensions>
                    </trkpt>
                    <trkpt lat="54.39970666666667" lon="10.212358333333333">
                        <ele>0</ele>
                        <time>2022-08-18T18:47:11Z</time>
                        <extensions>
    <sog>0.0</sog>
</extensions>
                    </trkpt>
                    <trkpt lat="54.399708333333336" lon="10.212359999999999">
                        <ele>0</ele>
                        <time>2022-08-18T18:50:11Z</time>
                        <extensions>
    <sog>0.0</sog>
</extensions>
                    </trkpt>
                    <trkpt lat="54.39971166666667" lon="10.212351666666667">
                        <ele>0</ele>
                        <time>2022-08-18T18:53:11Z</time>
                        <extensions>
    <sog>0.0</sog>
</extensions>
                    </trkpt>
                    <trkpt lat="54.399728333333336" lon="10.212351666666667">
                        <ele>0</ele>
                        <time>2022-08-18T18:56:10Z</time>
                        <extensions>
    <sog>0.0</sog>
</extensions>
                    </trkpt>
                    <trkpt lat="54.39971666666667" lon="10.212326666666666">
                        <ele>0</ele>
                        <time>2022-08-18T18:59:12Z</time>
                        <extensions>
    <sog>0.0</sog>
</extensions>
                    </trkpt>
                    <trkpt lat="54.39971333333334" lon="10.212346666666667">
                        <ele>0</ele>
                        <time>2022-08-18T19:02:12Z</time>
                        <extensions>
    <sog>0.0</sog>
</extensions>
                    </trkpt>
                    <trkpt lat="54.399703333333335" lon="10.212361666666668">
                        <ele>0</ele>
                        <time>2022-08-18T19:05:13Z</time>
                        <extensions>
    <sog>0.0</sog>
</extensions>
                    </trkpt>
                    <trkpt lat="54.399725" lon="10.212348333333333">
                        <ele>0</ele>
                        <time>2022-08-18T19:14:12Z</time>
                        <extensions>
    <sog>0.0</sog>
</extensions>
                    </trkpt>
                    <trkpt lat="54.39973166666667" lon="10.212358333333333">
                        <ele>0</ele>
                        <time>2022-08-18T19:17:11Z</time>
                        <extensions>
    <sog>0.0</sog>
</extensions>
                    </trkpt>
                    <trkpt lat="54.399728333333336" lon="10.212365">
                        <ele>0</ele>
                        <time>2022-08-18T19:20:09Z</time>
                        <extensions>
    <sog>0.0</sog>
</extensions>
                    </trkpt>
                    <trkpt lat="54.39973666666666" lon="10.212378333333334">
                        <ele>0</ele>
                        <time>2022-08-18T19:29:12Z</time>
                        <extensions>
    <sog>0.0</sog>
</extensions>
                    </trkpt>
                    <trkpt lat="54.39973" lon="10.212376666666668">
                        <ele>0</ele>
                        <time>2022-08-18T19:32:09Z</time>
                        <extensions>
    <sog>0.0</sog>
</extensions>
                    </trkpt>
                    <trkpt lat="54.399766666666665" lon="10.212381666666666">
                        <ele>0</ele>
                        <time>2022-08-18T19:35:12Z</time>
                        <extensions>
    <sog>0.0</sog>
</extensions>
                    </trkpt>
                    <trkpt lat="54.39973333333333" lon="10.212391666666667">
                        <ele>0</ele>
                        <time>2022-08-18T19:38:11Z</time>
                        <extensions>
    <sog>0.0</sog>
</extensions>
                    </trkpt>
                    <trkpt lat="54.39973833333333" lon="10.212373333333334">
                        <ele>0</ele>
                        <time>2022-08-18T19:41:09Z</time>
                        <extensions>
    <sog>0.0</sog>
</extensions>
                    </trkpt>
                    <trkpt lat="54.39975833333333" lon="10.212366666666666">
                        <ele>0</ele>
                        <time>2022-08-18T19:44:12Z</time>
                        <extensions>
    <sog>0.0</sog>
</extensions>
                    </trkpt>
                    <trkpt lat="54.39974666666667" lon="10.212336666666666">
                        <ele>0</ele>
                        <time>2022-08-18T19:50:09Z</time>
                        <extensions>
    <sog>0.0</sog>
</extensions>
                    </trkpt>
                    <trkpt lat="54.399755" lon="10.212386666666667">
                        <ele>0</ele>
                        <time>2022-08-18T19:56:09Z</time>
                        <extensions>
    <sog>0.0</sog>
</extensions>
                    </trkpt>
                    <trkpt lat="54.399750000000004" lon="10.212371666666666">
                        <ele>0</ele>
                        <time>2022-08-18T19:59:10Z</time>
                        <extensions>
    <sog>0.0</sog>
</extensions>
                    </trkpt>
                    <trkpt lat="54.39975833333333" lon="10.212343333333333">
                        <ele>0</ele>
                        <time>2022-08-18T20:02:09Z</time>
                        <extensions>
    <sog>0.1</sog>
</extensions>
                    </trkpt>
                    <trkpt lat="54.39975333333334" lon="10.212381666666666">
                        <ele>0</ele>
                        <time>2022-08-18T20:05:11Z</time>
                        <extensions>
    <sog>0.0</sog>
</extensions>
                    </trkpt>
                    <trkpt lat="54.399739999999994" lon="10.212373333333334">
                        <ele>0</ele>
                        <time>2022-08-18T20:08:10Z</time>
                        <extensions>
    <sog>0.0</sog>
</extensions>
                    </trkpt>
                    <trkpt lat="54.39977333333333" lon="10.212358333333333">
                        <ele>0</ele>
                        <time>2022-08-18T20:11:12Z</time>
                        <extensions>
    <sog>0.0</sog>
</extensions>
                    </trkpt>
                    <trkpt lat="54.399750000000004" lon="10.212355">
                        <ele>0</ele>
                        <time>2022-08-18T20:14:09Z</time>
                        <extensions>
    <sog>0.0</sog>
</extensions>
                    </trkpt>
                    <trkpt lat="54.39973" lon="10.212378333333334">
                        <ele>0</ele>
                        <time>2022-08-18T20:17:09Z</time>
                        <extensions>
    <sog>0.0</sog>
</extensions>
                    </trkpt>
                    <trkpt lat="54.39976166666667" lon="10.212376666666668">
                        <ele>0</ele>
                        <time>2022-08-18T20:20:10Z</time>
                        <extensions>
    <sog>0.0</sog>
</extensions>
                    </trkpt>
                    <trkpt lat="54.39975666666667" lon="10.212391666666667">
                        <ele>0</ele>
                        <time>2022-08-18T20:23:12Z</time>
                        <extensions>
    <sog>0.0</sog>
</extensions>
                    </trkpt>
                    <trkpt lat="54.399766666666665" lon="10.212388333333333">
                        <ele>0</ele>
                        <time>2022-08-18T20:26:09Z</time>
                        <extensions>
    <sog>0.0</sog>
</extensions>
                    </trkpt>
                    <trkpt lat="54.39976166666667" lon="10.212383333333333">
                        <ele>0</ele>
                        <time>2022-08-18T20:29:09Z</time>
                        <extensions>
    <sog>0.0</sog>
</extensions>
                    </trkpt>
                    <trkpt lat="54.399721666666665" lon="10.212376666666668">
                        <ele>0</ele>
                        <time>2022-08-18T20:32:11Z</time>
                        <extensions>
    <sog>0.0</sog>
</extensions>
                    </trkpt>
                    <trkpt lat="54.399739999999994" lon="10.212358333333333">
                        <ele>0</ele>
                        <time>2022-08-18T20:35:11Z</time>
                        <extensions>
    <sog>0.0</sog>
</extensions>
                    </trkpt>
                    <trkpt lat="54.399723333333334" lon="10.212340000000001">
                        <ele>0</ele>
                        <time>2022-08-18T20:44:11Z</time>
                        <extensions>
    <sog>0.0</sog>
</extensions>
                    </trkpt>
                    <trkpt lat="54.39971" lon="10.212378333333334">
                        <ele>0</ele>
                        <time>2022-08-18T20:47:10Z</time>
                        <extensions>
    <sog>0.0</sog>
</extensions>
                    </trkpt>
                    <trkpt lat="54.39970666666667" lon="10.21238">
                        <ele>0</ele>
                        <time>2022-08-18T20:50:11Z</time>
                        <extensions>
    <sog>0.0</sog>
</extensions>
                    </trkpt>
                    <trkpt lat="54.39972" lon="10.212375">
                        <ele>0</ele>
                        <time>2022-08-18T20:53:12Z</time>
                        <extensions>
    <sog>0.0</sog>
</extensions>
                    </trkpt>
                    <trkpt lat="54.399715" lon="10.21238">
                        <ele>0</ele>
                        <time>2022-08-18T20:56:12Z</time>
                        <extensions>
    <sog>0.0</sog>
</extensions>
                    </trkpt>
                    <trkpt lat="54.399696666666664" lon="10.21239">
                        <ele>0</ele>
                        <time>2022-08-18T20:59:13Z</time>
                        <extensions>
    <sog>0.0</sog>
</extensions>
                    </trkpt>
                    <trkpt lat="54.39971666666667" lon="10.212371666666666">
                        <ele>0</ele>
                        <time>2022-08-18T21:02:10Z</time>
                        <extensions>
    <sog>0.0</sog>
</extensions>
                    </trkpt>
                    <trkpt lat="54.399723333333334" lon="10.212413333333334">
                        <ele>0</ele>
                        <time>2022-08-18T21:05:10Z</time>
                        <extensions>
    <sog>0.0</sog>
</extensions>
                    </trkpt>
                    <trkpt lat="54.39971833333333" lon="10.212381666666666">
                        <ele>0</ele>
                        <time>2022-08-18T21:08:11Z</time>
                        <extensions>
    <sog>0.0</sog>
</extensions>
                    </trkpt>
                    <trkpt lat="54.399726666666666" lon="10.21238">
                        <ele>0</ele>
                        <time>2022-08-18T21:11:12Z</time>
                        <extensions>
    <sog>0.0</sog>
</extensions>
                    </trkpt>
                    <trkpt lat="54.39970166666667" lon="10.212365">
                        <ele>0</ele>
                        <time>2022-08-18T21:14:11Z</time>
                        <extensions>
    <sog>0.0</sog>
</extensions>
                    </trkpt>
                    <trkpt lat="54.39971333333334" lon="10.212373333333334">
                        <ele>0</ele>
                        <time>2022-08-18T21:17:12Z</time>
                        <extensions>
    <sog>0.0</sog>
</extensions>
                    </trkpt>
                    <trkpt lat="54.39971833333333" lon="10.212386666666667">
                        <ele>0</ele>
                        <time>2022-08-18T21:20:10Z</time>
                        <extensions>
    <sog>0.0</sog>
</extensions>
                    </trkpt>
                    <trkpt lat="54.399741666666664" lon="10.212386666666667">
                        <ele>0</ele>
                        <time>2022-08-18T21:23:12Z</time>
                        <extensions>
    <sog>0.0</sog>
</extensions>
                    </trkpt>
                    <trkpt lat="54.399725" lon="10.212365">
                        <ele>0</ele>
                        <time>2022-08-18T21:26:10Z</time>
                        <extensions>
    <sog>0.0</sog>
</extensions>
                    </trkpt>
                    <trkpt lat="54.39973" lon="10.212341666666667">
                        <ele>0</ele>
                        <time>2022-08-18T21:32:12Z</time>
                        <extensions>
    <sog>0.0</sog>
</extensions>
                    </trkpt>
                    <trkpt lat="54.39973833333333" lon="10.21238">
                        <ele>0</ele>
                        <time>2022-08-18T21:35:13Z</time>
                        <extensions>
    <sog>0.0</sog>
</extensions>
                    </trkpt>
                    <trkpt lat="54.399726666666666" lon="10.21237">
                        <ele>0</ele>
                        <time>2022-08-18T21:38:12Z</time>
                        <extensions>
    <sog>0.0</sog>
</extensions>
                    </trkpt>
                    <trkpt lat="54.399721666666665" lon="10.212373333333334">
                        <ele>0</ele>
                        <time>2022-08-18T21:44:09Z</time>
                        <extensions>
    <sog>0.0</sog>
</extensions>
                    </trkpt>
                    <trkpt lat="54.39975166666667" lon="10.212351666666667">
                        <ele>0</ele>
                        <time>2022-08-18T21:47:10Z</time>
                        <extensions>
    <sog>0.0</sog>
</extensions>
                    </trkpt>
                    <trkpt lat="54.399726666666666" lon="10.212383333333333">
                        <ele>0</ele>
                        <time>2022-08-18T21:50:11Z</time>
                        <extensions>
    <sog>0.0</sog>
</extensions>
                    </trkpt>
                    <trkpt lat="54.399735" lon="10.212391666666667">
                        <ele>0</ele>
                        <time>2022-08-18T21:53:12Z</time>
                        <extensions>
    <sog>0.0</sog>
</extensions>
                    </trkpt>
                    <trkpt lat="54.39973333333333" lon="10.212371666666666">
                        <ele>0</ele>
                        <time>2022-08-18T21:56:13Z</time>
                        <extensions>
    <sog>0.0</sog>
</extensions>
                    </trkpt>
                    <trkpt lat="54.399726666666666" lon="10.212375">
                        <ele>0</ele>
                        <time>2022-08-18T21:59:11Z</time>
                        <extensions>
    <sog>0.0</sog>
</extensions>
                    </trkpt>
                    <trkpt lat="54.399741666666664" lon="10.21239">
                        <ele>0</ele>
                        <time>2022-08-18T22:02:09Z</time>
                        <extensions>
    <sog>0.0</sog>
</extensions>
                    </trkpt>
                    <trkpt lat="54.39974666666667" lon="10.212388333333333">
                        <ele>0</ele>
                        <time>2022-08-18T22:05:13Z</time>
                        <extensions>
    <sog>0.0</sog>
</extensions>
                    </trkpt>
                    <trkpt lat="54.39973833333333" lon="10.212403333333333">
                        <ele>0</ele>
                        <time>2022-08-18T22:11:11Z</time>
                        <extensions>
    <sog>0.0</sog>
</extensions>
                    </trkpt>
                    <trkpt lat="54.399726666666666" lon="10.212383333333333">
                        <ele>0</ele>
                        <time>2022-08-18T22:14:09Z</time>
                        <extensions>
    <sog>0.0</sog>
</extensions>
                    </trkpt>
                    <trkpt lat="54.399723333333334" lon="10.21239">
                        <ele>0</ele>
                        <time>2022-08-18T22:17:11Z</time>
                        <extensions>
    <sog>0.0</sog>
</extensions>
                    </trkpt>
                    <trkpt lat="54.399721666666665" lon="10.212378333333334">
                        <ele>0</ele>
                        <time>2022-08-18T22:20:12Z</time>
                        <extensions>
    <sog>0.0</sog>
</extensions>
                    </trkpt>
                    <trkpt lat="54.39971666666667" lon="10.21237">
                        <ele>0</ele>
                        <time>2022-08-18T22:26:09Z</time>
                        <extensions>
    <sog>0.0</sog>
</extensions>
                    </trkpt>
                    <trkpt lat="54.39972" lon="10.212393333333333">
                        <ele>0</ele>
                        <time>2022-08-18T22:29:13Z</time>
                        <extensions>
    <sog>0.0</sog>
</extensions>
                    </trkpt>
                    <trkpt lat="54.399728333333336" lon="10.212393333333333">
                        <ele>0</ele>
                        <time>2022-08-18T22:38:11Z</time>
                        <extensions>
    <sog>0.0</sog>
</extensions>
                    </trkpt>
                    <trkpt lat="54.39973333333333" lon="10.212368333333334">
                        <ele>0</ele>
                        <time>2022-08-18T22:44:10Z</time>
                        <extensions>
    <sog>0.0</sog>
</extensions>
                    </trkpt>
                    <trkpt lat="54.39971666666667" lon="10.212373333333334">
                        <ele>0</ele>
                        <time>2022-08-18T22:47:09Z</time>
                        <extensions>
    <sog>0.0</sog>
</extensions>
                    </trkpt>
                    <trkpt lat="54.399696666666664" lon="10.212394999999999">
                        <ele>0</ele>
                        <time>2022-08-18T22:53:12Z</time>
                        <extensions>
    <sog>0.0</sog>
</extensions>
                    </trkpt>
                    <trkpt lat="54.399696666666664" lon="10.212373333333334">
                        <ele>0</ele>
                        <time>2022-08-18T22:56:10Z</time>
                        <extensions>
    <sog>0.0</sog>
</extensions>
                    </trkpt>
                    <trkpt lat="54.39969833333334" lon="10.212373333333334">
                        <ele>0</ele>
                        <time>2022-08-18T22:59:12Z</time>
                        <extensions>
    <sog>0.0</sog>
</extensions>
                    </trkpt>
                    <trkpt lat="54.399726666666666" lon="10.212363333333334">
                        <ele>0</ele>
                        <time>2022-08-18T23:02:09Z</time>
                        <extensions>
    <sog>0.0</sog>
</extensions>
                    </trkpt>
                    <trkpt lat="54.399715" lon="10.212359999999999">
                        <ele>0</ele>
                        <time>2022-08-18T23:05:13Z</time>
                        <extensions>
    <sog>0.0</sog>
</extensions>
                    </trkpt>
                    <trkpt lat="54.399715" lon="10.212398333333335">
                        <ele>0</ele>
                        <time>2022-08-18T23:11:10Z</time>
                        <extensions>
    <sog>0.0</sog>
</extensions>
                    </trkpt>
                    <trkpt lat="54.39971666666667" lon="10.212404999999999">
                        <ele>0</ele>
                        <time>2022-08-18T23:14:11Z</time>
                        <extensions>
    <sog>0.0</sog>
</extensions>
                    </trkpt>
                    <trkpt lat="54.39971833333333" lon="10.212371666666666">
                        <ele>0</ele>
                        <time>2022-08-18T23:17:13Z</time>
                        <extensions>
    <sog>0.0</sog>
</extensions>
                    </trkpt>
                    <trkpt lat="54.39969166666666" lon="10.212396666666667">
                        <ele>0</ele>
                        <time>2022-08-18T23:20:09Z</time>
                        <extensions>
    <sog>0.0</sog>
</extensions>
                    </trkpt>
                    <trkpt lat="54.399715" lon="10.212388333333333">
                        <ele>0</ele>
                        <time>2022-08-18T23:23:10Z</time>
                        <extensions>
    <sog>0.0</sog>
</extensions>
                    </trkpt>
                    <trkpt lat="54.399681666666666" lon="10.212338333333333">
                        <ele>0</ele>
                        <time>2022-08-18T23:26:09Z</time>
                        <extensions>
    <sog>0.0</sog>
</extensions>
                    </trkpt>
                    <trkpt lat="54.39969833333334" lon="10.212375">
                        <ele>0</ele>
                        <time>2022-08-18T23:29:10Z</time>
                        <extensions>
    <sog>0.0</sog>
</extensions>
                    </trkpt>
                    <trkpt lat="54.399685" lon="10.21238">
                        <ele>0</ele>
                        <time>2022-08-18T23:32:09Z</time>
                        <extensions>
    <sog>0.0</sog>
</extensions>
                    </trkpt>
                    <trkpt lat="54.39966166666667" lon="10.212375">
                        <ele>0</ele>
                        <time>2022-08-18T23:35:12Z</time>
                        <extensions>
    <sog>0.0</sog>
</extensions>
                    </trkpt>
                    <trkpt lat="54.399696666666664" lon="10.212381666666666">
                        <ele>0</ele>
                        <time>2022-08-18T23:38:12Z</time>
                        <extensions>
    <sog>0.0</sog>
</extensions>
                    </trkpt>
                    <trkpt lat="54.39969" lon="10.212371666666666">
                        <ele>0</ele>
                        <time>2022-08-18T23:41:10Z</time>
                        <extensions>
    <sog>0.0</sog>
</extensions>
                    </trkpt>
                    <trkpt lat="54.399675" lon="10.212394999999999">
                        <ele>0</ele>
                        <time>2022-08-18T23:44:12Z</time>
                        <extensions>
    <sog>0.1</sog>
</extensions>
                    </trkpt>
                    <trkpt lat="54.399685" lon="10.21237">
                        <ele>0</ele>
                        <time>2022-08-18T23:47:10Z</time>
                        <extensions>
    <sog>0.0</sog>
</extensions>
                    </trkpt>
                    <trkpt lat="54.399708333333336" lon="10.212393333333333">
                        <ele>0</ele>
                        <time>2022-08-18T23:59:12Z</time>
                        <extensions>
    <sog>0.0</sog>
</extensions>
                    </trkpt>
                    </trkseg>
                </trk>
</gpx>