<?xml version="1.0" encoding="UTF-8"?>
<gpx version="1.1" creator="AIS-to-GPX Converter" xmlns="http://www.topografix.com/GPX/1/1">
                <trk>
                    <name>anon0273</name>
                    <trkseg>
                                            <trkpt lat="54.48328333333333" lon="10.19244">
                        <ele>0</ele>
                        <time>2022-08-18T11:54:08Z</time>
                                                <extensions>
                            <sog>2.9</sog>
<cog>158.2</cog>
                        </extensions>
                    </trkpt>
                    <trkpt lat="54.47173833333333" lon="10.198973333333333">
                        <ele>0</ele>
                        <time>2022-08-18T12:09:03Z</time>
                                                <extensions>
                            <sog>2.1</sog>
<cog>161.1</cog>
                        </extensions>
                    </trkpt>
                    <trkpt lat="54.470726666666664" lon="10.199486666666667">
                        <ele>0</ele>
                        <time>2022-08-18T12:11:03Z</time>
                                                <extensions>
                            <sog>1.9</sog>
<cog>166.5</cog>
                        </extensions>
                    </trkpt>
                    <trkpt lat="54.468761666666666" lon="10.200498333333334">
                        <ele>0</ele>
                        <time>2022-08-18T12:15:06Z</time>
                                                <extensions>
                            <sog>2.0</sog>
<cog>158.0</cog>
                        </extensions>
                    </trkpt>
                    <trkpt lat="54.467455" lon="10.201191666666666">
                        <ele>0</ele>
                        <time>2022-08-18T12:18:03Z</time>
                                                <extensions>
                            <sog>1.3</sog>
<cog>159.4</cog>
                        </extensions>
                    </trkpt>
                    <trkpt lat="54.46637166666667" lon="10.201708333333332">
                        <ele>0</ele>
                        <time>2022-08-18T12:21:02Z</time>
                                                <extensions>
                            <sog>1.1</sog>
<cog>162.3</cog>
                        </extensions>
                    </trkpt>
                    <trkpt lat="54.463968333333334" lon="10.20257">
                        <ele>0</ele>
                        <time>2022-08-18T12:27:02Z</time>
                                                <extensions>
                            <sog>1.6</sog>
<cog>172.1</cog>
                        </extensions>
                    </trkpt>
                    <trkpt lat="54.462583333333335" lon="10.202963333333335">
                        <ele>0</ele>
                        <time>2022-08-18T12:30:02Z</time>
                                                <extensions>
                            <sog>1.6</sog>
<cog>171.4</cog>
                        </extensions>
                    </trkpt>
                    <trkpt lat="54.461295" lon="10.203238333333333">
                        <ele>0</ele>
                        <time>2022-08-18T12:33:02Z</time>
                                                <extensions>
                            <sog>1.5</sog>
<cog>171.8</cog>
                        </extensions>
                    </trkpt>
                    <trkpt lat="54.45698" lon="10.20403">
                        <ele>0</ele>
                        <time>2022-08-18T12:42:02Z</time>
                                                <extensions>
                            <sog>2.1</sog>
<cog>184.2</cog>
                        </extensions>
                    </trkpt>
                    <trkpt lat="54.45665333333333" lon="10.20401">
                        <ele>0</ele>
                        <time>2022-08-18T12:42:38Z</time>
                                                <extensions>
                            <sog>2.0</sog>
<cog>175.1</cog>
                        </extensions>
                    </trkpt>
                    <trkpt lat="54.45611666666667" lon="10.204026666666666">
                        <ele>0</ele>
                        <time>2022-08-18T12:43:37Z</time>
                                                <extensions>
                            <sog>1.9</sog>
<cog>180.7</cog>
                        </extensions>
                    </trkpt>
                    <trkpt lat="54.45585333333334" lon="10.20403">
                        <ele>0</ele>
                        <time>2022-08-18T12:44:07Z</time>
                                                <extensions>
                            <sog>1.8</sog>
<cog>175.5</cog>
                        </extensions>
                    </trkpt>
                    <trkpt lat="54.45516" lon="10.204180000000001">
                        <ele>0</ele>
                        <time>2022-08-18T12:45:37Z</time>
                                                <extensions>
                            <sog>1.6</sog>
<cog>169.2</cog>
                        </extensions>
                    </trkpt>
                    <trkpt lat="54.453405" lon="10.204178333333335">
                        <ele>0</ele>
                        <time>2022-08-18T12:49:12Z</time>
                                                <extensions>
                            <sog>1.8</sog>
<cog>188.0</cog>
                        </extensions>
                    </trkpt>
                    <trkpt lat="54.45163" lon="10.203906666666667">
                        <ele>0</ele>
                        <time>2022-08-18T12:52:11Z</time>
                                                <extensions>
                            <sog>2.1</sog>
<cog>182.7</cog>
                        </extensions>
                    </trkpt>
                    <trkpt lat="54.45106666666666" lon="10.203895">
                        <ele>0</ele>
                        <time>2022-08-18T12:53:10Z</time>
                                                <extensions>
                            <sog>2.0</sog>
<cog>176.3</cog>
                        </extensions>
                    </trkpt>
                    <trkpt lat="54.450763333333335" lon="10.203898333333333">
                        <ele>0</ele>
                        <time>2022-08-18T12:53:40Z</time>
                                                <extensions>
                            <sog>2.1</sog>
<cog>181.6</cog>
                        </extensions>
                    </trkpt>
                    <trkpt lat="54.450183333333335" lon="10.20382">
                        <ele>0</ele>
                        <time>2022-08-18T12:54:40Z</time>
                                                <extensions>
                            <sog>2.1</sog>
<cog>209.7</cog>
                        </extensions>
                    </trkpt>
                    <trkpt lat="54.44985333333333" lon="10.203653333333333">
                        <ele>0</ele>
                        <time>2022-08-18T12:55:13Z</time>
                                                <extensions>
                            <sog>2.1</sog>
<cog>193.3</cog>
                        </extensions>
                    </trkpt>
                    <trkpt lat="54.449595" lon="10.203426666666667">
                        <ele>0</ele>
                        <time>2022-08-18T12:55:40Z</time>
                                                <extensions>
                            <sog>2.3</sog>
<cog>208.3</cog>
                        </extensions>
                    </trkpt>
                    <trkpt lat="54.44822666666666" lon="10.201511666666667">
                        <ele>0</ele>
                        <time>2022-08-18T12:58:11Z</time>
                                                <extensions>
                            <sog>2.6</sog>
<cog>211.2</cog>
                        </extensions>
                    </trkpt>
                    <trkpt lat="54.44792333333333" lon="10.201165">
                        <ele>0</ele>
                        <time>2022-08-18T12:58:41Z</time>
                                                <extensions>
                            <sog>2.6</sog>
<cog>214.1</cog>
                        </extensions>
                    </trkpt>
                    <trkpt lat="54.447035" lon="10.200135">
                        <ele>0</ele>
                        <time>2022-08-18T13:00:10Z</time>
                                                <extensions>
                            <sog>2.7</sog>
<cog>215.9</cog>
                        </extensions>
                    </trkpt>
                    <trkpt lat="54.447035" lon="10.200135">
                        <ele>0</ele>
                        <time>2022-08-18T13:00:10Z</time>
                                                <extensions>
                            <sog>2.7</sog>
<cog>215.9</cog>
                        </extensions>
                    </trkpt>
                    <trkpt lat="54.44515" lon="10.197726666666666">
                        <ele>0</ele>
                        <time>2022-08-18T13:03:40Z</time>
                                                <extensions>
                            <sog>2.6</sog>
<cog>222.1</cog>
                        </extensions>
                    </trkpt>
                    </trkseg>
                </trk>
</gpx>