<?xml version="1.0" encoding="UTF-8"?>
<gpx version="1.1" creator="AIS-to-GPX Converter" xmlns="http://www.topografix.com/GPX/1/1">
                <trk>
                    <name>anon0385</name>
                    <trkseg>
                                            <trkpt lat="54.806108333333334" lon="10.271186666666667">
                        <ele>0</ele>
                        <time>2022-08-18T13:37:15Z</time>
                                                <extensions>
                            <sog>2.5</sog>
<cog>108.9</cog>
                        </extensions>
                    </trkpt>
                    </trkseg>
                </trk>
</gpx>