<?xml version="1.0" encoding="UTF-8"?>
<gpx version="1.1" creator="AIS-to-GPX Converter" xmlns="http://www.topografix.com/GPX/1/1">
                <trk>
                    <name>anon0209</name>
                    <trkseg>
                                            <trkpt lat="54.672511666666665" lon="10.03087">
                        <ele>0</ele>
                        <time>2022-08-18T13:50:35Z</time>
                                                <extensions>
                            <sog>3.0</sog>
<cog>293.2</cog>
                        </extensions>
                    </trkpt>
                    </trkseg>
                </trk>
</gpx>