<?xml version="1.0" encoding="UTF-8"?>
<gpx version="1.1" creator="AIS-to-GPX Converter" xmlns="http://www.topografix.com/GPX/1/1">
                <trk>
                    <name>anon0390</name>
                    <trkseg>
                                            <trkpt lat="54.435615" lon="10.171103333333333">
                        <ele>0</ele>
                        <time>2022-08-18T08:01:19Z</time>
                        <extensions>
    <sog>0.1</sog>
</extensions>
                    </trkpt>
                    <trkpt lat="54.435615" lon="10.171086666666667">
                        <ele>0</ele>
                        <time>2022-08-18T08:01:49Z</time>
                        <extensions>
    <sog>0.1</sog>
</extensions>
                    </trkpt>
                    <trkpt lat="54.435635000000005" lon="10.171086666666667">
                        <ele>0</ele>
                        <time>2022-08-18T08:02:19Z</time>
                        <extensions>
    <sog>0.0</sog>
</extensions>
                    </trkpt>
                    <trkpt lat="54.43563833333334" lon="10.171086666666667">
                        <ele>0</ele>
                        <time>2022-08-18T08:02:50Z</time>
                        <extensions>
    <sog>0.0</sog>
</extensions>
                    </trkpt>
                    <trkpt lat="54.435633333333335" lon="10.171073333333334">
                        <ele>0</ele>
                        <time>2022-08-18T08:06:25Z</time>
                        <extensions>
    <sog>0.0</sog>
</extensions>
                    </trkpt>
                    <trkpt lat="54.43560166666667" lon="10.171096666666667">
                        <ele>0</ele>
                        <time>2022-08-18T08:09:18Z</time>
                        <extensions>
    <sog>0.0</sog>
</extensions>
                    </trkpt>
                    <trkpt lat="54.43562166666666" lon="10.171098333333333">
                        <ele>0</ele>
                        <time>2022-08-18T08:12:19Z</time>
                        <extensions>
    <sog>0.1</sog>
</extensions>
                    </trkpt>
                    <trkpt lat="54.435714999999995" lon="10.171415">
                        <ele>0</ele>
                        <time>2022-08-18T08:18:19Z</time>
                                                <extensions>
                            <sog>0.9</sog>
<cog>39.5</cog>
                        </extensions>
                    </trkpt>
                    <trkpt lat="54.43548333333333" lon="10.171776666666666">
                        <ele>0</ele>
                        <time>2022-08-18T08:19:46Z</time>
                                                <extensions>
                            <sog>2.4</sog>
<cog>83.5</cog>
                        </extensions>
                    </trkpt>
                    <trkpt lat="54.435246666666664" lon="10.172536666666668">
                        <ele>0</ele>
                        <time>2022-08-18T08:20:44Z</time>
                                                <extensions>
                            <sog>3.1</sog>
<cog>206.6</cog>
                        </extensions>
                    </trkpt>
                    <trkpt lat="54.43478" lon="10.17271">
                        <ele>0</ele>
                        <time>2022-08-18T08:21:16Z</time>
                                                <extensions>
                            <sog>3.6</sog>
<cog>125.1</cog>
                        </extensions>
                    </trkpt>
                    <trkpt lat="54.434705" lon="10.173573333333334">
                        <ele>0</ele>
                        <time>2022-08-18T08:21:45Z</time>
                                                <extensions>
                            <sog>4.4</sog>
<cog>93.1</cog>
                        </extensions>
                    </trkpt>
                    <trkpt lat="54.43471833333333" lon="10.174671666666667">
                        <ele>0</ele>
                        <time>2022-08-18T08:22:15Z</time>
                                                <extensions>
                            <sog>5.0</sog>
<cog>86.0</cog>
                        </extensions>
                    </trkpt>
                    <trkpt lat="54.4348" lon="10.175953333333332">
                        <ele>0</ele>
                        <time>2022-08-18T08:22:48Z</time>
                                                <extensions>
                            <sog>5.0</sog>
<cog>81.1</cog>
                        </extensions>
                    </trkpt>
                    <trkpt lat="54.43489833333333" lon="10.176973333333333">
                        <ele>0</ele>
                        <time>2022-08-18T08:23:15Z</time>
                                                <extensions>
                            <sog>4.9</sog>
<cog>82.9</cog>
                        </extensions>
                    </trkpt>
                    <trkpt lat="54.434976666666664" lon="10.181693333333333">
                        <ele>0</ele>
                        <time>2022-08-18T08:25:17Z</time>
                                                <extensions>
                            <sog>4.9</sog>
<cog>100.3</cog>
                        </extensions>
                    </trkpt>
                    <trkpt lat="54.434846666666665" lon="10.182733333333335">
                        <ele>0</ele>
                        <time>2022-08-18T08:25:44Z</time>
                                                <extensions>
                            <sog>5.2</sog>
<cog>104.1</cog>
                        </extensions>
                    </trkpt>
                    <trkpt lat="54.4347" lon="10.183988333333334">
                        <ele>0</ele>
                        <time>2022-08-18T08:26:17Z</time>
                                                <extensions>
                            <sog>5.1</sog>
<cog>102.3</cog>
                        </extensions>
                    </trkpt>
                    <trkpt lat="54.43446333333333" lon="10.186291666666667">
                        <ele>0</ele>
                        <time>2022-08-18T08:27:16Z</time>
                                                <extensions>
                            <sog>5.0</sog>
<cog>99.9</cog>
                        </extensions>
                    </trkpt>
                    <trkpt lat="54.43436166666667" lon="10.187433333333333">
                        <ele>0</ele>
                        <time>2022-08-18T08:27:45Z</time>
                                                <extensions>
                            <sog>5.0</sog>
<cog>100.0</cog>
                        </extensions>
                    </trkpt>
                    <trkpt lat="54.43428333333333" lon="10.18874">
                        <ele>0</ele>
                        <time>2022-08-18T08:28:19Z</time>
                                                <extensions>
                            <sog>4.7</sog>
<cog>92.2</cog>
                        </extensions>
                    </trkpt>
                    <trkpt lat="54.434275" lon="10.189701666666668">
                        <ele>0</ele>
                        <time>2022-08-18T08:28:44Z</time>
                                                <extensions>
                            <sog>4.7</sog>
<cog>90.9</cog>
                        </extensions>
                    </trkpt>
                    <trkpt lat="54.43430333333333" lon="10.191">
                        <ele>0</ele>
                        <time>2022-08-18T08:29:17Z</time>
                                                <extensions>
                            <sog>4.8</sog>
<cog>85.5</cog>
                        </extensions>
                    </trkpt>
                    <trkpt lat="54.434455" lon="10.193235">
                        <ele>0</ele>
                        <time>2022-08-18T08:30:18Z</time>
                                                <extensions>
                            <sog>4.7</sog>
<cog>81.1</cog>
                        </extensions>
                    </trkpt>
                    <trkpt lat="54.434533333333334" lon="10.194265">
                        <ele>0</ele>
                        <time>2022-08-18T08:30:45Z</time>
                                                <extensions>
                            <sog>4.8</sog>
<cog>95.0</cog>
                        </extensions>
                    </trkpt>
                    <trkpt lat="54.43420833333333" lon="10.195365">
                        <ele>0</ele>
                        <time>2022-08-18T08:31:16Z</time>
                                                <extensions>
                            <sog>5.5</sog>
<cog>122.8</cog>
                        </extensions>
                    </trkpt>
                    <trkpt lat="54.433355" lon="10.197323333333333">
                        <ele>0</ele>
                        <time>2022-08-18T08:32:17Z</time>
                                                <extensions>
                            <sog>5.3</sog>
<cog>128.5</cog>
                        </extensions>
                    </trkpt>
                    <trkpt lat="54.43289666666667" lon="10.19823">
                        <ele>0</ele>
                        <time>2022-08-18T08:32:44Z</time>
                                                <extensions>
                            <sog>5.9</sog>
<cog>134.4</cog>
                        </extensions>
                    </trkpt>
                    <trkpt lat="54.43226" lon="10.199276666666666">
                        <ele>0</ele>
                        <time>2022-08-18T08:33:16Z</time>
                                                <extensions>
                            <sog>6.2</sog>
<cog>134.7</cog>
                        </extensions>
                    </trkpt>
                    <trkpt lat="54.431685" lon="10.200273333333334">
                        <ele>0</ele>
                        <time>2022-08-18T08:33:44Z</time>
                                                <extensions>
                            <sog>6.4</sog>
<cog>134.1</cog>
                        </extensions>
                    </trkpt>
                    <trkpt lat="54.430998333333335" lon="10.201376666666667">
                        <ele>0</ele>
                        <time>2022-08-18T08:34:16Z</time>
                                                <extensions>
                            <sog>6.5</sog>
<cog>136.2</cog>
                        </extensions>
                    </trkpt>
                    <trkpt lat="54.43037833333334" lon="10.202214999999999">
                        <ele>0</ele>
                        <time>2022-08-18T08:34:44Z</time>
                                                <extensions>
                            <sog>5.8</sog>
<cog>143.8</cog>
                        </extensions>
                    </trkpt>
                    <trkpt lat="54.429805" lon="10.203208333333333">
                        <ele>0</ele>
                        <time>2022-08-18T08:35:15Z</time>
                                                <extensions>
                            <sog>5.4</sog>
<cog>130.6</cog>
                        </extensions>
                    </trkpt>
                    <trkpt lat="54.42930166666667" lon="10.204208333333334">
                        <ele>0</ele>
                        <time>2022-08-18T08:35:45Z</time>
                                                <extensions>
                            <sog>5.6</sog>
<cog>129.1</cog>
                        </extensions>
                    </trkpt>
                    <trkpt lat="54.42855833333333" lon="10.204730000000001">
                        <ele>0</ele>
                        <time>2022-08-18T08:36:16Z</time>
                                                <extensions>
                            <sog>5.7</sog>
<cog>178.0</cog>
                        </extensions>
                    </trkpt>
                    <trkpt lat="54.42717666666667" lon="10.204475">
                        <ele>0</ele>
                        <time>2022-08-18T08:37:14Z</time>
                                                <extensions>
                            <sog>4.9</sog>
<cog>186.0</cog>
                        </extensions>
                    </trkpt>
                    <trkpt lat="54.426473333333334" lon="10.204421666666667">
                        <ele>0</ele>
                        <time>2022-08-18T08:37:46Z</time>
                                                <extensions>
                            <sog>4.8</sog>
<cog>182.2</cog>
                        </extensions>
                    </trkpt>
                    <trkpt lat="54.42581333333333" lon="10.204376666666667">
                        <ele>0</ele>
                        <time>2022-08-18T08:38:17Z</time>
                                                <extensions>
                            <sog>4.6</sog>
<cog>181.0</cog>
                        </extensions>
                    </trkpt>
                    <trkpt lat="54.42522333333333" lon="10.204321666666667">
                        <ele>0</ele>
                        <time>2022-08-18T08:38:45Z</time>
                                                <extensions>
                            <sog>4.7</sog>
<cog>184.7</cog>
                        </extensions>
                    </trkpt>
                    <trkpt lat="54.42462166666667" lon="10.204253333333332">
                        <ele>0</ele>
                        <time>2022-08-18T08:39:14Z</time>
                                                <extensions>
                            <sog>4.6</sog>
<cog>187.2</cog>
                        </extensions>
                    </trkpt>
                    <trkpt lat="54.423345000000005" lon="10.20415">
                        <ele>0</ele>
                        <time>2022-08-18T08:40:15Z</time>
                                                <extensions>
                            <sog>4.6</sog>
<cog>180.8</cog>
                        </extensions>
                    </trkpt>
                    <trkpt lat="54.422138333333336" lon="10.204109999999998">
                        <ele>0</ele>
                        <time>2022-08-18T08:41:15Z</time>
                                                <extensions>
                            <sog>4.2</sog>
<cog>183.8</cog>
                        </extensions>
                    </trkpt>
                    <trkpt lat="54.42153" lon="10.204173333333333">
                        <ele>0</ele>
                        <time>2022-08-18T08:41:45Z</time>
                                                <extensions>
                            <sog>4.3</sog>
<cog>170.9</cog>
                        </extensions>
                    </trkpt>
                    <trkpt lat="54.42090833333334" lon="10.204203333333334">
                        <ele>0</ele>
                        <time>2022-08-18T08:42:15Z</time>
                                                <extensions>
                            <sog>4.4</sog>
<cog>177.2</cog>
                        </extensions>
                    </trkpt>
                    <trkpt lat="54.420253333333335" lon="10.204175">
                        <ele>0</ele>
                        <time>2022-08-18T08:42:46Z</time>
                                                <extensions>
                            <sog>4.8</sog>
<cog>175.4</cog>
                        </extensions>
                    </trkpt>
                    <trkpt lat="54.41961833333333" lon="10.204133333333335">
                        <ele>0</ele>
                        <time>2022-08-18T08:43:16Z</time>
                                                <extensions>
                            <sog>4.6</sog>
<cog>183.5</cog>
                        </extensions>
                    </trkpt>
                    <trkpt lat="54.419035" lon="10.20406">
                        <ele>0</ele>
                        <time>2022-08-18T08:43:44Z</time>
                                                <extensions>
                            <sog>4.5</sog>
<cog>184.6</cog>
                        </extensions>
                    </trkpt>
                    <trkpt lat="54.41838833333334" lon="10.204">
                        <ele>0</ele>
                        <time>2022-08-18T08:44:15Z</time>
                                                <extensions>
                            <sog>4.6</sog>
<cog>184.5</cog>
                        </extensions>
                    </trkpt>
                    <trkpt lat="54.417773333333336" lon="10.203949999999999">
                        <ele>0</ele>
                        <time>2022-08-18T08:44:45Z</time>
                                                <extensions>
                            <sog>4.2</sog>
<cog>182.0</cog>
                        </extensions>
                    </trkpt>
                    <trkpt lat="54.41719166666667" lon="10.203878333333334">
                        <ele>0</ele>
                        <time>2022-08-18T08:45:14Z</time>
                                                <extensions>
                            <sog>4.4</sog>
<cog>181.6</cog>
                        </extensions>
                    </trkpt>
                    <trkpt lat="54.416516666666666" lon="10.203826666666666">
                        <ele>0</ele>
                        <time>2022-08-18T08:45:48Z</time>
                                                <extensions>
                            <sog>4.2</sog>
<cog>183.0</cog>
                        </extensions>
                    </trkpt>
                    <trkpt lat="54.415956666666666" lon="10.203776666666666">
                        <ele>0</ele>
                        <time>2022-08-18T08:46:16Z</time>
                                                <extensions>
                            <sog>3.9</sog>
<cog>181.7</cog>
                        </extensions>
                    </trkpt>
                    <trkpt lat="54.41479666666667" lon="10.203631666666666">
                        <ele>0</ele>
                        <time>2022-08-18T08:47:18Z</time>
                                                <extensions>
                            <sog>4.1</sog>
<cog>193.8</cog>
                        </extensions>
                    </trkpt>
                    <trkpt lat="54.41433166666666" lon="10.203405">
                        <ele>0</ele>
                        <time>2022-08-18T08:47:45Z</time>
                                                <extensions>
                            <sog>3.8</sog>
<cog>193.6</cog>
                        </extensions>
                    </trkpt>
                    <trkpt lat="54.413805" lon="10.203218333333332">
                        <ele>0</ele>
                        <time>2022-08-18T08:48:16Z</time>
                                                <extensions>
                            <sog>3.7</sog>
<cog>192.1</cog>
                        </extensions>
                    </trkpt>
                    <trkpt lat="54.41331666666667" lon="10.203025">
                        <ele>0</ele>
                        <time>2022-08-18T08:48:46Z</time>
                                                <extensions>
                            <sog>3.7</sog>
<cog>192.9</cog>
                        </extensions>
                    </trkpt>
                    <trkpt lat="54.41281166666667" lon="10.202850000000002">
                        <ele>0</ele>
                        <time>2022-08-18T08:49:17Z</time>
                                                <extensions>
                            <sog>3.9</sog>
<cog>195.2</cog>
                        </extensions>
                    </trkpt>
                    <trkpt lat="54.412353333333336" lon="10.202668333333333">
                        <ele>0</ele>
                        <time>2022-08-18T08:49:44Z</time>
                                                <extensions>
                            <sog>3.7</sog>
<cog>192.5</cog>
                        </extensions>
                    </trkpt>
                    <trkpt lat="54.41178166666667" lon="10.20247">
                        <ele>0</ele>
                        <time>2022-08-18T08:50:17Z</time>
                                                <extensions>
                            <sog>4.0</sog>
<cog>192.3</cog>
                        </extensions>
                    </trkpt>
                    <trkpt lat="54.41121666666666" lon="10.202259999999999">
                        <ele>0</ele>
                        <time>2022-08-18T08:50:47Z</time>
                                                <extensions>
                            <sog>4.2</sog>
<cog>191.5</cog>
                        </extensions>
                    </trkpt>
                    <trkpt lat="54.410666666666664" lon="10.202063333333333">
                        <ele>0</ele>
                        <time>2022-08-18T08:51:16Z</time>
                                                <extensions>
                            <sog>4.1</sog>
<cog>190.3</cog>
                        </extensions>
                    </trkpt>
                    <trkpt lat="54.41012666666666" lon="10.201815">
                        <ele>0</ele>
                        <time>2022-08-18T08:51:45Z</time>
                                                <extensions>
                            <sog>4.2</sog>
<cog>194.6</cog>
                        </extensions>
                    </trkpt>
                    <trkpt lat="54.409576666666666" lon="10.201648333333333">
                        <ele>0</ele>
                        <time>2022-08-18T08:52:15Z</time>
                                                <extensions>
                            <sog>3.9</sog>
<cog>191.3</cog>
                        </extensions>
                    </trkpt>
                    <trkpt lat="54.40855666666666" lon="10.201241666666666">
                        <ele>0</ele>
                        <time>2022-08-18T08:53:15Z</time>
                                                <extensions>
                            <sog>3.6</sog>
<cog>192.7</cog>
                        </extensions>
                    </trkpt>
                    <trkpt lat="54.407603333333334" lon="10.200875">
                        <ele>0</ele>
                        <time>2022-08-18T08:54:17Z</time>
                                                <extensions>
                            <sog>3.4</sog>
<cog>189.4</cog>
                        </extensions>
                    </trkpt>
                    <trkpt lat="54.40717166666666" lon="10.200728333333332">
                        <ele>0</ele>
                        <time>2022-08-18T08:54:44Z</time>
                                                <extensions>
                            <sog>3.7</sog>
<cog>191.2</cog>
                        </extensions>
                    </trkpt>
                    <trkpt lat="54.40667166666666" lon="10.200546666666666">
                        <ele>0</ele>
                        <time>2022-08-18T08:55:15Z</time>
                                                <extensions>
                            <sog>3.6</sog>
<cog>197.4</cog>
                        </extensions>
                    </trkpt>
                    <trkpt lat="54.40623" lon="10.20031">
                        <ele>0</ele>
                        <time>2022-08-18T08:55:44Z</time>
                                                <extensions>
                            <sog>3.4</sog>
<cog>195.6</cog>
                        </extensions>
                    </trkpt>
                    <trkpt lat="54.40577666666666" lon="10.200056666666667">
                        <ele>0</ele>
                        <time>2022-08-18T08:56:15Z</time>
                                                <extensions>
                            <sog>3.4</sog>
<cog>203.3</cog>
                        </extensions>
                    </trkpt>
                    <trkpt lat="54.405343333333334" lon="10.199774999999999">
                        <ele>0</ele>
                        <time>2022-08-18T08:56:44Z</time>
                                                <extensions>
                            <sog>3.6</sog>
<cog>195.0</cog>
                        </extensions>
                    </trkpt>
                    <trkpt lat="54.40483833333334" lon="10.199523333333333">
                        <ele>0</ele>
                        <time>2022-08-18T08:57:14Z</time>
                                                <extensions>
                            <sog>3.7</sog>
<cog>197.3</cog>
                        </extensions>
                    </trkpt>
                    <trkpt lat="54.404293333333335" lon="10.199211666666667">
                        <ele>0</ele>
                        <time>2022-08-18T08:57:46Z</time>
                                                <extensions>
                            <sog>4.0</sog>
<cog>198.3</cog>
                        </extensions>
                    </trkpt>
                    <trkpt lat="54.40376833333333" lon="10.198933333333335">
                        <ele>0</ele>
                        <time>2022-08-18T08:58:16Z</time>
                                                <extensions>
                            <sog>4.0</sog>
<cog>197.6</cog>
                        </extensions>
                    </trkpt>
                    <trkpt lat="54.403299999999994" lon="10.198648333333333">
                        <ele>0</ele>
                        <time>2022-08-18T08:58:44Z</time>
                                                <extensions>
                            <sog>3.8</sog>
<cog>199.0</cog>
                        </extensions>
                    </trkpt>
                    <trkpt lat="54.40275333333333" lon="10.198341666666666">
                        <ele>0</ele>
                        <time>2022-08-18T08:59:16Z</time>
                                                <extensions>
                            <sog>3.9</sog>
<cog>197.4</cog>
                        </extensions>
                    </trkpt>
                    <trkpt lat="54.402235000000005" lon="10.19807">
                        <ele>0</ele>
                        <time>2022-08-18T08:59:46Z</time>
                                                <extensions>
                            <sog>3.8</sog>
<cog>196.4</cog>
                        </extensions>
                    </trkpt>
                    <trkpt lat="54.40173166666667" lon="10.197778333333334">
                        <ele>0</ele>
                        <time>2022-08-18T09:00:15Z</time>
                                                <extensions>
                            <sog>3.8</sog>
<cog>199.5</cog>
                        </extensions>
                    </trkpt>
                    <trkpt lat="54.40173166666667" lon="10.197778333333334">
                        <ele>0</ele>
                        <time>2022-08-18T09:00:15Z</time>
                                                <extensions>
                            <sog>3.8</sog>
<cog>199.5</cog>
                        </extensions>
                    </trkpt>
                    <trkpt lat="54.40121666666666" lon="10.197471666666667">
                        <ele>0</ele>
                        <time>2022-08-18T09:00:48Z</time>
                                                <extensions>
                            <sog>3.5</sog>
<cog>196.7</cog>
                        </extensions>
                    </trkpt>
                    <trkpt lat="54.40121666666666" lon="10.197471666666667">
                        <ele>0</ele>
                        <time>2022-08-18T09:00:48Z</time>
                                                <extensions>
                            <sog>3.5</sog>
<cog>196.7</cog>
                        </extensions>
                    </trkpt>
                    <trkpt lat="54.400803333333336" lon="10.197253333333332">
                        <ele>0</ele>
                        <time>2022-08-18T09:01:15Z</time>
                                                <extensions>
                            <sog>3.5</sog>
<cog>198.4</cog>
                        </extensions>
                    </trkpt>
                    <trkpt lat="54.40036333333333" lon="10.19706">
                        <ele>0</ele>
                        <time>2022-08-18T09:01:45Z</time>
                                                <extensions>
                            <sog>3.5</sog>
<cog>187.9</cog>
                        </extensions>
                    </trkpt>
                    <trkpt lat="54.399436666666666" lon="10.196828333333334">
                        <ele>0</ele>
                        <time>2022-08-18T09:02:45Z</time>
                                                <extensions>
                            <sog>3.2</sog>
<cog>186.3</cog>
                        </extensions>
                    </trkpt>
                    <trkpt lat="54.398986666666666" lon="10.196733333333333">
                        <ele>0</ele>
                        <time>2022-08-18T09:03:16Z</time>
                                                <extensions>
                            <sog>3.1</sog>
<cog>186.5</cog>
                        </extensions>
                    </trkpt>
                    <trkpt lat="54.39817333333334" lon="10.196638333333334">
                        <ele>0</ele>
                        <time>2022-08-18T09:04:15Z</time>
                                                <extensions>
                            <sog>2.8</sog>
<cog>181.1</cog>
                        </extensions>
                    </trkpt>
                    <trkpt lat="54.39747" lon="10.196589999999999">
                        <ele>0</ele>
                        <time>2022-08-18T09:05:16Z</time>
                                                <extensions>
                            <sog>2.4</sog>
<cog>185.5</cog>
                        </extensions>
                    </trkpt>
                    <trkpt lat="54.39674333333333" lon="10.19653">
                        <ele>0</ele>
                        <time>2022-08-18T09:06:15Z</time>
                                                <extensions>
                            <sog>3.0</sog>
<cog>179.2</cog>
                        </extensions>
                    </trkpt>
                    <trkpt lat="54.395876666666666" lon="10.196503333333334">
                        <ele>0</ele>
                        <time>2022-08-18T09:07:15Z</time>
                                                <extensions>
                            <sog>3.3</sog>
<cog>181.0</cog>
                        </extensions>
                    </trkpt>
                    <trkpt lat="54.395405" lon="10.196513333333334">
                        <ele>0</ele>
                        <time>2022-08-18T09:07:45Z</time>
                                                <extensions>
                            <sog>3.5</sog>
<cog>177.9</cog>
                        </extensions>
                    </trkpt>
                    <trkpt lat="54.39492833333334" lon="10.196508333333332">
                        <ele>0</ele>
                        <time>2022-08-18T09:08:16Z</time>
                                                <extensions>
                            <sog>3.4</sog>
<cog>182.4</cog>
                        </extensions>
                    </trkpt>
                    <trkpt lat="54.39441333333333" lon="10.196483333333333">
                        <ele>0</ele>
                        <time>2022-08-18T09:08:49Z</time>
                                                <extensions>
                            <sog>3.2</sog>
<cog>181.0</cog>
                        </extensions>
                    </trkpt>
                    <trkpt lat="54.39363" lon="10.196439999999999">
                        <ele>0</ele>
                        <time>2022-08-18T09:09:45Z</time>
                                                <extensions>
                            <sog>2.9</sog>
<cog>180.7</cog>
                        </extensions>
                    </trkpt>
                    <trkpt lat="54.39319666666667" lon="10.196428333333333">
                        <ele>0</ele>
                        <time>2022-08-18T09:10:17Z</time>
                                                <extensions>
                            <sog>2.7</sog>
<cog>181.4</cog>
                        </extensions>
                    </trkpt>
                    <trkpt lat="54.392444999999995" lon="10.196351666666667">
                        <ele>0</ele>
                        <time>2022-08-18T09:11:15Z</time>
                                                <extensions>
                            <sog>2.7</sog>
<cog>179.5</cog>
                        </extensions>
                    </trkpt>
                    <trkpt lat="54.392068333333334" lon="10.196363333333332">
                        <ele>0</ele>
                        <time>2022-08-18T09:11:45Z</time>
                                                <extensions>
                            <sog>2.7</sog>
<cog>177.7</cog>
                        </extensions>
                    </trkpt>
                    <trkpt lat="54.391679999999994" lon="10.196355">
                        <ele>0</ele>
                        <time>2022-08-18T09:12:18Z</time>
                                                <extensions>
                            <sog>2.4</sog>
<cog>181.4</cog>
                        </extensions>
                    </trkpt>
                    <trkpt lat="54.391353333333335" lon="10.196333333333333">
                        <ele>0</ele>
                        <time>2022-08-18T09:12:45Z</time>
                                                <extensions>
                            <sog>2.5</sog>
<cog>181.9</cog>
                        </extensions>
                    </trkpt>
                    <trkpt lat="54.39102166666667" lon="10.19633">
                        <ele>0</ele>
                        <time>2022-08-18T09:13:15Z</time>
                                                <extensions>
                            <sog>2.3</sog>
<cog>179.8</cog>
                        </extensions>
                    </trkpt>
                    <trkpt lat="54.39071833333333" lon="10.19627">
                        <ele>0</ele>
                        <time>2022-08-18T09:13:46Z</time>
                                                <extensions>
                            <sog>2.1</sog>
<cog>192.9</cog>
                        </extensions>
                    </trkpt>
                    <trkpt lat="54.390445" lon="10.196140000000002">
                        <ele>0</ele>
                        <time>2022-08-18T09:14:15Z</time>
                                                <extensions>
                            <sog>2.0</sog>
<cog>192.8</cog>
                        </extensions>
                    </trkpt>
                    <trkpt lat="54.390211666666666" lon="10.196038333333332">
                        <ele>0</ele>
                        <time>2022-08-18T09:14:45Z</time>
                                                <extensions>
                            <sog>1.7</sog>
<cog>198.8</cog>
                        </extensions>
                    </trkpt>
                    <trkpt lat="54.38953333333333" lon="10.195415">
                        <ele>0</ele>
                        <time>2022-08-18T09:16:15Z</time>
                                                <extensions>
                            <sog>2.0</sog>
<cog>218.2</cog>
                        </extensions>
                    </trkpt>
                    <trkpt lat="54.38931166666667" lon="10.195106666666668">
                        <ele>0</ele>
                        <time>2022-08-18T09:16:47Z</time>
                                                <extensions>
                            <sog>2.0</sog>
<cog>218.5</cog>
                        </extensions>
                    </trkpt>
                    <trkpt lat="54.38908" lon="10.194823333333334">
                        <ele>0</ele>
                        <time>2022-08-18T09:17:15Z</time>
                                                <extensions>
                            <sog>2.0</sog>
<cog>218.4</cog>
                        </extensions>
                    </trkpt>
                    <trkpt lat="54.388823333333335" lon="10.194533333333334">
                        <ele>0</ele>
                        <time>2022-08-18T09:17:46Z</time>
                                                <extensions>
                            <sog>2.2</sog>
<cog>213.5</cog>
                        </extensions>
                    </trkpt>
                    <trkpt lat="54.388645" lon="10.194243333333333">
                        <ele>0</ele>
                        <time>2022-08-18T09:18:15Z</time>
                                                <extensions>
                            <sog>1.8</sog>
<cog>226.5</cog>
                        </extensions>
                    </trkpt>
                    <trkpt lat="54.38829" lon="10.19351">
                        <ele>0</ele>
                        <time>2022-08-18T09:19:16Z</time>
                                                <extensions>
                            <sog>2.2</sog>
<cog>226.6</cog>
                        </extensions>
                    </trkpt>
                    <trkpt lat="54.38805333333333" lon="10.193175">
                        <ele>0</ele>
                        <time>2022-08-18T09:19:45Z</time>
                                                <extensions>
                            <sog>2.3</sog>
<cog>222.5</cog>
                        </extensions>
                    </trkpt>
                    <trkpt lat="54.38780333333333" lon="10.192716666666666">
                        <ele>0</ele>
                        <time>2022-08-18T09:20:17Z</time>
                                                <extensions>
                            <sog>2.5</sog>
<cog>226.9</cog>
                        </extensions>
                    </trkpt>
                    <trkpt lat="54.38760666666667" lon="10.192325">
                        <ele>0</ele>
                        <time>2022-08-18T09:20:46Z</time>
                                                <extensions>
                            <sog>2.5</sog>
<cog>230.1</cog>
                        </extensions>
                    </trkpt>
                    <trkpt lat="54.387370000000004" lon="10.191861666666666">
                        <ele>0</ele>
                        <time>2022-08-18T09:21:15Z</time>
                                                <extensions>
                            <sog>2.6</sog>
<cog>228.3</cog>
                        </extensions>
                    </trkpt>
                    <trkpt lat="54.38709166666667" lon="10.191374999999999">
                        <ele>0</ele>
                        <time>2022-08-18T09:21:47Z</time>
                                                <extensions>
                            <sog>2.6</sog>
<cog>221.3</cog>
                        </extensions>
                    </trkpt>
                    <trkpt lat="54.386855" lon="10.190995">
                        <ele>0</ele>
                        <time>2022-08-18T09:22:15Z</time>
                                                <extensions>
                            <sog>2.6</sog>
<cog>227.4</cog>
                        </extensions>
                    </trkpt>
                    <trkpt lat="54.386610000000005" lon="10.190508333333334">
                        <ele>0</ele>
                        <time>2022-08-18T09:22:46Z</time>
                                                <extensions>
                            <sog>2.6</sog>
<cog>223.3</cog>
                        </extensions>
                    </trkpt>
                    <trkpt lat="54.386361666666666" lon="10.190133333333334">
                        <ele>0</ele>
                        <time>2022-08-18T09:23:15Z</time>
                                                <extensions>
                            <sog>2.4</sog>
<cog>215.6</cog>
                        </extensions>
                    </trkpt>
                    <trkpt lat="54.38607833333333" lon="10.189791666666668">
                        <ele>0</ele>
                        <time>2022-08-18T09:23:45Z</time>
                                                <extensions>
                            <sog>2.3</sog>
<cog>219.6</cog>
                        </extensions>
                    </trkpt>
                    <trkpt lat="54.38583666666667" lon="10.189446666666667">
                        <ele>0</ele>
                        <time>2022-08-18T09:24:15Z</time>
                                                <extensions>
                            <sog>2.3</sog>
<cog>220.5</cog>
                        </extensions>
                    </trkpt>
                    <trkpt lat="54.38559333333333" lon="10.189060000000001">
                        <ele>0</ele>
                        <time>2022-08-18T09:24:46Z</time>
                                                <extensions>
                            <sog>2.2</sog>
<cog>222.3</cog>
                        </extensions>
                    </trkpt>
                    <trkpt lat="54.385324999999995" lon="10.188646666666667">
                        <ele>0</ele>
                        <time>2022-08-18T09:25:21Z</time>
                                                <extensions>
                            <sog>2.1</sog>
<cog>223.6</cog>
                        </extensions>
                    </trkpt>
                    <trkpt lat="54.38515833333334" lon="10.188348333333332">
                        <ele>0</ele>
                        <time>2022-08-18T09:25:46Z</time>
                                                <extensions>
                            <sog>2.1</sog>
<cog>222.1</cog>
                        </extensions>
                    </trkpt>
                    <trkpt lat="54.384945" lon="10.188013333333334">
                        <ele>0</ele>
                        <time>2022-08-18T09:26:15Z</time>
                                                <extensions>
                            <sog>2.3</sog>
<cog>223.2</cog>
                        </extensions>
                    </trkpt>
                    <trkpt lat="54.38448" lon="10.187205">
                        <ele>0</ele>
                        <time>2022-08-18T09:27:16Z</time>
                                                <extensions>
                            <sog>2.3</sog>
<cog>227.7</cog>
                        </extensions>
                    </trkpt>
                    <trkpt lat="54.38422833333333" lon="10.186795">
                        <ele>0</ele>
                        <time>2022-08-18T09:27:45Z</time>
                                                <extensions>
                            <sog>2.4</sog>
<cog>223.0</cog>
                        </extensions>
                    </trkpt>
                    <trkpt lat="54.38398333333334" lon="10.186435">
                        <ele>0</ele>
                        <time>2022-08-18T09:28:15Z</time>
                                                <extensions>
                            <sog>2.4</sog>
<cog>221.8</cog>
                        </extensions>
                    </trkpt>
                    <trkpt lat="54.383026666666666" lon="10.184866666666666">
                        <ele>0</ele>
                        <time>2022-08-18T09:30:17Z</time>
                                                <extensions>
                            <sog>2.2</sog>
<cog>221.4</cog>
                        </extensions>
                    </trkpt>
                    <trkpt lat="54.382823333333334" lon="10.184526666666667">
                        <ele>0</ele>
                        <time>2022-08-18T09:30:48Z</time>
                                                <extensions>
                            <sog>2.1</sog>
<cog>218.0</cog>
                        </extensions>
                    </trkpt>
                    <trkpt lat="54.38259333333333" lon="10.184241666666667">
                        <ele>0</ele>
                        <time>2022-08-18T09:31:16Z</time>
                                                <extensions>
                            <sog>2.1</sog>
<cog>217.4</cog>
                        </extensions>
                    </trkpt>
                    <trkpt lat="54.38239166666666" lon="10.183953333333333">
                        <ele>0</ele>
                        <time>2022-08-18T09:31:45Z</time>
                                                <extensions>
                            <sog>2.1</sog>
<cog>223.9</cog>
                        </extensions>
                    </trkpt>
                    <trkpt lat="54.38221" lon="10.183588333333335">
                        <ele>0</ele>
                        <time>2022-08-18T09:32:15Z</time>
                                                <extensions>
                            <sog>2.1</sog>
<cog>230.6</cog>
                        </extensions>
                    </trkpt>
                    <trkpt lat="54.382034999999995" lon="10.183186666666668">
                        <ele>0</ele>
                        <time>2022-08-18T09:32:45Z</time>
                                                <extensions>
                            <sog>2.2</sog>
<cog>232.3</cog>
                        </extensions>
                    </trkpt>
                    <trkpt lat="54.381845" lon="10.182778333333333">
                        <ele>0</ele>
                        <time>2022-08-18T09:33:16Z</time>
                                                <extensions>
                            <sog>2.3</sog>
<cog>226.6</cog>
                        </extensions>
                    </trkpt>
                    <trkpt lat="54.38164" lon="10.182378333333332">
                        <ele>0</ele>
                        <time>2022-08-18T09:33:45Z</time>
                                                <extensions>
                            <sog>2.3</sog>
<cog>233.7</cog>
                        </extensions>
                    </trkpt>
                    <trkpt lat="54.38143166666667" lon="10.181953333333333">
                        <ele>0</ele>
                        <time>2022-08-18T09:34:16Z</time>
                                                <extensions>
                            <sog>2.1</sog>
<cog>225.5</cog>
                        </extensions>
                    </trkpt>
                    <trkpt lat="54.38101666666667" lon="10.181265">
                        <ele>0</ele>
                        <time>2022-08-18T09:35:15Z</time>
                                                <extensions>
                            <sog>2.1</sog>
<cog>226.6</cog>
                        </extensions>
                    </trkpt>
                    <trkpt lat="54.380833333333335" lon="10.180878333333334">
                        <ele>0</ele>
                        <time>2022-08-18T09:35:47Z</time>
                                                <extensions>
                            <sog>2.1</sog>
<cog>226.6</cog>
                        </extensions>
                    </trkpt>
                    <trkpt lat="54.380604999999996" lon="10.180568333333333">
                        <ele>0</ele>
                        <time>2022-08-18T09:36:15Z</time>
                                                <extensions>
                            <sog>2.1</sog>
<cog>223.5</cog>
                        </extensions>
                    </trkpt>
                    <trkpt lat="54.38021333333334" lon="10.179966666666667">
                        <ele>0</ele>
                        <time>2022-08-18T09:37:15Z</time>
                                                <extensions>
                            <sog>1.8</sog>
<cog>220.3</cog>
                        </extensions>
                    </trkpt>
                    <trkpt lat="54.37983833333333" lon="10.179378333333334">
                        <ele>0</ele>
                        <time>2022-08-18T09:38:15Z</time>
                                                <extensions>
                            <sog>1.8</sog>
<cog>225.0</cog>
                        </extensions>
                    </trkpt>
                    <trkpt lat="54.37964833333333" lon="10.1791">
                        <ele>0</ele>
                        <time>2022-08-18T09:38:46Z</time>
                                                <extensions>
                            <sog>1.7</sog>
<cog>222.5</cog>
                        </extensions>
                    </trkpt>
                    <trkpt lat="54.37947666666666" lon="10.178825">
                        <ele>0</ele>
                        <time>2022-08-18T09:39:15Z</time>
                                                <extensions>
                            <sog>1.7</sog>
<cog>221.7</cog>
                        </extensions>
                    </trkpt>
                    <trkpt lat="54.37930666666667" lon="10.178536666666668">
                        <ele>0</ele>
                        <time>2022-08-18T09:39:45Z</time>
                                                <extensions>
                            <sog>1.7</sog>
<cog>218.6</cog>
                        </extensions>
                    </trkpt>
                    <trkpt lat="54.3782" lon="10.177231666666668">
                        <ele>0</ele>
                        <time>2022-08-18T09:42:45Z</time>
                                                <extensions>
                            <sog>2.2</sog>
<cog>214.0</cog>
                        </extensions>
                    </trkpt>
                    <trkpt lat="54.377939999999995" lon="10.176915000000001">
                        <ele>0</ele>
                        <time>2022-08-18T09:43:15Z</time>
                                                <extensions>
                            <sog>2.4</sog>
<cog>217.5</cog>
                        </extensions>
                    </trkpt>
                    <trkpt lat="54.37766833333333" lon="10.176566666666668">
                        <ele>0</ele>
                        <time>2022-08-18T09:43:45Z</time>
                                                <extensions>
                            <sog>2.5</sog>
<cog>214.6</cog>
                        </extensions>
                    </trkpt>
                    <trkpt lat="54.376870000000004" lon="10.175576666666666">
                        <ele>0</ele>
                        <time>2022-08-18T09:44:45Z</time>
                                                <extensions>
                            <sog>4.3</sog>
<cog>217.0</cog>
                        </extensions>
                    </trkpt>
                    <trkpt lat="54.37639" lon="10.174975">
                        <ele>0</ele>
                        <time>2022-08-18T09:45:14Z</time>
                                                <extensions>
                            <sog>4.7</sog>
<cog>217.5</cog>
                        </extensions>
                    </trkpt>
                    <trkpt lat="54.375840000000004" lon="10.174306666666666">
                        <ele>0</ele>
                        <time>2022-08-18T09:45:45Z</time>
                                                <extensions>
                            <sog>4.6</sog>
<cog>217.5</cog>
                        </extensions>
                    </trkpt>
                    <trkpt lat="54.374865" lon="10.172931666666667">
                        <ele>0</ele>
                        <time>2022-08-18T09:46:45Z</time>
                                                <extensions>
                            <sog>4.7</sog>
<cog>219.3</cog>
                        </extensions>
                    </trkpt>
                    <trkpt lat="54.374295" lon="10.172218333333332">
                        <ele>0</ele>
                        <time>2022-08-18T09:47:16Z</time>
                                                <extensions>
                            <sog>4.7</sog>
<cog>215.8</cog>
                        </extensions>
                    </trkpt>
                    <trkpt lat="54.37372833333333" lon="10.171541666666666">
                        <ele>0</ele>
                        <time>2022-08-18T09:47:45Z</time>
                                                <extensions>
                            <sog>5.4</sog>
<cog>213.2</cog>
                        </extensions>
                    </trkpt>
                    <trkpt lat="54.372213333333335" lon="10.170616666666666">
                        <ele>0</ele>
                        <time>2022-08-18T09:48:46Z</time>
                                                <extensions>
                            <sog>5.9</sog>
<cog>193.5</cog>
                        </extensions>
                    </trkpt>
                    <trkpt lat="54.37063833333333" lon="10.170031666666667">
                        <ele>0</ele>
                        <time>2022-08-18T09:49:45Z</time>
                                                <extensions>
                            <sog>6.0</sog>
<cog>193.3</cog>
                        </extensions>
                    </trkpt>
                    <trkpt lat="54.36986" lon="10.16968">
                        <ele>0</ele>
                        <time>2022-08-18T09:50:15Z</time>
                                                <extensions>
                            <sog>5.9</sog>
<cog>199.4</cog>
                        </extensions>
                    </trkpt>
                    <trkpt lat="54.36915833333333" lon="10.169141666666667">
                        <ele>0</ele>
                        <time>2022-08-18T09:50:45Z</time>
                                                <extensions>
                            <sog>5.9</sog>
<cog>208.9</cog>
                        </extensions>
                    </trkpt>
                    <trkpt lat="54.36765833333333" lon="10.167938333333332">
                        <ele>0</ele>
                        <time>2022-08-18T09:51:46Z</time>
                                                <extensions>
                            <sog>5.9</sog>
<cog>201.6</cog>
                        </extensions>
                    </trkpt>
                    <trkpt lat="54.36696833333333" lon="10.167416666666666">
                        <ele>0</ele>
                        <time>2022-08-18T09:52:15Z</time>
                                                <extensions>
                            <sog>5.8</sog>
<cog>207.9</cog>
                        </extensions>
                    </trkpt>
                    <trkpt lat="54.36624166666666" lon="10.166721666666666">
                        <ele>0</ele>
                        <time>2022-08-18T09:52:45Z</time>
                                                <extensions>
                            <sog>5.9</sog>
<cog>210.7</cog>
                        </extensions>
                    </trkpt>
                    <trkpt lat="54.365535" lon="10.165991666666667">
                        <ele>0</ele>
                        <time>2022-08-18T09:53:16Z</time>
                                                <extensions>
                            <sog>5.8</sog>
<cog>215.3</cog>
                        </extensions>
                    </trkpt>
                    <trkpt lat="54.364855" lon="10.165331666666667">
                        <ele>0</ele>
                        <time>2022-08-18T09:53:45Z</time>
                                                <extensions>
                            <sog>5.7</sog>
<cog>203.0</cog>
                        </extensions>
                    </trkpt>
                    <trkpt lat="54.36407666666666" lon="10.164916666666667">
                        <ele>0</ele>
                        <time>2022-08-18T09:54:16Z</time>
                                                <extensions>
                            <sog>5.8</sog>
<cog>196.5</cog>
                        </extensions>
                    </trkpt>
                    <trkpt lat="54.363261666666666" lon="10.164578333333333">
                        <ele>0</ele>
                        <time>2022-08-18T09:54:48Z</time>
                                                <extensions>
                            <sog>5.6</sog>
<cog>194.2</cog>
                        </extensions>
                    </trkpt>
                    <trkpt lat="54.362615" lon="10.164301666666667">
                        <ele>0</ele>
                        <time>2022-08-18T09:55:14Z</time>
                                                <extensions>
                            <sog>5.1</sog>
<cog>199.9</cog>
                        </extensions>
                    </trkpt>
                    <trkpt lat="54.362091666666664" lon="10.163893333333334">
                        <ele>0</ele>
                        <time>2022-08-18T09:55:45Z</time>
                                                <extensions>
                            <sog>3.3</sog>
<cog>201.6</cog>
                        </extensions>
                    </trkpt>
                    <trkpt lat="54.36139" lon="10.163491666666665">
                        <ele>0</ele>
                        <time>2022-08-18T09:56:45Z</time>
                                                <extensions>
                            <sog>2.4</sog>
<cog>193.6</cog>
                        </extensions>
                    </trkpt>
                    <trkpt lat="54.36105166666667" lon="10.1634">
                        <ele>0</ele>
                        <time>2022-08-18T09:57:15Z</time>
                                                <extensions>
                            <sog>2.5</sog>
<cog>186.4</cog>
                        </extensions>
                    </trkpt>
                    <trkpt lat="54.360699999999994" lon="10.163366666666667">
                        <ele>0</ele>
                        <time>2022-08-18T09:57:44Z</time>
                                                <extensions>
                            <sog>2.5</sog>
<cog>182.5</cog>
                        </extensions>
                    </trkpt>
                    <trkpt lat="54.360375" lon="10.163358333333333">
                        <ele>0</ele>
                        <time>2022-08-18T09:58:15Z</time>
                                                <extensions>
                            <sog>2.0</sog>
<cog>180.1</cog>
                        </extensions>
                    </trkpt>
                    <trkpt lat="54.36012" lon="10.163368333333333">
                        <ele>0</ele>
                        <time>2022-08-18T09:58:45Z</time>
                                                <extensions>
                            <sog>1.7</sog>
<cog>187.4</cog>
                        </extensions>
                    </trkpt>
                    <trkpt lat="54.359881666666666" lon="10.163264999999999">
                        <ele>0</ele>
                        <time>2022-08-18T09:59:16Z</time>
                                                <extensions>
                            <sog>1.5</sog>
<cog>199.1</cog>
                        </extensions>
                    </trkpt>
                    <trkpt lat="54.35971" lon="10.163155">
                        <ele>0</ele>
                        <time>2022-08-18T09:59:45Z</time>
                                                <extensions>
                            <sog>1.4</sog>
<cog>200.4</cog>
                        </extensions>
                    </trkpt>
                    <trkpt lat="54.359505" lon="10.163041666666667">
                        <ele>0</ele>
                        <time>2022-08-18T10:00:17Z</time>
                                                <extensions>
                            <sog>2.1</sog>
<cog>194.3</cog>
                        </extensions>
                    </trkpt>
                    <trkpt lat="54.359505" lon="10.163041666666667">
                        <ele>0</ele>
                        <time>2022-08-18T10:00:17Z</time>
                                                <extensions>
                            <sog>2.1</sog>
<cog>194.3</cog>
                        </extensions>
                    </trkpt>
                    <trkpt lat="54.35915166666667" lon="10.162998333333332">
                        <ele>0</ele>
                        <time>2022-08-18T10:00:46Z</time>
                                                <extensions>
                            <sog>3.1</sog>
<cog>172.5</cog>
                        </extensions>
                    </trkpt>
                    <trkpt lat="54.35915166666667" lon="10.162998333333332">
                        <ele>0</ele>
                        <time>2022-08-18T10:00:46Z</time>
                                                <extensions>
                            <sog>3.1</sog>
<cog>172.5</cog>
                        </extensions>
                    </trkpt>
                    <trkpt lat="54.35871833333333" lon="10.163231666666666">
                        <ele>0</ele>
                        <time>2022-08-18T10:01:16Z</time>
                                                <extensions>
                            <sog>3.6</sog>
<cog>157.9</cog>
                        </extensions>
                    </trkpt>
                    <trkpt lat="54.358241666666665" lon="10.163545">
                        <ele>0</ele>
                        <time>2022-08-18T10:01:45Z</time>
                                                <extensions>
                            <sog>3.8</sog>
<cog>159.1</cog>
                        </extensions>
                    </trkpt>
                    <trkpt lat="54.35774166666667" lon="10.163780000000001">
                        <ele>0</ele>
                        <time>2022-08-18T10:02:15Z</time>
                                                <extensions>
                            <sog>3.9</sog>
<cog>163.4</cog>
                        </extensions>
                    </trkpt>
                    <trkpt lat="54.35658333333333" lon="10.163943333333332">
                        <ele>0</ele>
                        <time>2022-08-18T10:03:15Z</time>
                                                <extensions>
                            <sog>5.1</sog>
<cog>188.3</cog>
                        </extensions>
                    </trkpt>
                    <trkpt lat="54.355873333333335" lon="10.163771666666666">
                        <ele>0</ele>
                        <time>2022-08-18T10:03:45Z</time>
                                                <extensions>
                            <sog>5.3</sog>
<cog>189.7</cog>
                        </extensions>
                    </trkpt>
                    <trkpt lat="54.35517166666667" lon="10.163385">
                        <ele>0</ele>
                        <time>2022-08-18T10:04:15Z</time>
                                                <extensions>
                            <sog>5.3</sog>
<cog>205.6</cog>
                        </extensions>
                    </trkpt>
                    <trkpt lat="54.354508333333335" lon="10.16296">
                        <ele>0</ele>
                        <time>2022-08-18T10:04:45Z</time>
                                                <extensions>
                            <sog>5.3</sog>
<cog>189.6</cog>
                        </extensions>
                    </trkpt>
                    <trkpt lat="54.353786666666664" lon="10.162808333333334">
                        <ele>0</ele>
                        <time>2022-08-18T10:05:15Z</time>
                                                <extensions>
                            <sog>5.3</sog>
<cog>187.2</cog>
                        </extensions>
                    </trkpt>
                    <trkpt lat="54.353055000000005" lon="10.162614999999999">
                        <ele>0</ele>
                        <time>2022-08-18T10:05:45Z</time>
                                                <extensions>
                            <sog>5.3</sog>
<cog>190.5</cog>
                        </extensions>
                    </trkpt>
                    <trkpt lat="54.352275" lon="10.162329999999999">
                        <ele>0</ele>
                        <time>2022-08-18T10:06:17Z</time>
                                                <extensions>
                            <sog>5.3</sog>
<cog>184.5</cog>
                        </extensions>
                    </trkpt>
                    <trkpt lat="54.351530000000004" lon="10.162166666666668">
                        <ele>0</ele>
                        <time>2022-08-18T10:06:47Z</time>
                                                <extensions>
                            <sog>5.4</sog>
<cog>183.3</cog>
                        </extensions>
                    </trkpt>
                    <trkpt lat="54.35084" lon="10.162049999999999">
                        <ele>0</ele>
                        <time>2022-08-18T10:07:15Z</time>
                                                <extensions>
                            <sog>5.4</sog>
<cog>186.2</cog>
                        </extensions>
                    </trkpt>
                    <trkpt lat="54.35004833333333" lon="10.161983333333334">
                        <ele>0</ele>
                        <time>2022-08-18T10:07:46Z</time>
                                                <extensions>
                            <sog>5.4</sog>
<cog>178.6</cog>
                        </extensions>
                    </trkpt>
                    <trkpt lat="54.349309999999996" lon="10.162025">
                        <ele>0</ele>
                        <time>2022-08-18T10:08:16Z</time>
                                                <extensions>
                            <sog>5.4</sog>
<cog>179.7</cog>
                        </extensions>
                    </trkpt>
                    <trkpt lat="54.34851833333333" lon="10.161981666666666">
                        <ele>0</ele>
                        <time>2022-08-18T10:08:47Z</time>
                                                <extensions>
                            <sog>5.4</sog>
<cog>182.2</cog>
                        </extensions>
                    </trkpt>
                    <trkpt lat="54.347745" lon="10.16197">
                        <ele>0</ele>
                        <time>2022-08-18T10:09:18Z</time>
                                                <extensions>
                            <sog>5.4</sog>
<cog>181.7</cog>
                        </extensions>
                    </trkpt>
                    <trkpt lat="54.347073333333334" lon="10.161926666666666">
                        <ele>0</ele>
                        <time>2022-08-18T10:09:45Z</time>
                                                <extensions>
                            <sog>5.4</sog>
<cog>179.8</cog>
                        </extensions>
                    </trkpt>
                    <trkpt lat="54.346333333333334" lon="10.161838333333332">
                        <ele>0</ele>
                        <time>2022-08-18T10:10:15Z</time>
                                                <extensions>
                            <sog>5.4</sog>
<cog>188.8</cog>
                        </extensions>
                    </trkpt>
                    <trkpt lat="54.345621666666666" lon="10.161793333333332">
                        <ele>0</ele>
                        <time>2022-08-18T10:10:45Z</time>
                                                <extensions>
                            <sog>5.4</sog>
<cog>180.0</cog>
                        </extensions>
                    </trkpt>
                    <trkpt lat="54.344855" lon="10.16192">
                        <ele>0</ele>
                        <time>2022-08-18T10:11:15Z</time>
                                                <extensions>
                            <sog>5.3</sog>
<cog>171.9</cog>
                        </extensions>
                    </trkpt>
                    <trkpt lat="54.34413833333333" lon="10.161938333333334">
                        <ele>0</ele>
                        <time>2022-08-18T10:11:44Z</time>
                                                <extensions>
                            <sog>5.3</sog>
<cog>181.3</cog>
                        </extensions>
                    </trkpt>
                    <trkpt lat="54.34334" lon="10.161904999999999">
                        <ele>0</ele>
                        <time>2022-08-18T10:12:16Z</time>
                                                <extensions>
                            <sog>5.3</sog>
<cog>181.1</cog>
                        </extensions>
                    </trkpt>
                    <trkpt lat="54.34262666666667" lon="10.161914999999999">
                        <ele>0</ele>
                        <time>2022-08-18T10:12:45Z</time>
                                                <extensions>
                            <sog>5.3</sog>
<cog>178.1</cog>
                        </extensions>
                    </trkpt>
                    <trkpt lat="54.341163333333334" lon="10.161995">
                        <ele>0</ele>
                        <time>2022-08-18T10:13:45Z</time>
                                                <extensions>
                            <sog>5.2</sog>
<cog>179.6</cog>
                        </extensions>
                    </trkpt>
                    <trkpt lat="54.340435" lon="10.162">
                        <ele>0</ele>
                        <time>2022-08-18T10:14:16Z</time>
                                                <extensions>
                            <sog>5.3</sog>
<cog>181.0</cog>
                        </extensions>
                    </trkpt>
                    <trkpt lat="54.33900333333334" lon="10.161868333333333">
                        <ele>0</ele>
                        <time>2022-08-18T10:15:15Z</time>
                                                <extensions>
                            <sog>5.3</sog>
<cog>186.5</cog>
                        </extensions>
                    </trkpt>
                    <trkpt lat="54.338265" lon="10.161683333333334">
                        <ele>0</ele>
                        <time>2022-08-18T10:15:45Z</time>
                                                <extensions>
                            <sog>5.2</sog>
<cog>189.0</cog>
                        </extensions>
                    </trkpt>
                    <trkpt lat="54.33759166666667" lon="10.16143">
                        <ele>0</ele>
                        <time>2022-08-18T10:16:14Z</time>
                                                <extensions>
                            <sog>5.3</sog>
<cog>198.4</cog>
                        </extensions>
                    </trkpt>
                    <trkpt lat="54.336935000000004" lon="10.160785">
                        <ele>0</ele>
                        <time>2022-08-18T10:16:45Z</time>
                                                <extensions>
                            <sog>5.2</sog>
<cog>206.0</cog>
                        </extensions>
                    </trkpt>
                    <trkpt lat="54.33627833333333" lon="10.160185">
                        <ele>0</ele>
                        <time>2022-08-18T10:17:16Z</time>
                                                <extensions>
                            <sog>5.3</sog>
<cog>218.8</cog>
                        </extensions>
                    </trkpt>
                    <trkpt lat="54.33572166666667" lon="10.159451666666666">
                        <ele>0</ele>
                        <time>2022-08-18T10:17:45Z</time>
                                                <extensions>
                            <sog>5.3</sog>
<cog>217.3</cog>
                        </extensions>
                    </trkpt>
                    <trkpt lat="54.33512833333334" lon="10.158708333333333">
                        <ele>0</ele>
                        <time>2022-08-18T10:18:15Z</time>
                                                <extensions>
                            <sog>5.3</sog>
<cog>212.7</cog>
                        </extensions>
                    </trkpt>
                    <trkpt lat="54.334516666666666" lon="10.157981666666666">
                        <ele>0</ele>
                        <time>2022-08-18T10:18:45Z</time>
                                                <extensions>
                            <sog>5.4</sog>
<cog>221.2</cog>
                        </extensions>
                    </trkpt>
                    <trkpt lat="54.333996666666664" lon="10.157138333333334">
                        <ele>0</ele>
                        <time>2022-08-18T10:19:15Z</time>
                                                <extensions>
                            <sog>5.3</sog>
<cog>223.5</cog>
                        </extensions>
                    </trkpt>
                    <trkpt lat="54.333425000000005" lon="10.15624">
                        <ele>0</ele>
                        <time>2022-08-18T10:19:45Z</time>
                                                <extensions>
                            <sog>5.4</sog>
<cog>219.3</cog>
                        </extensions>
                    </trkpt>
                    <trkpt lat="54.332855" lon="10.155348333333334">
                        <ele>0</ele>
                        <time>2022-08-18T10:20:16Z</time>
                                                <extensions>
                            <sog>5.4</sog>
<cog>223.4</cog>
                        </extensions>
                    </trkpt>
                    <trkpt lat="54.33230833333334" lon="10.154501666666667">
                        <ele>0</ele>
                        <time>2022-08-18T10:20:46Z</time>
                                                <extensions>
                            <sog>5.4</sog>
<cog>216.9</cog>
                        </extensions>
                    </trkpt>
                    <trkpt lat="54.33166333333334" lon="10.15372">
                        <ele>0</ele>
                        <time>2022-08-18T10:21:18Z</time>
                                                <extensions>
                            <sog>5.4</sog>
<cog>213.0</cog>
                        </extensions>
                    </trkpt>
                    <trkpt lat="54.331093333333335" lon="10.152998333333333">
                        <ele>0</ele>
                        <time>2022-08-18T10:21:46Z</time>
                                                <extensions>
                            <sog>5.4</sog>
<cog>218.1</cog>
                        </extensions>
                    </trkpt>
                    <trkpt lat="54.33058833333334" lon="10.152228333333333">
                        <ele>0</ele>
                        <time>2022-08-18T10:22:15Z</time>
                                                <extensions>
                            <sog>4.3</sog>
<cog>222.8</cog>
                        </extensions>
                    </trkpt>
                    <trkpt lat="54.330216666666665" lon="10.151615">
                        <ele>0</ele>
                        <time>2022-08-18T10:22:44Z</time>
                                                <extensions>
                            <sog>3.3</sog>
<cog>225.6</cog>
                        </extensions>
                    </trkpt>
                    <trkpt lat="54.32992333333333" lon="10.15106">
                        <ele>0</ele>
                        <time>2022-08-18T10:23:15Z</time>
                                                <extensions>
                            <sog>3.1</sog>
<cog>230.0</cog>
                        </extensions>
                    </trkpt>
                    <trkpt lat="54.329119999999996" lon="10.14968">
                        <ele>0</ele>
                        <time>2022-08-18T10:24:47Z</time>
                                                <extensions>
                            <sog>2.3</sog>
<cog>224.2</cog>
                        </extensions>
                    </trkpt>
                    <trkpt lat="54.328921666666666" lon="10.149365">
                        <ele>0</ele>
                        <time>2022-08-18T10:25:14Z</time>
                                                <extensions>
                            <sog>1.9</sog>
<cog>220.9</cog>
                        </extensions>
                    </trkpt>
                    <trkpt lat="54.32873333333334" lon="10.149071666666666">
                        <ele>0</ele>
                        <time>2022-08-18T10:25:45Z</time>
                                                <extensions>
                            <sog>1.7</sog>
<cog>219.6</cog>
                        </extensions>
                    </trkpt>
                    <trkpt lat="54.32855833333333" lon="10.148876666666666">
                        <ele>0</ele>
                        <time>2022-08-18T10:26:14Z</time>
                                                <extensions>
                            <sog>1.4</sog>
<cog>220.9</cog>
                        </extensions>
                    </trkpt>
                    <trkpt lat="54.32848333333333" lon="10.148688333333332">
                        <ele>0</ele>
                        <time>2022-08-18T10:26:44Z</time>
                                                <extensions>
                            <sog>0.2</sog>
<cog>257.1</cog>
                        </extensions>
                    </trkpt>
                    <trkpt lat="54.328425" lon="10.148601666666668">
                        <ele>0</ele>
                        <time>2022-08-18T10:27:19Z</time>
                                                <extensions>
                            <sog>0.7</sog>
<cog>201.0</cog>
                        </extensions>
                    </trkpt>
                    <trkpt lat="54.32830333333333" lon="10.148525000000001">
                        <ele>0</ele>
                        <time>2022-08-18T10:27:46Z</time>
                                                <extensions>
                            <sog>1.3</sog>
<cog>203.6</cog>
                        </extensions>
                    </trkpt>
                    <trkpt lat="54.32817166666667" lon="10.14842">
                        <ele>0</ele>
                        <time>2022-08-18T10:28:15Z</time>
                                                <extensions>
                            <sog>1.0</sog>
<cog>215.7</cog>
                        </extensions>
                    </trkpt>
                    <trkpt lat="54.32875166666667" lon="10.148935">
                        <ele>0</ele>
                        <time>2022-08-18T10:30:11Z</time>
                                                <extensions>
                            <sog>3.0</sog>
<cog>39.5</cog>
                        </extensions>
                    </trkpt>
                    <trkpt lat="54.32911" lon="10.149423333333335">
                        <ele>0</ele>
                        <time>2022-08-18T10:30:41Z</time>
                                                <extensions>
                            <sog>3.5</sog>
<cog>40.5</cog>
                        </extensions>
                    </trkpt>
                    <trkpt lat="54.32947" lon="10.150041666666668">
                        <ele>0</ele>
                        <time>2022-08-18T10:31:11Z</time>
                                                <extensions>
                            <sog>3.7</sog>
<cog>46.2</cog>
                        </extensions>
                    </trkpt>
                    <trkpt lat="54.329820000000005" lon="10.15067">
                        <ele>0</ele>
                        <time>2022-08-18T10:31:40Z</time>
                                                <extensions>
                            <sog>3.8</sog>
<cog>45.7</cog>
                        </extensions>
                    </trkpt>
                    <trkpt lat="54.33024833333333" lon="10.151355">
                        <ele>0</ele>
                        <time>2022-08-18T10:32:14Z</time>
                                                <extensions>
                            <sog>3.7</sog>
<cog>44.7</cog>
                        </extensions>
                    </trkpt>
                    <trkpt lat="54.33061166666666" lon="10.151831666666668">
                        <ele>0</ele>
                        <time>2022-08-18T10:32:41Z</time>
                                                <extensions>
                            <sog>3.7</sog>
<cog>34.9</cog>
                        </extensions>
                    </trkpt>
                    <trkpt lat="54.331064999999995" lon="10.152226666666667">
                        <ele>0</ele>
                        <time>2022-08-18T10:33:11Z</time>
                                                <extensions>
                            <sog>4.0</sog>
<cog>17.0</cog>
                        </extensions>
                    </trkpt>
                    <trkpt lat="54.331361666666666" lon="10.152653333333335">
                        <ele>0</ele>
                        <time>2022-08-18T10:33:41Z</time>
                                                <extensions>
                            <sog>2.6</sog>
<cog>64.2</cog>
                        </extensions>
                    </trkpt>
                    <trkpt lat="54.33156333333333" lon="10.153070000000001">
                        <ele>0</ele>
                        <time>2022-08-18T10:34:11Z</time>
                                                <extensions>
                            <sog>2.2</sog>
<cog>18.9</cog>
                        </extensions>
                    </trkpt>
                    <trkpt lat="54.33186" lon="10.15295">
                        <ele>0</ele>
                        <time>2022-08-18T10:34:41Z</time>
                                                <extensions>
                            <sog>2.6</sog>
<cog>334.6</cog>
                        </extensions>
                    </trkpt>
                    <trkpt lat="54.332215" lon="10.152651666666666">
                        <ele>0</ele>
                        <time>2022-08-18T10:35:11Z</time>
                                                <extensions>
                            <sog>2.7</sog>
<cog>332.3</cog>
                        </extensions>
                    </trkpt>
                    <trkpt lat="54.33255666666666" lon="10.152445">
                        <ele>0</ele>
                        <time>2022-08-18T10:35:43Z</time>
                                                <extensions>
                            <sog>2.3</sog>
<cog>354.3</cog>
                        </extensions>
                    </trkpt>
                    <trkpt lat="54.332835" lon="10.152545">
                        <ele>0</ele>
                        <time>2022-08-18T10:36:12Z</time>
                                                <extensions>
                            <sog>2.1</sog>
<cog>15.9</cog>
                        </extensions>
                    </trkpt>
                    <trkpt lat="54.33305666666667" lon="10.152745000000001">
                        <ele>0</ele>
                        <time>2022-08-18T10:36:42Z</time>
                                                <extensions>
                            <sog>1.6</sog>
<cog>28.4</cog>
                        </extensions>
                    </trkpt>
                    <trkpt lat="54.33308666666667" lon="10.152823333333334">
                        <ele>0</ele>
                        <time>2022-08-18T10:37:11Z</time>
                                                <extensions>
                            <sog>0.5</sog>
<cog>191.0</cog>
                        </extensions>
                    </trkpt>
                    <trkpt lat="54.332991666666665" lon="10.152753333333333">
                        <ele>0</ele>
                        <time>2022-08-18T10:37:40Z</time>
                                                <extensions>
                            <sog>1.2</sog>
<cog>195.7</cog>
                        </extensions>
                    </trkpt>
                    <trkpt lat="54.332840000000004" lon="10.15266">
                        <ele>0</ele>
                        <time>2022-08-18T10:38:11Z</time>
                                                <extensions>
                            <sog>0.9</sog>
<cog>198.0</cog>
                        </extensions>
                    </trkpt>
                    <trkpt lat="54.332703333333335" lon="10.15255">
                        <ele>0</ele>
                        <time>2022-08-18T10:38:40Z</time>
                                                <extensions>
                            <sog>1.4</sog>
<cog>201.4</cog>
                        </extensions>
                    </trkpt>
                    <trkpt lat="54.33253333333334" lon="10.152465000000001">
                        <ele>0</ele>
                        <time>2022-08-18T10:39:11Z</time>
                                                <extensions>
                            <sog>0.5</sog>
<cog>204.0</cog>
                        </extensions>
                    </trkpt>
                    <trkpt lat="54.33261666666667" lon="10.152518333333335">
                        <ele>0</ele>
                        <time>2022-08-18T10:39:40Z</time>
                                                <extensions>
                            <sog>0.8</sog>
<cog>21.7</cog>
                        </extensions>
                    </trkpt>
                    <trkpt lat="54.33290833333333" lon="10.152423333333333">
                        <ele>0</ele>
                        <time>2022-08-18T10:42:40Z</time>
                                                <extensions>
                            <sog>0.4</sog>
<cog>296.4</cog>
                        </extensions>
                    </trkpt>
                    <trkpt lat="54.33293833333333" lon="10.152393333333332">
                        <ele>0</ele>
                        <time>2022-08-18T10:45:43Z</time>
                                                <extensions>
                            <sog>0.0</sog>
<cog>302.4</cog>
                        </extensions>
                    </trkpt>
                    <trkpt lat="54.33294166666667" lon="10.152386666666667">
                        <ele>0</ele>
                        <time>2022-08-18T10:48:40Z</time>
                                                <extensions>
                            <sog>0.1</sog>
<cog>302.4</cog>
                        </extensions>
                    </trkpt>
                    <trkpt lat="54.332946666666665" lon="10.152388333333333">
                        <ele>0</ele>
                        <time>2022-08-18T10:51:41Z</time>
                                                <extensions>
                            <sog>0.2</sog>
<cog>277.3</cog>
                        </extensions>
                    </trkpt>
                    <trkpt lat="54.332928333333335" lon="10.152413333333334">
                        <ele>0</ele>
                        <time>2022-08-18T10:54:45Z</time>
                                                <extensions>
                            <sog>0.0</sog>
<cog>277.3</cog>
                        </extensions>
                    </trkpt>
                    <trkpt lat="54.332915" lon="10.152443333333334">
                        <ele>0</ele>
                        <time>2022-08-18T10:57:41Z</time>
                                                <extensions>
                            <sog>0.0</sog>
<cog>277.3</cog>
                        </extensions>
                    </trkpt>
                    <trkpt lat="54.332903333333334" lon="10.152413333333334">
                        <ele>0</ele>
                        <time>2022-08-18T11:00:41Z</time>
                                                <extensions>
                            <sog>0.1</sog>
<cog>277.3</cog>
                        </extensions>
                    </trkpt>
                    <trkpt lat="54.332903333333334" lon="10.152413333333334">
                        <ele>0</ele>
                        <time>2022-08-18T11:00:41Z</time>
                                                <extensions>
                            <sog>0.1</sog>
<cog>277.3</cog>
                        </extensions>
                    </trkpt>
                    <trkpt lat="54.33293833333333" lon="10.152406666666668">
                        <ele>0</ele>
                        <time>2022-08-18T11:03:40Z</time>
                                                <extensions>
                            <sog>0.0</sog>
<cog>277.3</cog>
                        </extensions>
                    </trkpt>
                    <trkpt lat="54.33295" lon="10.152416666666666">
                        <ele>0</ele>
                        <time>2022-08-18T15:57:31Z</time>
                        <extensions>
    <sog>0.1</sog>
</extensions>
                    </trkpt>
                    <trkpt lat="54.332951666666666" lon="10.152416666666666">
                        <ele>0</ele>
                        <time>2022-08-18T15:57:59Z</time>
                        <extensions>
    <sog>0.1</sog>
</extensions>
                    </trkpt>
                    <trkpt lat="54.332955" lon="10.152408333333334">
                        <ele>0</ele>
                        <time>2022-08-18T15:58:30Z</time>
                        <extensions>
    <sog>0.1</sog>
</extensions>
                    </trkpt>
                    <trkpt lat="54.332946666666665" lon="10.1524">
                        <ele>0</ele>
                        <time>2022-08-18T15:59:00Z</time>
                        <extensions>
    <sog>0.0</sog>
</extensions>
                    </trkpt>
                    <trkpt lat="54.332946666666665" lon="10.152393333333332">
                        <ele>0</ele>
                        <time>2022-08-18T15:59:30Z</time>
                        <extensions>
    <sog>0.0</sog>
</extensions>
                    </trkpt>
                    <trkpt lat="54.33294333333333" lon="10.152371666666665">
                        <ele>0</ele>
                        <time>2022-08-18T16:02:29Z</time>
                        <extensions>
    <sog>0.0</sog>
</extensions>
                    </trkpt>
                    <trkpt lat="54.332946666666665" lon="10.152371666666665">
                        <ele>0</ele>
                        <time>2022-08-18T16:05:31Z</time>
                                                <extensions>
                            <sog>0.0</sog>
<cog>249.6</cog>
                        </extensions>
                    </trkpt>
                    </trkseg>
                </trk>
</gpx>