<?xml version="1.0" encoding="UTF-8"?>
<gpx version="1.1" creator="AIS-to-GPX Converter" xmlns="http://www.topografix.com/GPX/1/1">
                <trk>
                    <name>anon0199</name>
                    <trkseg>
                                            <trkpt lat="54.630635" lon="10.065693333333334">
                        <ele>0</ele>
                        <time>2022-08-18T12:40:55Z</time>
                                                <extensions>
                            <sog>5.1</sog>
<cog>196.0</cog>
                        </extensions>
                    </trkpt>
                    <trkpt lat="54.62993666666667" lon="10.065386666666665">
                        <ele>0</ele>
                        <time>2022-08-18T12:41:26Z</time>
                                                <extensions>
                            <sog>5.2</sog>
<cog>194.5</cog>
                        </extensions>
                    </trkpt>
                    <trkpt lat="54.629243333333335" lon="10.065055">
                        <ele>0</ele>
                        <time>2022-08-18T12:41:55Z</time>
                                                <extensions>
                            <sog>5.1</sog>
<cog>192.3</cog>
                        </extensions>
                    </trkpt>
                    <trkpt lat="54.628523333333334" lon="10.064736666666667">
                        <ele>0</ele>
                        <time>2022-08-18T12:42:26Z</time>
                                                <extensions>
                            <sog>5.2</sog>
<cog>196.9</cog>
                        </extensions>
                    </trkpt>
                    <trkpt lat="54.627849999999995" lon="10.064433333333334">
                        <ele>0</ele>
                        <time>2022-08-18T12:42:55Z</time>
                                                <extensions>
                            <sog>5.2</sog>
<cog>194.9</cog>
                        </extensions>
                    </trkpt>
                    <trkpt lat="54.62225333333333" lon="10.061900000000001">
                        <ele>0</ele>
                        <time>2022-08-18T12:46:55Z</time>
                                                <extensions>
                            <sog>5.2</sog>
<cog>197.1</cog>
                        </extensions>
                    </trkpt>
                    <trkpt lat="54.619413333333334" lon="10.060646666666665">
                        <ele>0</ele>
                        <time>2022-08-18T12:48:57Z</time>
                                                <extensions>
                            <sog>5.2</sog>
<cog>194.9</cog>
                        </extensions>
                    </trkpt>
                    <trkpt lat="54.61306166666667" lon="10.058111666666667">
                        <ele>0</ele>
                        <time>2022-08-18T12:53:25Z</time>
                                                <extensions>
                            <sog>5.3</sog>
<cog>193.0</cog>
                        </extensions>
                    </trkpt>
                    <trkpt lat="54.61234833333333" lon="10.05783">
                        <ele>0</ele>
                        <time>2022-08-18T12:53:56Z</time>
                                                <extensions>
                            <sog>5.3</sog>
<cog>191.8</cog>
                        </extensions>
                    </trkpt>
                    <trkpt lat="54.585675" lon="10.049325000000001">
                        <ele>0</ele>
                        <time>2022-08-18T13:11:56Z</time>
                                                <extensions>
                            <sog>5.6</sog>
<cog>211.7</cog>
                        </extensions>
                    </trkpt>
                    <trkpt lat="54.57994166666666" lon="10.040318333333333">
                        <ele>0</ele>
                        <time>2022-08-18T13:16:55Z</time>
                                                <extensions>
                            <sog>5.5</sog>
<cog>225.0</cog>
                        </extensions>
                    </trkpt>
                    <trkpt lat="54.580130000000004" lon="10.033081666666668">
                        <ele>0</ele>
                        <time>2022-08-18T13:19:56Z</time>
                                                <extensions>
                            <sog>5.3</sog>
<cog>286.0</cog>
                        </extensions>
                    </trkpt>
                    </trkseg>
                </trk>
</gpx>