<?xml version="1.0" encoding="UTF-8"?>
<gpx version="1.1" creator="AIS-to-GPX Converter" xmlns="http://www.topografix.com/GPX/1/1">
                <trk>
                    <name>anon0448</name>
                    <trkseg>
                                            <trkpt lat="54.363481666666665" lon="9.852863333333334">
                        <ele>0</ele>
                        <time>2022-08-18T00:00:00Z</time>
                                                <extensions>
                            <sog>8.7</sog>
<cog>96.6</cog>
                        </extensions>
                    </trkpt>
                    <trkpt lat="54.36342666666667" lon="9.853546666666666">
                        <ele>0</ele>
                        <time>2022-08-18T00:00:10Z</time>
                                                <extensions>
                            <sog>8.6</sog>
<cog>97.6</cog>
                        </extensions>
                    </trkpt>
                    <trkpt lat="54.363371666666666" lon="9.854158333333334">
                        <ele>0</ele>
                        <time>2022-08-18T00:00:19Z</time>
                                                <extensions>
                            <sog>8.6</sog>
<cog>98.6</cog>
                        </extensions>
                    </trkpt>
                    <trkpt lat="54.363305" lon="9.854771666666666">
                        <ele>0</ele>
                        <time>2022-08-18T00:00:29Z</time>
                                                <extensions>
                            <sog>8.6</sog>
<cog>100.2</cog>
                        </extensions>
                    </trkpt>
                    <trkpt lat="54.36322833333334" lon="9.855456666666667">
                        <ele>0</ele>
                        <time>2022-08-18T00:00:39Z</time>
                                                <extensions>
                            <sog>8.7</sog>
<cog>100.9</cog>
                        </extensions>
                    </trkpt>
                    <trkpt lat="54.36314333333333" lon="9.856138333333332">
                        <ele>0</ele>
                        <time>2022-08-18T00:00:48Z</time>
                                                <extensions>
                            <sog>8.8</sog>
<cog>102.0</cog>
                        </extensions>
                    </trkpt>
                    <trkpt lat="54.363036666666666" lon="9.856963333333335">
                        <ele>0</ele>
                        <time>2022-08-18T00:01:00Z</time>
                                                <extensions>
                            <sog>8.8</sog>
<cog>102.5</cog>
                        </extensions>
                    </trkpt>
                    <trkpt lat="54.183323333333334" lon="9.487413333333334">
                        <ele>0</ele>
                        <time>2022-08-18T20:55:59Z</time>
                                                <extensions>
                            <sog>8.6</sog>
<cog>70.3</cog>
                        </extensions>
                    </trkpt>
                    <trkpt lat="54.184065000000004" lon="9.491336666666665">
                        <ele>0</ele>
                        <time>2022-08-18T20:56:59Z</time>
                                                <extensions>
                            <sog>8.6</sog>
<cog>71.3</cog>
                        </extensions>
                    </trkpt>
                    <trkpt lat="54.18774833333334" lon="9.509396666666667">
                        <ele>0</ele>
                        <time>2022-08-18T21:01:39Z</time>
                                                <extensions>
                            <sog>8.6</sog>
<cog>70.3</cog>
                        </extensions>
                    </trkpt>
                    <trkpt lat="54.18912" lon="9.515993333333334">
                        <ele>0</ele>
                        <time>2022-08-18T21:03:20Z</time>
                                                <extensions>
                            <sog>8.6</sog>
<cog>70.4</cog>
                        </extensions>
                    </trkpt>
                    <trkpt lat="54.193185" lon="9.535166666666667">
                        <ele>0</ele>
                        <time>2022-08-18T21:08:20Z</time>
                                                <extensions>
                            <sog>8.6</sog>
<cog>68.8</cog>
                        </extensions>
                    </trkpt>
                    <trkpt lat="54.193329999999996" lon="9.535805">
                        <ele>0</ele>
                        <time>2022-08-18T21:08:30Z</time>
                                                <extensions>
                            <sog>8.6</sog>
<cog>68.8</cog>
                        </extensions>
                    </trkpt>
                    <trkpt lat="54.19362666666667" lon="9.537093333333333">
                        <ele>0</ele>
                        <time>2022-08-18T21:08:50Z</time>
                                                <extensions>
                            <sog>8.6</sog>
<cog>68.4</cog>
                        </extensions>
                    </trkpt>
                    <trkpt lat="54.19407666666667" lon="9.539008333333333">
                        <ele>0</ele>
                        <time>2022-08-18T21:09:20Z</time>
                                                <extensions>
                            <sog>8.8</sog>
<cog>66.8</cog>
                        </extensions>
                    </trkpt>
                    <trkpt lat="54.29203166666667" lon="9.674166666666668">
                        <ele>0</ele>
                        <time>2022-08-18T23:01:59Z</time>
                                                <extensions>
                            <sog>7.7</sog>
<cog>75.3</cog>
                        </extensions>
                    </trkpt>
                    <trkpt lat="54.29212666666667" lon="9.674756666666667">
                        <ele>0</ele>
                        <time>2022-08-18T23:02:09Z</time>
                                                <extensions>
                            <sog>7.7</sog>
<cog>74.9</cog>
                        </extensions>
                    </trkpt>
                    <trkpt lat="54.29273" lon="9.678251666666666">
                        <ele>0</ele>
                        <time>2022-08-18T23:03:09Z</time>
                                                <extensions>
                            <sog>7.5</sog>
<cog>72.4</cog>
                        </extensions>
                    </trkpt>
                    <trkpt lat="54.294198333333334" lon="9.686555">
                        <ele>0</ele>
                        <time>2022-08-18T23:05:30Z</time>
                                                <extensions>
                            <sog>8.1</sog>
<cog>73.4</cog>
                        </extensions>
                    </trkpt>
                    <trkpt lat="54.328765" lon="9.72472">
                        <ele>0</ele>
                        <time>2022-08-18T23:24:20Z</time>
                                                <extensions>
                            <sog>8.8</sog>
<cog>45.2</cog>
                        </extensions>
                    </trkpt>
                    <trkpt lat="54.331825" lon="9.730455000000001">
                        <ele>0</ele>
                        <time>2022-08-18T23:26:10Z</time>
                                                <extensions>
                            <sog>8.8</sog>
<cog>48.2</cog>
                        </extensions>
                    </trkpt>
                    <trkpt lat="54.33231833333333" lon="9.731396666666665">
                        <ele>0</ele>
                        <time>2022-08-18T23:26:29Z</time>
                                                <extensions>
                            <sog>8.8</sog>
<cog>48.7</cog>
                        </extensions>
                    </trkpt>
                    <trkpt lat="54.332589999999996" lon="9.731921666666667">
                        <ele>0</ele>
                        <time>2022-08-18T23:26:38Z</time>
                                                <extensions>
                            <sog>8.8</sog>
<cog>48.6</cog>
                        </extensions>
                    </trkpt>
                    <trkpt lat="54.335636666666666" lon="9.737881666666668">
                        <ele>0</ele>
                        <time>2022-08-18T23:28:30Z</time>
                                                <extensions>
                            <sog>9.0</sog>
<cog>49.3</cog>
                        </extensions>
                    </trkpt>
                    <trkpt lat="54.336125" lon="9.738868333333333">
                        <ele>0</ele>
                        <time>2022-08-18T23:28:48Z</time>
                                                <extensions>
                            <sog>9.0</sog>
<cog>49.4</cog>
                        </extensions>
                    </trkpt>
                    <trkpt lat="54.336425" lon="9.739465">
                        <ele>0</ele>
                        <time>2022-08-18T23:28:59Z</time>
                                                <extensions>
                            <sog>9.0</sog>
<cog>49.6</cog>
                        </extensions>
                    </trkpt>
                    <trkpt lat="54.33725666666667" lon="9.741163333333333">
                        <ele>0</ele>
                        <time>2022-08-18T23:29:30Z</time>
                                                <extensions>
                            <sog>9.0</sog>
<cog>50.3</cog>
                        </extensions>
                    </trkpt>
                    <trkpt lat="54.337755" lon="9.742211666666666">
                        <ele>0</ele>
                        <time>2022-08-18T23:29:49Z</time>
                                                <extensions>
                            <sog>9.0</sog>
<cog>50.6</cog>
                        </extensions>
                    </trkpt>
                    <trkpt lat="54.33963166666667" lon="9.746071666666667">
                        <ele>0</ele>
                        <time>2022-08-18T23:30:59Z</time>
                                                <extensions>
                            <sog>9.0</sog>
<cog>50.1</cog>
                        </extensions>
                    </trkpt>
                    <trkpt lat="54.33992833333333" lon="9.746673333333332">
                        <ele>0</ele>
                        <time>2022-08-18T23:31:10Z</time>
                                                <extensions>
                            <sog>9.0</sog>
<cog>49.3</cog>
                        </extensions>
                    </trkpt>
                    <trkpt lat="54.34017333333334" lon="9.747161666666667">
                        <ele>0</ele>
                        <time>2022-08-18T23:31:19Z</time>
                                                <extensions>
                            <sog>9.0</sog>
<cog>49.2</cog>
                        </extensions>
                    </trkpt>
                    <trkpt lat="54.34044666666667" lon="9.747708333333332">
                        <ele>0</ele>
                        <time>2022-08-18T23:31:29Z</time>
                                                <extensions>
                            <sog>9.0</sog>
<cog>49.2</cog>
                        </extensions>
                    </trkpt>
                    <trkpt lat="54.34099833333333" lon="9.748793333333333">
                        <ele>0</ele>
                        <time>2022-08-18T23:31:49Z</time>
                                                <extensions>
                            <sog>9.0</sog>
<cog>49.2</cog>
                        </extensions>
                    </trkpt>
                    <trkpt lat="54.342095" lon="9.750965">
                        <ele>0</ele>
                        <time>2022-08-18T23:32:29Z</time>
                                                <extensions>
                            <sog>9.0</sog>
<cog>48.5</cog>
                        </extensions>
                    </trkpt>
                    <trkpt lat="54.34234333333333" lon="9.751453333333334">
                        <ele>0</ele>
                        <time>2022-08-18T23:32:38Z</time>
                                                <extensions>
                            <sog>9.0</sog>
<cog>49.0</cog>
                        </extensions>
                    </trkpt>
                    <trkpt lat="54.34264833333334" lon="9.75205">
                        <ele>0</ele>
                        <time>2022-08-18T23:32:49Z</time>
                                                <extensions>
                            <sog>9.0</sog>
<cog>48.6</cog>
                        </extensions>
                    </trkpt>
                    <trkpt lat="54.34316333333334" lon="9.753086666666666">
                        <ele>0</ele>
                        <time>2022-08-18T23:33:08Z</time>
                                                <extensions>
                            <sog>9.0</sog>
<cog>49.8</cog>
                        </extensions>
                    </trkpt>
                    <trkpt lat="54.343741666666666" lon="9.754248333333333">
                        <ele>0</ele>
                        <time>2022-08-18T23:33:29Z</time>
                                                <extensions>
                            <sog>9.0</sog>
<cog>49.0</cog>
                        </extensions>
                    </trkpt>
                    <trkpt lat="54.34399166666667" lon="9.75473">
                        <ele>0</ele>
                        <time>2022-08-18T23:33:38Z</time>
                                                <extensions>
                            <sog>9.0</sog>
<cog>48.8</cog>
                        </extensions>
                    </trkpt>
                    <trkpt lat="54.344295" lon="9.755320000000001">
                        <ele>0</ele>
                        <time>2022-08-18T23:33:49Z</time>
                                                <extensions>
                            <sog>9.0</sog>
<cog>48.7</cog>
                        </extensions>
                    </trkpt>
                    <trkpt lat="54.344813333333335" lon="9.756348333333333">
                        <ele>0</ele>
                        <time>2022-08-18T23:34:08Z</time>
                                                <extensions>
                            <sog>9.0</sog>
<cog>49.4</cog>
                        </extensions>
                    </trkpt>
                    <trkpt lat="54.34732666666666" lon="9.761383333333333">
                        <ele>0</ele>
                        <time>2022-08-18T23:35:40Z</time>
                                                <extensions>
                            <sog>9.0</sog>
<cog>48.7</cog>
                        </extensions>
                    </trkpt>
                    <trkpt lat="54.34786" lon="9.762383333333334">
                        <ele>0</ele>
                        <time>2022-08-18T23:35:59Z</time>
                                                <extensions>
                            <sog>9.0</sog>
<cog>47.5</cog>
                        </extensions>
                    </trkpt>
                    <trkpt lat="54.34811166666667" lon="9.76287">
                        <ele>0</ele>
                        <time>2022-08-18T23:36:08Z</time>
                                                <extensions>
                            <sog>9.0</sog>
<cog>47.9</cog>
                        </extensions>
                    </trkpt>
                    <trkpt lat="54.34845" lon="9.763515">
                        <ele>0</ele>
                        <time>2022-08-18T23:36:20Z</time>
                                                <extensions>
                            <sog>9.0</sog>
<cog>47.7</cog>
                        </extensions>
                    </trkpt>
                    <trkpt lat="54.35424833333333" lon="9.774741666666667">
                        <ele>0</ele>
                        <time>2022-08-18T23:39:49Z</time>
                                                <extensions>
                            <sog>8.9</sog>
<cog>49.5</cog>
                        </extensions>
                    </trkpt>
                    <trkpt lat="54.35589" lon="9.777915">
                        <ele>0</ele>
                        <time>2022-08-18T23:40:49Z</time>
                                                <extensions>
                            <sog>8.9</sog>
<cog>48.2</cog>
                        </extensions>
                    </trkpt>
                    <trkpt lat="54.35749333333333" lon="9.781078333333333">
                        <ele>0</ele>
                        <time>2022-08-18T23:41:48Z</time>
                                                <extensions>
                            <sog>8.9</sog>
<cog>50.4</cog>
                        </extensions>
                    </trkpt>
                    <trkpt lat="54.35917833333333" lon="9.785221666666667">
                        <ele>0</ele>
                        <time>2022-08-18T23:43:00Z</time>
                                                <extensions>
                            <sog>8.8</sog>
<cog>56.4</cog>
                        </extensions>
                    </trkpt>
                    <trkpt lat="54.36016666666667" lon="9.788123333333335">
                        <ele>0</ele>
                        <time>2022-08-18T23:43:48Z</time>
                                                <extensions>
                            <sog>8.8</sog>
<cog>60.6</cog>
                        </extensions>
                    </trkpt>
                    <trkpt lat="54.36152166666667" lon="9.793245">
                        <ele>0</ele>
                        <time>2022-08-18T23:45:09Z</time>
                                                <extensions>
                            <sog>8.7</sog>
<cog>68.1</cog>
                        </extensions>
                    </trkpt>
                    <trkpt lat="54.361671666666666" lon="9.793895">
                        <ele>0</ele>
                        <time>2022-08-18T23:45:19Z</time>
                                                <extensions>
                            <sog>8.8</sog>
<cog>69.0</cog>
                        </extensions>
                    </trkpt>
                    <trkpt lat="54.36347" lon="9.817591666666667">
                        <ele>0</ele>
                        <time>2022-08-18T23:51:09Z</time>
                                                <extensions>
                            <sog>8.0</sog>
<cog>88.8</cog>
                        </extensions>
                    </trkpt>
                    <trkpt lat="54.36349666666667" lon="9.819476666666667">
                        <ele>0</ele>
                        <time>2022-08-18T23:51:39Z</time>
                                                <extensions>
                            <sog>7.8</sog>
<cog>88.5</cog>
                        </extensions>
                    </trkpt>
                    <trkpt lat="54.363505" lon="9.821351666666667">
                        <ele>0</ele>
                        <time>2022-08-18T23:52:09Z</time>
                                                <extensions>
                            <sog>7.8</sog>
<cog>89.5</cog>
                        </extensions>
                    </trkpt>
                    <trkpt lat="54.36351" lon="9.821978333333334">
                        <ele>0</ele>
                        <time>2022-08-18T23:52:19Z</time>
                                                <extensions>
                            <sog>7.8</sog>
<cog>89.1</cog>
                        </extensions>
                    </trkpt>
                    <trkpt lat="54.36353666666666" lon="9.824525">
                        <ele>0</ele>
                        <time>2022-08-18T23:52:59Z</time>
                                                <extensions>
                            <sog>8.0</sog>
<cog>88.9</cog>
                        </extensions>
                    </trkpt>
                    <trkpt lat="54.363545" lon="9.825108333333333">
                        <ele>0</ele>
                        <time>2022-08-18T23:53:09Z</time>
                                                <extensions>
                            <sog>8.1</sog>
<cog>88.6</cog>
                        </extensions>
                    </trkpt>
                    <trkpt lat="54.363593333333334" lon="9.828386666666667">
                        <ele>0</ele>
                        <time>2022-08-18T23:53:59Z</time>
                                                <extensions>
                            <sog>8.0</sog>
<cog>89.3</cog>
                        </extensions>
                    </trkpt>
                    <trkpt lat="54.363595000000004" lon="9.828958333333333">
                        <ele>0</ele>
                        <time>2022-08-18T23:54:09Z</time>
                                                <extensions>
                            <sog>7.9</sog>
<cog>89.1</cog>
                        </extensions>
                    </trkpt>
                    <trkpt lat="54.36360166666667" lon="9.829656666666667">
                        <ele>0</ele>
                        <time>2022-08-18T23:54:20Z</time>
                                                <extensions>
                            <sog>7.9</sog>
<cog>89.2</cog>
                        </extensions>
                    </trkpt>
                    <trkpt lat="54.363614999999996" lon="9.831505">
                        <ele>0</ele>
                        <time>2022-08-18T23:54:49Z</time>
                                                <extensions>
                            <sog>8.0</sog>
<cog>88.8</cog>
                        </extensions>
                    </trkpt>
                    <trkpt lat="54.36362333333333" lon="9.832216666666666">
                        <ele>0</ele>
                        <time>2022-08-18T23:54:59Z</time>
                                                <extensions>
                            <sog>8.0</sog>
<cog>89.0</cog>
                        </extensions>
                    </trkpt>
                    <trkpt lat="54.363641666666666" lon="9.834835">
                        <ele>0</ele>
                        <time>2022-08-18T23:55:39Z</time>
                                                <extensions>
                            <sog>8.5</sog>
<cog>89.5</cog>
                        </extensions>
                    </trkpt>
                    <trkpt lat="54.363665" lon="9.836338333333334">
                        <ele>0</ele>
                        <time>2022-08-18T23:56:00Z</time>
                                                <extensions>
                            <sog>8.5</sog>
<cog>89.0</cog>
                        </extensions>
                    </trkpt>
                    <trkpt lat="54.36368166666667" lon="9.838241666666667">
                        <ele>0</ele>
                        <time>2022-08-18T23:56:29Z</time>
                                                <extensions>
                            <sog>8.5</sog>
<cog>89.3</cog>
                        </extensions>
                    </trkpt>
                    <trkpt lat="54.363686666666666" lon="9.838918333333334">
                        <ele>0</ele>
                        <time>2022-08-18T23:56:39Z</time>
                                                <extensions>
                            <sog>8.5</sog>
<cog>89.1</cog>
                        </extensions>
                    </trkpt>
                    <trkpt lat="54.363695" lon="9.839591666666667">
                        <ele>0</ele>
                        <time>2022-08-18T23:56:48Z</time>
                                                <extensions>
                            <sog>8.4</sog>
<cog>88.9</cog>
                        </extensions>
                    </trkpt>
                    <trkpt lat="54.363701666666664" lon="9.840391666666667">
                        <ele>0</ele>
                        <time>2022-08-18T23:57:00Z</time>
                                                <extensions>
                            <sog>8.4</sog>
<cog>89.1</cog>
                        </extensions>
                    </trkpt>
                    <trkpt lat="54.363701666666664" lon="9.840926666666666">
                        <ele>0</ele>
                        <time>2022-08-18T23:57:09Z</time>
                                                <extensions>
                            <sog>8.4</sog>
<cog>89.9</cog>
                        </extensions>
                    </trkpt>
                    <trkpt lat="54.36369" lon="9.842278333333333">
                        <ele>0</ele>
                        <time>2022-08-18T23:57:29Z</time>
                                                <extensions>
                            <sog>8.4</sog>
<cog>91.0</cog>
                        </extensions>
                    </trkpt>
                    <trkpt lat="54.363695" lon="9.84365">
                        <ele>0</ele>
                        <time>2022-08-18T23:57:48Z</time>
                                                <extensions>
                            <sog>8.6</sog>
<cog>89.8</cog>
                        </extensions>
                    </trkpt>
                    <trkpt lat="54.363695" lon="9.844481666666667">
                        <ele>0</ele>
                        <time>2022-08-18T23:58:00Z</time>
                                                <extensions>
                            <sog>8.6</sog>
<cog>90.0</cog>
                        </extensions>
                    </trkpt>
                    <trkpt lat="54.3637" lon="9.845041666666667">
                        <ele>0</ele>
                        <time>2022-08-18T23:58:09Z</time>
                                                <extensions>
                            <sog>8.7</sog>
<cog>89.2</cog>
                        </extensions>
                    </trkpt>
                    <trkpt lat="54.36370333333333" lon="9.84581">
                        <ele>0</ele>
                        <time>2022-08-18T23:58:20Z</time>
                                                <extensions>
                            <sog>8.8</sog>
<cog>89.7</cog>
                        </extensions>
                    </trkpt>
                    <trkpt lat="54.363704999999996" lon="9.846443333333333">
                        <ele>0</ele>
                        <time>2022-08-18T23:58:29Z</time>
                                                <extensions>
                            <sog>8.8</sog>
<cog>89.8</cog>
                        </extensions>
                    </trkpt>
                    <trkpt lat="54.363704999999996" lon="9.847148333333333">
                        <ele>0</ele>
                        <time>2022-08-18T23:58:39Z</time>
                                                <extensions>
                            <sog>8.8</sog>
<cog>90.0</cog>
                        </extensions>
                    </trkpt>
                    <trkpt lat="54.3637" lon="9.847846666666667">
                        <ele>0</ele>
                        <time>2022-08-18T23:58:48Z</time>
                                                <extensions>
                            <sog>8.8</sog>
<cog>91.2</cog>
                        </extensions>
                    </trkpt>
                    <trkpt lat="54.36365833333333" lon="9.849388333333334">
                        <ele>0</ele>
                        <time>2022-08-18T23:59:10Z</time>
                                                <extensions>
                            <sog>8.8</sog>
<cog>92.8</cog>
                        </extensions>
                    </trkpt>
                    <trkpt lat="54.36363666666667" lon="9.850018333333333">
                        <ele>0</ele>
                        <time>2022-08-18T23:59:20Z</time>
                                                <extensions>
                            <sog>8.8</sog>
<cog>93.6</cog>
                        </extensions>
                    </trkpt>
                    <trkpt lat="54.36360666666667" lon="9.850641666666666">
                        <ele>0</ele>
                        <time>2022-08-18T23:59:29Z</time>
                                                <extensions>
                            <sog>8.8</sog>
<cog>94.6</cog>
                        </extensions>
                    </trkpt>
                    <trkpt lat="54.36353333333333" lon="9.852031666666667">
                        <ele>0</ele>
                        <time>2022-08-18T23:59:48Z</time>
                                                <extensions>
                            <sog>8.7</sog>
<cog>95.4</cog>
                        </extensions>
                    </trkpt>
                    </trkseg>
                </trk>
</gpx>