<?xml version="1.0" encoding="UTF-8"?>
<gpx version="1.1" creator="AIS-to-GPX Converter" xmlns="http://www.topografix.com/GPX/1/1">
                <trk>
                    <name>anon0036</name>
                    <trkseg>
                                            <trkpt lat="54.672718333333336" lon="10.030233333333333">
                        <ele>0</ele>
                        <time>2022-08-18T08:44:06Z</time>
                                                <extensions>
                            <sog>5.3</sog>
<cog>121.3</cog>
                        </extensions>
                    </trkpt>
                    <trkpt lat="54.66441" lon="10.046223333333334">
                        <ele>0</ele>
                        <time>2022-08-18T08:54:28Z</time>
                                                <extensions>
                            <sog>4.9</sog>
<cog>173.1</cog>
                        </extensions>
                    </trkpt>
                    <trkpt lat="54.65649166666667" lon="10.047901666666666">
                        <ele>0</ele>
                        <time>2022-08-18T08:59:57Z</time>
                                                <extensions>
                            <sog>5.3</sog>
<cog>174.3</cog>
                        </extensions>
                    </trkpt>
                    <trkpt lat="54.64503333333334" lon="10.050006666666667">
                        <ele>0</ele>
                        <time>2022-08-18T09:07:29Z</time>
                                                <extensions>
                            <sog>5.5</sog>
<cog>174.9</cog>
                        </extensions>
                    </trkpt>
                    <trkpt lat="54.631060000000005" lon="10.050236666666667">
                        <ele>0</ele>
                        <time>2022-08-18T09:16:28Z</time>
                                                <extensions>
                            <sog>5.8</sog>
<cog>183.6</cog>
                        </extensions>
                    </trkpt>
                    <trkpt lat="54.630248333333334" lon="10.050216666666667">
                        <ele>0</ele>
                        <time>2022-08-18T09:16:58Z</time>
                                                <extensions>
                            <sog>5.3</sog>
<cog>181.8</cog>
                        </extensions>
                    </trkpt>
                    <trkpt lat="54.62634" lon="10.050105">
                        <ele>0</ele>
                        <time>2022-08-18T09:19:28Z</time>
                                                <extensions>
                            <sog>5.5</sog>
<cog>181.4</cog>
                        </extensions>
                    </trkpt>
                    <trkpt lat="54.617581666666666" lon="10.049841666666667">
                        <ele>0</ele>
                        <time>2022-08-18T09:24:59Z</time>
                                                <extensions>
                            <sog>5.8</sog>
<cog>184.1</cog>
                        </extensions>
                    </trkpt>
                    <trkpt lat="54.598375000000004" lon="10.043033333333334">
                        <ele>0</ele>
                        <time>2022-08-18T09:36:59Z</time>
                                                <extensions>
                            <sog>5.9</sog>
<cog>196.2</cog>
                        </extensions>
                    </trkpt>
                    <trkpt lat="54.59762833333333" lon="10.042596666666666">
                        <ele>0</ele>
                        <time>2022-08-18T09:37:28Z</time>
                                                <extensions>
                            <sog>5.6</sog>
<cog>197.7</cog>
                        </extensions>
                    </trkpt>
                    <trkpt lat="54.59688833333333" lon="10.042191666666668">
                        <ele>0</ele>
                        <time>2022-08-18T09:37:58Z</time>
                                                <extensions>
                            <sog>5.6</sog>
<cog>199.4</cog>
                        </extensions>
                    </trkpt>
                    <trkpt lat="54.59607333333334" lon="10.041723333333334">
                        <ele>0</ele>
                        <time>2022-08-18T09:38:29Z</time>
                                                <extensions>
                            <sog>5.8</sog>
<cog>197.8</cog>
                        </extensions>
                    </trkpt>
                    <trkpt lat="54.59457999999999" lon="10.040851666666667">
                        <ele>0</ele>
                        <time>2022-08-18T09:39:28Z</time>
                                                <extensions>
                            <sog>5.7</sog>
<cog>197.4</cog>
                        </extensions>
                    </trkpt>
                    <trkpt lat="54.59309666666666" lon="10.040016666666666">
                        <ele>0</ele>
                        <time>2022-08-18T09:40:28Z</time>
                                                <extensions>
                            <sog>5.7</sog>
<cog>197.4</cog>
                        </extensions>
                    </trkpt>
                    <trkpt lat="54.592303333333334" lon="10.039593333333332">
                        <ele>0</ele>
                        <time>2022-08-18T09:40:58Z</time>
                                                <extensions>
                            <sog>5.7</sog>
<cog>197.2</cog>
                        </extensions>
                    </trkpt>
                    <trkpt lat="54.590754999999994" lon="10.038720000000001">
                        <ele>0</ele>
                        <time>2022-08-18T09:41:59Z</time>
                                                <extensions>
                            <sog>5.6</sog>
<cog>197.6</cog>
                        </extensions>
                    </trkpt>
                    <trkpt lat="54.58773333333333" lon="10.036983333333334">
                        <ele>0</ele>
                        <time>2022-08-18T09:43:59Z</time>
                                                <extensions>
                            <sog>5.7</sog>
<cog>201.5</cog>
                        </extensions>
                    </trkpt>
                    <trkpt lat="54.580733333333335" lon="10.031626666666666">
                        <ele>0</ele>
                        <time>2022-08-18T09:48:59Z</time>
                                                <extensions>
                            <sog>5.9</sog>
<cog>258.4</cog>
                        </extensions>
                    </trkpt>
                    <trkpt lat="54.58169" lon="10.025203333333334">
                        <ele>0</ele>
                        <time>2022-08-18T10:13:59Z</time>
                                                <extensions>
                            <sog>0.5</sog>
<cog>78.7</cog>
                        </extensions>
                    </trkpt>
                    <trkpt lat="54.58170666666667" lon="10.025135">
                        <ele>0</ele>
                        <time>2022-08-18T10:17:30Z</time>
                                                <extensions>
                            <sog>0.3</sog>
<cog>234.6</cog>
                        </extensions>
                    </trkpt>
                    <trkpt lat="54.58184166666667" lon="10.02521">
                        <ele>0</ele>
                        <time>2022-08-18T10:18:00Z</time>
                                                <extensions>
                            <sog>0.2</sog>
<cog>273.6</cog>
                        </extensions>
                    </trkpt>
                    <trkpt lat="54.581718333333335" lon="10.025151666666666">
                        <ele>0</ele>
                        <time>2022-08-18T10:18:29Z</time>
                                                <extensions>
                            <sog>0.5</sog>
<cog>326.4</cog>
                        </extensions>
                    </trkpt>
                    <trkpt lat="54.58153333333333" lon="10.025065000000001">
                        <ele>0</ele>
                        <time>2022-08-18T10:18:59Z</time>
                                                <extensions>
                            <sog>0.8</sog>
<cog>193.6</cog>
                        </extensions>
                    </trkpt>
                    <trkpt lat="54.58179833333334" lon="10.02519">
                        <ele>0</ele>
                        <time>2022-08-18T10:19:29Z</time>
                                                <extensions>
                            <sog>0.4</sog>
<cog>203.6</cog>
                        </extensions>
                    </trkpt>
                    <trkpt lat="54.581826666666664" lon="10.025203333333334">
                        <ele>0</ele>
                        <time>2022-08-18T10:22:29Z</time>
                                                <extensions>
                            <sog>0.5</sog>
<cog>54.3</cog>
                        </extensions>
                    </trkpt>
                    <trkpt lat="54.58242833333334" lon="10.025084999999999">
                        <ele>0</ele>
                        <time>2022-08-18T10:28:03Z</time>
                                                <extensions>
                            <sog>1.5</sog>
<cog>29.8</cog>
                        </extensions>
                    </trkpt>
                    <trkpt lat="54.56235166666667" lon="10.035988333333334">
                        <ele>0</ele>
                        <time>2022-08-18T10:43:32Z</time>
                                                <extensions>
                            <sog>4.5</sog>
<cog>180.1</cog>
                        </extensions>
                    </trkpt>
                    <trkpt lat="54.56154166666667" lon="10.035865">
                        <ele>0</ele>
                        <time>2022-08-18T10:44:02Z</time>
                                                <extensions>
                            <sog>5.7</sog>
<cog>188.3</cog>
                        </extensions>
                    </trkpt>
                    <trkpt lat="54.55426" lon="10.034126666666667">
                        <ele>0</ele>
                        <time>2022-08-18T10:48:32Z</time>
                                                <extensions>
                            <sog>6.0</sog>
<cog>181.3</cog>
                        </extensions>
                    </trkpt>
                    <trkpt lat="54.54481833333333" lon="10.030913333333332">
                        <ele>0</ele>
                        <time>2022-08-18T10:54:33Z</time>
                                                <extensions>
                            <sog>6.1</sog>
<cog>194.2</cog>
                        </extensions>
                    </trkpt>
                    <trkpt lat="54.54405666666666" lon="10.030515000000001">
                        <ele>0</ele>
                        <time>2022-08-18T10:55:03Z</time>
                                                <extensions>
                            <sog>5.9</sog>
<cog>199.2</cog>
                        </extensions>
                    </trkpt>
                    <trkpt lat="54.54328833333333" lon="10.02998">
                        <ele>0</ele>
                        <time>2022-08-18T10:55:34Z</time>
                                                <extensions>
                            <sog>5.1</sog>
<cog>202.7</cog>
                        </extensions>
                    </trkpt>
                    <trkpt lat="54.54107666666666" lon="10.028306666666667">
                        <ele>0</ele>
                        <time>2022-08-18T10:57:03Z</time>
                                                <extensions>
                            <sog>6.0</sog>
<cog>200.9</cog>
                        </extensions>
                    </trkpt>
                    <trkpt lat="54.54033166666667" lon="10.02776">
                        <ele>0</ele>
                        <time>2022-08-18T10:57:33Z</time>
                                                <extensions>
                            <sog>5.7</sog>
<cog>206.3</cog>
                        </extensions>
                    </trkpt>
                    <trkpt lat="54.53962833333333" lon="10.027141666666667">
                        <ele>0</ele>
                        <time>2022-08-18T10:58:03Z</time>
                                                <extensions>
                            <sog>5.6</sog>
<cog>207.0</cog>
                        </extensions>
                    </trkpt>
                    <trkpt lat="54.53890666666667" lon="10.026446666666667">
                        <ele>0</ele>
                        <time>2022-08-18T10:58:34Z</time>
                                                <extensions>
                            <sog>5.9</sog>
<cog>208.4</cog>
                        </extensions>
                    </trkpt>
                    <trkpt lat="54.538228333333336" lon="10.025781666666667">
                        <ele>0</ele>
                        <time>2022-08-18T10:59:03Z</time>
                                                <extensions>
                            <sog>5.7</sog>
<cog>208.8</cog>
                        </extensions>
                    </trkpt>
                    <trkpt lat="54.537479999999995" lon="10.025095">
                        <ele>0</ele>
                        <time>2022-08-18T10:59:36Z</time>
                                                <extensions>
                            <sog>5.8</sog>
<cog>208.7</cog>
                        </extensions>
                    </trkpt>
                    <trkpt lat="54.535428333333336" lon="10.023158333333333">
                        <ele>0</ele>
                        <time>2022-08-18T11:01:03Z</time>
                                                <extensions>
                            <sog>5.7</sog>
<cog>209.1</cog>
                        </extensions>
                    </trkpt>
                    <trkpt lat="54.53114333333333" lon="10.019293333333334">
                        <ele>0</ele>
                        <time>2022-08-18T11:04:05Z</time>
                                                <extensions>
                            <sog>5.5</sog>
<cog>207.1</cog>
                        </extensions>
                    </trkpt>
                    <trkpt lat="54.52978333333333" lon="10.018015">
                        <ele>0</ele>
                        <time>2022-08-18T11:05:05Z</time>
                                                <extensions>
                            <sog>5.6</sog>
<cog>207.4</cog>
                        </extensions>
                    </trkpt>
                    <trkpt lat="54.528418333333335" lon="10.016738333333333">
                        <ele>0</ele>
                        <time>2022-08-18T11:06:04Z</time>
                                                <extensions>
                            <sog>5.3</sog>
<cog>206.9</cog>
                        </extensions>
                    </trkpt>
                    <trkpt lat="54.527025" lon="10.015231666666667">
                        <ele>0</ele>
                        <time>2022-08-18T11:07:05Z</time>
                                                <extensions>
                            <sog>5.3</sog>
<cog>212.0</cog>
                        </extensions>
                    </trkpt>
                    <trkpt lat="54.52572" lon="10.013686666666667">
                        <ele>0</ele>
                        <time>2022-08-18T11:08:05Z</time>
                                                <extensions>
                            <sog>5.6</sog>
<cog>213.8</cog>
                        </extensions>
                    </trkpt>
                    <trkpt lat="54.52307" lon="10.010648333333334">
                        <ele>0</ele>
                        <time>2022-08-18T11:10:05Z</time>
                                                <extensions>
                            <sog>6.2</sog>
<cog>219.8</cog>
                        </extensions>
                    </trkpt>
                    <trkpt lat="54.521735" lon="10.009160000000001">
                        <ele>0</ele>
                        <time>2022-08-18T11:11:05Z</time>
                                                <extensions>
                            <sog>5.8</sog>
<cog>213.7</cog>
                        </extensions>
                    </trkpt>
                    <trkpt lat="54.520495" lon="10.007566666666666">
                        <ele>0</ele>
                        <time>2022-08-18T11:12:05Z</time>
                                                <extensions>
                            <sog>5.7</sog>
<cog>219.0</cog>
                        </extensions>
                    </trkpt>
                    <trkpt lat="54.519845000000004" lon="10.006734999999999">
                        <ele>0</ele>
                        <time>2022-08-18T11:12:35Z</time>
                                                <extensions>
                            <sog>5.6</sog>
<cog>219.2</cog>
                        </extensions>
                    </trkpt>
                    <trkpt lat="54.517875000000004" lon="10.004346666666667">
                        <ele>0</ele>
                        <time>2022-08-18T11:14:08Z</time>
                                                <extensions>
                            <sog>6.6</sog>
<cog>211.7</cog>
                        </extensions>
                    </trkpt>
                    <trkpt lat="54.51731666666667" lon="10.00361">
                        <ele>0</ele>
                        <time>2022-08-18T11:14:35Z</time>
                                                <extensions>
                            <sog>4.6</sog>
<cog>215.4</cog>
                        </extensions>
                    </trkpt>
                    <trkpt lat="54.51672666666666" lon="10.002821666666668">
                        <ele>0</ele>
                        <time>2022-08-18T11:15:06Z</time>
                                                <extensions>
                            <sog>5.8</sog>
<cog>211.8</cog>
                        </extensions>
                    </trkpt>
                    <trkpt lat="54.515595" lon="10.001065">
                        <ele>0</ele>
                        <time>2022-08-18T11:16:06Z</time>
                                                <extensions>
                            <sog>4.5</sog>
<cog>227.6</cog>
                        </extensions>
                    </trkpt>
                    <trkpt lat="54.51433" lon="9.999355000000001">
                        <ele>0</ele>
                        <time>2022-08-18T11:17:06Z</time>
                                                <extensions>
                            <sog>6.0</sog>
<cog>220.8</cog>
                        </extensions>
                    </trkpt>
                    <trkpt lat="54.513758333333335" lon="9.99847">
                        <ele>0</ele>
                        <time>2022-08-18T11:17:36Z</time>
                                                <extensions>
                            <sog>5.3</sog>
<cog>227.1</cog>
                        </extensions>
                    </trkpt>
                    <trkpt lat="54.51243833333333" lon="9.996688333333333">
                        <ele>0</ele>
                        <time>2022-08-18T11:18:36Z</time>
                                                <extensions>
                            <sog>6.3</sog>
<cog>216.0</cog>
                        </extensions>
                    </trkpt>
                    <trkpt lat="54.511285" lon="9.994866666666667">
                        <ele>0</ele>
                        <time>2022-08-18T11:19:36Z</time>
                                                <extensions>
                            <sog>5.4</sog>
<cog>216.7</cog>
                        </extensions>
                    </trkpt>
                    <trkpt lat="54.51070333333333" lon="9.993826666666667">
                        <ele>0</ele>
                        <time>2022-08-18T11:20:09Z</time>
                                                <extensions>
                            <sog>5.7</sog>
<cog>228.5</cog>
                        </extensions>
                    </trkpt>
                    <trkpt lat="54.509675" lon="9.99199">
                        <ele>0</ele>
                        <time>2022-08-18T11:21:06Z</time>
                                                <extensions>
                            <sog>6.0</sog>
<cog>218.8</cog>
                        </extensions>
                    </trkpt>
                    <trkpt lat="54.50912833333334" lon="9.99103">
                        <ele>0</ele>
                        <time>2022-08-18T11:21:37Z</time>
                                                <extensions>
                            <sog>5.9</sog>
<cog>220.9</cog>
                        </extensions>
                    </trkpt>
                    <trkpt lat="54.508606666666665" lon="9.990133333333334">
                        <ele>0</ele>
                        <time>2022-08-18T11:22:06Z</time>
                                                <extensions>
                            <sog>5.5</sog>
<cog>225.0</cog>
                        </extensions>
                    </trkpt>
                    <trkpt lat="54.50802833333333" lon="9.989173333333333">
                        <ele>0</ele>
                        <time>2022-08-18T11:22:36Z</time>
                                                <extensions>
                            <sog>5.6</sog>
<cog>223.5</cog>
                        </extensions>
                    </trkpt>
                    <trkpt lat="54.507475" lon="9.988246666666667">
                        <ele>0</ele>
                        <time>2022-08-18T11:23:06Z</time>
                                                <extensions>
                            <sog>5.7</sog>
<cog>226.6</cog>
                        </extensions>
                    </trkpt>
                    <trkpt lat="54.50691666666667" lon="9.987293333333334">
                        <ele>0</ele>
                        <time>2022-08-18T11:23:38Z</time>
                                                <extensions>
                            <sog>5.6</sog>
<cog>225.9</cog>
                        </extensions>
                    </trkpt>
                    <trkpt lat="54.50642333333334" lon="9.986346666666666">
                        <ele>0</ele>
                        <time>2022-08-18T11:24:07Z</time>
                                                <extensions>
                            <sog>5.2</sog>
<cog>224.0</cog>
                        </extensions>
                    </trkpt>
                    <trkpt lat="54.505923333333335" lon="9.985426666666665">
                        <ele>0</ele>
                        <time>2022-08-18T11:24:37Z</time>
                                                <extensions>
                            <sog>7.0</sog>
<cog>209.0</cog>
                        </extensions>
                    </trkpt>
                    <trkpt lat="54.504848333333335" lon="9.983576666666666">
                        <ele>0</ele>
                        <time>2022-08-18T11:25:37Z</time>
                                                <extensions>
                            <sog>5.0</sog>
<cog>227.2</cog>
                        </extensions>
                    </trkpt>
                    <trkpt lat="54.50438333333333" lon="9.982571666666667">
                        <ele>0</ele>
                        <time>2022-08-18T11:26:06Z</time>
                                                <extensions>
                            <sog>6.1</sog>
<cog>229.0</cog>
                        </extensions>
                    </trkpt>
                    <trkpt lat="54.50389500000001" lon="9.981591666666667">
                        <ele>0</ele>
                        <time>2022-08-18T11:26:36Z</time>
                                                <extensions>
                            <sog>5.2</sog>
<cog>231.4</cog>
                        </extensions>
                    </trkpt>
                    <trkpt lat="54.503391666666666" lon="9.980553333333335">
                        <ele>0</ele>
                        <time>2022-08-18T11:27:07Z</time>
                                                <extensions>
                            <sog>5.2</sog>
<cog>233.5</cog>
                        </extensions>
                    </trkpt>
                    <trkpt lat="54.502915" lon="9.97952">
                        <ele>0</ele>
                        <time>2022-08-18T11:27:38Z</time>
                                                <extensions>
                            <sog>5.8</sog>
<cog>231.6</cog>
                        </extensions>
                    </trkpt>
                    <trkpt lat="54.502425" lon="9.978506666666668">
                        <ele>0</ele>
                        <time>2022-08-18T11:28:06Z</time>
                                                <extensions>
                            <sog>5.7</sog>
<cog>233.9</cog>
                        </extensions>
                    </trkpt>
                    <trkpt lat="54.50199833333333" lon="9.977425">
                        <ele>0</ele>
                        <time>2022-08-18T11:28:37Z</time>
                                                <extensions>
                            <sog>5.5</sog>
<cog>236.4</cog>
                        </extensions>
                    </trkpt>
                    <trkpt lat="54.50109833333333" lon="9.97517">
                        <ele>0</ele>
                        <time>2022-08-18T11:29:38Z</time>
                                                <extensions>
                            <sog>5.2</sog>
<cog>234.4</cog>
                        </extensions>
                    </trkpt>
                    <trkpt lat="54.50062666666667" lon="9.974086666666667">
                        <ele>0</ele>
                        <time>2022-08-18T11:30:08Z</time>
                                                <extensions>
                            <sog>5.6</sog>
<cog>235.4</cog>
                        </extensions>
                    </trkpt>
                    <trkpt lat="54.50025" lon="9.973026666666668">
                        <ele>0</ele>
                        <time>2022-08-18T11:30:37Z</time>
                                                <extensions>
                            <sog>5.3</sog>
<cog>234.4</cog>
                        </extensions>
                    </trkpt>
                    <trkpt lat="54.49978" lon="9.971911666666667">
                        <ele>0</ele>
                        <time>2022-08-18T11:31:07Z</time>
                                                <extensions>
                            <sog>5.9</sog>
<cog>232.2</cog>
                        </extensions>
                    </trkpt>
                    <trkpt lat="54.49928166666667" lon="9.97085">
                        <ele>0</ele>
                        <time>2022-08-18T11:31:37Z</time>
                                                <extensions>
                            <sog>5.8</sog>
<cog>232.3</cog>
                        </extensions>
                    </trkpt>
                    <trkpt lat="54.498936666666665" lon="9.969693333333334">
                        <ele>0</ele>
                        <time>2022-08-18T11:32:07Z</time>
                                                <extensions>
                            <sog>5.7</sog>
<cog>235.7</cog>
                        </extensions>
                    </trkpt>
                    <trkpt lat="54.49847" lon="9.968601666666666">
                        <ele>0</ele>
                        <time>2022-08-18T11:32:38Z</time>
                                                <extensions>
                            <sog>5.0</sog>
<cog>234.8</cog>
                        </extensions>
                    </trkpt>
                    <trkpt lat="54.49800666666667" lon="9.967538333333332">
                        <ele>0</ele>
                        <time>2022-08-18T11:33:08Z</time>
                                                <extensions>
                            <sog>5.0</sog>
<cog>238.6</cog>
                        </extensions>
                    </trkpt>
                    <trkpt lat="54.49678333333333" lon="9.964245">
                        <ele>0</ele>
                        <time>2022-08-18T11:34:37Z</time>
                                                <extensions>
                            <sog>3.7</sog>
<cog>239.5</cog>
                        </extensions>
                    </trkpt>
                    <trkpt lat="54.496476666666666" lon="9.962945">
                        <ele>0</ele>
                        <time>2022-08-18T11:35:07Z</time>
                                                <extensions>
                            <sog>5.6</sog>
<cog>248.4</cog>
                        </extensions>
                    </trkpt>
                    <trkpt lat="54.49565333333333" lon="9.960748333333333">
                        <ele>0</ele>
                        <time>2022-08-18T11:36:07Z</time>
                                                <extensions>
                            <sog>6.3</sog>
<cog>234.7</cog>
                        </extensions>
                    </trkpt>
                    <trkpt lat="54.49518" lon="9.959685">
                        <ele>0</ele>
                        <time>2022-08-18T11:36:37Z</time>
                                                <extensions>
                            <sog>5.6</sog>
<cog>234.0</cog>
                        </extensions>
                    </trkpt>
                    <trkpt lat="54.49476666666667" lon="9.958438333333334">
                        <ele>0</ele>
                        <time>2022-08-18T11:37:10Z</time>
                                                <extensions>
                            <sog>5.9</sog>
<cog>233.7</cog>
                        </extensions>
                    </trkpt>
                    <trkpt lat="54.49438333333333" lon="9.957361666666666">
                        <ele>0</ele>
                        <time>2022-08-18T11:37:37Z</time>
                                                <extensions>
                            <sog>5.4</sog>
<cog>236.7</cog>
                        </extensions>
                    </trkpt>
                    <trkpt lat="54.49398833333333" lon="9.956281666666666">
                        <ele>0</ele>
                        <time>2022-08-18T11:38:07Z</time>
                                                <extensions>
                            <sog>5.5</sog>
<cog>240.3</cog>
                        </extensions>
                    </trkpt>
                    <trkpt lat="54.49354" lon="9.955096666666666">
                        <ele>0</ele>
                        <time>2022-08-18T11:38:38Z</time>
                                                <extensions>
                            <sog>5.9</sog>
<cog>237.6</cog>
                        </extensions>
                    </trkpt>
                    <trkpt lat="54.49324166666667" lon="9.953936666666667">
                        <ele>0</ele>
                        <time>2022-08-18T11:39:07Z</time>
                                                <extensions>
                            <sog>5.5</sog>
<cog>241.5</cog>
                        </extensions>
                    </trkpt>
                    <trkpt lat="54.491978333333336" lon="9.950603333333333">
                        <ele>0</ele>
                        <time>2022-08-18T11:40:37Z</time>
                                                <extensions>
                            <sog>5.6</sog>
<cog>240.3</cog>
                        </extensions>
                    </trkpt>
                    <trkpt lat="54.49156666666667" lon="9.949363333333334">
                        <ele>0</ele>
                        <time>2022-08-18T11:41:09Z</time>
                                                <extensions>
                            <sog>6.1</sog>
<cog>231.6</cog>
                        </extensions>
                    </trkpt>
                    <trkpt lat="54.491215000000004" lon="9.948303333333333">
                        <ele>0</ele>
                        <time>2022-08-18T11:41:37Z</time>
                                                <extensions>
                            <sog>5.5</sog>
<cog>235.8</cog>
                        </extensions>
                    </trkpt>
                    <trkpt lat="54.49084333333334" lon="9.94716">
                        <ele>0</ele>
                        <time>2022-08-18T11:42:07Z</time>
                                                <extensions>
                            <sog>5.1</sog>
<cog>240.3</cog>
                        </extensions>
                    </trkpt>
                    <trkpt lat="54.49046166666667" lon="9.945946666666666">
                        <ele>0</ele>
                        <time>2022-08-18T11:42:39Z</time>
                                                <extensions>
                            <sog>5.6</sog>
<cog>244.5</cog>
                        </extensions>
                    </trkpt>
                    <trkpt lat="54.49008166666667" lon="9.94485">
                        <ele>0</ele>
                        <time>2022-08-18T11:43:07Z</time>
                                                <extensions>
                            <sog>6.7</sog>
<cog>232.0</cog>
                        </extensions>
                    </trkpt>
                    <trkpt lat="54.48943166666666" lon="9.942401666666665">
                        <ele>0</ele>
                        <time>2022-08-18T11:44:09Z</time>
                                                <extensions>
                            <sog>5.2</sog>
<cog>243.1</cog>
                        </extensions>
                    </trkpt>
                    <trkpt lat="54.48916" lon="9.941268333333333">
                        <ele>0</ele>
                        <time>2022-08-18T11:44:39Z</time>
                                                <extensions>
                            <sog>5.1</sog>
<cog>244.5</cog>
                        </extensions>
                    </trkpt>
                    <trkpt lat="54.488791666666664" lon="9.940151666666667">
                        <ele>0</ele>
                        <time>2022-08-18T11:45:08Z</time>
                                                <extensions>
                            <sog>5.9</sog>
<cog>239.2</cog>
                        </extensions>
                    </trkpt>
                    <trkpt lat="54.488015000000004" lon="9.937821666666668">
                        <ele>0</ele>
                        <time>2022-08-18T11:46:08Z</time>
                                                <extensions>
                            <sog>5.5</sog>
<cog>242.2</cog>
                        </extensions>
                    </trkpt>
                    <trkpt lat="54.48764166666667" lon="9.93657">
                        <ele>0</ele>
                        <time>2022-08-18T11:46:38Z</time>
                                                <extensions>
                            <sog>5.2</sog>
<cog>246.3</cog>
                        </extensions>
                    </trkpt>
                    <trkpt lat="54.48733333333333" lon="9.935378333333334">
                        <ele>0</ele>
                        <time>2022-08-18T11:47:07Z</time>
                                                <extensions>
                            <sog>5.3</sog>
<cog>243.5</cog>
                        </extensions>
                    </trkpt>
                    <trkpt lat="54.48698" lon="9.934211666666666">
                        <ele>0</ele>
                        <time>2022-08-18T11:47:38Z</time>
                                                <extensions>
                            <sog>5.2</sog>
<cog>243.1</cog>
                        </extensions>
                    </trkpt>
                    <trkpt lat="54.48661833333333" lon="9.932979999999999">
                        <ele>0</ele>
                        <time>2022-08-18T11:48:08Z</time>
                                                <extensions>
                            <sog>5.7</sog>
<cog>241.8</cog>
                        </extensions>
                    </trkpt>
                    <trkpt lat="54.48627666666666" lon="9.931753333333335">
                        <ele>0</ele>
                        <time>2022-08-18T11:48:39Z</time>
                                                <extensions>
                            <sog>7.0</sog>
<cog>230.2</cog>
                        </extensions>
                    </trkpt>
                    <trkpt lat="54.485283333333335" lon="9.928118333333334">
                        <ele>0</ele>
                        <time>2022-08-18T11:50:09Z</time>
                                                <extensions>
                            <sog>5.6</sog>
<cog>235.7</cog>
                        </extensions>
                    </trkpt>
                    <trkpt lat="54.4843" lon="9.924465">
                        <ele>0</ele>
                        <time>2022-08-18T11:51:39Z</time>
                                                <extensions>
                            <sog>5.6</sog>
<cog>245.0</cog>
                        </extensions>
                    </trkpt>
                    <trkpt lat="54.483955" lon="9.923301666666667">
                        <ele>0</ele>
                        <time>2022-08-18T11:52:09Z</time>
                                                <extensions>
                            <sog>5.3</sog>
<cog>247.0</cog>
                        </extensions>
                    </trkpt>
                    <trkpt lat="54.483635" lon="9.922038333333335">
                        <ele>0</ele>
                        <time>2022-08-18T11:52:40Z</time>
                                                <extensions>
                            <sog>5.0</sog>
<cog>246.8</cog>
                        </extensions>
                    </trkpt>
                    <trkpt lat="54.48332833333333" lon="9.920921666666667">
                        <ele>0</ele>
                        <time>2022-08-18T11:53:08Z</time>
                                                <extensions>
                            <sog>5.4</sog>
<cog>244.4</cog>
                        </extensions>
                    </trkpt>
                    <trkpt lat="54.48265833333333" lon="9.918481666666667">
                        <ele>0</ele>
                        <time>2022-08-18T11:54:08Z</time>
                                                <extensions>
                            <sog>5.8</sog>
<cog>245.0</cog>
                        </extensions>
                    </trkpt>
                    <trkpt lat="54.48229333333334" lon="9.917275">
                        <ele>0</ele>
                        <time>2022-08-18T11:54:39Z</time>
                                                <extensions>
                            <sog>5.6</sog>
<cog>243.4</cog>
                        </extensions>
                    </trkpt>
                    <trkpt lat="54.481986666666664" lon="9.916118333333333">
                        <ele>0</ele>
                        <time>2022-08-18T11:55:08Z</time>
                                                <extensions>
                            <sog>5.9</sog>
<cog>244.6</cog>
                        </extensions>
                    </trkpt>
                    <trkpt lat="54.481625" lon="9.914948333333333">
                        <ele>0</ele>
                        <time>2022-08-18T11:55:38Z</time>
                                                <extensions>
                            <sog>5.5</sog>
<cog>242.4</cog>
                        </extensions>
                    </trkpt>
                    <trkpt lat="54.481265" lon="9.913681666666667">
                        <ele>0</ele>
                        <time>2022-08-18T11:56:08Z</time>
                                                <extensions>
                            <sog>5.4</sog>
<cog>244.7</cog>
                        </extensions>
                    </trkpt>
                    <trkpt lat="54.48068333333333" lon="9.91123">
                        <ele>0</ele>
                        <time>2022-08-18T11:57:10Z</time>
                                                <extensions>
                            <sog>6.3</sog>
<cog>253.2</cog>
                        </extensions>
                    </trkpt>
                    <trkpt lat="54.480268333333335" lon="9.908738333333334">
                        <ele>0</ele>
                        <time>2022-08-18T11:58:09Z</time>
                                                <extensions>
                            <sog>5.5</sog>
<cog>248.0</cog>
                        </extensions>
                    </trkpt>
                    <trkpt lat="54.479571666666665" lon="9.906196666666666">
                        <ele>0</ele>
                        <time>2022-08-18T11:59:11Z</time>
                                                <extensions>
                            <sog>5.8</sog>
<cog>246.9</cog>
                        </extensions>
                    </trkpt>
                    <trkpt lat="54.478950000000005" lon="9.903973333333333">
                        <ele>0</ele>
                        <time>2022-08-18T12:00:09Z</time>
                                                <extensions>
                            <sog>6.2</sog>
<cog>242.1</cog>
                        </extensions>
                    </trkpt>
                    <trkpt lat="54.478950000000005" lon="9.903973333333333">
                        <ele>0</ele>
                        <time>2022-08-18T12:00:09Z</time>
                                                <extensions>
                            <sog>6.2</sog>
<cog>242.1</cog>
                        </extensions>
                    </trkpt>
                    <trkpt lat="54.47858" lon="9.902781666666668">
                        <ele>0</ele>
                        <time>2022-08-18T12:00:39Z</time>
                                                <extensions>
                            <sog>5.3</sog>
<cog>245.2</cog>
                        </extensions>
                    </trkpt>
                    <trkpt lat="54.47858" lon="9.902781666666668">
                        <ele>0</ele>
                        <time>2022-08-18T12:00:39Z</time>
                                                <extensions>
                            <sog>5.3</sog>
<cog>245.2</cog>
                        </extensions>
                    </trkpt>
                    <trkpt lat="54.47831333333333" lon="9.901525">
                        <ele>0</ele>
                        <time>2022-08-18T12:01:10Z</time>
                                                <extensions>
                            <sog>5.5</sog>
<cog>244.8</cog>
                        </extensions>
                    </trkpt>
                    <trkpt lat="54.47791666666667" lon="9.900381666666668">
                        <ele>0</ele>
                        <time>2022-08-18T12:01:40Z</time>
                                                <extensions>
                            <sog>5.6</sog>
<cog>234.4</cog>
                        </extensions>
                    </trkpt>
                    <trkpt lat="54.477716666666666" lon="9.899163333333332">
                        <ele>0</ele>
                        <time>2022-08-18T12:02:09Z</time>
                                                <extensions>
                            <sog>5.6</sog>
<cog>248.5</cog>
                        </extensions>
                    </trkpt>
                    <trkpt lat="54.477340000000005" lon="9.898">
                        <ele>0</ele>
                        <time>2022-08-18T12:02:39Z</time>
                                                <extensions>
                            <sog>4.8</sog>
<cog>245.3</cog>
                        </extensions>
                    </trkpt>
                    <trkpt lat="54.47690166666666" lon="9.896766666666668">
                        <ele>0</ele>
                        <time>2022-08-18T12:03:11Z</time>
                                                <extensions>
                            <sog>5.5</sog>
<cog>240.4</cog>
                        </extensions>
                    </trkpt>
                    <trkpt lat="54.476710000000004" lon="9.895628333333333">
                        <ele>0</ele>
                        <time>2022-08-18T12:03:39Z</time>
                                                <extensions>
                            <sog>4.9</sog>
<cog>248.7</cog>
                        </extensions>
                    </trkpt>
                    <trkpt lat="54.476275" lon="9.894573333333334">
                        <ele>0</ele>
                        <time>2022-08-18T12:04:09Z</time>
                                                <extensions>
                            <sog>5.4</sog>
<cog>241.5</cog>
                        </extensions>
                    </trkpt>
                    <trkpt lat="54.475525" lon="9.892093333333333">
                        <ele>0</ele>
                        <time>2022-08-18T12:05:11Z</time>
                                                <extensions>
                            <sog>5.2</sog>
<cog>241.7</cog>
                        </extensions>
                    </trkpt>
                    <trkpt lat="54.47493833333333" lon="9.889756666666667">
                        <ele>0</ele>
                        <time>2022-08-18T12:06:10Z</time>
                                                <extensions>
                            <sog>5.1</sog>
<cog>238.3</cog>
                        </extensions>
                    </trkpt>
                    <trkpt lat="54.47464166666667" lon="9.888578333333333">
                        <ele>0</ele>
                        <time>2022-08-18T12:06:40Z</time>
                                                <extensions>
                            <sog>5.5</sog>
<cog>246.0</cog>
                        </extensions>
                    </trkpt>
                    <trkpt lat="54.474345" lon="9.88737">
                        <ele>0</ele>
                        <time>2022-08-18T12:07:09Z</time>
                                                <extensions>
                            <sog>6.3</sog>
<cog>251.9</cog>
                        </extensions>
                    </trkpt>
                    <trkpt lat="54.474065" lon="9.88619">
                        <ele>0</ele>
                        <time>2022-08-18T12:07:39Z</time>
                                                <extensions>
                            <sog>5.6</sog>
<cog>245.4</cog>
                        </extensions>
                    </trkpt>
                    <trkpt lat="54.47380166666667" lon="9.884981666666667">
                        <ele>0</ele>
                        <time>2022-08-18T12:08:10Z</time>
                                                <extensions>
                            <sog>5.4</sog>
<cog>242.7</cog>
                        </extensions>
                    </trkpt>
                    <trkpt lat="54.47317666666667" lon="9.882528333333333">
                        <ele>0</ele>
                        <time>2022-08-18T12:09:11Z</time>
                                                <extensions>
                            <sog>5.2</sog>
<cog>240.4</cog>
                        </extensions>
                    </trkpt>
                    <trkpt lat="54.47291166666666" lon="9.881428333333334">
                        <ele>0</ele>
                        <time>2022-08-18T12:09:40Z</time>
                                                <extensions>
                            <sog>5.3</sog>
<cog>246.5</cog>
                        </extensions>
                    </trkpt>
                    <trkpt lat="54.47267166666666" lon="9.880196666666667">
                        <ele>0</ele>
                        <time>2022-08-18T12:10:10Z</time>
                                                <extensions>
                            <sog>5.1</sog>
<cog>247.6</cog>
                        </extensions>
                    </trkpt>
                    <trkpt lat="54.47185666666667" lon="9.87651">
                        <ele>0</ele>
                        <time>2022-08-18T12:11:39Z</time>
                                                <extensions>
                            <sog>6.6</sog>
<cog>261.6</cog>
                        </extensions>
                    </trkpt>
                    <trkpt lat="54.47132166666667" lon="9.875425">
                        <ele>0</ele>
                        <time>2022-08-18T12:12:10Z</time>
                                                <extensions>
                            <sog>5.8</sog>
<cog>242.3</cog>
                        </extensions>
                    </trkpt>
                    <trkpt lat="54.471198333333334" lon="9.874008333333334">
                        <ele>0</ele>
                        <time>2022-08-18T12:12:40Z</time>
                                                <extensions>
                            <sog>5.6</sog>
<cog>244.0</cog>
                        </extensions>
                    </trkpt>
                    <trkpt lat="54.47085333333334" lon="9.872771666666667">
                        <ele>0</ele>
                        <time>2022-08-18T12:13:10Z</time>
                                                <extensions>
                            <sog>5.5</sog>
<cog>239.5</cog>
                        </extensions>
                    </trkpt>
                    <trkpt lat="54.47062666666667" lon="9.8714">
                        <ele>0</ele>
                        <time>2022-08-18T12:13:41Z</time>
                                                <extensions>
                            <sog>5.7</sog>
<cog>256.0</cog>
                        </extensions>
                    </trkpt>
                    <trkpt lat="54.470241666666666" lon="9.870198333333333">
                        <ele>0</ele>
                        <time>2022-08-18T12:14:11Z</time>
                                                <extensions>
                            <sog>5.8</sog>
<cog>247.8</cog>
                        </extensions>
                    </trkpt>
                    <trkpt lat="54.469566666666665" lon="9.867811666666666">
                        <ele>0</ele>
                        <time>2022-08-18T12:15:10Z</time>
                                                <extensions>
                            <sog>5.6</sog>
<cog>251.0</cog>
                        </extensions>
                    </trkpt>
                    <trkpt lat="54.46910666666667" lon="9.865171666666667">
                        <ele>0</ele>
                        <time>2022-08-18T12:16:11Z</time>
                                                <extensions>
                            <sog>5.9</sog>
<cog>257.1</cog>
                        </extensions>
                    </trkpt>
                    <trkpt lat="54.46900666666667" lon="9.863895000000001">
                        <ele>0</ele>
                        <time>2022-08-18T12:16:40Z</time>
                                                <extensions>
                            <sog>5.6</sog>
<cog>268.6</cog>
                        </extensions>
                    </trkpt>
                    <trkpt lat="54.46914833333334" lon="9.86259">
                        <ele>0</ele>
                        <time>2022-08-18T12:17:10Z</time>
                                                <extensions>
                            <sog>5.7</sog>
<cog>285.8</cog>
                        </extensions>
                    </trkpt>
                    <trkpt lat="54.47002333333333" lon="9.858566666666666">
                        <ele>0</ele>
                        <time>2022-08-18T12:18:41Z</time>
                                                <extensions>
                            <sog>5.8</sog>
<cog>287.6</cog>
                        </extensions>
                    </trkpt>
                    <trkpt lat="54.470771666666664" lon="9.855833333333333">
                        <ele>0</ele>
                        <time>2022-08-18T12:19:41Z</time>
                                                <extensions>
                            <sog>5.4</sog>
<cog>287.1</cog>
                        </extensions>
                    </trkpt>
                    <trkpt lat="54.47167" lon="9.85102">
                        <ele>0</ele>
                        <time>2022-08-18T12:21:41Z</time>
                                                <extensions>
                            <sog>4.1</sog>
<cog>283.9</cog>
                        </extensions>
                    </trkpt>
                    <trkpt lat="54.47260833333333" lon="9.848598333333333">
                        <ele>0</ele>
                        <time>2022-08-18T12:22:40Z</time>
                                                <extensions>
                            <sog>5.3</sog>
<cog>303.7</cog>
                        </extensions>
                    </trkpt>
                    </trkseg>
                </trk>
</gpx>