<?xml version="1.0" encoding="UTF-8"?>
<gpx version="1.1" creator="AIS-to-GPX Converter" xmlns="http://www.topografix.com/GPX/1/1">
                <trk>
                    <name>anon0156</name>
                    <trkseg>
                                            <trkpt lat="54.44295666666667" lon="10.212758333333333">
                        <ele>0</ele>
                        <time>2022-08-18T07:42:50Z</time>
                                                <extensions>
                            <sog>2.3</sog>
<cog>215.2</cog>
                        </extensions>
                    </trkpt>
                    <trkpt lat="54.44370333333333" lon="10.214385">
                        <ele>0</ele>
                        <time>2022-08-18T07:44:48Z</time>
                                                <extensions>
                            <sog>12.9</sog>
<cog>353.4</cog>
                        </extensions>
                    </trkpt>
                    <trkpt lat="54.44477833333334" lon="10.21453">
                        <ele>0</ele>
                        <time>2022-08-18T07:45:18Z</time>
                                                <extensions>
                            <sog>11.4</sog>
<cog>25.2</cog>
                        </extensions>
                    </trkpt>
                    <trkpt lat="54.44770333333334" lon="10.216935000000001">
                        <ele>0</ele>
                        <time>2022-08-18T07:46:50Z</time>
                                                <extensions>
                            <sog>8.1</sog>
<cog>8.1</cog>
                        </extensions>
                    </trkpt>
                    <trkpt lat="54.448795000000004" lon="10.217621666666668">
                        <ele>0</ele>
                        <time>2022-08-18T07:47:18Z</time>
                                                <extensions>
                            <sog>9.0</sog>
<cog>24.9</cog>
                        </extensions>
                    </trkpt>
                    <trkpt lat="54.45329166666667" lon="10.221651666666666">
                        <ele>0</ele>
                        <time>2022-08-18T07:49:47Z</time>
                                                <extensions>
                            <sog>6.8</sog>
<cog>25.9</cog>
                        </extensions>
                    </trkpt>
                    <trkpt lat="54.454966666666664" lon="10.223166666666666">
                        <ele>0</ele>
                        <time>2022-08-18T07:50:47Z</time>
                                                <extensions>
                            <sog>6.7</sog>
<cog>27.5</cog>
                        </extensions>
                    </trkpt>
                    <trkpt lat="54.45699666666667" lon="10.224953333333334">
                        <ele>0</ele>
                        <time>2022-08-18T07:52:18Z</time>
                                                <extensions>
                            <sog>6.9</sog>
<cog>28.2</cog>
                        </extensions>
                    </trkpt>
                    <trkpt lat="54.46291333333333" lon="10.230345">
                        <ele>0</ele>
                        <time>2022-08-18T07:55:47Z</time>
                                                <extensions>
                            <sog>10.3</sog>
<cog>26.0</cog>
                        </extensions>
                    </trkpt>
                    <trkpt lat="54.46405666666667" lon="10.231048333333332">
                        <ele>0</ele>
                        <time>2022-08-18T07:56:17Z</time>
                                                <extensions>
                            <sog>7.6</sog>
<cog>13.7</cog>
                        </extensions>
                    </trkpt>
                    <trkpt lat="54.467005" lon="10.232718333333334">
                        <ele>0</ele>
                        <time>2022-08-18T07:57:50Z</time>
                                                <extensions>
                            <sog>6.8</sog>
<cog>18.2</cog>
                        </extensions>
                    </trkpt>
                    <trkpt lat="54.469971666666666" lon="10.234626666666665">
                        <ele>0</ele>
                        <time>2022-08-18T07:59:48Z</time>
                                                <extensions>
                            <sog>7.7</sog>
<cog>346.5</cog>
                        </extensions>
                    </trkpt>
                    <trkpt lat="54.47284166666667" lon="10.235791666666668">
                        <ele>0</ele>
                        <time>2022-08-18T08:01:18Z</time>
                                                <extensions>
                            <sog>7.5</sog>
<cog>16.8</cog>
                        </extensions>
                    </trkpt>
                    <trkpt lat="54.47544166666667" lon="10.237051666666668">
                        <ele>0</ele>
                        <time>2022-08-18T08:02:48Z</time>
                                                <extensions>
                            <sog>4.4</sog>
<cog>15.4</cog>
                        </extensions>
                    </trkpt>
                    <trkpt lat="54.478516666666664" lon="10.238498333333332">
                        <ele>0</ele>
                        <time>2022-08-18T08:04:47Z</time>
                                                <extensions>
                            <sog>3.0</sog>
<cog>22.8</cog>
                        </extensions>
                    </trkpt>
                    <trkpt lat="54.480673333333336" lon="10.239468333333333">
                        <ele>0</ele>
                        <time>2022-08-18T08:06:20Z</time>
                                                <extensions>
                            <sog>4.6</sog>
<cog>16.8</cog>
                        </extensions>
                    </trkpt>
                    <trkpt lat="54.49935333333334" lon="10.248416666666666">
                        <ele>0</ele>
                        <time>2022-08-18T08:19:47Z</time>
                                                <extensions>
                            <sog>1.6</sog>
<cog>34.7</cog>
                        </extensions>
                    </trkpt>
                    </trkseg>
                </trk>
</gpx>