<?xml version="1.0" encoding="UTF-8"?>
<gpx version="1.1" creator="AIS-to-GPX Converter" xmlns="http://www.topografix.com/GPX/1/1">
                <trk>
                    <name>anon0421</name>
                    <trkseg>
                                            <trkpt lat="54.653348333333334" lon="11.020551666666668">
                        <ele>0</ele>
                        <time>2022-08-18T05:49:21Z</time>
                                                <extensions>
                            <sog>15.0</sog>
<cog>302.3</cog>
                        </extensions>
                    </trkpt>
                    <trkpt lat="54.65916666666667" lon="11.004773333333333">
                        <ele>0</ele>
                        <time>2022-08-18T05:51:57Z</time>
                                                <extensions>
                            <sog>15.2</sog>
<cog>302.7</cog>
                        </extensions>
                    </trkpt>
                    <trkpt lat="54.66280166666666" lon="10.99484">
                        <ele>0</ele>
                        <time>2022-08-18T05:53:33Z</time>
                                                <extensions>
                            <sog>15.1</sog>
<cog>302.1</cog>
                        </extensions>
                    </trkpt>
                    <trkpt lat="54.663695" lon="10.992388333333334">
                        <ele>0</ele>
                        <time>2022-08-18T05:53:57Z</time>
                                                <extensions>
                            <sog>15.1</sog>
<cog>301.9</cog>
                        </extensions>
                    </trkpt>
                    <trkpt lat="54.67514833333333" lon="10.961279999999999">
                        <ele>0</ele>
                        <time>2022-08-18T05:59:03Z</time>
                                                <extensions>
                            <sog>15.1</sog>
<cog>302.9</cog>
                        </extensions>
                    </trkpt>
                    <trkpt lat="54.676925" lon="10.956551666666666">
                        <ele>0</ele>
                        <time>2022-08-18T05:59:51Z</time>
                                                <extensions>
                            <sog>15.1</sog>
<cog>302.8</cog>
                        </extensions>
                    </trkpt>
                    <trkpt lat="54.678509999999996" lon="10.95231">
                        <ele>0</ele>
                        <time>2022-08-18T06:00:33Z</time>
                                                <extensions>
                            <sog>15.1</sog>
<cog>302.5</cog>
                        </extensions>
                    </trkpt>
                    <trkpt lat="54.678509999999996" lon="10.95231">
                        <ele>0</ele>
                        <time>2022-08-18T06:00:33Z</time>
                                                <extensions>
                            <sog>15.1</sog>
<cog>302.5</cog>
                        </extensions>
                    </trkpt>
                    <trkpt lat="54.70244833333334" lon="10.887743333333333">
                        <ele>0</ele>
                        <time>2022-08-18T06:11:09Z</time>
                                                <extensions>
                            <sog>15.2</sog>
<cog>302.2</cog>
                        </extensions>
                    </trkpt>
                    <trkpt lat="54.70762833333333" lon="10.877763333333332">
                        <ele>0</ele>
                        <time>2022-08-18T06:13:04Z</time>
                                                <extensions>
                            <sog>14.2</sog>
<cog>333.2</cog>
                        </extensions>
                    </trkpt>
                    <trkpt lat="54.71166166666667" lon="10.876341666666667">
                        <ele>0</ele>
                        <time>2022-08-18T06:14:09Z</time>
                                                <extensions>
                            <sog>13.6</sog>
<cog>354.1</cog>
                        </extensions>
                    </trkpt>
                    <trkpt lat="54.713935" lon="10.875991666666666">
                        <ele>0</ele>
                        <time>2022-08-18T06:14:45Z</time>
                                                <extensions>
                            <sog>13.6</sog>
<cog>355.5</cog>
                        </extensions>
                    </trkpt>
                    <trkpt lat="54.73235833333333" lon="10.874006666666666">
                        <ele>0</ele>
                        <time>2022-08-18T06:19:35Z</time>
                                                <extensions>
                            <sog>13.7</sog>
<cog>356.9</cog>
                        </extensions>
                    </trkpt>
                    <trkpt lat="54.732994999999995" lon="10.873938333333333">
                        <ele>0</ele>
                        <time>2022-08-18T06:19:45Z</time>
                                                <extensions>
                            <sog>13.7</sog>
<cog>356.6</cog>
                        </extensions>
                    </trkpt>
                    <trkpt lat="54.73482" lon="10.87374">
                        <ele>0</ele>
                        <time>2022-08-18T06:20:14Z</time>
                                                <extensions>
                            <sog>13.6</sog>
<cog>356.4</cog>
                        </extensions>
                    </trkpt>
                    <trkpt lat="54.73557166666667" lon="10.873664999999999">
                        <ele>0</ele>
                        <time>2022-08-18T06:20:25Z</time>
                                                <extensions>
                            <sog>13.6</sog>
<cog>356.5</cog>
                        </extensions>
                    </trkpt>
                    <trkpt lat="54.738593333333334" lon="10.87336">
                        <ele>0</ele>
                        <time>2022-08-18T06:21:14Z</time>
                                                <extensions>
                            <sog>13.7</sog>
<cog>356.7</cog>
                        </extensions>
                    </trkpt>
                    <trkpt lat="54.73936166666667" lon="10.873286666666667">
                        <ele>0</ele>
                        <time>2022-08-18T06:21:25Z</time>
                                                <extensions>
                            <sog>13.7</sog>
<cog>356.6</cog>
                        </extensions>
                    </trkpt>
                    <trkpt lat="54.739873333333335" lon="10.873238333333335">
                        <ele>0</ele>
                        <time>2022-08-18T06:21:35Z</time>
                                                <extensions>
                            <sog>13.7</sog>
<cog>356.7</cog>
                        </extensions>
                    </trkpt>
                    <trkpt lat="54.74245666666666" lon="10.872966666666667">
                        <ele>0</ele>
                        <time>2022-08-18T06:22:14Z</time>
                                                <extensions>
                            <sog>13.6</sog>
<cog>356.7</cog>
                        </extensions>
                    </trkpt>
                    <trkpt lat="54.74621666666667" lon="10.872601666666666">
                        <ele>0</ele>
                        <time>2022-08-18T06:23:14Z</time>
                                                <extensions>
                            <sog>13.5</sog>
<cog>356.8</cog>
                        </extensions>
                    </trkpt>
                    <trkpt lat="54.74684" lon="10.872543333333335">
                        <ele>0</ele>
                        <time>2022-08-18T06:23:25Z</time>
                                                <extensions>
                            <sog>13.5</sog>
<cog>356.9</cog>
                        </extensions>
                    </trkpt>
                    <trkpt lat="54.751266666666666" lon="10.872095">
                        <ele>0</ele>
                        <time>2022-08-18T06:24:35Z</time>
                                                <extensions>
                            <sog>13.4</sog>
<cog>356.7</cog>
                        </extensions>
                    </trkpt>
                    <trkpt lat="54.75239333333333" lon="10.871993333333334">
                        <ele>0</ele>
                        <time>2022-08-18T06:24:55Z</time>
                                                <extensions>
                            <sog>13.5</sog>
<cog>356.9</cog>
                        </extensions>
                    </trkpt>
                    <trkpt lat="54.753643333333336" lon="10.871865000000001">
                        <ele>0</ele>
                        <time>2022-08-18T06:25:14Z</time>
                                                <extensions>
                            <sog>13.5</sog>
<cog>357.0</cog>
                        </extensions>
                    </trkpt>
                    <trkpt lat="54.762566666666665" lon="10.871084999999999">
                        <ele>0</ele>
                        <time>2022-08-18T06:27:34Z</time>
                                                <extensions>
                            <sog>13.7</sog>
<cog>357.3</cog>
                        </extensions>
                    </trkpt>
                    <trkpt lat="54.76383833333333" lon="10.870985">
                        <ele>0</ele>
                        <time>2022-08-18T06:27:55Z</time>
                                                <extensions>
                            <sog>13.6</sog>
<cog>357.2</cog>
                        </extensions>
                    </trkpt>
                    <trkpt lat="54.77078166666667" lon="10.870455">
                        <ele>0</ele>
                        <time>2022-08-18T06:29:46Z</time>
                                                <extensions>
                            <sog>13.5</sog>
<cog>357.5</cog>
                        </extensions>
                    </trkpt>
                    <trkpt lat="54.77634166666667" lon="10.87001">
                        <ele>0</ele>
                        <time>2022-08-18T06:31:16Z</time>
                                                <extensions>
                            <sog>13.7</sog>
<cog>357.3</cog>
                        </extensions>
                    </trkpt>
                    <trkpt lat="54.77697166666667" lon="10.869951666666667">
                        <ele>0</ele>
                        <time>2022-08-18T06:31:25Z</time>
                                                <extensions>
                            <sog>13.6</sog>
<cog>357.6</cog>
                        </extensions>
                    </trkpt>
                    <trkpt lat="54.781195000000004" lon="10.869643333333332">
                        <ele>0</ele>
                        <time>2022-08-18T06:32:34Z</time>
                                                <extensions>
                            <sog>13.7</sog>
<cog>357.3</cog>
                        </extensions>
                    </trkpt>
                    <trkpt lat="54.78208333333334" lon="10.869570000000001">
                        <ele>0</ele>
                        <time>2022-08-18T06:32:46Z</time>
                                                <extensions>
                            <sog>13.7</sog>
<cog>357.7</cog>
                        </extensions>
                    </trkpt>
                    <trkpt lat="54.791556666666665" lon="10.868836666666665">
                        <ele>0</ele>
                        <time>2022-08-18T06:35:16Z</time>
                                                <extensions>
                            <sog>13.6</sog>
<cog>356.0</cog>
                        </extensions>
                    </trkpt>
                    </trkseg>
                </trk>
</gpx>