<?xml version="1.0" encoding="UTF-8"?>
<gpx version="1.1" creator="AIS-to-GPX Converter" xmlns="http://www.topografix.com/GPX/1/1">
                <trk>
                    <name>anon0398</name>
                    <trkseg>
                                            <trkpt lat="54.416291666666666" lon="10.218056666666666">
                        <ele>0</ele>
                        <time>2022-08-18T14:22:12Z</time>
                                                <extensions>
                            <sog>5.0</sog>
<cog>219.2</cog>
                        </extensions>
                    </trkpt>
                    <trkpt lat="54.415755" lon="10.217361666666667">
                        <ele>0</ele>
                        <time>2022-08-18T14:22:41Z</time>
                                                <extensions>
                            <sog>5.0</sog>
<cog>217.9</cog>
                        </extensions>
                    </trkpt>
                    <trkpt lat="54.415175" lon="10.216706666666665">
                        <ele>0</ele>
                        <time>2022-08-18T14:23:11Z</time>
                                                <extensions>
                            <sog>5.1</sog>
<cog>212.7</cog>
                        </extensions>
                    </trkpt>
                    <trkpt lat="54.41401833333334" lon="10.21533">
                        <ele>0</ele>
                        <time>2022-08-18T14:24:11Z</time>
                                                <extensions>
                            <sog>5.0</sog>
<cog>213.4</cog>
                        </extensions>
                    </trkpt>
                    <trkpt lat="54.413426666666666" lon="10.214623333333332">
                        <ele>0</ele>
                        <time>2022-08-18T14:24:42Z</time>
                                                <extensions>
                            <sog>5.0</sog>
<cog>213.3</cog>
                        </extensions>
                    </trkpt>
                    <trkpt lat="54.412195" lon="10.213531666666666">
                        <ele>0</ele>
                        <time>2022-08-18T14:25:42Z</time>
                                                <extensions>
                            <sog>5.0</sog>
<cog>203.2</cog>
                        </extensions>
                    </trkpt>
                    <trkpt lat="54.40893333333334" lon="10.211596666666667">
                        <ele>0</ele>
                        <time>2022-08-18T14:28:13Z</time>
                                                <extensions>
                            <sog>4.9</sog>
<cog>202.1</cog>
                        </extensions>
                    </trkpt>
                    <trkpt lat="54.40772166666667" lon="10.21081">
                        <ele>0</ele>
                        <time>2022-08-18T14:29:11Z</time>
                                                <extensions>
                            <sog>5.0</sog>
<cog>198.4</cog>
                        </extensions>
                    </trkpt>
                    <trkpt lat="54.405813333333334" lon="10.20985">
                        <ele>0</ele>
                        <time>2022-08-18T14:30:41Z</time>
                                                <extensions>
                            <sog>4.7</sog>
<cog>204.1</cog>
                        </extensions>
                    </trkpt>
                    <trkpt lat="54.40342333333333" lon="10.208183333333332">
                        <ele>0</ele>
                        <time>2022-08-18T14:32:41Z</time>
                                                <extensions>
                            <sog>4.7</sog>
<cog>203.7</cog>
                        </extensions>
                    </trkpt>
                    <trkpt lat="54.402831666666664" lon="10.207799999999999">
                        <ele>0</ele>
                        <time>2022-08-18T14:33:10Z</time>
                                                <extensions>
                            <sog>4.8</sog>
<cog>199.7</cog>
                        </extensions>
                    </trkpt>
                    <trkpt lat="54.402205" lon="10.20739">
                        <ele>0</ele>
                        <time>2022-08-18T14:33:41Z</time>
                                                <extensions>
                            <sog>4.6</sog>
<cog>201.3</cog>
                        </extensions>
                    </trkpt>
                    <trkpt lat="54.401608333333336" lon="10.206985">
                        <ele>0</ele>
                        <time>2022-08-18T14:34:11Z</time>
                                                <extensions>
                            <sog>4.7</sog>
<cog>201.6</cog>
                        </extensions>
                    </trkpt>
                    <trkpt lat="54.40041166666666" lon="10.206163333333334">
                        <ele>0</ele>
                        <time>2022-08-18T14:35:11Z</time>
                                                <extensions>
                            <sog>4.7</sog>
<cog>195.4</cog>
                        </extensions>
                    </trkpt>
                    <trkpt lat="54.399805" lon="10.205891666666668">
                        <ele>0</ele>
                        <time>2022-08-18T14:35:40Z</time>
                                                <extensions>
                            <sog>4.8</sog>
<cog>193.9</cog>
                        </extensions>
                    </trkpt>
                    <trkpt lat="54.39918" lon="10.205573333333332">
                        <ele>0</ele>
                        <time>2022-08-18T14:36:10Z</time>
                                                <extensions>
                            <sog>4.8</sog>
<cog>198.1</cog>
                        </extensions>
                    </trkpt>
                    <trkpt lat="54.39848833333333" lon="10.205256666666665">
                        <ele>0</ele>
                        <time>2022-08-18T14:36:43Z</time>
                                                <extensions>
                            <sog>4.6</sog>
<cog>194.4</cog>
                        </extensions>
                    </trkpt>
                    <trkpt lat="54.397905" lon="10.205025000000001">
                        <ele>0</ele>
                        <time>2022-08-18T14:37:10Z</time>
                                                <extensions>
                            <sog>4.6</sog>
<cog>194.0</cog>
                        </extensions>
                    </trkpt>
                    <trkpt lat="54.397345" lon="10.204576666666666">
                        <ele>0</ele>
                        <time>2022-08-18T14:37:40Z</time>
                                                <extensions>
                            <sog>4.6</sog>
<cog>215.0</cog>
                        </extensions>
                    </trkpt>
                    <trkpt lat="54.3968" lon="10.203915">
                        <ele>0</ele>
                        <time>2022-08-18T14:38:11Z</time>
                                                <extensions>
                            <sog>4.7</sog>
<cog>214.3</cog>
                        </extensions>
                    </trkpt>
                    <trkpt lat="54.396283333333336" lon="10.203286666666665">
                        <ele>0</ele>
                        <time>2022-08-18T14:38:40Z</time>
                                                <extensions>
                            <sog>4.7</sog>
<cog>214.6</cog>
                        </extensions>
                    </trkpt>
                    <trkpt lat="54.395226666666666" lon="10.201963333333333">
                        <ele>0</ele>
                        <time>2022-08-18T14:39:41Z</time>
                                                <extensions>
                            <sog>4.7</sog>
<cog>216.0</cog>
                        </extensions>
                    </trkpt>
                    <trkpt lat="54.39460333333333" lon="10.201303333333334">
                        <ele>0</ele>
                        <time>2022-08-18T14:40:14Z</time>
                                                <extensions>
                            <sog>4.7</sog>
<cog>210.4</cog>
                        </extensions>
                    </trkpt>
                    <trkpt lat="54.394133333333336" lon="10.200755">
                        <ele>0</ele>
                        <time>2022-08-18T14:40:41Z</time>
                                                <extensions>
                            <sog>4.7</sog>
<cog>216.3</cog>
                        </extensions>
                    </trkpt>
                    <trkpt lat="54.393076666666666" lon="10.199321666666666">
                        <ele>0</ele>
                        <time>2022-08-18T14:41:41Z</time>
                                                <extensions>
                            <sog>4.9</sog>
<cog>223.9</cog>
                        </extensions>
                    </trkpt>
                    <trkpt lat="54.392586666666666" lon="10.198538333333333">
                        <ele>0</ele>
                        <time>2022-08-18T14:42:11Z</time>
                                                <extensions>
                            <sog>4.9</sog>
<cog>221.5</cog>
                        </extensions>
                    </trkpt>
                    <trkpt lat="54.392" lon="10.197976666666667">
                        <ele>0</ele>
                        <time>2022-08-18T14:42:41Z</time>
                                                <extensions>
                            <sog>5.0</sog>
<cog>203.6</cog>
                        </extensions>
                    </trkpt>
                    <trkpt lat="54.391391666666664" lon="10.197526666666667">
                        <ele>0</ele>
                        <time>2022-08-18T14:43:11Z</time>
                                                <extensions>
                            <sog>4.8</sog>
<cog>206.1</cog>
                        </extensions>
                    </trkpt>
                    <trkpt lat="54.390771666666666" lon="10.197305">
                        <ele>0</ele>
                        <time>2022-08-18T14:43:41Z</time>
                                                <extensions>
                            <sog>4.6</sog>
<cog>197.9</cog>
                        </extensions>
                    </trkpt>
                    <trkpt lat="54.39019166666667" lon="10.1968">
                        <ele>0</ele>
                        <time>2022-08-18T14:44:11Z</time>
                                                <extensions>
                            <sog>4.8</sog>
<cog>213.6</cog>
                        </extensions>
                    </trkpt>
                    <trkpt lat="54.38909666666667" lon="10.195506666666667">
                        <ele>0</ele>
                        <time>2022-08-18T14:45:11Z</time>
                                                <extensions>
                            <sog>4.5</sog>
<cog>219.8</cog>
                        </extensions>
                    </trkpt>
                    <trkpt lat="54.38854333333334" lon="10.194809999999999">
                        <ele>0</ele>
                        <time>2022-08-18T14:45:43Z</time>
                                                <extensions>
                            <sog>4.3</sog>
<cog>217.2</cog>
                        </extensions>
                    </trkpt>
                    <trkpt lat="54.38758" lon="10.193475000000001">
                        <ele>0</ele>
                        <time>2022-08-18T14:46:41Z</time>
                                                <extensions>
                            <sog>5.0</sog>
<cog>221.5</cog>
                        </extensions>
                    </trkpt>
                    <trkpt lat="54.38698333333333" lon="10.19277">
                        <ele>0</ele>
                        <time>2022-08-18T14:47:13Z</time>
                                                <extensions>
                            <sog>4.8</sog>
<cog>213.4</cog>
                        </extensions>
                    </trkpt>
                    <trkpt lat="54.38545666666666" lon="10.190711666666665">
                        <ele>0</ele>
                        <time>2022-08-18T14:48:41Z</time>
                                                <extensions>
                            <sog>4.8</sog>
<cog>225.8</cog>
                        </extensions>
                    </trkpt>
                    <trkpt lat="54.38501333333333" lon="10.189825">
                        <ele>0</ele>
                        <time>2022-08-18T14:49:11Z</time>
                                                <extensions>
                            <sog>5.0</sog>
<cog>232.2</cog>
                        </extensions>
                    </trkpt>
                    <trkpt lat="54.38383833333333" lon="10.186961666666667">
                        <ele>0</ele>
                        <time>2022-08-18T14:50:41Z</time>
                                                <extensions>
                            <sog>4.9</sog>
<cog>232.2</cog>
                        </extensions>
                    </trkpt>
                    <trkpt lat="54.38346666666666" lon="10.186061666666665">
                        <ele>0</ele>
                        <time>2022-08-18T14:51:11Z</time>
                                                <extensions>
                            <sog>4.7</sog>
<cog>234.3</cog>
                        </extensions>
                    </trkpt>
                    <trkpt lat="54.383071666666666" lon="10.185061666666666">
                        <ele>0</ele>
                        <time>2022-08-18T14:51:42Z</time>
                                                <extensions>
                            <sog>5.1</sog>
<cog>240.6</cog>
                        </extensions>
                    </trkpt>
                    <trkpt lat="54.38274" lon="10.184091666666665">
                        <ele>0</ele>
                        <time>2022-08-18T14:52:12Z</time>
                                                <extensions>
                            <sog>4.7</sog>
<cog>244.1</cog>
                        </extensions>
                    </trkpt>
                    <trkpt lat="54.382466666666666" lon="10.183106666666667">
                        <ele>0</ele>
                        <time>2022-08-18T14:52:42Z</time>
                                                <extensions>
                            <sog>4.7</sog>
<cog>247.0</cog>
                        </extensions>
                    </trkpt>
                    <trkpt lat="54.38213" lon="10.182186666666666">
                        <ele>0</ele>
                        <time>2022-08-18T14:53:11Z</time>
                                                <extensions>
                            <sog>4.6</sog>
<cog>232.9</cog>
                        </extensions>
                    </trkpt>
                    <trkpt lat="54.38173166666666" lon="10.181408333333334">
                        <ele>0</ele>
                        <time>2022-08-18T14:53:41Z</time>
                                                <extensions>
                            <sog>4.5</sog>
<cog>226.6</cog>
                        </extensions>
                    </trkpt>
                    <trkpt lat="54.38102833333333" lon="10.179531666666666">
                        <ele>0</ele>
                        <time>2022-08-18T14:54:42Z</time>
                                                <extensions>
                            <sog>4.6</sog>
<cog>241.9</cog>
                        </extensions>
                    </trkpt>
                    <trkpt lat="54.380716666666665" lon="10.178535">
                        <ele>0</ele>
                        <time>2022-08-18T14:55:13Z</time>
                                                <extensions>
                            <sog>4.6</sog>
<cog>241.3</cog>
                        </extensions>
                    </trkpt>
                    <trkpt lat="54.380445" lon="10.177623333333335">
                        <ele>0</ele>
                        <time>2022-08-18T14:55:42Z</time>
                                                <extensions>
                            <sog>4.7</sog>
<cog>243.3</cog>
                        </extensions>
                    </trkpt>
                    <trkpt lat="54.380145" lon="10.176711666666668">
                        <ele>0</ele>
                        <time>2022-08-18T14:56:11Z</time>
                                                <extensions>
                            <sog>4.5</sog>
<cog>234.1</cog>
                        </extensions>
                    </trkpt>
                    <trkpt lat="54.37975166666667" lon="10.175828333333333">
                        <ele>0</ele>
                        <time>2022-08-18T14:56:41Z</time>
                                                <extensions>
                            <sog>4.6</sog>
<cog>232.1</cog>
                        </extensions>
                    </trkpt>
                    <trkpt lat="54.379395" lon="10.174948333333333">
                        <ele>0</ele>
                        <time>2022-08-18T14:57:11Z</time>
                                                <extensions>
                            <sog>4.5</sog>
<cog>237.8</cog>
                        </extensions>
                    </trkpt>
                    <trkpt lat="54.379115" lon="10.173951666666666">
                        <ele>0</ele>
                        <time>2022-08-18T14:57:42Z</time>
                                                <extensions>
                            <sog>4.7</sog>
<cog>251.7</cog>
                        </extensions>
                    </trkpt>
                    <trkpt lat="54.37895833333334" lon="10.172941666666667">
                        <ele>0</ele>
                        <time>2022-08-18T14:58:11Z</time>
                                                <extensions>
                            <sog>4.5</sog>
<cog>256.9</cog>
                        </extensions>
                    </trkpt>
                    <trkpt lat="54.37886833333334" lon="10.171876666666666">
                        <ele>0</ele>
                        <time>2022-08-18T14:58:41Z</time>
                                                <extensions>
                            <sog>4.7</sog>
<cog>265.4</cog>
                        </extensions>
                    </trkpt>
                    <trkpt lat="54.37890166666667" lon="10.170774999999999">
                        <ele>0</ele>
                        <time>2022-08-18T14:59:11Z</time>
                                                <extensions>
                            <sog>4.7</sog>
<cog>279.1</cog>
                        </extensions>
                    </trkpt>
                    <trkpt lat="54.37907666666667" lon="10.169745">
                        <ele>0</ele>
                        <time>2022-08-18T14:59:41Z</time>
                                                <extensions>
                            <sog>4.7</sog>
<cog>290.1</cog>
                        </extensions>
                    </trkpt>
                    <trkpt lat="54.379419999999996" lon="10.168756666666667">
                        <ele>0</ele>
                        <time>2022-08-18T15:00:11Z</time>
                                                <extensions>
                            <sog>4.8</sog>
<cog>304.8</cog>
                        </extensions>
                    </trkpt>
                    <trkpt lat="54.379419999999996" lon="10.168756666666667">
                        <ele>0</ele>
                        <time>2022-08-18T15:00:11Z</time>
                                                <extensions>
                            <sog>4.8</sog>
<cog>304.8</cog>
                        </extensions>
                    </trkpt>
                    <trkpt lat="54.379893333333335" lon="10.167935">
                        <ele>0</ele>
                        <time>2022-08-18T15:00:41Z</time>
                                                <extensions>
                            <sog>5.0</sog>
<cog>321.8</cog>
                        </extensions>
                    </trkpt>
                    <trkpt lat="54.379893333333335" lon="10.167935">
                        <ele>0</ele>
                        <time>2022-08-18T15:00:41Z</time>
                                                <extensions>
                            <sog>5.0</sog>
<cog>321.8</cog>
                        </extensions>
                    </trkpt>
                    <trkpt lat="54.380430000000004" lon="10.167186666666668">
                        <ele>0</ele>
                        <time>2022-08-18T15:01:11Z</time>
                                                <extensions>
                            <sog>5.0</sog>
<cog>321.3</cog>
                        </extensions>
                    </trkpt>
                    <trkpt lat="54.38097666666667" lon="10.166461666666667">
                        <ele>0</ele>
                        <time>2022-08-18T15:01:42Z</time>
                                                <extensions>
                            <sog>5.0</sog>
<cog>320.2</cog>
                        </extensions>
                    </trkpt>
                    <trkpt lat="54.38149" lon="10.165715">
                        <ele>0</ele>
                        <time>2022-08-18T15:02:11Z</time>
                                                <extensions>
                            <sog>5.0</sog>
<cog>322.1</cog>
                        </extensions>
                    </trkpt>
                    <trkpt lat="54.38204833333334" lon="10.165131666666667">
                        <ele>0</ele>
                        <time>2022-08-18T15:02:42Z</time>
                                                <extensions>
                            <sog>3.8</sog>
<cog>337.3</cog>
                        </extensions>
                    </trkpt>
                    <trkpt lat="54.382508333333334" lon="10.16488">
                        <ele>0</ele>
                        <time>2022-08-18T15:03:14Z</time>
                                                <extensions>
                            <sog>3.1</sog>
<cog>339.8</cog>
                        </extensions>
                    </trkpt>
                    <trkpt lat="54.38285333333333" lon="10.164601666666666">
                        <ele>0</ele>
                        <time>2022-08-18T15:03:41Z</time>
                                                <extensions>
                            <sog>2.8</sog>
<cog>331.7</cog>
                        </extensions>
                    </trkpt>
                    <trkpt lat="54.383203333333334" lon="10.164351666666667">
                        <ele>0</ele>
                        <time>2022-08-18T15:04:11Z</time>
                                                <extensions>
                            <sog>2.7</sog>
<cog>340.9</cog>
                        </extensions>
                    </trkpt>
                    <trkpt lat="54.38350666666667" lon="10.164018333333333">
                        <ele>0</ele>
                        <time>2022-08-18T15:04:41Z</time>
                                                <extensions>
                            <sog>2.3</sog>
<cog>304.8</cog>
                        </extensions>
                    </trkpt>
                    <trkpt lat="54.38343166666667" lon="10.163706666666666">
                        <ele>0</ele>
                        <time>2022-08-18T15:05:11Z</time>
                                                <extensions>
                            <sog>1.0</sog>
<cog>218.6</cog>
                        </extensions>
                    </trkpt>
                    <trkpt lat="54.383365000000005" lon="10.163618333333334">
                        <ele>0</ele>
                        <time>2022-08-18T15:05:42Z</time>
                                                <extensions>
                            <sog>0.4</sog>
<cog>223.8</cog>
                        </extensions>
                    </trkpt>
                    <trkpt lat="54.383336666666665" lon="10.163581666666666">
                        <ele>0</ele>
                        <time>2022-08-18T15:06:15Z</time>
                                                <extensions>
                            <sog>0.1</sog>
<cog>211.3</cog>
                        </extensions>
                    </trkpt>
                    <trkpt lat="54.38332666666667" lon="10.163638333333333">
                        <ele>0</ele>
                        <time>2022-08-18T15:06:42Z</time>
                                                <extensions>
                            <sog>0.5</sog>
<cog>101.3</cog>
                        </extensions>
                    </trkpt>
                    <trkpt lat="54.38333166666666" lon="10.163806666666666">
                        <ele>0</ele>
                        <time>2022-08-18T15:07:11Z</time>
                                                <extensions>
                            <sog>0.8</sog>
<cog>74.8</cog>
                        </extensions>
                    </trkpt>
                    <trkpt lat="54.38334833333333" lon="10.163973333333333">
                        <ele>0</ele>
                        <time>2022-08-18T15:07:43Z</time>
                                                <extensions>
                            <sog>0.4</sog>
<cog>81.7</cog>
                        </extensions>
                    </trkpt>
                    <trkpt lat="54.383358333333334" lon="10.163965">
                        <ele>0</ele>
                        <time>2022-08-18T15:08:14Z</time>
                                                <extensions>
                            <sog>0.3</sog>
<cog>81.7</cog>
                        </extensions>
                    </trkpt>
                    <trkpt lat="54.38343" lon="10.163896666666666">
                        <ele>0</ele>
                        <time>2022-08-18T15:11:11Z</time>
                                                <extensions>
                            <sog>0.2</sog>
<cog>355.6</cog>
                        </extensions>
                    </trkpt>
                    <trkpt lat="54.383505" lon="10.163780000000001">
                        <ele>0</ele>
                        <time>2022-08-18T15:14:11Z</time>
                                                <extensions>
                            <sog>0.1</sog>
<cog>328.2</cog>
                        </extensions>
                    </trkpt>
                    <trkpt lat="54.383511666666664" lon="10.163685">
                        <ele>0</ele>
                        <time>2022-08-18T15:17:11Z</time>
                                                <extensions>
                            <sog>0.1</sog>
<cog>326.3</cog>
                        </extensions>
                    </trkpt>
                    <trkpt lat="54.383473333333335" lon="10.163628333333332">
                        <ele>0</ele>
                        <time>2022-08-18T15:20:11Z</time>
                                                <extensions>
                            <sog>0.0</sog>
<cog>326.3</cog>
                        </extensions>
                    </trkpt>
                    <trkpt lat="54.38348166666666" lon="10.163668333333334">
                        <ele>0</ele>
                        <time>2022-08-18T15:23:11Z</time>
                                                <extensions>
                            <sog>0.1</sog>
<cog>326.3</cog>
                        </extensions>
                    </trkpt>
                    <trkpt lat="54.383496666666666" lon="10.163738333333333">
                        <ele>0</ele>
                        <time>2022-08-18T15:26:12Z</time>
                                                <extensions>
                            <sog>0.0</sog>
<cog>92.2</cog>
                        </extensions>
                    </trkpt>
                    <trkpt lat="54.38347" lon="10.163801666666666">
                        <ele>0</ele>
                        <time>2022-08-18T15:29:11Z</time>
                                                <extensions>
                            <sog>0.1</sog>
<cog>281.2</cog>
                        </extensions>
                    </trkpt>
                    <trkpt lat="54.38345" lon="10.16394">
                        <ele>0</ele>
                        <time>2022-08-18T15:32:12Z</time>
                                                <extensions>
                            <sog>0.3</sog>
<cog>117.5</cog>
                        </extensions>
                    </trkpt>
                    <trkpt lat="54.38346" lon="10.1639">
                        <ele>0</ele>
                        <time>2022-08-18T15:35:11Z</time>
                                                <extensions>
                            <sog>0.1</sog>
<cog>67.0</cog>
                        </extensions>
                    </trkpt>
                    <trkpt lat="54.38347" lon="10.16386">
                        <ele>0</ele>
                        <time>2022-08-18T15:38:11Z</time>
                                                <extensions>
                            <sog>0.1</sog>
<cog>67.0</cog>
                        </extensions>
                    </trkpt>
                    <trkpt lat="54.38347" lon="10.163801666666666">
                        <ele>0</ele>
                        <time>2022-08-18T15:41:13Z</time>
                                                <extensions>
                            <sog>0.1</sog>
<cog>67.0</cog>
                        </extensions>
                    </trkpt>
                    <trkpt lat="54.383471666666665" lon="10.163768333333334">
                        <ele>0</ele>
                        <time>2022-08-18T15:44:11Z</time>
                                                <extensions>
                            <sog>0.1</sog>
<cog>67.0</cog>
                        </extensions>
                    </trkpt>
                    <trkpt lat="54.38349" lon="10.163753333333334">
                        <ele>0</ele>
                        <time>2022-08-18T15:47:13Z</time>
                                                <extensions>
                            <sog>0.1</sog>
<cog>67.0</cog>
                        </extensions>
                    </trkpt>
                    <trkpt lat="54.38349" lon="10.163736666666667">
                        <ele>0</ele>
                        <time>2022-08-18T15:50:11Z</time>
                                                <extensions>
                            <sog>0.0</sog>
<cog>67.0</cog>
                        </extensions>
                    </trkpt>
                    <trkpt lat="54.38346333333333" lon="10.163711666666668">
                        <ele>0</ele>
                        <time>2022-08-18T15:53:11Z</time>
                                                <extensions>
                            <sog>0.1</sog>
<cog>67.0</cog>
                        </extensions>
                    </trkpt>
                    <trkpt lat="54.38348166666666" lon="10.163738333333333">
                        <ele>0</ele>
                        <time>2022-08-18T15:56:11Z</time>
                                                <extensions>
                            <sog>0.1</sog>
<cog>56.7</cog>
                        </extensions>
                    </trkpt>
                    <trkpt lat="54.38348166666666" lon="10.163766666666668">
                        <ele>0</ele>
                        <time>2022-08-18T15:59:11Z</time>
                                                <extensions>
                            <sog>0.2</sog>
<cog>56.7</cog>
                        </extensions>
                    </trkpt>
                    <trkpt lat="54.383451666666666" lon="10.163873333333333">
                        <ele>0</ele>
                        <time>2022-08-18T16:02:11Z</time>
                                                <extensions>
                            <sog>0.0</sog>
<cog>134.3</cog>
                        </extensions>
                    </trkpt>
                    <trkpt lat="54.383426666666665" lon="10.163911666666667">
                        <ele>0</ele>
                        <time>2022-08-18T16:05:12Z</time>
                                                <extensions>
                            <sog>0.1</sog>
<cog>156.1</cog>
                        </extensions>
                    </trkpt>
                    <trkpt lat="54.38336" lon="10.163951666666666">
                        <ele>0</ele>
                        <time>2022-08-18T16:08:12Z</time>
                                                <extensions>
                            <sog>0.1</sog>
<cog>150.3</cog>
                        </extensions>
                    </trkpt>
                    <trkpt lat="54.38330833333334" lon="10.163948333333334">
                        <ele>0</ele>
                        <time>2022-08-18T16:14:11Z</time>
                                                <extensions>
                            <sog>0.1</sog>
<cog>183.5</cog>
                        </extensions>
                    </trkpt>
                    <trkpt lat="54.38332666666667" lon="10.16394">
                        <ele>0</ele>
                        <time>2022-08-18T16:17:12Z</time>
                                                <extensions>
                            <sog>0.0</sog>
<cog>95.4</cog>
                        </extensions>
                    </trkpt>
                    <trkpt lat="54.383381666666665" lon="10.163916666666667">
                        <ele>0</ele>
                        <time>2022-08-18T16:20:11Z</time>
                                                <extensions>
                            <sog>0.0</sog>
<cog>95.4</cog>
                        </extensions>
                    </trkpt>
                    <trkpt lat="54.383305" lon="10.163948333333334">
                        <ele>0</ele>
                        <time>2022-08-18T16:23:11Z</time>
                                                <extensions>
                            <sog>0.0</sog>
<cog>95.4</cog>
                        </extensions>
                    </trkpt>
                    <trkpt lat="54.3833" lon="10.163923333333335">
                        <ele>0</ele>
                        <time>2022-08-18T16:26:10Z</time>
                                                <extensions>
                            <sog>0.0</sog>
<cog>95.4</cog>
                        </extensions>
                    </trkpt>
                    <trkpt lat="54.38328833333333" lon="10.163906666666666">
                        <ele>0</ele>
                        <time>2022-08-18T16:29:11Z</time>
                                                <extensions>
                            <sog>0.1</sog>
<cog>95.4</cog>
                        </extensions>
                    </trkpt>
                    <trkpt lat="54.38329833333333" lon="10.163941666666666">
                        <ele>0</ele>
                        <time>2022-08-18T16:32:11Z</time>
                                                <extensions>
                            <sog>0.1</sog>
<cog>95.4</cog>
                        </extensions>
                    </trkpt>
                    <trkpt lat="54.38341333333334" lon="10.163936666666666">
                        <ele>0</ele>
                        <time>2022-08-18T16:35:11Z</time>
                                                <extensions>
                            <sog>0.3</sog>
<cog>354.0</cog>
                        </extensions>
                    </trkpt>
                    <trkpt lat="54.38348666666666" lon="10.163725">
                        <ele>0</ele>
                        <time>2022-08-18T16:38:11Z</time>
                                                <extensions>
                            <sog>0.1</sog>
<cog>309.0</cog>
                        </extensions>
                    </trkpt>
                    <trkpt lat="54.383496666666666" lon="10.163761666666666">
                        <ele>0</ele>
                        <time>2022-08-18T16:41:11Z</time>
                                                <extensions>
                            <sog>0.1</sog>
<cog>58.9</cog>
                        </extensions>
                    </trkpt>
                    <trkpt lat="54.38346833333333" lon="10.163773333333333">
                        <ele>0</ele>
                        <time>2022-08-18T16:44:12Z</time>
                                                <extensions>
                            <sog>0.1</sog>
<cog>156.8</cog>
                        </extensions>
                    </trkpt>
                    <trkpt lat="54.38342166666666" lon="10.163905">
                        <ele>0</ele>
                        <time>2022-08-18T16:50:12Z</time>
                                                <extensions>
                            <sog>0.0</sog>
<cog>114.4</cog>
                        </extensions>
                    </trkpt>
                    <trkpt lat="54.38341833333333" lon="10.163881666666667">
                        <ele>0</ele>
                        <time>2022-08-18T16:53:15Z</time>
                                                <extensions>
                            <sog>0.1</sog>
<cog>114.4</cog>
                        </extensions>
                    </trkpt>
                    <trkpt lat="54.38343833333333" lon="10.163874999999999">
                        <ele>0</ele>
                        <time>2022-08-18T16:56:12Z</time>
                                                <extensions>
                            <sog>0.1</sog>
<cog>114.4</cog>
                        </extensions>
                    </trkpt>
                    <trkpt lat="54.383445" lon="10.163911666666667">
                        <ele>0</ele>
                        <time>2022-08-18T16:59:11Z</time>
                                                <extensions>
                            <sog>0.1</sog>
<cog>335.9</cog>
                        </extensions>
                    </trkpt>
                    <trkpt lat="54.383415" lon="10.163921666666665">
                        <ele>0</ele>
                        <time>2022-08-18T17:02:12Z</time>
                                                <extensions>
                            <sog>0.1</sog>
<cog>335.9</cog>
                        </extensions>
                    </trkpt>
                    <trkpt lat="54.383405" lon="10.163938333333334">
                        <ele>0</ele>
                        <time>2022-08-18T17:05:12Z</time>
                                                <extensions>
                            <sog>0.1</sog>
<cog>335.9</cog>
                        </extensions>
                    </trkpt>
                    <trkpt lat="54.38341166666667" lon="10.163908333333334">
                        <ele>0</ele>
                        <time>2022-08-18T17:08:11Z</time>
                                                <extensions>
                            <sog>0.0</sog>
<cog>326.8</cog>
                        </extensions>
                    </trkpt>
                    </trkseg>
                </trk>
</gpx>