<?xml version="1.0" encoding="UTF-8"?>
<gpx version="1.1" creator="AIS-to-GPX Converter" xmlns="http://www.topografix.com/GPX/1/1">
                <trk>
                    <name>anon0231</name>
                    <trkseg>
                                            <trkpt lat="54.41959166666666" lon="10.284591666666667">
                        <ele>0</ele>
                        <time>2022-08-18T18:30:24Z</time>
                        <extensions>
    <sog>0.0</sog>
</extensions>
                    </trkpt>
                    <trkpt lat="54.419594999999994" lon="10.284583333333334">
                        <ele>0</ele>
                        <time>2022-08-18T18:30:53Z</time>
                        <extensions>
    <sog>0.0</sog>
</extensions>
                    </trkpt>
                    <trkpt lat="54.419585" lon="10.284591666666667">
                        <ele>0</ele>
                        <time>2022-08-18T18:31:52Z</time>
                        <extensions>
    <sog>0.0</sog>
</extensions>
                    </trkpt>
                    <trkpt lat="54.41956166666667" lon="10.284586666666666">
                        <ele>0</ele>
                        <time>2022-08-18T18:35:24Z</time>
                        <extensions>
    <sog>0.0</sog>
</extensions>
                    </trkpt>
                    <trkpt lat="54.41954333333333" lon="10.284606666666667">
                        <ele>0</ele>
                        <time>2022-08-18T18:41:23Z</time>
                        <extensions>
    <sog>0.0</sog>
</extensions>
                    </trkpt>
                    <trkpt lat="54.419545" lon="10.284601666666667">
                        <ele>0</ele>
                        <time>2022-08-18T18:50:23Z</time>
                        <extensions>
    <sog>0.0</sog>
</extensions>
                    </trkpt>
                    <trkpt lat="54.41955333333333" lon="10.284564999999999">
                        <ele>0</ele>
                        <time>2022-08-18T18:53:23Z</time>
                        <extensions>
    <sog>0.0</sog>
</extensions>
                    </trkpt>
                    <trkpt lat="54.41954833333333" lon="10.284636666666668">
                        <ele>0</ele>
                        <time>2022-08-18T18:59:22Z</time>
                        <extensions>
    <sog>0.0</sog>
</extensions>
                    </trkpt>
                    </trkseg>
                </trk>
</gpx>