<?xml version="1.0" encoding="UTF-8"?>
<gpx version="1.1" creator="AIS-to-GPX Converter" xmlns="http://www.topografix.com/GPX/1/1">
                <trk>
                    <name>anon0143</name>
                    <trkseg>
                                            <trkpt lat="54.292735" lon="9.673303333333333">
                        <ele>0</ele>
                        <time>2022-08-18T00:01:18Z</time>
                                                <extensions>
                            <sog>0.1</sog>
<cog>34.9</cog>
                        </extensions>
                    </trkpt>
                    <trkpt lat="54.29273166666667" lon="9.673303333333333">
                        <ele>0</ele>
                        <time>2022-08-18T00:04:16Z</time>
                                                <extensions>
                            <sog>0.0</sog>
<cog>301.8</cog>
                        </extensions>
                    </trkpt>
                    <trkpt lat="54.29273166666667" lon="9.673300000000001">
                        <ele>0</ele>
                        <time>2022-08-18T00:07:17Z</time>
                                                <extensions>
                            <sog>0.0</sog>
<cog>229.6</cog>
                        </extensions>
                    </trkpt>
                    <trkpt lat="54.29273166666667" lon="9.673306666666667">
                        <ele>0</ele>
                        <time>2022-08-18T00:10:17Z</time>
                                                <extensions>
                            <sog>0.0</sog>
<cog>204.0</cog>
                        </extensions>
                    </trkpt>
                    <trkpt lat="54.292743333333334" lon="9.673311666666667">
                        <ele>0</ele>
                        <time>2022-08-18T00:13:16Z</time>
                                                <extensions>
                            <sog>0.0</sog>
<cog>106.3</cog>
                        </extensions>
                    </trkpt>
                    <trkpt lat="54.29273666666666" lon="9.673305">
                        <ele>0</ele>
                        <time>2022-08-18T00:16:16Z</time>
                                                <extensions>
                            <sog>0.0</sog>
<cog>44.1</cog>
                        </extensions>
                    </trkpt>
                    <trkpt lat="54.292743333333334" lon="9.673306666666667">
                        <ele>0</ele>
                        <time>2022-08-18T00:19:16Z</time>
                                                <extensions>
                            <sog>0.0</sog>
<cog>212.1</cog>
                        </extensions>
                    </trkpt>
                    <trkpt lat="54.292741666666664" lon="9.673301666666667">
                        <ele>0</ele>
                        <time>2022-08-18T00:22:17Z</time>
                                                <extensions>
                            <sog>0.0</sog>
<cog>1.4</cog>
                        </extensions>
                    </trkpt>
                    <trkpt lat="54.292741666666664" lon="9.673300000000001">
                        <ele>0</ele>
                        <time>2022-08-18T00:25:16Z</time>
                                                <extensions>
                            <sog>0.0</sog>
<cog>336.1</cog>
                        </extensions>
                    </trkpt>
                    <trkpt lat="54.29274833333333" lon="9.673298333333333">
                        <ele>0</ele>
                        <time>2022-08-18T00:31:16Z</time>
                                                <extensions>
                            <sog>0.0</sog>
<cog>357.5</cog>
                        </extensions>
                    </trkpt>
                    <trkpt lat="54.292743333333334" lon="9.67329">
                        <ele>0</ele>
                        <time>2022-08-18T00:37:17Z</time>
                                                <extensions>
                            <sog>0.0</sog>
<cog>207.1</cog>
                        </extensions>
                    </trkpt>
                    <trkpt lat="54.29275" lon="9.673291666666668">
                        <ele>0</ele>
                        <time>2022-08-18T00:40:17Z</time>
                                                <extensions>
                            <sog>0.0</sog>
<cog>229.8</cog>
                        </extensions>
                    </trkpt>
                    <trkpt lat="54.29275166666666" lon="9.67329">
                        <ele>0</ele>
                        <time>2022-08-18T00:43:17Z</time>
                                                <extensions>
                            <sog>0.0</sog>
<cog>212.1</cog>
                        </extensions>
                    </trkpt>
                    <trkpt lat="54.29275333333333" lon="9.673291666666668">
                        <ele>0</ele>
                        <time>2022-08-18T00:46:16Z</time>
                                                <extensions>
                            <sog>0.0</sog>
<cog>313.9</cog>
                        </extensions>
                    </trkpt>
                    <trkpt lat="54.29275833333334" lon="9.673300000000001">
                        <ele>0</ele>
                        <time>2022-08-18T00:52:18Z</time>
                                                <extensions>
                            <sog>0.0</sog>
<cog>60.4</cog>
                        </extensions>
                    </trkpt>
                    <trkpt lat="54.29275833333334" lon="9.673303333333333">
                        <ele>0</ele>
                        <time>2022-08-18T00:55:17Z</time>
                                                <extensions>
                            <sog>0.0</sog>
<cog>276.1</cog>
                        </extensions>
                    </trkpt>
                    <trkpt lat="54.29275833333334" lon="9.673301666666667">
                        <ele>0</ele>
                        <time>2022-08-18T00:58:18Z</time>
                                                <extensions>
                            <sog>0.0</sog>
<cog>96.1</cog>
                        </extensions>
                    </trkpt>
                    <trkpt lat="54.29275500000001" lon="9.673298333333333">
                        <ele>0</ele>
                        <time>2022-08-18T01:04:16Z</time>
                                                <extensions>
                            <sog>0.0</sog>
<cog>340.5</cog>
                        </extensions>
                    </trkpt>
                    <trkpt lat="54.292746666666666" lon="9.673300000000001">
                        <ele>0</ele>
                        <time>2022-08-18T01:10:17Z</time>
                                                <extensions>
                            <sog>0.0</sog>
<cog>180.3</cog>
                        </extensions>
                    </trkpt>
                    <trkpt lat="54.29275" lon="9.673305">
                        <ele>0</ele>
                        <time>2022-08-18T01:13:17Z</time>
                                                <extensions>
                            <sog>0.0</sog>
<cog>90.9</cog>
                        </extensions>
                    </trkpt>
                    <trkpt lat="54.292743333333334" lon="9.673308333333333">
                        <ele>0</ele>
                        <time>2022-08-18T01:19:17Z</time>
                                                <extensions>
                            <sog>0.0</sog>
<cog>260.0</cog>
                        </extensions>
                    </trkpt>
                    <trkpt lat="54.292743333333334" lon="9.673306666666667">
                        <ele>0</ele>
                        <time>2022-08-18T01:22:17Z</time>
                                                <extensions>
                            <sog>0.0</sog>
<cog>91.1</cog>
                        </extensions>
                    </trkpt>
                    <trkpt lat="54.292743333333334" lon="9.673296666666666">
                        <ele>0</ele>
                        <time>2022-08-18T01:25:17Z</time>
                                                <extensions>
                            <sog>0.0</sog>
<cog>322.3</cog>
                        </extensions>
                    </trkpt>
                    <trkpt lat="54.29275333333333" lon="9.673293333333334">
                        <ele>0</ele>
                        <time>2022-08-18T01:28:17Z</time>
                                                <extensions>
                            <sog>0.0</sog>
<cog>152.5</cog>
                        </extensions>
                    </trkpt>
                    <trkpt lat="54.29275" lon="9.673291666666668">
                        <ele>0</ele>
                        <time>2022-08-18T01:31:17Z</time>
                                                <extensions>
                            <sog>0.0</sog>
<cog>53.6</cog>
                        </extensions>
                    </trkpt>
                    <trkpt lat="54.29276" lon="9.673293333333334">
                        <ele>0</ele>
                        <time>2022-08-18T01:34:17Z</time>
                                                <extensions>
                            <sog>0.0</sog>
<cog>45.9</cog>
                        </extensions>
                    </trkpt>
                    <trkpt lat="54.29276166666667" lon="9.673295">
                        <ele>0</ele>
                        <time>2022-08-18T01:37:17Z</time>
                                                <extensions>
                            <sog>0.0</sog>
<cog>146.4</cog>
                        </extensions>
                    </trkpt>
                    <trkpt lat="54.29276" lon="9.673291666666668">
                        <ele>0</ele>
                        <time>2022-08-18T01:40:16Z</time>
                                                <extensions>
                            <sog>0.0</sog>
<cog>8.2</cog>
                        </extensions>
                    </trkpt>
                    <trkpt lat="54.29275333333333" lon="9.673283333333334">
                        <ele>0</ele>
                        <time>2022-08-18T01:43:16Z</time>
                                                <extensions>
                            <sog>0.0</sog>
<cog>189.1</cog>
                        </extensions>
                    </trkpt>
                    <trkpt lat="54.29276166666667" lon="9.673286666666666">
                        <ele>0</ele>
                        <time>2022-08-18T01:46:17Z</time>
                                                <extensions>
                            <sog>0.0</sog>
<cog>314.8</cog>
                        </extensions>
                    </trkpt>
                    <trkpt lat="54.29275500000001" lon="9.67329">
                        <ele>0</ele>
                        <time>2022-08-18T01:49:17Z</time>
                                                <extensions>
                            <sog>0.0</sog>
<cog>74.2</cog>
                        </extensions>
                    </trkpt>
                    <trkpt lat="54.29275166666666" lon="9.673296666666666">
                        <ele>0</ele>
                        <time>2022-08-18T01:52:17Z</time>
                                                <extensions>
                            <sog>0.0</sog>
<cog>169.8</cog>
                        </extensions>
                    </trkpt>
                    <trkpt lat="54.292746666666666" lon="9.673303333333333">
                        <ele>0</ele>
                        <time>2022-08-18T01:55:16Z</time>
                                                <extensions>
                            <sog>0.0</sog>
<cog>351.1</cog>
                        </extensions>
                    </trkpt>
                    <trkpt lat="54.29275333333333" lon="9.673295">
                        <ele>0</ele>
                        <time>2022-08-18T02:01:17Z</time>
                                                <extensions>
                            <sog>0.0</sog>
<cog>12.1</cog>
                        </extensions>
                    </trkpt>
                    <trkpt lat="54.29275333333333" lon="9.673295">
                        <ele>0</ele>
                        <time>2022-08-18T02:04:16Z</time>
                                                <extensions>
                            <sog>0.0</sog>
<cog>9.5</cog>
                        </extensions>
                    </trkpt>
                    <trkpt lat="54.29275" lon="9.673293333333334">
                        <ele>0</ele>
                        <time>2022-08-18T02:13:17Z</time>
                                                <extensions>
                            <sog>0.0</sog>
<cog>189.3</cog>
                        </extensions>
                    </trkpt>
                    <trkpt lat="54.29276" lon="9.673295">
                        <ele>0</ele>
                        <time>2022-08-18T02:22:17Z</time>
                                                <extensions>
                            <sog>0.0</sog>
<cog>61.2</cog>
                        </extensions>
                    </trkpt>
                    <trkpt lat="54.29276" lon="9.673298333333333">
                        <ele>0</ele>
                        <time>2022-08-18T02:31:17Z</time>
                                                <extensions>
                            <sog>0.0</sog>
<cog>307.1</cog>
                        </extensions>
                    </trkpt>
                    <trkpt lat="54.29275833333334" lon="9.673296666666666">
                        <ele>0</ele>
                        <time>2022-08-18T02:34:17Z</time>
                                                <extensions>
                            <sog>0.1</sog>
<cog>353.6</cog>
                        </extensions>
                    </trkpt>
                    <trkpt lat="54.29275500000001" lon="9.673300000000001">
                        <ele>0</ele>
                        <time>2022-08-18T02:37:17Z</time>
                                                <extensions>
                            <sog>0.0</sog>
<cog>1.0</cog>
                        </extensions>
                    </trkpt>
                    <trkpt lat="54.29275333333333" lon="9.673301666666667">
                        <ele>0</ele>
                        <time>2022-08-18T02:40:16Z</time>
                                                <extensions>
                            <sog>0.0</sog>
<cog>119.2</cog>
                        </extensions>
                    </trkpt>
                    <trkpt lat="54.29275" lon="9.673291666666668">
                        <ele>0</ele>
                        <time>2022-08-18T02:55:17Z</time>
                                                <extensions>
                            <sog>0.0</sog>
<cog>171.2</cog>
                        </extensions>
                    </trkpt>
                    <trkpt lat="54.29275166666666" lon="9.673291666666668">
                        <ele>0</ele>
                        <time>2022-08-18T02:58:17Z</time>
                                                <extensions>
                            <sog>0.0</sog>
<cog>353.7</cog>
                        </extensions>
                    </trkpt>
                    <trkpt lat="54.29274833333333" lon="9.673291666666668">
                        <ele>0</ele>
                        <time>2022-08-18T03:01:16Z</time>
                                                <extensions>
                            <sog>0.0</sog>
<cog>14.2</cog>
                        </extensions>
                    </trkpt>
                    <trkpt lat="54.29275500000001" lon="9.673286666666666">
                        <ele>0</ele>
                        <time>2022-08-18T03:07:16Z</time>
                                                <extensions>
                            <sog>0.0</sog>
<cog>298.3</cog>
                        </extensions>
                    </trkpt>
                    <trkpt lat="54.29275833333334" lon="9.673288333333334">
                        <ele>0</ele>
                        <time>2022-08-18T03:10:16Z</time>
                                                <extensions>
                            <sog>0.0</sog>
<cog>210.7</cog>
                        </extensions>
                    </trkpt>
                    <trkpt lat="54.29274833333333" lon="9.67329">
                        <ele>0</ele>
                        <time>2022-08-18T03:13:16Z</time>
                                                <extensions>
                            <sog>0.0</sog>
<cog>189.2</cog>
                        </extensions>
                    </trkpt>
                    <trkpt lat="54.29273666666666" lon="9.673286666666666">
                        <ele>0</ele>
                        <time>2022-08-18T03:22:16Z</time>
                                                <extensions>
                            <sog>0.0</sog>
<cog>57.2</cog>
                        </extensions>
                    </trkpt>
                    <trkpt lat="54.29274" lon="9.673291666666668">
                        <ele>0</ele>
                        <time>2022-08-18T03:31:17Z</time>
                                                <extensions>
                            <sog>0.0</sog>
<cog>280.2</cog>
                        </extensions>
                    </trkpt>
                    <trkpt lat="54.29276333333333" lon="9.673278333333334">
                        <ele>0</ele>
                        <time>2022-08-18T03:34:17Z</time>
                                                <extensions>
                            <sog>0.0</sog>
<cog>26.6</cog>
                        </extensions>
                    </trkpt>
                    <trkpt lat="54.29275666666667" lon="9.673286666666666">
                        <ele>0</ele>
                        <time>2022-08-18T03:37:16Z</time>
                                                <extensions>
                            <sog>0.0</sog>
<cog>196.8</cog>
                        </extensions>
                    </trkpt>
                    <trkpt lat="54.29274833333333" lon="9.673286666666666">
                        <ele>0</ele>
                        <time>2022-08-18T03:49:18Z</time>
                                                <extensions>
                            <sog>0.0</sog>
<cog>13.9</cog>
                        </extensions>
                    </trkpt>
                    <trkpt lat="54.292745" lon="9.673288333333334">
                        <ele>0</ele>
                        <time>2022-08-18T03:52:17Z</time>
                                                <extensions>
                            <sog>0.1</sog>
<cog>187.1</cog>
                        </extensions>
                    </trkpt>
                    <trkpt lat="54.292741666666664" lon="9.673288333333334">
                        <ele>0</ele>
                        <time>2022-08-18T03:55:17Z</time>
                                                <extensions>
                            <sog>0.0</sog>
<cog>288.2</cog>
                        </extensions>
                    </trkpt>
                    <trkpt lat="54.29273666666666" lon="9.673285">
                        <ele>0</ele>
                        <time>2022-08-18T03:58:17Z</time>
                                                <extensions>
                            <sog>0.0</sog>
<cog>73.5</cog>
                        </extensions>
                    </trkpt>
                    <trkpt lat="54.29273666666666" lon="9.673285">
                        <ele>0</ele>
                        <time>2022-08-18T04:01:17Z</time>
                                                <extensions>
                            <sog>0.0</sog>
<cog>70.0</cog>
                        </extensions>
                    </trkpt>
                    <trkpt lat="54.29273666666666" lon="9.673295">
                        <ele>0</ele>
                        <time>2022-08-18T04:07:16Z</time>
                                                <extensions>
                            <sog>0.0</sog>
<cog>263.4</cog>
                        </extensions>
                    </trkpt>
                    <trkpt lat="54.29274" lon="9.673295">
                        <ele>0</ele>
                        <time>2022-08-18T04:10:18Z</time>
                                                <extensions>
                            <sog>0.0</sog>
<cog>137.2</cog>
                        </extensions>
                    </trkpt>
                    <trkpt lat="54.292745" lon="9.673288333333334">
                        <ele>0</ele>
                        <time>2022-08-18T04:13:17Z</time>
                                                <extensions>
                            <sog>0.0</sog>
<cog>235.1</cog>
                        </extensions>
                    </trkpt>
                    <trkpt lat="54.29275" lon="9.673300000000001">
                        <ele>0</ele>
                        <time>2022-08-18T04:19:16Z</time>
                                                <extensions>
                            <sog>0.0</sog>
<cog>61.8</cog>
                        </extensions>
                    </trkpt>
                    <trkpt lat="54.29275166666666" lon="9.673309999999999">
                        <ele>0</ele>
                        <time>2022-08-18T04:22:17Z</time>
                                                <extensions>
                            <sog>0.0</sog>
<cog>293.1</cog>
                        </extensions>
                    </trkpt>
                    <trkpt lat="54.29275166666666" lon="9.673313333333335">
                        <ele>0</ele>
                        <time>2022-08-18T04:25:17Z</time>
                                                <extensions>
                            <sog>0.0</sog>
<cog>101.6</cog>
                        </extensions>
                    </trkpt>
                    <trkpt lat="54.29274833333333" lon="9.673313333333335">
                        <ele>0</ele>
                        <time>2022-08-18T04:37:16Z</time>
                                                <extensions>
                            <sog>0.0</sog>
<cog>149.0</cog>
                        </extensions>
                    </trkpt>
                    <trkpt lat="54.29275" lon="9.673319999999999">
                        <ele>0</ele>
                        <time>2022-08-18T04:52:17Z</time>
                                                <extensions>
                            <sog>0.0</sog>
<cog>155.8</cog>
                        </extensions>
                    </trkpt>
                    <trkpt lat="54.29275500000001" lon="9.673318333333333">
                        <ele>0</ele>
                        <time>2022-08-18T04:55:16Z</time>
                                                <extensions>
                            <sog>0.0</sog>
<cog>350.8</cog>
                        </extensions>
                    </trkpt>
                    <trkpt lat="54.29275166666666" lon="9.673311666666667">
                        <ele>0</ele>
                        <time>2022-08-18T05:01:17Z</time>
                                                <extensions>
                            <sog>0.1</sog>
<cog>34.8</cog>
                        </extensions>
                    </trkpt>
                    <trkpt lat="54.292741666666664" lon="9.673309999999999">
                        <ele>0</ele>
                        <time>2022-08-18T05:10:17Z</time>
                                                <extensions>
                            <sog>0.0</sog>
<cog>301.8</cog>
                        </extensions>
                    </trkpt>
                    <trkpt lat="54.29274" lon="9.673308333333333">
                        <ele>0</ele>
                        <time>2022-08-18T05:13:17Z</time>
                                                <extensions>
                            <sog>0.0</sog>
<cog>351.9</cog>
                        </extensions>
                    </trkpt>
                    <trkpt lat="54.29273833333333" lon="9.673308333333333">
                        <ele>0</ele>
                        <time>2022-08-18T05:16:16Z</time>
                                                <extensions>
                            <sog>0.0</sog>
<cog>282.1</cog>
                        </extensions>
                    </trkpt>
                    <trkpt lat="54.29273666666666" lon="9.673305">
                        <ele>0</ele>
                        <time>2022-08-18T05:19:17Z</time>
                                                <extensions>
                            <sog>0.0</sog>
<cog>124.3</cog>
                        </extensions>
                    </trkpt>
                    <trkpt lat="54.292745" lon="9.673306666666667">
                        <ele>0</ele>
                        <time>2022-08-18T05:25:17Z</time>
                                                <extensions>
                            <sog>0.0</sog>
<cog>162.7</cog>
                        </extensions>
                    </trkpt>
                    <trkpt lat="54.292745" lon="9.673303333333333">
                        <ele>0</ele>
                        <time>2022-08-18T05:31:17Z</time>
                                                <extensions>
                            <sog>0.0</sog>
<cog>114.6</cog>
                        </extensions>
                    </trkpt>
                    <trkpt lat="54.29275166666666" lon="9.673309999999999">
                        <ele>0</ele>
                        <time>2022-08-18T05:40:18Z</time>
                                                <extensions>
                            <sog>0.0</sog>
<cog>46.3</cog>
                        </extensions>
                    </trkpt>
                    <trkpt lat="54.29275166666666" lon="9.673306666666667">
                        <ele>0</ele>
                        <time>2022-08-18T05:49:18Z</time>
                                                <extensions>
                            <sog>0.0</sog>
<cog>69.4</cog>
                        </extensions>
                    </trkpt>
                    <trkpt lat="54.29275833333334" lon="9.673311666666667">
                        <ele>0</ele>
                        <time>2022-08-18T05:58:17Z</time>
                                                <extensions>
                            <sog>0.0</sog>
<cog>130.4</cog>
                        </extensions>
                    </trkpt>
                    <trkpt lat="54.29275500000001" lon="9.673305">
                        <ele>0</ele>
                        <time>2022-08-18T06:01:17Z</time>
                                                <extensions>
                            <sog>0.0</sog>
<cog>227.4</cog>
                        </extensions>
                    </trkpt>
                    <trkpt lat="54.29275166666666" lon="9.673306666666667">
                        <ele>0</ele>
                        <time>2022-08-18T06:04:16Z</time>
                                                <extensions>
                            <sog>0.0</sog>
<cog>162.2</cog>
                        </extensions>
                    </trkpt>
                    <trkpt lat="54.29275833333334" lon="9.673306666666667">
                        <ele>0</ele>
                        <time>2022-08-18T06:13:17Z</time>
                                                <extensions>
                            <sog>0.0</sog>
<cog>79.1</cog>
                        </extensions>
                    </trkpt>
                    <trkpt lat="54.29275666666667" lon="9.673306666666667">
                        <ele>0</ele>
                        <time>2022-08-18T06:25:17Z</time>
                                                <extensions>
                            <sog>0.0</sog>
<cog>280.2</cog>
                        </extensions>
                    </trkpt>
                    <trkpt lat="54.29276166666667" lon="9.673303333333333">
                        <ele>0</ele>
                        <time>2022-08-18T06:28:17Z</time>
                                                <extensions>
                            <sog>0.1</sog>
<cog>224.6</cog>
                        </extensions>
                    </trkpt>
                    <trkpt lat="54.29276" lon="9.673301666666667">
                        <ele>0</ele>
                        <time>2022-08-18T06:31:16Z</time>
                                                <extensions>
                            <sog>0.0</sog>
<cog>280.2</cog>
                        </extensions>
                    </trkpt>
                    <trkpt lat="54.29275333333333" lon="9.673301666666667">
                        <ele>0</ele>
                        <time>2022-08-18T06:34:17Z</time>
                                                <extensions>
                            <sog>0.0</sog>
<cog>274.1</cog>
                        </extensions>
                    </trkpt>
                    <trkpt lat="54.29275" lon="9.673303333333333">
                        <ele>0</ele>
                        <time>2022-08-18T06:37:17Z</time>
                                                <extensions>
                            <sog>0.0</sog>
<cog>92.0</cog>
                        </extensions>
                    </trkpt>
                    <trkpt lat="54.29275166666666" lon="9.673305">
                        <ele>0</ele>
                        <time>2022-08-18T06:40:17Z</time>
                                                <extensions>
                            <sog>0.0</sog>
<cog>284.4</cog>
                        </extensions>
                    </trkpt>
                    <trkpt lat="54.29275333333333" lon="9.673308333333333">
                        <ele>0</ele>
                        <time>2022-08-18T06:43:16Z</time>
                                                <extensions>
                            <sog>0.0</sog>
<cog>87.8</cog>
                        </extensions>
                    </trkpt>
                    <trkpt lat="54.29275166666666" lon="9.673300000000001">
                        <ele>0</ele>
                        <time>2022-08-18T06:49:17Z</time>
                                                <extensions>
                            <sog>0.0</sog>
<cog>105.0</cog>
                        </extensions>
                    </trkpt>
                    <trkpt lat="54.29275666666667" lon="9.673303333333333">
                        <ele>0</ele>
                        <time>2022-08-18T06:52:17Z</time>
                                                <extensions>
                            <sog>0.0</sog>
<cog>150.6</cog>
                        </extensions>
                    </trkpt>
                    <trkpt lat="54.29275500000001" lon="9.673301666666667">
                        <ele>0</ele>
                        <time>2022-08-18T06:58:16Z</time>
                                                <extensions>
                            <sog>0.0</sog>
<cog>251.6</cog>
                        </extensions>
                    </trkpt>
                    <trkpt lat="54.29274833333333" lon="9.673305">
                        <ele>0</ele>
                        <time>2022-08-18T07:07:17Z</time>
                                                <extensions>
                            <sog>0.0</sog>
<cog>187.0</cog>
                        </extensions>
                    </trkpt>
                    <trkpt lat="54.29275500000001" lon="9.673301666666667">
                        <ele>0</ele>
                        <time>2022-08-18T07:13:16Z</time>
                                                <extensions>
                            <sog>0.0</sog>
<cog>344.6</cog>
                        </extensions>
                    </trkpt>
                    <trkpt lat="54.29274" lon="9.673309999999999">
                        <ele>0</ele>
                        <time>2022-08-18T07:16:17Z</time>
                                                <extensions>
                            <sog>0.0</sog>
<cog>4.2</cog>
                        </extensions>
                    </trkpt>
                    <trkpt lat="54.29275166666666" lon="9.673303333333333">
                        <ele>0</ele>
                        <time>2022-08-18T07:25:17Z</time>
                                                <extensions>
                            <sog>0.0</sog>
<cog>327.7</cog>
                        </extensions>
                    </trkpt>
                    <trkpt lat="54.29275500000001" lon="9.673308333333333">
                        <ele>0</ele>
                        <time>2022-08-18T07:34:17Z</time>
                                                <extensions>
                            <sog>0.0</sog>
<cog>189.4</cog>
                        </extensions>
                    </trkpt>
                    <trkpt lat="54.29275500000001" lon="9.673309999999999">
                        <ele>0</ele>
                        <time>2022-08-18T07:37:17Z</time>
                                                <extensions>
                            <sog>0.0</sog>
<cog>323.5</cog>
                        </extensions>
                    </trkpt>
                    <trkpt lat="54.29275666666667" lon="9.673306666666667">
                        <ele>0</ele>
                        <time>2022-08-18T07:40:16Z</time>
                                                <extensions>
                            <sog>0.0</sog>
<cog>69.6</cog>
                        </extensions>
                    </trkpt>
                    <trkpt lat="54.292746666666666" lon="9.673306666666667">
                        <ele>0</ele>
                        <time>2022-08-18T07:46:16Z</time>
                                                <extensions>
                            <sog>0.0</sog>
<cog>38.2</cog>
                        </extensions>
                    </trkpt>
                    <trkpt lat="54.292765" lon="9.673306666666667">
                        <ele>0</ele>
                        <time>2022-08-18T07:52:16Z</time>
                                                <extensions>
                            <sog>0.0</sog>
<cog>129.6</cog>
                        </extensions>
                    </trkpt>
                    </trkseg>
                </trk>
</gpx>