<?xml version="1.0" encoding="UTF-8"?>
<gpx version="1.1" creator="AIS-to-GPX Converter" xmlns="http://www.topografix.com/GPX/1/1">
                <trk>
                    <name>anon0283</name>
                    <trkseg>
                                            <trkpt lat="54.37345666666667" lon="10.194913333333334">
                        <ele>0</ele>
                        <time>2022-08-18T19:47:54Z</time>
                        <extensions>
    <sog>0.0</sog>
</extensions>
                    </trkpt>
                    <trkpt lat="54.37343333333333" lon="10.194913333333334">
                        <ele>0</ele>
                        <time>2022-08-18T19:48:24Z</time>
                        <extensions>
    <sog>0.1</sog>
</extensions>
                    </trkpt>
                    <trkpt lat="54.37339833333333" lon="10.194915">
                        <ele>0</ele>
                        <time>2022-08-18T19:48:54Z</time>
                        <extensions>
    <sog>0.0</sog>
</extensions>
                    </trkpt>
                    <trkpt lat="54.37339166666666" lon="10.194908333333332">
                        <ele>0</ele>
                        <time>2022-08-18T19:49:25Z</time>
                        <extensions>
    <sog>0.0</sog>
</extensions>
                    </trkpt>
                    <trkpt lat="54.37339333333333" lon="10.194958333333334">
                        <ele>0</ele>
                        <time>2022-08-18T19:50:24Z</time>
                        <extensions>
    <sog>0.1</sog>
</extensions>
                    </trkpt>
                    <trkpt lat="54.37339166666666" lon="10.194951666666666">
                        <ele>0</ele>
                        <time>2022-08-18T19:50:54Z</time>
                        <extensions>
    <sog>0.0</sog>
</extensions>
                    </trkpt>
                    <trkpt lat="54.373385" lon="10.194933333333333">
                        <ele>0</ele>
                        <time>2022-08-18T19:53:55Z</time>
                        <extensions>
    <sog>0.0</sog>
</extensions>
                    </trkpt>
                    <trkpt lat="54.373441666666665" lon="10.194935">
                        <ele>0</ele>
                        <time>2022-08-18T19:56:54Z</time>
                        <extensions>
    <sog>0.0</sog>
</extensions>
                    </trkpt>
                    <trkpt lat="54.37341166666667" lon="10.19489">
                        <ele>0</ele>
                        <time>2022-08-18T20:02:54Z</time>
                        <extensions>
    <sog>0.0</sog>
</extensions>
                    </trkpt>
                    <trkpt lat="54.37339166666666" lon="10.19492">
                        <ele>0</ele>
                        <time>2022-08-18T20:05:54Z</time>
                        <extensions>
    <sog>0.0</sog>
</extensions>
                    </trkpt>
                    <trkpt lat="54.37343" lon="10.194941666666667">
                        <ele>0</ele>
                        <time>2022-08-18T20:11:55Z</time>
                        <extensions>
    <sog>0.0</sog>
</extensions>
                    </trkpt>
                    <trkpt lat="54.373435" lon="10.194951666666666">
                        <ele>0</ele>
                        <time>2022-08-18T20:17:54Z</time>
                        <extensions>
    <sog>0.0</sog>
</extensions>
                    </trkpt>
                    <trkpt lat="54.37342833333333" lon="10.19496">
                        <ele>0</ele>
                        <time>2022-08-18T20:23:54Z</time>
                        <extensions>
    <sog>0.1</sog>
</extensions>
                    </trkpt>
                    <trkpt lat="54.373450000000005" lon="10.194958333333334">
                        <ele>0</ele>
                        <time>2022-08-18T20:29:56Z</time>
                        <extensions>
    <sog>0.0</sog>
</extensions>
                    </trkpt>
                    <trkpt lat="54.37341833333333" lon="10.195018333333334">
                        <ele>0</ele>
                        <time>2022-08-18T20:32:57Z</time>
                        <extensions>
    <sog>0.1</sog>
</extensions>
                    </trkpt>
                    <trkpt lat="54.37345333333334" lon="10.195005">
                        <ele>0</ele>
                        <time>2022-08-18T20:35:55Z</time>
                        <extensions>
    <sog>0.1</sog>
</extensions>
                    </trkpt>
                    <trkpt lat="54.37347166666667" lon="10.194968333333332">
                        <ele>0</ele>
                        <time>2022-08-18T20:41:56Z</time>
                        <extensions>
    <sog>0.0</sog>
</extensions>
                    </trkpt>
                    <trkpt lat="54.37341666666667" lon="10.194995">
                        <ele>0</ele>
                        <time>2022-08-18T20:47:56Z</time>
                        <extensions>
    <sog>0.0</sog>
</extensions>
                    </trkpt>
                    <trkpt lat="54.373435" lon="10.194936666666667">
                        <ele>0</ele>
                        <time>2022-08-18T20:50:54Z</time>
                        <extensions>
    <sog>0.0</sog>
</extensions>
                    </trkpt>
                    <trkpt lat="54.373441666666665" lon="10.194935">
                        <ele>0</ele>
                        <time>2022-08-18T20:53:56Z</time>
                        <extensions>
    <sog>0.0</sog>
</extensions>
                    </trkpt>
                    <trkpt lat="54.37341166666667" lon="10.194901666666668">
                        <ele>0</ele>
                        <time>2022-08-18T20:56:56Z</time>
                        <extensions>
    <sog>0.0</sog>
</extensions>
                    </trkpt>
                    <trkpt lat="54.37342833333333" lon="10.194898333333333">
                        <ele>0</ele>
                        <time>2022-08-18T20:59:57Z</time>
                        <extensions>
    <sog>0.0</sog>
</extensions>
                    </trkpt>
                    <trkpt lat="54.37345333333334" lon="10.194916666666668">
                        <ele>0</ele>
                        <time>2022-08-18T21:05:57Z</time>
                        <extensions>
    <sog>0.0</sog>
</extensions>
                    </trkpt>
                    <trkpt lat="54.37341" lon="10.19494">
                        <ele>0</ele>
                        <time>2022-08-18T21:08:55Z</time>
                        <extensions>
    <sog>0.0</sog>
</extensions>
                    </trkpt>
                    <trkpt lat="54.373415" lon="10.194963333333334">
                        <ele>0</ele>
                        <time>2022-08-18T21:11:56Z</time>
                        <extensions>
    <sog>0.1</sog>
</extensions>
                    </trkpt>
                    <trkpt lat="54.373378333333335" lon="10.194925000000001">
                        <ele>0</ele>
                        <time>2022-08-18T21:14:55Z</time>
                        <extensions>
    <sog>0.0</sog>
</extensions>
                    </trkpt>
                    <trkpt lat="54.37343166666667" lon="10.194933333333333">
                        <ele>0</ele>
                        <time>2022-08-18T21:17:55Z</time>
                        <extensions>
    <sog>0.1</sog>
</extensions>
                    </trkpt>
                    <trkpt lat="54.37340166666667" lon="10.194938333333333">
                        <ele>0</ele>
                        <time>2022-08-18T21:20:58Z</time>
                        <extensions>
    <sog>0.1</sog>
</extensions>
                    </trkpt>
                    <trkpt lat="54.373425" lon="10.19491">
                        <ele>0</ele>
                        <time>2022-08-18T21:23:55Z</time>
                        <extensions>
    <sog>0.0</sog>
</extensions>
                    </trkpt>
                    <trkpt lat="54.37343833333333" lon="10.194931666666667">
                        <ele>0</ele>
                        <time>2022-08-18T21:26:55Z</time>
                        <extensions>
    <sog>0.0</sog>
</extensions>
                    </trkpt>
                    <trkpt lat="54.37343333333333" lon="10.194985">
                        <ele>0</ele>
                        <time>2022-08-18T21:29:56Z</time>
                        <extensions>
    <sog>0.0</sog>
</extensions>
                    </trkpt>
                    <trkpt lat="54.37339" lon="10.19502">
                        <ele>0</ele>
                        <time>2022-08-18T21:32:55Z</time>
                        <extensions>
    <sog>0.0</sog>
</extensions>
                    </trkpt>
                    <trkpt lat="54.37342833333333" lon="10.195003333333334">
                        <ele>0</ele>
                        <time>2022-08-18T21:35:55Z</time>
                        <extensions>
    <sog>0.0</sog>
</extensions>
                    </trkpt>
                    <trkpt lat="54.373439999999995" lon="10.194973333333333">
                        <ele>0</ele>
                        <time>2022-08-18T21:38:55Z</time>
                        <extensions>
    <sog>0.0</sog>
</extensions>
                    </trkpt>
                    <trkpt lat="54.37343333333333" lon="10.194936666666667">
                        <ele>0</ele>
                        <time>2022-08-18T21:41:56Z</time>
                        <extensions>
    <sog>0.0</sog>
</extensions>
                    </trkpt>
                    <trkpt lat="54.37351" lon="10.194983333333333">
                        <ele>0</ele>
                        <time>2022-08-18T21:47:55Z</time>
                        <extensions>
    <sog>0.0</sog>
</extensions>
                    </trkpt>
                    <trkpt lat="54.37337333333333" lon="10.194958333333334">
                        <ele>0</ele>
                        <time>2022-08-18T21:53:55Z</time>
                        <extensions>
    <sog>0.0</sog>
</extensions>
                    </trkpt>
                    <trkpt lat="54.37338333333333" lon="10.194953333333332">
                        <ele>0</ele>
                        <time>2022-08-18T21:56:55Z</time>
                        <extensions>
    <sog>0.0</sog>
</extensions>
                    </trkpt>
                    <trkpt lat="54.37348166666666" lon="10.195028333333333">
                        <ele>0</ele>
                        <time>2022-08-18T21:59:58Z</time>
                        <extensions>
    <sog>0.0</sog>
</extensions>
                    </trkpt>
                    <trkpt lat="54.373415" lon="10.19504">
                        <ele>0</ele>
                        <time>2022-08-18T22:02:56Z</time>
                        <extensions>
    <sog>0.0</sog>
</extensions>
                    </trkpt>
                    <trkpt lat="54.373493333333336" lon="10.195026666666667">
                        <ele>0</ele>
                        <time>2022-08-18T22:05:56Z</time>
                        <extensions>
    <sog>0.0</sog>
</extensions>
                    </trkpt>
                    <trkpt lat="54.37342833333333" lon="10.194975">
                        <ele>0</ele>
                        <time>2022-08-18T22:11:56Z</time>
                        <extensions>
    <sog>0.0</sog>
</extensions>
                    </trkpt>
                    <trkpt lat="54.373423333333335" lon="10.195005">
                        <ele>0</ele>
                        <time>2022-08-18T22:17:57Z</time>
                        <extensions>
    <sog>0.0</sog>
</extensions>
                    </trkpt>
                    <trkpt lat="54.37343833333333" lon="10.19498">
                        <ele>0</ele>
                        <time>2022-08-18T22:20:55Z</time>
                        <extensions>
    <sog>0.1</sog>
</extensions>
                    </trkpt>
                    <trkpt lat="54.37344333333333" lon="10.195016666666668">
                        <ele>0</ele>
                        <time>2022-08-18T22:23:55Z</time>
                        <extensions>
    <sog>0.0</sog>
</extensions>
                    </trkpt>
                    <trkpt lat="54.37348166666666" lon="10.194938333333333">
                        <ele>0</ele>
                        <time>2022-08-18T22:29:59Z</time>
                        <extensions>
    <sog>0.0</sog>
</extensions>
                    </trkpt>
                    <trkpt lat="54.37345666666667" lon="10.195055">
                        <ele>0</ele>
                        <time>2022-08-18T22:32:55Z</time>
                        <extensions>
    <sog>0.2</sog>
</extensions>
                    </trkpt>
                    <trkpt lat="54.373466666666666" lon="10.194995">
                        <ele>0</ele>
                        <time>2022-08-18T22:35:55Z</time>
                        <extensions>
    <sog>0.1</sog>
</extensions>
                    </trkpt>
                    <trkpt lat="54.37342666666667" lon="10.194973333333333">
                        <ele>0</ele>
                        <time>2022-08-18T22:38:55Z</time>
                        <extensions>
    <sog>0.0</sog>
</extensions>
                    </trkpt>
                    <trkpt lat="54.37342666666667" lon="10.194958333333334">
                        <ele>0</ele>
                        <time>2022-08-18T22:41:55Z</time>
                        <extensions>
    <sog>0.0</sog>
</extensions>
                    </trkpt>
                    <trkpt lat="54.373435" lon="10.194983333333333">
                        <ele>0</ele>
                        <time>2022-08-18T22:50:55Z</time>
                        <extensions>
    <sog>0.0</sog>
</extensions>
                    </trkpt>
                    <trkpt lat="54.37342666666667" lon="10.195015000000001">
                        <ele>0</ele>
                        <time>2022-08-18T22:53:55Z</time>
                        <extensions>
    <sog>0.0</sog>
</extensions>
                    </trkpt>
                    <trkpt lat="54.373465" lon="10.194971666666667">
                        <ele>0</ele>
                        <time>2022-08-18T22:59:55Z</time>
                        <extensions>
    <sog>0.0</sog>
</extensions>
                    </trkpt>
                    <trkpt lat="54.37343333333333" lon="10.19491">
                        <ele>0</ele>
                        <time>2022-08-18T23:05:56Z</time>
                        <extensions>
    <sog>0.0</sog>
</extensions>
                    </trkpt>
                    <trkpt lat="54.37343166666667" lon="10.194936666666667">
                        <ele>0</ele>
                        <time>2022-08-18T23:08:55Z</time>
                        <extensions>
    <sog>0.0</sog>
</extensions>
                    </trkpt>
                    <trkpt lat="54.37346" lon="10.195085">
                        <ele>0</ele>
                        <time>2022-08-18T23:11:56Z</time>
                        <extensions>
    <sog>0.0</sog>
</extensions>
                    </trkpt>
                    <trkpt lat="54.37341" lon="10.194880000000001">
                        <ele>0</ele>
                        <time>2022-08-18T23:17:58Z</time>
                        <extensions>
    <sog>0.0</sog>
</extensions>
                    </trkpt>
                    <trkpt lat="54.37341666666667" lon="10.194885">
                        <ele>0</ele>
                        <time>2022-08-18T23:20:55Z</time>
                        <extensions>
    <sog>0.1</sog>
</extensions>
                    </trkpt>
                    <trkpt lat="54.37343333333333" lon="10.194933333333333">
                        <ele>0</ele>
                        <time>2022-08-18T23:23:57Z</time>
                        <extensions>
    <sog>0.0</sog>
</extensions>
                    </trkpt>
                    <trkpt lat="54.373441666666665" lon="10.194961666666668">
                        <ele>0</ele>
                        <time>2022-08-18T23:26:55Z</time>
                        <extensions>
    <sog>0.0</sog>
</extensions>
                    </trkpt>
                    <trkpt lat="54.37342" lon="10.195">
                        <ele>0</ele>
                        <time>2022-08-18T23:29:59Z</time>
                        <extensions>
    <sog>0.0</sog>
</extensions>
                    </trkpt>
                    <trkpt lat="54.373435" lon="10.194986666666667">
                        <ele>0</ele>
                        <time>2022-08-18T23:32:55Z</time>
                        <extensions>
    <sog>0.2</sog>
</extensions>
                    </trkpt>
                    <trkpt lat="54.37340166666667" lon="10.194971666666667">
                        <ele>0</ele>
                        <time>2022-08-18T23:35:56Z</time>
                        <extensions>
    <sog>0.2</sog>
</extensions>
                    </trkpt>
                    <trkpt lat="54.37343166666667" lon="10.194878333333332">
                        <ele>0</ele>
                        <time>2022-08-18T23:38:55Z</time>
                        <extensions>
    <sog>0.0</sog>
</extensions>
                    </trkpt>
                    <trkpt lat="54.37343666666666" lon="10.19494">
                        <ele>0</ele>
                        <time>2022-08-18T23:41:55Z</time>
                        <extensions>
    <sog>0.2</sog>
</extensions>
                    </trkpt>
                    <trkpt lat="54.373394999999995" lon="10.194951666666666">
                        <ele>0</ele>
                        <time>2022-08-18T23:44:58Z</time>
                        <extensions>
    <sog>0.0</sog>
</extensions>
                    </trkpt>
                    <trkpt lat="54.37343666666666" lon="10.194983333333333">
                        <ele>0</ele>
                        <time>2022-08-18T23:47:56Z</time>
                        <extensions>
    <sog>0.0</sog>
</extensions>
                    </trkpt>
                    <trkpt lat="54.37340666666667" lon="10.194948333333334">
                        <ele>0</ele>
                        <time>2022-08-18T23:50:55Z</time>
                        <extensions>
    <sog>0.0</sog>
</extensions>
                    </trkpt>
                    <trkpt lat="54.37343333333333" lon="10.194948333333334">
                        <ele>0</ele>
                        <time>2022-08-18T23:53:55Z</time>
                        <extensions>
    <sog>0.0</sog>
</extensions>
                    </trkpt>
                    <trkpt lat="54.37339333333333" lon="10.19501">
                        <ele>0</ele>
                        <time>2022-08-18T23:56:55Z</time>
                        <extensions>
    <sog>0.0</sog>
</extensions>
                    </trkpt>
                    <trkpt lat="54.373403333333336" lon="10.194948333333334">
                        <ele>0</ele>
                        <time>2022-08-18T23:59:55Z</time>
                        <extensions>
    <sog>0.0</sog>
</extensions>
                    </trkpt>
                    </trkseg>
                </trk>
</gpx>