<?xml version="1.0" encoding="UTF-8"?>
<gpx version="1.1" creator="AIS-to-GPX Converter" xmlns="http://www.topografix.com/GPX/1/1">
                <trk>
                    <name>anon0120</name>
                    <trkseg>
                                            <trkpt lat="54.19437166666667" lon="9.540518333333333">
                        <ele>0</ele>
                        <time>2022-08-18T23:25:30Z</time>
                                                <extensions>
                            <sog>8.1</sog>
<cog>61.5</cog>
                        </extensions>
                    </trkpt>
                    </trkseg>
                </trk>
</gpx>