<?xml version="1.0" encoding="UTF-8"?>
<gpx version="1.1" creator="AIS-to-GPX Converter" xmlns="http://www.topografix.com/GPX/1/1">
                <trk>
                    <name>anon0332</name>
                    <trkseg>
                                            <trkpt lat="54.401068333333335" lon="10.213601666666667">
                        <ele>0</ele>
                        <time>2022-08-18T00:19:49Z</time>
                                                <extensions>
                            <sog>0.0</sog>
<cog>57.0</cog>
                        </extensions>
                    </trkpt>
                    <trkpt lat="54.401088333333334" lon="10.21361">
                        <ele>0</ele>
                        <time>2022-08-18T00:31:51Z</time>
                                                <extensions>
                            <sog>0.0</sog>
<cog>57.0</cog>
                        </extensions>
                    </trkpt>
                    <trkpt lat="54.401055" lon="10.213581666666666">
                        <ele>0</ele>
                        <time>2022-08-18T00:43:49Z</time>
                                                <extensions>
                            <sog>0.0</sog>
<cog>57.0</cog>
                        </extensions>
                    </trkpt>
                    <trkpt lat="54.401068333333335" lon="10.213608333333333">
                        <ele>0</ele>
                        <time>2022-08-18T00:49:50Z</time>
                                                <extensions>
                            <sog>0.0</sog>
<cog>57.0</cog>
                        </extensions>
                    </trkpt>
                    <trkpt lat="54.40106" lon="10.213583333333334">
                        <ele>0</ele>
                        <time>2022-08-18T00:52:49Z</time>
                                                <extensions>
                            <sog>0.0</sog>
<cog>57.0</cog>
                        </extensions>
                    </trkpt>
                    <trkpt lat="54.40107166666667" lon="10.213613333333333">
                        <ele>0</ele>
                        <time>2022-08-18T00:55:49Z</time>
                                                <extensions>
                            <sog>0.0</sog>
<cog>57.0</cog>
                        </extensions>
                    </trkpt>
                    <trkpt lat="54.401075" lon="10.21358">
                        <ele>0</ele>
                        <time>2022-08-18T01:01:50Z</time>
                                                <extensions>
                            <sog>0.0</sog>
<cog>57.0</cog>
                        </extensions>
                    </trkpt>
                    <trkpt lat="54.401111666666665" lon="10.213618333333333">
                        <ele>0</ele>
                        <time>2022-08-18T01:07:49Z</time>
                                                <extensions>
                            <sog>0.1</sog>
<cog>57.0</cog>
                        </extensions>
                    </trkpt>
                    <trkpt lat="54.40106333333333" lon="10.213601666666667">
                        <ele>0</ele>
                        <time>2022-08-18T01:16:49Z</time>
                                                <extensions>
                            <sog>0.0</sog>
<cog>57.0</cog>
                        </extensions>
                    </trkpt>
                    <trkpt lat="54.401055" lon="10.213586666666666">
                        <ele>0</ele>
                        <time>2022-08-18T01:19:49Z</time>
                                                <extensions>
                            <sog>0.0</sog>
<cog>57.0</cog>
                        </extensions>
                    </trkpt>
                    <trkpt lat="54.40103833333333" lon="10.213608333333333">
                        <ele>0</ele>
                        <time>2022-08-18T01:22:49Z</time>
                                                <extensions>
                            <sog>0.0</sog>
<cog>57.0</cog>
                        </extensions>
                    </trkpt>
                    <trkpt lat="54.401065" lon="10.213615">
                        <ele>0</ele>
                        <time>2022-08-18T01:25:51Z</time>
                                                <extensions>
                            <sog>0.0</sog>
<cog>57.0</cog>
                        </extensions>
                    </trkpt>
                    <trkpt lat="54.40105666666667" lon="10.213593333333334">
                        <ele>0</ele>
                        <time>2022-08-18T01:43:51Z</time>
                                                <extensions>
                            <sog>0.0</sog>
<cog>57.0</cog>
                        </extensions>
                    </trkpt>
                    <trkpt lat="54.40105333333334" lon="10.213605">
                        <ele>0</ele>
                        <time>2022-08-18T01:46:48Z</time>
                                                <extensions>
                            <sog>0.0</sog>
<cog>57.0</cog>
                        </extensions>
                    </trkpt>
                    <trkpt lat="54.40106166666667" lon="10.213591666666668">
                        <ele>0</ele>
                        <time>2022-08-18T01:49:49Z</time>
                                                <extensions>
                            <sog>0.0</sog>
<cog>57.0</cog>
                        </extensions>
                    </trkpt>
                    <trkpt lat="54.401065" lon="10.213618333333333">
                        <ele>0</ele>
                        <time>2022-08-18T02:01:50Z</time>
                                                <extensions>
                            <sog>0.0</sog>
<cog>57.0</cog>
                        </extensions>
                    </trkpt>
                    <trkpt lat="54.401088333333334" lon="10.213576666666667">
                        <ele>0</ele>
                        <time>2022-08-18T02:07:50Z</time>
                                                <extensions>
                            <sog>0.1</sog>
<cog>57.0</cog>
                        </extensions>
                    </trkpt>
                    <trkpt lat="54.40106333333333" lon="10.213626666666666">
                        <ele>0</ele>
                        <time>2022-08-18T02:13:50Z</time>
                                                <extensions>
                            <sog>0.0</sog>
<cog>57.0</cog>
                        </extensions>
                    </trkpt>
                    <trkpt lat="54.40106" lon="10.213601666666667">
                        <ele>0</ele>
                        <time>2022-08-18T02:19:49Z</time>
                                                <extensions>
                            <sog>0.0</sog>
<cog>57.0</cog>
                        </extensions>
                    </trkpt>
                    <trkpt lat="54.40106166666667" lon="10.213595">
                        <ele>0</ele>
                        <time>2022-08-18T02:31:48Z</time>
                                                <extensions>
                            <sog>0.0</sog>
<cog>57.0</cog>
                        </extensions>
                    </trkpt>
                    <trkpt lat="54.401075" lon="10.213585">
                        <ele>0</ele>
                        <time>2022-08-18T02:43:49Z</time>
                                                <extensions>
                            <sog>0.0</sog>
<cog>57.0</cog>
                        </extensions>
                    </trkpt>
                    <trkpt lat="54.401066666666665" lon="10.213605">
                        <ele>0</ele>
                        <time>2022-08-18T02:46:51Z</time>
                                                <extensions>
                            <sog>0.0</sog>
<cog>57.0</cog>
                        </extensions>
                    </trkpt>
                    <trkpt lat="54.40107166666667" lon="10.213591666666668">
                        <ele>0</ele>
                        <time>2022-08-18T02:49:50Z</time>
                                                <extensions>
                            <sog>0.0</sog>
<cog>57.0</cog>
                        </extensions>
                    </trkpt>
                    <trkpt lat="54.401073333333336" lon="10.213595">
                        <ele>0</ele>
                        <time>2022-08-18T03:01:49Z</time>
                                                <extensions>
                            <sog>0.0</sog>
<cog>57.0</cog>
                        </extensions>
                    </trkpt>
                    <trkpt lat="54.40106" lon="10.213576666666667">
                        <ele>0</ele>
                        <time>2022-08-18T03:07:48Z</time>
                                                <extensions>
                            <sog>0.0</sog>
<cog>57.0</cog>
                        </extensions>
                    </trkpt>
                    <trkpt lat="54.401066666666665" lon="10.213583333333334">
                        <ele>0</ele>
                        <time>2022-08-18T03:13:48Z</time>
                                                <extensions>
                            <sog>0.0</sog>
<cog>57.0</cog>
                        </extensions>
                    </trkpt>
                    <trkpt lat="54.401091666666666" lon="10.213581666666666">
                        <ele>0</ele>
                        <time>2022-08-18T03:19:50Z</time>
                                                <extensions>
                            <sog>0.0</sog>
<cog>57.0</cog>
                        </extensions>
                    </trkpt>
                    <trkpt lat="54.40106333333333" lon="10.213588333333332">
                        <ele>0</ele>
                        <time>2022-08-18T03:25:49Z</time>
                                                <extensions>
                            <sog>0.0</sog>
<cog>57.0</cog>
                        </extensions>
                    </trkpt>
                    <trkpt lat="54.401050000000005" lon="10.21359">
                        <ele>0</ele>
                        <time>2022-08-18T03:31:48Z</time>
                                                <extensions>
                            <sog>0.0</sog>
<cog>57.0</cog>
                        </extensions>
                    </trkpt>
                    <trkpt lat="54.40106166666667" lon="10.213588333333332">
                        <ele>0</ele>
                        <time>2022-08-18T03:37:50Z</time>
                                                <extensions>
                            <sog>0.0</sog>
<cog>57.0</cog>
                        </extensions>
                    </trkpt>
                    <trkpt lat="54.40107166666667" lon="10.213606666666667">
                        <ele>0</ele>
                        <time>2022-08-18T03:43:50Z</time>
                                                <extensions>
                            <sog>0.0</sog>
<cog>57.0</cog>
                        </extensions>
                    </trkpt>
                    <trkpt lat="54.40106" lon="10.213586666666666">
                        <ele>0</ele>
                        <time>2022-08-18T03:52:49Z</time>
                                                <extensions>
                            <sog>0.0</sog>
<cog>57.0</cog>
                        </extensions>
                    </trkpt>
                    <trkpt lat="54.401068333333335" lon="10.213611666666667">
                        <ele>0</ele>
                        <time>2022-08-18T03:55:49Z</time>
                                                <extensions>
                            <sog>0.0</sog>
<cog>57.0</cog>
                        </extensions>
                    </trkpt>
                    <trkpt lat="54.40104833333333" lon="10.213581666666666">
                        <ele>0</ele>
                        <time>2022-08-18T03:58:49Z</time>
                                                <extensions>
                            <sog>0.0</sog>
<cog>57.0</cog>
                        </extensions>
                    </trkpt>
                    <trkpt lat="54.40107833333333" lon="10.213615">
                        <ele>0</ele>
                        <time>2022-08-18T04:01:50Z</time>
                                                <extensions>
                            <sog>0.0</sog>
<cog>57.0</cog>
                        </extensions>
                    </trkpt>
                    <trkpt lat="54.401066666666665" lon="10.213615">
                        <ele>0</ele>
                        <time>2022-08-18T04:04:49Z</time>
                                                <extensions>
                            <sog>0.0</sog>
<cog>57.0</cog>
                        </extensions>
                    </trkpt>
                    <trkpt lat="54.40106" lon="10.213628333333332">
                        <ele>0</ele>
                        <time>2022-08-18T04:13:49Z</time>
                                                <extensions>
                            <sog>0.0</sog>
<cog>57.0</cog>
                        </extensions>
                    </trkpt>
                    <trkpt lat="54.40106166666667" lon="10.213646666666667">
                        <ele>0</ele>
                        <time>2022-08-18T04:19:51Z</time>
                                                <extensions>
                            <sog>0.0</sog>
<cog>57.0</cog>
                        </extensions>
                    </trkpt>
                    <trkpt lat="54.40105166666667" lon="10.213585">
                        <ele>0</ele>
                        <time>2022-08-18T04:34:49Z</time>
                                                <extensions>
                            <sog>0.0</sog>
<cog>57.0</cog>
                        </extensions>
                    </trkpt>
                    <trkpt lat="54.40106166666667" lon="10.21357">
                        <ele>0</ele>
                        <time>2022-08-18T04:43:49Z</time>
                                                <extensions>
                            <sog>0.0</sog>
<cog>57.0</cog>
                        </extensions>
                    </trkpt>
                    <trkpt lat="54.40106" lon="10.213578333333334">
                        <ele>0</ele>
                        <time>2022-08-18T04:49:48Z</time>
                                                <extensions>
                            <sog>0.0</sog>
<cog>57.0</cog>
                        </extensions>
                    </trkpt>
                    <trkpt lat="54.40107166666667" lon="10.213638333333334">
                        <ele>0</ele>
                        <time>2022-08-18T04:55:49Z</time>
                                                <extensions>
                            <sog>0.0</sog>
<cog>57.0</cog>
                        </extensions>
                    </trkpt>
                    <trkpt lat="54.401073333333336" lon="10.213595">
                        <ele>0</ele>
                        <time>2022-08-18T05:10:51Z</time>
                                                <extensions>
                            <sog>0.0</sog>
<cog>57.0</cog>
                        </extensions>
                    </trkpt>
                    <trkpt lat="54.401088333333334" lon="10.213601666666667">
                        <ele>0</ele>
                        <time>2022-08-18T05:31:49Z</time>
                                                <extensions>
                            <sog>0.0</sog>
<cog>57.0</cog>
                        </extensions>
                    </trkpt>
                    <trkpt lat="54.40105666666667" lon="10.213591666666668">
                        <ele>0</ele>
                        <time>2022-08-18T05:52:49Z</time>
                                                <extensions>
                            <sog>0.0</sog>
<cog>57.0</cog>
                        </extensions>
                    </trkpt>
                    <trkpt lat="54.40105666666667" lon="10.21359">
                        <ele>0</ele>
                        <time>2022-08-18T05:55:49Z</time>
                                                <extensions>
                            <sog>0.0</sog>
<cog>57.0</cog>
                        </extensions>
                    </trkpt>
                    <trkpt lat="54.401044999999996" lon="10.213541666666666">
                        <ele>0</ele>
                        <time>2022-08-18T06:01:50Z</time>
                                                <extensions>
                            <sog>0.0</sog>
<cog>57.0</cog>
                        </extensions>
                    </trkpt>
                    <trkpt lat="54.40104833333333" lon="10.213568333333335">
                        <ele>0</ele>
                        <time>2022-08-18T06:07:49Z</time>
                                                <extensions>
                            <sog>0.0</sog>
<cog>57.0</cog>
                        </extensions>
                    </trkpt>
                    <trkpt lat="54.40106166666667" lon="10.213578333333334">
                        <ele>0</ele>
                        <time>2022-08-18T06:43:50Z</time>
                                                <extensions>
                            <sog>0.0</sog>
<cog>57.0</cog>
                        </extensions>
                    </trkpt>
                    <trkpt lat="54.401055" lon="10.213595">
                        <ele>0</ele>
                        <time>2022-08-18T06:49:49Z</time>
                                                <extensions>
                            <sog>0.0</sog>
<cog>57.0</cog>
                        </extensions>
                    </trkpt>
                    <trkpt lat="54.401046666666666" lon="10.213600000000001">
                        <ele>0</ele>
                        <time>2022-08-18T06:55:49Z</time>
                                                <extensions>
                            <sog>0.0</sog>
<cog>57.0</cog>
                        </extensions>
                    </trkpt>
                    <trkpt lat="54.401055" lon="10.213585">
                        <ele>0</ele>
                        <time>2022-08-18T07:01:48Z</time>
                                                <extensions>
                            <sog>0.0</sog>
<cog>57.0</cog>
                        </extensions>
                    </trkpt>
                    <trkpt lat="54.40105333333334" lon="10.213595">
                        <ele>0</ele>
                        <time>2022-08-18T07:04:48Z</time>
                                                <extensions>
                            <sog>0.0</sog>
<cog>57.0</cog>
                        </extensions>
                    </trkpt>
                    <trkpt lat="54.401046666666666" lon="10.213596666666666">
                        <ele>0</ele>
                        <time>2022-08-18T07:13:50Z</time>
                                                <extensions>
                            <sog>0.0</sog>
<cog>57.0</cog>
                        </extensions>
                    </trkpt>
                    <trkpt lat="54.401041666666664" lon="10.213628333333332">
                        <ele>0</ele>
                        <time>2022-08-18T07:19:48Z</time>
                                                <extensions>
                            <sog>0.0</sog>
<cog>57.0</cog>
                        </extensions>
                    </trkpt>
                    <trkpt lat="54.40105333333334" lon="10.213583333333334">
                        <ele>0</ele>
                        <time>2022-08-18T07:22:48Z</time>
                                                <extensions>
                            <sog>0.0</sog>
<cog>57.0</cog>
                        </extensions>
                    </trkpt>
                    <trkpt lat="54.401055" lon="10.213598333333334">
                        <ele>0</ele>
                        <time>2022-08-18T07:25:48Z</time>
                                                <extensions>
                            <sog>0.0</sog>
<cog>57.0</cog>
                        </extensions>
                    </trkpt>
                    <trkpt lat="54.40105833333334" lon="10.213573333333333">
                        <ele>0</ele>
                        <time>2022-08-18T07:40:49Z</time>
                                                <extensions>
                            <sog>0.0</sog>
<cog>57.0</cog>
                        </extensions>
                    </trkpt>
                    <trkpt lat="54.401050000000005" lon="10.213601666666667">
                        <ele>0</ele>
                        <time>2022-08-18T07:43:49Z</time>
                                                <extensions>
                            <sog>0.0</sog>
<cog>57.0</cog>
                        </extensions>
                    </trkpt>
                    <trkpt lat="54.401073333333336" lon="10.213600000000001">
                        <ele>0</ele>
                        <time>2022-08-18T07:55:48Z</time>
                                                <extensions>
                            <sog>0.0</sog>
<cog>57.0</cog>
                        </extensions>
                    </trkpt>
                    <trkpt lat="54.40105333333334" lon="10.213588333333332">
                        <ele>0</ele>
                        <time>2022-08-18T07:58:49Z</time>
                                                <extensions>
                            <sog>0.0</sog>
<cog>57.0</cog>
                        </extensions>
                    </trkpt>
                    <trkpt lat="54.40105666666667" lon="10.213600000000001">
                        <ele>0</ele>
                        <time>2022-08-18T08:04:51Z</time>
                                                <extensions>
                            <sog>0.0</sog>
<cog>57.0</cog>
                        </extensions>
                    </trkpt>
                    <trkpt lat="54.401055" lon="10.213619999999999">
                        <ele>0</ele>
                        <time>2022-08-18T08:07:50Z</time>
                                                <extensions>
                            <sog>0.0</sog>
<cog>57.0</cog>
                        </extensions>
                    </trkpt>
                    <trkpt lat="54.40105666666667" lon="10.213613333333333">
                        <ele>0</ele>
                        <time>2022-08-18T08:13:49Z</time>
                                                <extensions>
                            <sog>0.0</sog>
<cog>57.0</cog>
                        </extensions>
                    </trkpt>
                    <trkpt lat="54.401050000000005" lon="10.213613333333333">
                        <ele>0</ele>
                        <time>2022-08-18T08:19:48Z</time>
                                                <extensions>
                            <sog>0.0</sog>
<cog>57.0</cog>
                        </extensions>
                    </trkpt>
                    <trkpt lat="54.40106333333333" lon="10.213613333333333">
                        <ele>0</ele>
                        <time>2022-08-18T08:22:48Z</time>
                                                <extensions>
                            <sog>0.0</sog>
<cog>57.0</cog>
                        </extensions>
                    </trkpt>
                    <trkpt lat="54.401068333333335" lon="10.213608333333333">
                        <ele>0</ele>
                        <time>2022-08-18T08:25:50Z</time>
                                                <extensions>
                            <sog>0.0</sog>
<cog>57.0</cog>
                        </extensions>
                    </trkpt>
                    <trkpt lat="54.40107" lon="10.213615">
                        <ele>0</ele>
                        <time>2022-08-18T08:31:50Z</time>
                                                <extensions>
                            <sog>0.0</sog>
<cog>57.0</cog>
                        </extensions>
                    </trkpt>
                    <trkpt lat="54.40104833333333" lon="10.213601666666667">
                        <ele>0</ele>
                        <time>2022-08-18T08:34:48Z</time>
                                                <extensions>
                            <sog>0.0</sog>
<cog>57.0</cog>
                        </extensions>
                    </trkpt>
                    <trkpt lat="54.40106" lon="10.213593333333334">
                        <ele>0</ele>
                        <time>2022-08-18T08:43:50Z</time>
                                                <extensions>
                            <sog>0.0</sog>
<cog>57.0</cog>
                        </extensions>
                    </trkpt>
                    <trkpt lat="54.40106333333333" lon="10.21356">
                        <ele>0</ele>
                        <time>2022-08-18T08:46:51Z</time>
                                                <extensions>
                            <sog>0.1</sog>
<cog>57.0</cog>
                        </extensions>
                    </trkpt>
                    <trkpt lat="54.40106166666667" lon="10.213591666666668">
                        <ele>0</ele>
                        <time>2022-08-18T08:52:48Z</time>
                                                <extensions>
                            <sog>0.0</sog>
<cog>57.0</cog>
                        </extensions>
                    </trkpt>
                    <trkpt lat="54.401066666666665" lon="10.213613333333333">
                        <ele>0</ele>
                        <time>2022-08-18T08:55:49Z</time>
                                                <extensions>
                            <sog>0.0</sog>
<cog>57.0</cog>
                        </extensions>
                    </trkpt>
                    <trkpt lat="54.40106333333333" lon="10.213561666666667">
                        <ele>0</ele>
                        <time>2022-08-18T08:58:50Z</time>
                                                <extensions>
                            <sog>0.0</sog>
<cog>57.0</cog>
                        </extensions>
                    </trkpt>
                    <trkpt lat="54.401075" lon="10.213601666666667">
                        <ele>0</ele>
                        <time>2022-08-18T09:01:49Z</time>
                                                <extensions>
                            <sog>0.0</sog>
<cog>57.0</cog>
                        </extensions>
                    </trkpt>
                    <trkpt lat="54.401065" lon="10.21361">
                        <ele>0</ele>
                        <time>2022-08-18T09:07:50Z</time>
                                                <extensions>
                            <sog>0.0</sog>
<cog>57.0</cog>
                        </extensions>
                    </trkpt>
                    <trkpt lat="54.401044999999996" lon="10.213578333333334">
                        <ele>0</ele>
                        <time>2022-08-18T09:19:49Z</time>
                                                <extensions>
                            <sog>0.0</sog>
<cog>57.0</cog>
                        </extensions>
                    </trkpt>
                    <trkpt lat="54.40107666666667" lon="10.213596666666666">
                        <ele>0</ele>
                        <time>2022-08-18T09:43:49Z</time>
                                                <extensions>
                            <sog>0.0</sog>
<cog>57.0</cog>
                        </extensions>
                    </trkpt>
                    <trkpt lat="54.401075" lon="10.213615">
                        <ele>0</ele>
                        <time>2022-08-18T09:46:49Z</time>
                                                <extensions>
                            <sog>0.0</sog>
<cog>57.0</cog>
                        </extensions>
                    </trkpt>
                    <trkpt lat="54.401055" lon="10.213615">
                        <ele>0</ele>
                        <time>2022-08-18T09:58:49Z</time>
                                                <extensions>
                            <sog>0.0</sog>
<cog>57.0</cog>
                        </extensions>
                    </trkpt>
                    <trkpt lat="54.401046666666666" lon="10.213615">
                        <ele>0</ele>
                        <time>2022-08-18T10:16:50Z</time>
                                                <extensions>
                            <sog>0.0</sog>
<cog>57.0</cog>
                        </extensions>
                    </trkpt>
                    <trkpt lat="54.40104833333333" lon="10.213608333333333">
                        <ele>0</ele>
                        <time>2022-08-18T10:34:49Z</time>
                                                <extensions>
                            <sog>0.0</sog>
<cog>57.0</cog>
                        </extensions>
                    </trkpt>
                    <trkpt lat="54.401075" lon="10.213556666666667">
                        <ele>0</ele>
                        <time>2022-08-18T11:43:49Z</time>
                                                <extensions>
                            <sog>0.0</sog>
<cog>57.0</cog>
                        </extensions>
                    </trkpt>
                    <trkpt lat="54.40106" lon="10.213565">
                        <ele>0</ele>
                        <time>2022-08-18T11:49:50Z</time>
                                                <extensions>
                            <sog>0.1</sog>
<cog>57.0</cog>
                        </extensions>
                    </trkpt>
                    <trkpt lat="54.40106166666667" lon="10.213603333333333">
                        <ele>0</ele>
                        <time>2022-08-18T12:25:50Z</time>
                                                <extensions>
                            <sog>0.0</sog>
<cog>57.0</cog>
                        </extensions>
                    </trkpt>
                    <trkpt lat="54.401066666666665" lon="10.213619999999999">
                        <ele>0</ele>
                        <time>2022-08-18T12:46:49Z</time>
                                                <extensions>
                            <sog>0.0</sog>
<cog>57.0</cog>
                        </extensions>
                    </trkpt>
                    <trkpt lat="54.40106166666667" lon="10.213601666666667">
                        <ele>0</ele>
                        <time>2022-08-18T13:13:50Z</time>
                                                <extensions>
                            <sog>0.0</sog>
<cog>57.0</cog>
                        </extensions>
                    </trkpt>
                    <trkpt lat="54.40105833333334" lon="10.213588333333332">
                        <ele>0</ele>
                        <time>2022-08-18T13:25:49Z</time>
                                                <extensions>
                            <sog>0.0</sog>
<cog>57.0</cog>
                        </extensions>
                    </trkpt>
                    <trkpt lat="54.40107666666667" lon="10.213588333333332">
                        <ele>0</ele>
                        <time>2022-08-18T13:31:48Z</time>
                                                <extensions>
                            <sog>0.0</sog>
<cog>57.0</cog>
                        </extensions>
                    </trkpt>
                    <trkpt lat="54.401066666666665" lon="10.213598333333334">
                        <ele>0</ele>
                        <time>2022-08-18T13:37:49Z</time>
                                                <extensions>
                            <sog>0.0</sog>
<cog>57.0</cog>
                        </extensions>
                    </trkpt>
                    <trkpt lat="54.40107166666667" lon="10.213561666666667">
                        <ele>0</ele>
                        <time>2022-08-18T13:40:49Z</time>
                                                <extensions>
                            <sog>0.1</sog>
<cog>57.0</cog>
                        </extensions>
                    </trkpt>
                    <trkpt lat="54.40103666666666" lon="10.213626666666666">
                        <ele>0</ele>
                        <time>2022-08-18T13:49:49Z</time>
                                                <extensions>
                            <sog>0.0</sog>
<cog>57.0</cog>
                        </extensions>
                    </trkpt>
                    <trkpt lat="54.401065" lon="10.213593333333334">
                        <ele>0</ele>
                        <time>2022-08-18T13:55:50Z</time>
                                                <extensions>
                            <sog>0.0</sog>
<cog>57.0</cog>
                        </extensions>
                    </trkpt>
                    <trkpt lat="54.401043333333334" lon="10.213611666666667">
                        <ele>0</ele>
                        <time>2022-08-18T13:58:48Z</time>
                                                <extensions>
                            <sog>0.0</sog>
<cog>57.0</cog>
                        </extensions>
                    </trkpt>
                    <trkpt lat="54.401043333333334" lon="10.213619999999999">
                        <ele>0</ele>
                        <time>2022-08-18T14:01:49Z</time>
                                                <extensions>
                            <sog>0.1</sog>
<cog>57.0</cog>
                        </extensions>
                    </trkpt>
                    <trkpt lat="54.404093333333336" lon="10.21313">
                        <ele>0</ele>
                        <time>2022-08-18T14:11:18Z</time>
                                                <extensions>
                            <sog>5.4</sog>
<cog>3.1</cog>
                        </extensions>
                    </trkpt>
                    <trkpt lat="54.40483" lon="10.213245">
                        <ele>0</ele>
                        <time>2022-08-18T14:11:48Z</time>
                                                <extensions>
                            <sog>5.3</sog>
<cog>11.8</cog>
                        </extensions>
                    </trkpt>
                    <trkpt lat="54.405498333333334" lon="10.213728333333334">
                        <ele>0</ele>
                        <time>2022-08-18T14:12:18Z</time>
                                                <extensions>
                            <sog>5.2</sog>
<cog>28.6</cog>
                        </extensions>
                    </trkpt>
                    <trkpt lat="54.40642833333333" lon="10.214671666666668">
                        <ele>0</ele>
                        <time>2022-08-18T14:13:49Z</time>
                                                <extensions>
                            <sog>0.6</sog>
<cog>58.2</cog>
                        </extensions>
                    </trkpt>
                    <trkpt lat="54.406475" lon="10.214818333333334">
                        <ele>0</ele>
                        <time>2022-08-18T14:14:48Z</time>
                                                <extensions>
                            <sog>0.2</sog>
<cog>78.8</cog>
                        </extensions>
                    </trkpt>
                    <trkpt lat="54.406441666666666" lon="10.214816666666668">
                        <ele>0</ele>
                        <time>2022-08-18T14:16:19Z</time>
                                                <extensions>
                            <sog>0.1</sog>
<cog>199.1</cog>
                        </extensions>
                    </trkpt>
                    <trkpt lat="54.406393333333334" lon="10.214828333333333">
                        <ele>0</ele>
                        <time>2022-08-18T14:19:20Z</time>
                                                <extensions>
                            <sog>0.1</sog>
<cog>147.4</cog>
                        </extensions>
                    </trkpt>
                    <trkpt lat="54.40640166666667" lon="10.214861666666668">
                        <ele>0</ele>
                        <time>2022-08-18T14:22:19Z</time>
                                                <extensions>
                            <sog>0.3</sog>
<cog>125.3</cog>
                        </extensions>
                    </trkpt>
                    <trkpt lat="54.406483333333334" lon="10.214768333333334">
                        <ele>0</ele>
                        <time>2022-08-18T14:31:18Z</time>
                                                <extensions>
                            <sog>1.0</sog>
<cog>258.4</cog>
                        </extensions>
                    </trkpt>
                    <trkpt lat="54.40753333333334" lon="10.213048333333335">
                        <ele>0</ele>
                        <time>2022-08-18T14:32:44Z</time>
                                                <extensions>
                            <sog>5.7</sog>
<cog>352.4</cog>
                        </extensions>
                    </trkpt>
                    <trkpt lat="54.408456666666666" lon="10.213033333333334">
                        <ele>0</ele>
                        <time>2022-08-18T14:33:14Z</time>
                                                <extensions>
                            <sog>6.9</sog>
<cog>6.9</cog>
                        </extensions>
                    </trkpt>
                    <trkpt lat="54.412145" lon="10.214723333333334">
                        <ele>0</ele>
                        <time>2022-08-18T14:35:14Z</time>
                                                <extensions>
                            <sog>6.8</sog>
<cog>22.3</cog>
                        </extensions>
                    </trkpt>
                    <trkpt lat="54.41297833333333" lon="10.215585">
                        <ele>0</ele>
                        <time>2022-08-18T14:35:44Z</time>
                                                <extensions>
                            <sog>6.8</sog>
<cog>36.6</cog>
                        </extensions>
                    </trkpt>
                    <trkpt lat="54.413755" lon="10.216533333333333">
                        <ele>0</ele>
                        <time>2022-08-18T14:36:13Z</time>
                                                <extensions>
                            <sog>6.8</sog>
<cog>35.1</cog>
                        </extensions>
                    </trkpt>
                    <trkpt lat="54.41533666666667" lon="10.218426666666666">
                        <ele>0</ele>
                        <time>2022-08-18T14:37:14Z</time>
                                                <extensions>
                            <sog>7.0</sog>
<cog>34.6</cog>
                        </extensions>
                    </trkpt>
                    <trkpt lat="54.416945000000005" lon="10.220363333333333">
                        <ele>0</ele>
                        <time>2022-08-18T14:38:14Z</time>
                                                <extensions>
                            <sog>7.3</sog>
<cog>36.3</cog>
                        </extensions>
                    </trkpt>
                    <trkpt lat="54.425261666666664" lon="10.229686666666668">
                        <ele>0</ele>
                        <time>2022-08-18T14:43:14Z</time>
                                                <extensions>
                            <sog>8.2</sog>
<cog>31.1</cog>
                        </extensions>
                    </trkpt>
                    </trkseg>
                </trk>
</gpx>