<?xml version="1.0" encoding="UTF-8"?>
<gpx version="1.1" creator="AIS-to-GPX Converter" xmlns="http://www.topografix.com/GPX/1/1">
                <trk>
                    <name>anon0028</name>
                    <trkseg>
                                            <trkpt lat="54.67306833333334" lon="10.029275">
                        <ele>0</ele>
                        <time>2022-08-18T09:13:11Z</time>
                                                <extensions>
                            <sog>5.3</sog>
<cog>118.9</cog>
                        </extensions>
                    </trkpt>
                    <trkpt lat="54.67086" lon="10.042380000000001">
                        <ele>0</ele>
                        <time>2022-08-18T09:20:11Z</time>
                                                <extensions>
                            <sog>3.8</sog>
<cog>76.1</cog>
                        </extensions>
                    </trkpt>
                    <trkpt lat="54.670989999999996" lon="10.044308333333333">
                        <ele>0</ele>
                        <time>2022-08-18T09:21:11Z</time>
                                                <extensions>
                            <sog>4.4</sog>
<cog>87.9</cog>
                        </extensions>
                    </trkpt>
                    <trkpt lat="54.671065" lon="10.046121666666666">
                        <ele>0</ele>
                        <time>2022-08-18T09:22:11Z</time>
                                                <extensions>
                            <sog>2.9</sog>
<cog>80.6</cog>
                        </extensions>
                    </trkpt>
                    <trkpt lat="54.67109333333334" lon="10.046848333333333">
                        <ele>0</ele>
                        <time>2022-08-18T09:22:40Z</time>
                                                <extensions>
                            <sog>3.4</sog>
<cog>100.0</cog>
                        </extensions>
                    </trkpt>
                    <trkpt lat="54.670793333333336" lon="10.049035">
                        <ele>0</ele>
                        <time>2022-08-18T09:23:41Z</time>
                                                <extensions>
                            <sog>5.0</sog>
<cog>92.8</cog>
                        </extensions>
                    </trkpt>
                    <trkpt lat="54.670701666666666" lon="10.05022">
                        <ele>0</ele>
                        <time>2022-08-18T09:24:11Z</time>
                                                <extensions>
                            <sog>5.1</sog>
<cog>101.1</cog>
                        </extensions>
                    </trkpt>
                    <trkpt lat="54.66977333333333" lon="10.057496666666667">
                        <ele>0</ele>
                        <time>2022-08-18T09:27:11Z</time>
                                                <extensions>
                            <sog>4.8</sog>
<cog>99.7</cog>
                        </extensions>
                    </trkpt>
                    <trkpt lat="54.667445" lon="10.069986666666667">
                        <ele>0</ele>
                        <time>2022-08-18T09:32:42Z</time>
                                                <extensions>
                            <sog>4.3</sog>
<cog>98.5</cog>
                        </extensions>
                    </trkpt>
                    <trkpt lat="54.66649666666667" lon="10.074466666666666">
                        <ele>0</ele>
                        <time>2022-08-18T09:34:42Z</time>
                                                <extensions>
                            <sog>5.0</sog>
<cog>111.3</cog>
                        </extensions>
                    </trkpt>
                    <trkpt lat="54.663270000000004" lon="10.09279">
                        <ele>0</ele>
                        <time>2022-08-18T09:43:11Z</time>
                                                <extensions>
                            <sog>4.7</sog>
<cog>115.6</cog>
                        </extensions>
                    </trkpt>
                    </trkseg>
                </trk>
</gpx>