<?xml version="1.0" encoding="UTF-8"?>
<gpx version="1.1" creator="AIS-to-GPX Converter" xmlns="http://www.topografix.com/GPX/1/1">
                <trk>
                    <name>anon0320</name>
                    <trkseg>
                                            <trkpt lat="54.382558333333336" lon="10.168164999999998">
                        <ele>0</ele>
                        <time>2022-08-18T06:12:55Z</time>
                        <extensions>
    <sog>0.2</sog>
</extensions>
                    </trkpt>
                    <trkpt lat="54.382545" lon="10.168116666666666">
                        <ele>0</ele>
                        <time>2022-08-18T06:13:26Z</time>
                        <extensions>
    <sog>0.3</sog>
</extensions>
                    </trkpt>
                    <trkpt lat="54.38253833333333" lon="10.168145">
                        <ele>0</ele>
                        <time>2022-08-18T06:13:55Z</time>
                        <extensions>
    <sog>0.1</sog>
</extensions>
                    </trkpt>
                    <trkpt lat="54.38252166666667" lon="10.168128333333334">
                        <ele>0</ele>
                        <time>2022-08-18T06:14:27Z</time>
                        <extensions>
    <sog>0.0</sog>
</extensions>
                    </trkpt>
                    <trkpt lat="54.382533333333335" lon="10.16814">
                        <ele>0</ele>
                        <time>2022-08-18T06:14:55Z</time>
                        <extensions>
    <sog>0.0</sog>
</extensions>
                    </trkpt>
                    <trkpt lat="54.382535" lon="10.168136666666667">
                        <ele>0</ele>
                        <time>2022-08-18T06:17:55Z</time>
                        <extensions>
    <sog>0.1</sog>
</extensions>
                    </trkpt>
                    <trkpt lat="54.38261833333333" lon="10.16859">
                        <ele>0</ele>
                        <time>2022-08-18T06:20:55Z</time>
                                                <extensions>
                            <sog>1.9</sog>
<cog>142.1</cog>
                        </extensions>
                    </trkpt>
                    <trkpt lat="54.38240333333333" lon="10.168768333333333">
                        <ele>0</ele>
                        <time>2022-08-18T06:21:21Z</time>
                                                <extensions>
                            <sog>2.2</sog>
<cog>161.2</cog>
                        </extensions>
                    </trkpt>
                    <trkpt lat="54.382075" lon="10.168983333333333">
                        <ele>0</ele>
                        <time>2022-08-18T06:21:51Z</time>
                                                <extensions>
                            <sog>2.7</sog>
<cog>158.4</cog>
                        </extensions>
                    </trkpt>
                    <trkpt lat="54.38173333333334" lon="10.169241666666666">
                        <ele>0</ele>
                        <time>2022-08-18T06:22:21Z</time>
                                                <extensions>
                            <sog>2.9</sog>
<cog>151.0</cog>
                        </extensions>
                    </trkpt>
                    <trkpt lat="54.38136333333333" lon="10.1695">
                        <ele>0</ele>
                        <time>2022-08-18T06:22:50Z</time>
                                                <extensions>
                            <sog>2.6</sog>
<cog>206.6</cog>
                        </extensions>
                    </trkpt>
                    <trkpt lat="54.38098166666667" lon="10.169178333333333">
                        <ele>0</ele>
                        <time>2022-08-18T06:23:23Z</time>
                                                <extensions>
                            <sog>2.9</sog>
<cog>185.9</cog>
                        </extensions>
                    </trkpt>
                    <trkpt lat="54.380649999999996" lon="10.169360000000001">
                        <ele>0</ele>
                        <time>2022-08-18T06:23:50Z</time>
                                                <extensions>
                            <sog>3.5</sog>
<cog>150.7</cog>
                        </extensions>
                    </trkpt>
                    <trkpt lat="54.38019833333333" lon="10.169761666666666">
                        <ele>0</ele>
                        <time>2022-08-18T06:24:21Z</time>
                                                <extensions>
                            <sog>4.2</sog>
<cog>153.7</cog>
                        </extensions>
                    </trkpt>
                    <trkpt lat="54.37963166666667" lon="10.170243333333334">
                        <ele>0</ele>
                        <time>2022-08-18T06:24:51Z</time>
                                                <extensions>
                            <sog>4.4</sog>
<cog>160.4</cog>
                        </extensions>
                    </trkpt>
                    <trkpt lat="54.37889333333333" lon="10.170359999999999">
                        <ele>0</ele>
                        <time>2022-08-18T06:25:24Z</time>
                                                <extensions>
                            <sog>4.9</sog>
<cog>187.4</cog>
                        </extensions>
                    </trkpt>
                    <trkpt lat="54.378323333333334" lon="10.169875">
                        <ele>0</ele>
                        <time>2022-08-18T06:25:52Z</time>
                                                <extensions>
                            <sog>5.1</sog>
<cog>217.5</cog>
                        </extensions>
                    </trkpt>
                    <trkpt lat="54.377786666666665" lon="10.16912">
                        <ele>0</ele>
                        <time>2022-08-18T06:26:20Z</time>
                                                <extensions>
                            <sog>5.7</sog>
<cog>218.5</cog>
                        </extensions>
                    </trkpt>
                    <trkpt lat="54.377116666666666" lon="10.168245">
                        <ele>0</ele>
                        <time>2022-08-18T06:26:52Z</time>
                                                <extensions>
                            <sog>5.7</sog>
<cog>218.7</cog>
                        </extensions>
                    </trkpt>
                    <trkpt lat="54.37650166666666" lon="10.167401666666667">
                        <ele>0</ele>
                        <time>2022-08-18T06:27:22Z</time>
                                                <extensions>
                            <sog>5.7</sog>
<cog>218.8</cog>
                        </extensions>
                    </trkpt>
                    <trkpt lat="54.37585833333333" lon="10.166543333333333">
                        <ele>0</ele>
                        <time>2022-08-18T06:27:54Z</time>
                                                <extensions>
                            <sog>5.7</sog>
<cog>219.2</cog>
                        </extensions>
                    </trkpt>
                    <trkpt lat="54.375255" lon="10.165718333333333">
                        <ele>0</ele>
                        <time>2022-08-18T06:28:21Z</time>
                                                <extensions>
                            <sog>6.1</sog>
<cog>220.4</cog>
                        </extensions>
                    </trkpt>
                    <trkpt lat="54.37327166666667" lon="10.162943333333335">
                        <ele>0</ele>
                        <time>2022-08-18T06:29:51Z</time>
                                                <extensions>
                            <sog>6.1</sog>
<cog>220.7</cog>
                        </extensions>
                    </trkpt>
                    <trkpt lat="54.372595000000004" lon="10.16195">
                        <ele>0</ele>
                        <time>2022-08-18T06:30:22Z</time>
                                                <extensions>
                            <sog>6.2</sog>
<cog>219.1</cog>
                        </extensions>
                    </trkpt>
                    <trkpt lat="54.371975" lon="10.161016666666665">
                        <ele>0</ele>
                        <time>2022-08-18T06:30:51Z</time>
                                                <extensions>
                            <sog>6.2</sog>
<cog>220.2</cog>
                        </extensions>
                    </trkpt>
                    <trkpt lat="54.371325" lon="10.160055">
                        <ele>0</ele>
                        <time>2022-08-18T06:31:22Z</time>
                                                <extensions>
                            <sog>6.3</sog>
<cog>219.8</cog>
                        </extensions>
                    </trkpt>
                    <trkpt lat="54.37068" lon="10.159151666666666">
                        <ele>0</ele>
                        <time>2022-08-18T06:31:50Z</time>
                                                <extensions>
                            <sog>6.1</sog>
<cog>217.9</cog>
                        </extensions>
                    </trkpt>
                    <trkpt lat="54.36999166666667" lon="10.158286666666667">
                        <ele>0</ele>
                        <time>2022-08-18T06:32:21Z</time>
                                                <extensions>
                            <sog>6.2</sog>
<cog>216.5</cog>
                        </extensions>
                    </trkpt>
                    <trkpt lat="54.368804999999995" lon="10.156691666666667">
                        <ele>0</ele>
                        <time>2022-08-18T06:33:21Z</time>
                                                <extensions>
                            <sog>4.6</sog>
<cog>219.9</cog>
                        </extensions>
                    </trkpt>
                    <trkpt lat="54.36837166666667" lon="10.156098333333334">
                        <ele>0</ele>
                        <time>2022-08-18T06:33:51Z</time>
                                                <extensions>
                            <sog>3.3</sog>
<cog>218.2</cog>
                        </extensions>
                    </trkpt>
                    <trkpt lat="54.368053333333336" lon="10.155643333333334">
                        <ele>0</ele>
                        <time>2022-08-18T06:34:20Z</time>
                                                <extensions>
                            <sog>2.9</sog>
<cog>220.3</cog>
                        </extensions>
                    </trkpt>
                    <trkpt lat="54.36775" lon="10.155201666666667">
                        <ele>0</ele>
                        <time>2022-08-18T06:34:51Z</time>
                                                <extensions>
                            <sog>2.7</sog>
<cog>221.5</cog>
                        </extensions>
                    </trkpt>
                    <trkpt lat="54.36746" lon="10.154766666666665">
                        <ele>0</ele>
                        <time>2022-08-18T06:35:22Z</time>
                                                <extensions>
                            <sog>2.7</sog>
<cog>220.5</cog>
                        </extensions>
                    </trkpt>
                    <trkpt lat="54.367216666666664" lon="10.154373333333332">
                        <ele>0</ele>
                        <time>2022-08-18T06:35:50Z</time>
                                                <extensions>
                            <sog>2.6</sog>
<cog>229.1</cog>
                        </extensions>
                    </trkpt>
                    <trkpt lat="54.36701" lon="10.153898333333332">
                        <ele>0</ele>
                        <time>2022-08-18T06:36:22Z</time>
                                                <extensions>
                            <sog>1.8</sog>
<cog>232.9</cog>
                        </extensions>
                    </trkpt>
                    <trkpt lat="54.36691166666667" lon="10.153631666666666">
                        <ele>0</ele>
                        <time>2022-08-18T06:36:51Z</time>
                                                <extensions>
                            <sog>1.1</sog>
<cog>238.7</cog>
                        </extensions>
                    </trkpt>
                    <trkpt lat="54.366843333333335" lon="10.153488333333334">
                        <ele>0</ele>
                        <time>2022-08-18T06:37:20Z</time>
                                                <extensions>
                            <sog>0.5</sog>
<cog>223.9</cog>
                        </extensions>
                    </trkpt>
                    <trkpt lat="54.366548333333334" lon="10.153405">
                        <ele>0</ele>
                        <time>2022-08-18T06:38:20Z</time>
                                                <extensions>
                            <sog>1.9</sog>
<cog>191.7</cog>
                        </extensions>
                    </trkpt>
                    <trkpt lat="54.366321666666664" lon="10.153318333333335">
                        <ele>0</ele>
                        <time>2022-08-18T06:38:50Z</time>
                                                <extensions>
                            <sog>1.3</sog>
<cog>195.4</cog>
                        </extensions>
                    </trkpt>
                    <trkpt lat="54.366245000000006" lon="10.153298333333334">
                        <ele>0</ele>
                        <time>2022-08-18T06:39:20Z</time>
                                                <extensions>
                            <sog>0.0</sog>
<cog>198.0</cog>
                        </extensions>
                    </trkpt>
                    <trkpt lat="54.366544999999995" lon="10.153063333333334">
                        <ele>0</ele>
                        <time>2022-08-18T06:45:21Z</time>
                                                <extensions>
                            <sog>0.5</sog>
<cog>320.0</cog>
                        </extensions>
                    </trkpt>
                    <trkpt lat="54.366528333333335" lon="10.153590000000001">
                        <ele>0</ele>
                        <time>2022-08-18T06:48:22Z</time>
                                                <extensions>
                            <sog>0.4</sog>
<cog>320.0</cog>
                        </extensions>
                    </trkpt>
                    <trkpt lat="54.36646666666666" lon="10.15406">
                        <ele>0</ele>
                        <time>2022-08-18T06:51:23Z</time>
                                                <extensions>
                            <sog>0.5</sog>
<cog>320.0</cog>
                        </extensions>
                    </trkpt>
                    <trkpt lat="54.36624833333334" lon="10.154376666666668">
                        <ele>0</ele>
                        <time>2022-08-18T06:57:22Z</time>
                                                <extensions>
                            <sog>0.1</sog>
<cog>136.0</cog>
                        </extensions>
                    </trkpt>
                    <trkpt lat="54.366146666666666" lon="10.154536666666667">
                        <ele>0</ele>
                        <time>2022-08-18T07:00:20Z</time>
                                                <extensions>
                            <sog>0.2</sog>
<cog>136.0</cog>
                        </extensions>
                    </trkpt>
                    <trkpt lat="54.366146666666666" lon="10.154536666666667">
                        <ele>0</ele>
                        <time>2022-08-18T07:00:20Z</time>
                                                <extensions>
                            <sog>0.2</sog>
<cog>136.0</cog>
                        </extensions>
                    </trkpt>
                    <trkpt lat="54.366076666666665" lon="10.154736666666668">
                        <ele>0</ele>
                        <time>2022-08-18T07:03:20Z</time>
                                                <extensions>
                            <sog>0.3</sog>
<cog>136.0</cog>
                        </extensions>
                    </trkpt>
                    <trkpt lat="54.365919999999996" lon="10.154745">
                        <ele>0</ele>
                        <time>2022-08-18T07:06:20Z</time>
                                                <extensions>
                            <sog>0.1</sog>
<cog>136.0</cog>
                        </extensions>
                    </trkpt>
                    <trkpt lat="54.36596333333333" lon="10.154985">
                        <ele>0</ele>
                        <time>2022-08-18T07:09:22Z</time>
                                                <extensions>
                            <sog>0.2</sog>
<cog>48.2</cog>
                        </extensions>
                    </trkpt>
                    <trkpt lat="54.36578166666666" lon="10.154743333333332">
                        <ele>0</ele>
                        <time>2022-08-18T07:12:20Z</time>
                                                <extensions>
                            <sog>0.2</sog>
<cog>48.2</cog>
                        </extensions>
                    </trkpt>
                    <trkpt lat="54.36569" lon="10.154653333333332">
                        <ele>0</ele>
                        <time>2022-08-18T07:15:22Z</time>
                                                <extensions>
                            <sog>0.1</sog>
<cog>48.2</cog>
                        </extensions>
                    </trkpt>
                    <trkpt lat="54.36563" lon="10.153636666666667">
                        <ele>0</ele>
                        <time>2022-08-18T07:17:19Z</time>
                                                <extensions>
                            <sog>3.5</sog>
<cog>249.1</cog>
                        </extensions>
                    </trkpt>
                    <trkpt lat="54.365406666666665" lon="10.152798333333333">
                        <ele>0</ele>
                        <time>2022-08-18T07:17:50Z</time>
                                                <extensions>
                            <sog>3.8</sog>
<cog>244.9</cog>
                        </extensions>
                    </trkpt>
                    <trkpt lat="54.365233333333336" lon="10.151946666666667">
                        <ele>0</ele>
                        <time>2022-08-18T07:18:20Z</time>
                                                <extensions>
                            <sog>3.9</sog>
<cog>253.2</cog>
                        </extensions>
                    </trkpt>
                    <trkpt lat="54.365109999999994" lon="10.151063333333333">
                        <ele>0</ele>
                        <time>2022-08-18T07:18:48Z</time>
                                                <extensions>
                            <sog>4.0</sog>
<cog>263.7</cog>
                        </extensions>
                    </trkpt>
                    <trkpt lat="54.36525833333334" lon="10.148221666666666">
                        <ele>0</ele>
                        <time>2022-08-18T07:20:19Z</time>
                                                <extensions>
                            <sog>3.6</sog>
<cog>284.2</cog>
                        </extensions>
                    </trkpt>
                    <trkpt lat="54.36536666666667" lon="10.147473333333332">
                        <ele>0</ele>
                        <time>2022-08-18T07:20:48Z</time>
                                                <extensions>
                            <sog>3.0</sog>
<cog>283.3</cog>
                        </extensions>
                    </trkpt>
                    <trkpt lat="54.36544" lon="10.146923333333332">
                        <ele>0</ele>
                        <time>2022-08-18T07:21:19Z</time>
                                                <extensions>
                            <sog>1.4</sog>
<cog>283.1</cog>
                        </extensions>
                    </trkpt>
                    <trkpt lat="54.3655" lon="10.146726666666666">
                        <ele>0</ele>
                        <time>2022-08-18T07:21:50Z</time>
                                                <extensions>
                            <sog>0.1</sog>
<cog>311.8</cog>
                        </extensions>
                    </trkpt>
                    <trkpt lat="54.36553666666667" lon="10.146613333333333">
                        <ele>0</ele>
                        <time>2022-08-18T07:22:19Z</time>
                                                <extensions>
                            <sog>1.7</sog>
<cog>313.7</cog>
                        </extensions>
                    </trkpt>
                    <trkpt lat="54.36569833333333" lon="10.146416666666665">
                        <ele>0</ele>
                        <time>2022-08-18T07:22:47Z</time>
                                                <extensions>
                            <sog>1.0</sog>
<cog>308.7</cog>
                        </extensions>
                    </trkpt>
                    <trkpt lat="54.365786666666665" lon="10.146188333333333">
                        <ele>0</ele>
                        <time>2022-08-18T07:23:20Z</time>
                                                <extensions>
                            <sog>0.9</sog>
<cog>295.2</cog>
                        </extensions>
                    </trkpt>
                    <trkpt lat="54.365784999999995" lon="10.145819999999999">
                        <ele>0</ele>
                        <time>2022-08-18T07:23:48Z</time>
                                                <extensions>
                            <sog>2.1</sog>
<cog>274.6</cog>
                        </extensions>
                    </trkpt>
                    <trkpt lat="54.365805" lon="10.145375">
                        <ele>0</ele>
                        <time>2022-08-18T07:24:22Z</time>
                                                <extensions>
                            <sog>1.1</sog>
<cog>289.6</cog>
                        </extensions>
                    </trkpt>
                    <trkpt lat="54.365935" lon="10.144446666666665">
                        <ele>0</ele>
                        <time>2022-08-18T07:25:22Z</time>
                                                <extensions>
                            <sog>1.6</sog>
<cog>284.3</cog>
                        </extensions>
                    </trkpt>
                    <trkpt lat="54.365986666666664" lon="10.144218333333333">
                        <ele>0</ele>
                        <time>2022-08-18T07:25:48Z</time>
                                                <extensions>
                            <sog>0.8</sog>
<cog>276.6</cog>
                        </extensions>
                    </trkpt>
                    <trkpt lat="54.36600166666666" lon="10.143935">
                        <ele>0</ele>
                        <time>2022-08-18T07:26:20Z</time>
                                                <extensions>
                            <sog>1.6</sog>
<cog>286.2</cog>
                        </extensions>
                    </trkpt>
                    <trkpt lat="54.366051666666664" lon="10.143746666666667">
                        <ele>0</ele>
                        <time>2022-08-18T07:26:47Z</time>
                                                <extensions>
                            <sog>1.1</sog>
<cog>279.9</cog>
                        </extensions>
                    </trkpt>
                    <trkpt lat="54.36609166666666" lon="10.143588333333334">
                        <ele>0</ele>
                        <time>2022-08-18T07:27:17Z</time>
                                                <extensions>
                            <sog>0.2</sog>
<cog>282.3</cog>
                        </extensions>
                    </trkpt>
                    <trkpt lat="54.366096666666664" lon="10.143564999999999">
                        <ele>0</ele>
                        <time>2022-08-18T07:27:49Z</time>
                                                <extensions>
                            <sog>0.1</sog>
<cog>282.3</cog>
                        </extensions>
                    </trkpt>
                    <trkpt lat="54.366065000000006" lon="10.143515">
                        <ele>0</ele>
                        <time>2022-08-18T07:28:18Z</time>
                                                <extensions>
                            <sog>0.1</sog>
<cog>282.3</cog>
                        </extensions>
                    </trkpt>
                    <trkpt lat="54.366095" lon="10.143583333333334">
                        <ele>0</ele>
                        <time>2022-08-18T07:31:20Z</time>
                                                <extensions>
                            <sog>0.0</sog>
<cog>282.3</cog>
                        </extensions>
                    </trkpt>
                    <trkpt lat="54.366126666666666" lon="10.14354">
                        <ele>0</ele>
                        <time>2022-08-18T07:34:18Z</time>
                                                <extensions>
                            <sog>0.0</sog>
<cog>282.3</cog>
                        </extensions>
                    </trkpt>
                    <trkpt lat="54.366105" lon="10.14352">
                        <ele>0</ele>
                        <time>2022-08-18T07:37:17Z</time>
                                                <extensions>
                            <sog>0.0</sog>
<cog>282.3</cog>
                        </extensions>
                    </trkpt>
                    <trkpt lat="54.36606333333334" lon="10.143525">
                        <ele>0</ele>
                        <time>2022-08-18T07:43:17Z</time>
                                                <extensions>
                            <sog>0.0</sog>
<cog>282.3</cog>
                        </extensions>
                    </trkpt>
                    <trkpt lat="54.366054999999996" lon="10.143564999999999">
                        <ele>0</ele>
                        <time>2022-08-18T07:46:18Z</time>
                                                <extensions>
                            <sog>0.2</sog>
<cog>282.3</cog>
                        </extensions>
                    </trkpt>
                    <trkpt lat="54.36636" lon="10.141158333333333">
                        <ele>0</ele>
                        <time>2022-08-18T07:49:45Z</time>
                                                <extensions>
                            <sog>4.6</sog>
<cog>290.1</cog>
                        </extensions>
                    </trkpt>
                    <trkpt lat="54.36646666666666" lon="10.140146666666668">
                        <ele>0</ele>
                        <time>2022-08-18T07:50:13Z</time>
                                                <extensions>
                            <sog>4.6</sog>
<cog>280.3</cog>
                        </extensions>
                    </trkpt>
                    <trkpt lat="54.36658166666667" lon="10.138971666666666">
                        <ele>0</ele>
                        <time>2022-08-18T07:50:44Z</time>
                                                <extensions>
                            <sog>5.3</sog>
<cog>281.3</cog>
                        </extensions>
                    </trkpt>
                    <trkpt lat="54.366773333333335" lon="10.137601666666665">
                        <ele>0</ele>
                        <time>2022-08-18T07:51:13Z</time>
                                                <extensions>
                            <sog>6.5</sog>
<cog>280.9</cog>
                        </extensions>
                    </trkpt>
                    <trkpt lat="54.366949999999996" lon="10.135950000000001">
                        <ele>0</ele>
                        <time>2022-08-18T07:51:45Z</time>
                                                <extensions>
                            <sog>6.7</sog>
<cog>278.2</cog>
                        </extensions>
                    </trkpt>
                    <trkpt lat="54.367110000000004" lon="10.134459999999999">
                        <ele>0</ele>
                        <time>2022-08-18T07:52:13Z</time>
                                                <extensions>
                            <sog>6.9</sog>
<cog>282.2</cog>
                        </extensions>
                    </trkpt>
                    <trkpt lat="54.36732333333334" lon="10.132731666666666">
                        <ele>0</ele>
                        <time>2022-08-18T07:52:45Z</time>
                                                <extensions>
                            <sog>6.8</sog>
<cog>284.1</cog>
                        </extensions>
                    </trkpt>
                    <trkpt lat="54.36757333333333" lon="10.131221666666667">
                        <ele>0</ele>
                        <time>2022-08-18T07:53:14Z</time>
                                                <extensions>
                            <sog>6.8</sog>
<cog>288.8</cog>
                        </extensions>
                    </trkpt>
                    <trkpt lat="54.36803666666666" lon="10.128161666666667">
                        <ele>0</ele>
                        <time>2022-08-18T07:54:13Z</time>
                                                <extensions>
                            <sog>6.8</sog>
<cog>284.6</cog>
                        </extensions>
                    </trkpt>
                    <trkpt lat="54.36824" lon="10.126575">
                        <ele>0</ele>
                        <time>2022-08-18T07:54:43Z</time>
                                                <extensions>
                            <sog>6.9</sog>
<cog>281.6</cog>
                        </extensions>
                    </trkpt>
                    <trkpt lat="54.36843" lon="10.124961666666668">
                        <ele>0</ele>
                        <time>2022-08-18T07:55:14Z</time>
                                                <extensions>
                            <sog>6.9</sog>
<cog>282.3</cog>
                        </extensions>
                    </trkpt>
                    <trkpt lat="54.36864666666667" lon="10.123341666666667">
                        <ele>0</ele>
                        <time>2022-08-18T07:55:43Z</time>
                                                <extensions>
                            <sog>7.1</sog>
<cog>282.2</cog>
                        </extensions>
                    </trkpt>
                    <trkpt lat="54.36891" lon="10.12157">
                        <ele>0</ele>
                        <time>2022-08-18T07:56:15Z</time>
                                                <extensions>
                            <sog>7.3</sog>
<cog>286.3</cog>
                        </extensions>
                    </trkpt>
                    <trkpt lat="54.369461666666666" lon="10.118269999999999">
                        <ele>0</ele>
                        <time>2022-08-18T07:57:15Z</time>
                                                <extensions>
                            <sog>7.2</sog>
<cog>291.6</cog>
                        </extensions>
                    </trkpt>
                    <trkpt lat="54.36986" lon="10.116753333333332">
                        <ele>0</ele>
                        <time>2022-08-18T07:57:44Z</time>
                                                <extensions>
                            <sog>7.1</sog>
<cog>295.7</cog>
                        </extensions>
                    </trkpt>
                    <trkpt lat="54.370601666666666" lon="10.113574999999999">
                        <ele>0</ele>
                        <time>2022-08-18T07:58:44Z</time>
                                                <extensions>
                            <sog>7.3</sog>
<cog>284.2</cog>
                        </extensions>
                    </trkpt>
                    <trkpt lat="54.37083" lon="10.111958333333332">
                        <ele>0</ele>
                        <time>2022-08-18T07:59:13Z</time>
                                                <extensions>
                            <sog>7.3</sog>
<cog>281.7</cog>
                        </extensions>
                    </trkpt>
                    <trkpt lat="54.371005" lon="10.110235">
                        <ele>0</ele>
                        <time>2022-08-18T07:59:44Z</time>
                                                <extensions>
                            <sog>7.1</sog>
<cog>282.6</cog>
                        </extensions>
                    </trkpt>
                    <trkpt lat="54.371311666666664" lon="10.10862">
                        <ele>0</ele>
                        <time>2022-08-18T08:00:14Z</time>
                                                <extensions>
                            <sog>7.1</sog>
<cog>288.5</cog>
                        </extensions>
                    </trkpt>
                    <trkpt lat="54.371311666666664" lon="10.10862">
                        <ele>0</ele>
                        <time>2022-08-18T08:00:14Z</time>
                                                <extensions>
                            <sog>7.1</sog>
<cog>288.5</cog>
                        </extensions>
                    </trkpt>
                    <trkpt lat="54.371563333333334" lon="10.106956666666667">
                        <ele>0</ele>
                        <time>2022-08-18T08:00:45Z</time>
                                                <extensions>
                            <sog>7.0</sog>
<cog>283.0</cog>
                        </extensions>
                    </trkpt>
                    <trkpt lat="54.371563333333334" lon="10.106956666666667">
                        <ele>0</ele>
                        <time>2022-08-18T08:00:45Z</time>
                                                <extensions>
                            <sog>7.0</sog>
<cog>283.0</cog>
                        </extensions>
                    </trkpt>
                    <trkpt lat="54.37178166666667" lon="10.105269999999999">
                        <ele>0</ele>
                        <time>2022-08-18T08:01:16Z</time>
                                                <extensions>
                            <sog>7.1</sog>
<cog>283.5</cog>
                        </extensions>
                    </trkpt>
                    <trkpt lat="54.37200333333333" lon="10.103783333333332">
                        <ele>0</ele>
                        <time>2022-08-18T08:01:43Z</time>
                                                <extensions>
                            <sog>7.2</sog>
<cog>284.2</cog>
                        </extensions>
                    </trkpt>
                    <trkpt lat="54.372215" lon="10.101986666666667">
                        <ele>0</ele>
                        <time>2022-08-18T08:02:15Z</time>
                                                <extensions>
                            <sog>7.2</sog>
<cog>277.3</cog>
                        </extensions>
                    </trkpt>
                    <trkpt lat="54.37243" lon="10.098598333333333">
                        <ele>0</ele>
                        <time>2022-08-18T08:03:16Z</time>
                                                <extensions>
                            <sog>7.0</sog>
<cog>274.8</cog>
                        </extensions>
                    </trkpt>
                    <trkpt lat="54.37247166666667" lon="10.09541">
                        <ele>0</ele>
                        <time>2022-08-18T08:04:13Z</time>
                                                <extensions>
                            <sog>7.0</sog>
<cog>264.4</cog>
                        </extensions>
                    </trkpt>
                    <trkpt lat="54.372323333333334" lon="10.093684999999999">
                        <ele>0</ele>
                        <time>2022-08-18T08:04:45Z</time>
                                                <extensions>
                            <sog>7.3</sog>
<cog>258.5</cog>
                        </extensions>
                    </trkpt>
                    <trkpt lat="54.37213666666666" lon="10.092066666666666">
                        <ele>0</ele>
                        <time>2022-08-18T08:05:13Z</time>
                                                <extensions>
                            <sog>7.2</sog>
<cog>258.6</cog>
                        </extensions>
                    </trkpt>
                    <trkpt lat="54.371676666666666" lon="10.088668333333334">
                        <ele>0</ele>
                        <time>2022-08-18T08:06:14Z</time>
                                                <extensions>
                            <sog>7.2</sog>
<cog>252.3</cog>
                        </extensions>
                    </trkpt>
                    <trkpt lat="54.36704666666667" lon="10.073821666666667">
                        <ele>0</ele>
                        <time>2022-08-18T08:11:14Z</time>
                                                <extensions>
                            <sog>7.2</sog>
<cog>232.9</cog>
                        </extensions>
                    </trkpt>
                    <trkpt lat="54.365046666666665" lon="10.070046666666666">
                        <ele>0</ele>
                        <time>2022-08-18T08:12:44Z</time>
                                                <extensions>
                            <sog>7.0</sog>
<cog>223.2</cog>
                        </extensions>
                    </trkpt>
                    <trkpt lat="54.36435166666667" lon="10.068863333333333">
                        <ele>0</ele>
                        <time>2022-08-18T08:13:14Z</time>
                                                <extensions>
                            <sog>6.9</sog>
<cog>223.6</cog>
                        </extensions>
                    </trkpt>
                    <trkpt lat="54.362975" lon="10.066571666666666">
                        <ele>0</ele>
                        <time>2022-08-18T08:14:14Z</time>
                                                <extensions>
                            <sog>7.0</sog>
<cog>225.0</cog>
                        </extensions>
                    </trkpt>
                    <trkpt lat="54.36240166666666" lon="10.065223333333334">
                        <ele>0</ele>
                        <time>2022-08-18T08:14:44Z</time>
                                                <extensions>
                            <sog>7.0</sog>
<cog>238.7</cog>
                        </extensions>
                    </trkpt>
                    <trkpt lat="54.36189" lon="10.063698333333333">
                        <ele>0</ele>
                        <time>2022-08-18T08:15:16Z</time>
                                                <extensions>
                            <sog>7.0</sog>
<cog>242.6</cog>
                        </extensions>
                    </trkpt>
                    <trkpt lat="54.361201666666666" lon="10.06069">
                        <ele>0</ele>
                        <time>2022-08-18T08:16:14Z</time>
                                                <extensions>
                            <sog>7.0</sog>
<cog>248.8</cog>
                        </extensions>
                    </trkpt>
                    <trkpt lat="54.360855" lon="10.059188333333333">
                        <ele>0</ele>
                        <time>2022-08-18T08:16:43Z</time>
                                                <extensions>
                            <sog>7.0</sog>
<cog>248.5</cog>
                        </extensions>
                    </trkpt>
                    <trkpt lat="54.3605" lon="10.05757">
                        <ele>0</ele>
                        <time>2022-08-18T08:17:14Z</time>
                                                <extensions>
                            <sog>7.0</sog>
<cog>250.7</cog>
                        </extensions>
                    </trkpt>
                    <trkpt lat="54.36008666666667" lon="10.054325">
                        <ele>0</ele>
                        <time>2022-08-18T08:18:15Z</time>
                                                <extensions>
                            <sog>7.0</sog>
<cog>262.1</cog>
                        </extensions>
                    </trkpt>
                    <trkpt lat="54.35990833333334" lon="10.051065">
                        <ele>0</ele>
                        <time>2022-08-18T08:19:13Z</time>
                                                <extensions>
                            <sog>7.2</sog>
<cog>268.3</cog>
                        </extensions>
                    </trkpt>
                    <trkpt lat="54.359878333333334" lon="10.049365">
                        <ele>0</ele>
                        <time>2022-08-18T08:19:43Z</time>
                                                <extensions>
                            <sog>7.0</sog>
<cog>268.3</cog>
                        </extensions>
                    </trkpt>
                    <trkpt lat="54.35988833333333" lon="10.0476">
                        <ele>0</ele>
                        <time>2022-08-18T08:20:15Z</time>
                                                <extensions>
                            <sog>7.0</sog>
<cog>271.5</cog>
                        </extensions>
                    </trkpt>
                    <trkpt lat="54.35995666666667" lon="10.046033333333332">
                        <ele>0</ele>
                        <time>2022-08-18T08:20:44Z</time>
                                                <extensions>
                            <sog>7.2</sog>
<cog>277.7</cog>
                        </extensions>
                    </trkpt>
                    <trkpt lat="54.36009166666667" lon="10.044351666666667">
                        <ele>0</ele>
                        <time>2022-08-18T08:21:14Z</time>
                                                <extensions>
                            <sog>7.2</sog>
<cog>277.1</cog>
                        </extensions>
                    </trkpt>
                    <trkpt lat="54.36022333333334" lon="10.04274">
                        <ele>0</ele>
                        <time>2022-08-18T08:21:43Z</time>
                                                <extensions>
                            <sog>7.1</sog>
<cog>277.8</cog>
                        </extensions>
                    </trkpt>
                    <trkpt lat="54.36041" lon="10.040931666666667">
                        <ele>0</ele>
                        <time>2022-08-18T08:22:15Z</time>
                                                <extensions>
                            <sog>7.1</sog>
<cog>281.8</cog>
                        </extensions>
                    </trkpt>
                    <trkpt lat="54.36060166666667" lon="10.039371666666666">
                        <ele>0</ele>
                        <time>2022-08-18T08:22:44Z</time>
                                                <extensions>
                            <sog>6.9</sog>
<cog>282.5</cog>
                        </extensions>
                    </trkpt>
                    <trkpt lat="54.36080333333334" lon="10.037741666666667">
                        <ele>0</ele>
                        <time>2022-08-18T08:23:14Z</time>
                                                <extensions>
                            <sog>7.0</sog>
<cog>278.3</cog>
                        </extensions>
                    </trkpt>
                    <trkpt lat="54.36093666666667" lon="10.03609">
                        <ele>0</ele>
                        <time>2022-08-18T08:23:44Z</time>
                                                <extensions>
                            <sog>6.9</sog>
<cog>277.0</cog>
                        </extensions>
                    </trkpt>
                    <trkpt lat="54.36103" lon="10.034511666666667">
                        <ele>0</ele>
                        <time>2022-08-18T08:24:13Z</time>
                                                <extensions>
                            <sog>6.9</sog>
<cog>273.9</cog>
                        </extensions>
                    </trkpt>
                    <trkpt lat="54.361065" lon="10.031165">
                        <ele>0</ele>
                        <time>2022-08-18T08:25:13Z</time>
                                                <extensions>
                            <sog>6.8</sog>
<cog>268.5</cog>
                        </extensions>
                    </trkpt>
                    <trkpt lat="54.36096166666667" lon="10.02956">
                        <ele>0</ele>
                        <time>2022-08-18T08:25:43Z</time>
                                                <extensions>
                            <sog>6.9</sog>
<cog>263.1</cog>
                        </extensions>
                    </trkpt>
                    <trkpt lat="54.36085" lon="10.027938333333333">
                        <ele>0</ele>
                        <time>2022-08-18T08:26:13Z</time>
                                                <extensions>
                            <sog>7.0</sog>
<cog>262.0</cog>
                        </extensions>
                    </trkpt>
                    <trkpt lat="54.36072166666667" lon="10.02614">
                        <ele>0</ele>
                        <time>2022-08-18T08:26:45Z</time>
                                                <extensions>
                            <sog>7.1</sog>
<cog>260.0</cog>
                        </extensions>
                    </trkpt>
                    <trkpt lat="54.36054166666667" lon="10.024516666666667">
                        <ele>0</ele>
                        <time>2022-08-18T08:27:14Z</time>
                                                <extensions>
                            <sog>7.1</sog>
<cog>257.6</cog>
                        </extensions>
                    </trkpt>
                    <trkpt lat="54.359745" lon="10.019625">
                        <ele>0</ele>
                        <time>2022-08-18T08:28:45Z</time>
                                                <extensions>
                            <sog>7.0</sog>
<cog>250.3</cog>
                        </extensions>
                    </trkpt>
                    <trkpt lat="54.35863" lon="10.015041666666667">
                        <ele>0</ele>
                        <time>2022-08-18T08:30:13Z</time>
                                                <extensions>
                            <sog>7.2</sog>
<cog>244.6</cog>
                        </extensions>
                    </trkpt>
                    <trkpt lat="54.35816" lon="10.013466666666666">
                        <ele>0</ele>
                        <time>2022-08-18T08:30:44Z</time>
                                                <extensions>
                            <sog>7.2</sog>
<cog>242.3</cog>
                        </extensions>
                    </trkpt>
                    <trkpt lat="54.35765666666667" lon="10.011985000000001">
                        <ele>0</ele>
                        <time>2022-08-18T08:31:14Z</time>
                                                <extensions>
                            <sog>7.1</sog>
<cog>237.7</cog>
                        </extensions>
                    </trkpt>
                    <trkpt lat="54.35650666666667" lon="10.009276666666667">
                        <ele>0</ele>
                        <time>2022-08-18T08:32:13Z</time>
                                                <extensions>
                            <sog>7.1</sog>
<cog>230.4</cog>
                        </extensions>
                    </trkpt>
                    <trkpt lat="54.355851666666666" lon="10.007990000000001">
                        <ele>0</ele>
                        <time>2022-08-18T08:32:44Z</time>
                                                <extensions>
                            <sog>6.9</sog>
<cog>229.0</cog>
                        </extensions>
                    </trkpt>
                    <trkpt lat="54.35523666666666" lon="10.006731666666667">
                        <ele>0</ele>
                        <time>2022-08-18T08:33:14Z</time>
                                                <extensions>
                            <sog>7.0</sog>
<cog>230.0</cog>
                        </extensions>
                    </trkpt>
                    <trkpt lat="54.35462833333334" lon="10.005503333333333">
                        <ele>0</ele>
                        <time>2022-08-18T08:33:43Z</time>
                                                <extensions>
                            <sog>7.0</sog>
<cog>230.2</cog>
                        </extensions>
                    </trkpt>
                    <trkpt lat="54.35399833333334" lon="10.004161666666667">
                        <ele>0</ele>
                        <time>2022-08-18T08:34:14Z</time>
                                                <extensions>
                            <sog>7.0</sog>
<cog>231.2</cog>
                        </extensions>
                    </trkpt>
                    <trkpt lat="54.35019166666667" lon="9.99694">
                        <ele>0</ele>
                        <time>2022-08-18T08:37:13Z</time>
                                                <extensions>
                            <sog>6.7</sog>
<cog>230.7</cog>
                        </extensions>
                    </trkpt>
                    <trkpt lat="54.34902" lon="9.994413333333334">
                        <ele>0</ele>
                        <time>2022-08-18T08:38:13Z</time>
                                                <extensions>
                            <sog>6.9</sog>
<cog>232.9</cog>
                        </extensions>
                    </trkpt>
                    <trkpt lat="54.34843166666667" lon="9.993116666666667">
                        <ele>0</ele>
                        <time>2022-08-18T08:38:43Z</time>
                                                <extensions>
                            <sog>7.0</sog>
<cog>230.9</cog>
                        </extensions>
                    </trkpt>
                    <trkpt lat="54.34666666666667" lon="9.98908">
                        <ele>0</ele>
                        <time>2022-08-18T08:40:14Z</time>
                                                <extensions>
                            <sog>7.1</sog>
<cog>235.2</cog>
                        </extensions>
                    </trkpt>
                    <trkpt lat="54.34614666666666" lon="9.98765">
                        <ele>0</ele>
                        <time>2022-08-18T08:40:44Z</time>
                                                <extensions>
                            <sog>7.1</sog>
<cog>241.3</cog>
                        </extensions>
                    </trkpt>
                    <trkpt lat="54.345760000000006" lon="9.986171666666667">
                        <ele>0</ele>
                        <time>2022-08-18T08:41:13Z</time>
                                                <extensions>
                            <sog>7.0</sog>
<cog>248.0</cog>
                        </extensions>
                    </trkpt>
                    <trkpt lat="54.34506333333333" lon="9.983075000000001">
                        <ele>0</ele>
                        <time>2022-08-18T08:42:14Z</time>
                                                <extensions>
                            <sog>6.9</sog>
<cog>247.6</cog>
                        </extensions>
                    </trkpt>
                    <trkpt lat="54.344696666666664" lon="9.981576666666665">
                        <ele>0</ele>
                        <time>2022-08-18T08:42:43Z</time>
                                                <extensions>
                            <sog>7.0</sog>
<cog>249.9</cog>
                        </extensions>
                    </trkpt>
                    <trkpt lat="54.344413333333335" lon="9.980033333333333">
                        <ele>0</ele>
                        <time>2022-08-18T08:43:14Z</time>
                                                <extensions>
                            <sog>6.8</sog>
<cog>257.0</cog>
                        </extensions>
                    </trkpt>
                    <trkpt lat="54.34368666666667" lon="9.973628333333332">
                        <ele>0</ele>
                        <time>2022-08-18T08:45:14Z</time>
                                                <extensions>
                            <sog>6.9</sog>
<cog>259.8</cog>
                        </extensions>
                    </trkpt>
                    <trkpt lat="54.343425" lon="9.970421666666665">
                        <ele>0</ele>
                        <time>2022-08-18T08:46:13Z</time>
                                                <extensions>
                            <sog>7.1</sog>
<cog>264.2</cog>
                        </extensions>
                    </trkpt>
                    <trkpt lat="54.34330833333333" lon="9.968683333333333">
                        <ele>0</ele>
                        <time>2022-08-18T08:46:44Z</time>
                                                <extensions>
                            <sog>7.1</sog>
<cog>262.7</cog>
                        </extensions>
                    </trkpt>
                    <trkpt lat="54.34320666666667" lon="9.96706">
                        <ele>0</ele>
                        <time>2022-08-18T08:47:13Z</time>
                                                <extensions>
                            <sog>7.1</sog>
<cog>261.9</cog>
                        </extensions>
                    </trkpt>
                    <trkpt lat="54.34308" lon="9.965393333333333">
                        <ele>0</ele>
                        <time>2022-08-18T08:47:43Z</time>
                                                <extensions>
                            <sog>7.1</sog>
<cog>261.9</cog>
                        </extensions>
                    </trkpt>
                    <trkpt lat="54.34293666666667" lon="9.963673333333332">
                        <ele>0</ele>
                        <time>2022-08-18T08:48:14Z</time>
                                                <extensions>
                            <sog>7.1</sog>
<cog>261.5</cog>
                        </extensions>
                    </trkpt>
                    <trkpt lat="54.342805" lon="9.962011666666665">
                        <ele>0</ele>
                        <time>2022-08-18T08:48:44Z</time>
                                                <extensions>
                            <sog>7.1</sog>
<cog>264.4</cog>
                        </extensions>
                    </trkpt>
                    <trkpt lat="54.342681666666664" lon="9.960331666666667">
                        <ele>0</ele>
                        <time>2022-08-18T08:49:13Z</time>
                                                <extensions>
                            <sog>7.0</sog>
<cog>262.7</cog>
                        </extensions>
                    </trkpt>
                    <trkpt lat="54.342565" lon="9.958705">
                        <ele>0</ele>
                        <time>2022-08-18T08:49:43Z</time>
                                                <extensions>
                            <sog>7.1</sog>
<cog>262.9</cog>
                        </extensions>
                    </trkpt>
                    <trkpt lat="54.34241833333333" lon="9.957026666666668">
                        <ele>0</ele>
                        <time>2022-08-18T08:50:13Z</time>
                                                <extensions>
                            <sog>7.1</sog>
<cog>260.4</cog>
                        </extensions>
                    </trkpt>
                    <trkpt lat="54.34227166666667" lon="9.955348333333335">
                        <ele>0</ele>
                        <time>2022-08-18T08:50:43Z</time>
                                                <extensions>
                            <sog>7.2</sog>
<cog>262.3</cog>
                        </extensions>
                    </trkpt>
                    <trkpt lat="54.342126666666665" lon="9.953621666666667">
                        <ele>0</ele>
                        <time>2022-08-18T08:51:14Z</time>
                                                <extensions>
                            <sog>7.0</sog>
<cog>262.6</cog>
                        </extensions>
                    </trkpt>
                    <trkpt lat="54.341985" lon="9.951975000000001">
                        <ele>0</ele>
                        <time>2022-08-18T08:51:44Z</time>
                                                <extensions>
                            <sog>7.1</sog>
<cog>260.5</cog>
                        </extensions>
                    </trkpt>
                    <trkpt lat="54.341829999999995" lon="9.950381666666667">
                        <ele>0</ele>
                        <time>2022-08-18T08:52:13Z</time>
                                                <extensions>
                            <sog>7.1</sog>
<cog>261.2</cog>
                        </extensions>
                    </trkpt>
                    <trkpt lat="54.341678333333334" lon="9.948735">
                        <ele>0</ele>
                        <time>2022-08-18T08:52:43Z</time>
                                                <extensions>
                            <sog>7.0</sog>
<cog>262.0</cog>
                        </extensions>
                    </trkpt>
                    <trkpt lat="54.341395000000006" lon="9.945415">
                        <ele>0</ele>
                        <time>2022-08-18T08:53:43Z</time>
                                                <extensions>
                            <sog>7.2</sog>
<cog>262.7</cog>
                        </extensions>
                    </trkpt>
                    <trkpt lat="54.34124" lon="9.943618333333335">
                        <ele>0</ele>
                        <time>2022-08-18T08:54:15Z</time>
                                                <extensions>
                            <sog>7.1</sog>
<cog>260.8</cog>
                        </extensions>
                    </trkpt>
                    <trkpt lat="54.341105" lon="9.942031666666667">
                        <ele>0</ele>
                        <time>2022-08-18T08:54:43Z</time>
                                                <extensions>
                            <sog>7.1</sog>
<cog>263.3</cog>
                        </extensions>
                    </trkpt>
                    <trkpt lat="54.341055" lon="9.940241666666667">
                        <ele>0</ele>
                        <time>2022-08-18T08:55:15Z</time>
                                                <extensions>
                            <sog>7.0</sog>
<cog>271.7</cog>
                        </extensions>
                    </trkpt>
                    <trkpt lat="54.34108333333334" lon="9.93868">
                        <ele>0</ele>
                        <time>2022-08-18T08:55:43Z</time>
                                                <extensions>
                            <sog>7.0</sog>
<cog>275.3</cog>
                        </extensions>
                    </trkpt>
                    <trkpt lat="54.34119333333333" lon="9.937018333333333">
                        <ele>0</ele>
                        <time>2022-08-18T08:56:13Z</time>
                                                <extensions>
                            <sog>6.9</sog>
<cog>278.4</cog>
                        </extensions>
                    </trkpt>
                    <trkpt lat="54.34141833333333" lon="9.933708333333334">
                        <ele>0</ele>
                        <time>2022-08-18T08:57:13Z</time>
                                                <extensions>
                            <sog>7.0</sog>
<cog>277.3</cog>
                        </extensions>
                    </trkpt>
                    <trkpt lat="54.341561666666664" lon="9.931891666666667">
                        <ele>0</ele>
                        <time>2022-08-18T08:57:46Z</time>
                                                <extensions>
                            <sog>6.9</sog>
<cog>281.7</cog>
                        </extensions>
                    </trkpt>
                    <trkpt lat="54.34180833333333" lon="9.930446666666667">
                        <ele>0</ele>
                        <time>2022-08-18T08:58:14Z</time>
                                                <extensions>
                            <sog>6.8</sog>
<cog>287.7</cog>
                        </extensions>
                    </trkpt>
                    <trkpt lat="54.34212" lon="9.92897">
                        <ele>0</ele>
                        <time>2022-08-18T08:58:43Z</time>
                                                <extensions>
                            <sog>6.9</sog>
<cog>288.5</cog>
                        </extensions>
                    </trkpt>
                    <trkpt lat="54.342425000000006" lon="9.927418333333332">
                        <ele>0</ele>
                        <time>2022-08-18T08:59:13Z</time>
                                                <extensions>
                            <sog>6.9</sog>
<cog>288.7</cog>
                        </extensions>
                    </trkpt>
                    <trkpt lat="54.34276333333333" lon="9.925761666666666">
                        <ele>0</ele>
                        <time>2022-08-18T08:59:45Z</time>
                                                <extensions>
                            <sog>6.9</sog>
<cog>291.6</cog>
                        </extensions>
                    </trkpt>
                    <trkpt lat="54.34354166666667" lon="9.922896666666666">
                        <ele>0</ele>
                        <time>2022-08-18T09:00:44Z</time>
                                                <extensions>
                            <sog>6.9</sog>
<cog>300.2</cog>
                        </extensions>
                    </trkpt>
                    <trkpt lat="54.34354166666667" lon="9.922896666666666">
                        <ele>0</ele>
                        <time>2022-08-18T09:00:44Z</time>
                                                <extensions>
                            <sog>6.9</sog>
<cog>300.2</cog>
                        </extensions>
                    </trkpt>
                    <trkpt lat="54.34402" lon="9.921473333333333">
                        <ele>0</ele>
                        <time>2022-08-18T09:01:14Z</time>
                                                <extensions>
                            <sog>6.8</sog>
<cog>299.0</cog>
                        </extensions>
                    </trkpt>
                    <trkpt lat="54.34542166666667" lon="9.917168333333333">
                        <ele>0</ele>
                        <time>2022-08-18T09:02:44Z</time>
                                                <extensions>
                            <sog>6.8</sog>
<cog>297.3</cog>
                        </extensions>
                    </trkpt>
                    <trkpt lat="54.349865" lon="9.903341666666668">
                        <ele>0</ele>
                        <time>2022-08-18T09:07:44Z</time>
                                                <extensions>
                            <sog>7.1</sog>
<cog>296.9</cog>
                        </extensions>
                    </trkpt>
                    <trkpt lat="54.35026833333333" lon="9.901891666666668">
                        <ele>0</ele>
                        <time>2022-08-18T09:08:14Z</time>
                                                <extensions>
                            <sog>6.9</sog>
<cog>297.5</cog>
                        </extensions>
                    </trkpt>
                    <trkpt lat="54.351168333333334" lon="9.899023333333334">
                        <ele>0</ele>
                        <time>2022-08-18T09:09:14Z</time>
                                                <extensions>
                            <sog>6.8</sog>
<cog>297.4</cog>
                        </extensions>
                    </trkpt>
                    <trkpt lat="54.35209666666666" lon="9.896146666666668">
                        <ele>0</ele>
                        <time>2022-08-18T09:10:14Z</time>
                                                <extensions>
                            <sog>7.0</sog>
<cog>299.3</cog>
                        </extensions>
                    </trkpt>
                    <trkpt lat="54.353966666666665" lon="9.89029">
                        <ele>0</ele>
                        <time>2022-08-18T09:12:15Z</time>
                                                <extensions>
                            <sog>7.0</sog>
<cog>299.1</cog>
                        </extensions>
                    </trkpt>
                    <trkpt lat="54.35442333333334" lon="9.888891666666666">
                        <ele>0</ele>
                        <time>2022-08-18T09:12:44Z</time>
                                                <extensions>
                            <sog>7.0</sog>
<cog>298.2</cog>
                        </extensions>
                    </trkpt>
                    <trkpt lat="54.35489166666667" lon="9.88743">
                        <ele>0</ele>
                        <time>2022-08-18T09:13:14Z</time>
                                                <extensions>
                            <sog>7.0</sog>
<cog>299.4</cog>
                        </extensions>
                    </trkpt>
                    <trkpt lat="54.355821666666664" lon="9.884476666666666">
                        <ele>0</ele>
                        <time>2022-08-18T09:14:15Z</time>
                                                <extensions>
                            <sog>7.1</sog>
<cog>299.0</cog>
                        </extensions>
                    </trkpt>
                    <trkpt lat="54.364398333333334" lon="9.844828333333334">
                        <ele>0</ele>
                        <time>2022-08-18T09:27:14Z</time>
                                                <extensions>
                            <sog>6.6</sog>
<cog>268.9</cog>
                        </extensions>
                    </trkpt>
                    <trkpt lat="54.36433666666667" lon="9.838771666666666">
                        <ele>0</ele>
                        <time>2022-08-18T09:29:14Z</time>
                                                <extensions>
                            <sog>6.7</sog>
<cog>271.6</cog>
                        </extensions>
                    </trkpt>
                    <trkpt lat="54.36429166666667" lon="9.835536666666666">
                        <ele>0</ele>
                        <time>2022-08-18T09:30:14Z</time>
                                                <extensions>
                            <sog>6.7</sog>
<cog>270.3</cog>
                        </extensions>
                    </trkpt>
                    <trkpt lat="54.364275" lon="9.833943333333334">
                        <ele>0</ele>
                        <time>2022-08-18T09:30:44Z</time>
                                                <extensions>
                            <sog>6.7</sog>
<cog>268.6</cog>
                        </extensions>
                    </trkpt>
                    <trkpt lat="54.364235" lon="9.832348333333334">
                        <ele>0</ele>
                        <time>2022-08-18T09:31:14Z</time>
                                                <extensions>
                            <sog>6.9</sog>
<cog>269.5</cog>
                        </extensions>
                    </trkpt>
                    <trkpt lat="54.34842833333333" lon="9.762045">
                        <ele>0</ele>
                        <time>2022-08-18T09:55:14Z</time>
                                                <extensions>
                            <sog>6.9</sog>
<cog>230.9</cog>
                        </extensions>
                    </trkpt>
                    <trkpt lat="54.347145" lon="9.759448333333333">
                        <ele>0</ele>
                        <time>2022-08-18T09:56:15Z</time>
                                                <extensions>
                            <sog>7.0</sog>
<cog>229.8</cog>
                        </extensions>
                    </trkpt>
                    <trkpt lat="54.343435" lon="9.751863333333334">
                        <ele>0</ele>
                        <time>2022-08-18T09:59:13Z</time>
                                                <extensions>
                            <sog>6.9</sog>
<cog>230.5</cog>
                        </extensions>
                    </trkpt>
                    </trkseg>
                </trk>
</gpx>