<?xml version="1.0" encoding="UTF-8"?>
<gpx version="1.1" creator="AIS-to-GPX Converter" xmlns="http://www.topografix.com/GPX/1/1">
                <trk>
                    <name>anon0292</name>
                    <trkseg>
                                            <trkpt lat="54.43161833333333" lon="10.171661666666667">
                        <ele>0</ele>
                        <time>2022-08-18T09:14:52Z</time>
                        <extensions>
    <sog>0.6</sog>
</extensions>
                    </trkpt>
                    <trkpt lat="54.43142666666667" lon="10.171378333333333">
                        <ele>0</ele>
                        <time>2022-08-18T09:17:51Z</time>
                        <extensions>
    <sog>0.5</sog>
</extensions>
                    </trkpt>
                    <trkpt lat="54.43141333333333" lon="10.17141">
                        <ele>0</ele>
                        <time>2022-08-18T09:19:18Z</time>
                        <extensions>
    <sog>0.1</sog>
</extensions>
                    </trkpt>
                    <trkpt lat="54.431394999999995" lon="10.171425">
                        <ele>0</ele>
                        <time>2022-08-18T09:19:48Z</time>
                        <extensions>
    <sog>0.7</sog>
</extensions>
                    </trkpt>
                    <trkpt lat="54.431448333333336" lon="10.171411666666668">
                        <ele>0</ele>
                        <time>2022-08-18T09:20:16Z</time>
                        <extensions>
    <sog>0.1</sog>
</extensions>
                    </trkpt>
                    <trkpt lat="54.43143833333333" lon="10.171461666666666">
                        <ele>0</ele>
                        <time>2022-08-18T09:20:46Z</time>
                        <extensions>
    <sog>0.3</sog>
</extensions>
                    </trkpt>
                    <trkpt lat="54.431465" lon="10.171225">
                        <ele>0</ele>
                        <time>2022-08-18T09:21:49Z</time>
                        <extensions>
    <sog>1.0</sog>
</extensions>
                    </trkpt>
                    <trkpt lat="54.431450000000005" lon="10.171093333333333">
                        <ele>0</ele>
                        <time>2022-08-18T09:22:18Z</time>
                        <extensions>
    <sog>0.9</sog>
</extensions>
                    </trkpt>
                    <trkpt lat="54.43148833333333" lon="10.171121666666666">
                        <ele>0</ele>
                        <time>2022-08-18T09:22:48Z</time>
                        <extensions>
    <sog>0.4</sog>
</extensions>
                    </trkpt>
                    <trkpt lat="54.43151833333333" lon="10.171583333333333">
                        <ele>0</ele>
                        <time>2022-08-18T09:24:16Z</time>
                        <extensions>
    <sog>0.5</sog>
</extensions>
                    </trkpt>
                    <trkpt lat="54.431425" lon="10.171511666666667">
                        <ele>0</ele>
                        <time>2022-08-18T09:24:46Z</time>
                        <extensions>
    <sog>0.2</sog>
</extensions>
                    </trkpt>
                    <trkpt lat="54.431468333333335" lon="10.17137">
                        <ele>0</ele>
                        <time>2022-08-18T09:25:19Z</time>
                        <extensions>
    <sog>0.7</sog>
</extensions>
                    </trkpt>
                    <trkpt lat="54.43147" lon="10.17146">
                        <ele>0</ele>
                        <time>2022-08-18T09:25:46Z</time>
                        <extensions>
    <sog>0.5</sog>
</extensions>
                    </trkpt>
                    <trkpt lat="54.43150166666667" lon="10.171498333333334">
                        <ele>0</ele>
                        <time>2022-08-18T09:27:17Z</time>
                        <extensions>
    <sog>0.3</sog>
</extensions>
                    </trkpt>
                    <trkpt lat="54.431666666666665" lon="10.171278333333333">
                        <ele>0</ele>
                        <time>2022-08-18T09:30:16Z</time>
                        <extensions>
    <sog>0.4</sog>
</extensions>
                    </trkpt>
                    <trkpt lat="54.43134166666667" lon="10.171375000000001">
                        <ele>0</ele>
                        <time>2022-08-18T09:31:12Z</time>
                                                <extensions>
                            <sog>2.0</sog>
<cog>176.0</cog>
                        </extensions>
                    </trkpt>
                    <trkpt lat="54.43122833333334" lon="10.171526666666667">
                        <ele>0</ele>
                        <time>2022-08-18T09:31:42Z</time>
                                                <extensions>
                            <sog>1.0</sog>
<cog>176.5</cog>
                        </extensions>
                    </trkpt>
                    <trkpt lat="54.43129" lon="10.172273333333333">
                        <ele>0</ele>
                        <time>2022-08-18T09:32:12Z</time>
                                                <extensions>
                            <sog>3.7</sog>
<cog>108.3</cog>
                        </extensions>
                    </trkpt>
                    <trkpt lat="54.43064666666667" lon="10.172803333333333">
                        <ele>0</ele>
                        <time>2022-08-18T09:32:41Z</time>
                                                <extensions>
                            <sog>3.9</sog>
<cog>156.3</cog>
                        </extensions>
                    </trkpt>
                    <trkpt lat="54.42995333333333" lon="10.173431666666666">
                        <ele>0</ele>
                        <time>2022-08-18T09:33:13Z</time>
                                                <extensions>
                            <sog>6.8</sog>
<cog>139.8</cog>
                        </extensions>
                    </trkpt>
                    <trkpt lat="54.42946166666666" lon="10.174341666666667">
                        <ele>0</ele>
                        <time>2022-08-18T09:33:41Z</time>
                                                <extensions>
                            <sog>4.8</sog>
<cog>134.8</cog>
                        </extensions>
                    </trkpt>
                    <trkpt lat="54.42937" lon="10.175345">
                        <ele>0</ele>
                        <time>2022-08-18T09:34:11Z</time>
                                                <extensions>
                            <sog>5.0</sog>
<cog>75.5</cog>
                        </extensions>
                    </trkpt>
                    <trkpt lat="54.42935833333333" lon="10.176033333333333">
                        <ele>0</ele>
                        <time>2022-08-18T09:34:42Z</time>
                                                <extensions>
                            <sog>2.2</sog>
<cog>95.9</cog>
                        </extensions>
                    </trkpt>
                    <trkpt lat="54.429293333333334" lon="10.176476666666668">
                        <ele>0</ele>
                        <time>2022-08-18T09:35:12Z</time>
                                                <extensions>
                            <sog>2.0</sog>
<cog>111.6</cog>
                        </extensions>
                    </trkpt>
                    <trkpt lat="54.429186666666666" lon="10.176948333333334">
                        <ele>0</ele>
                        <time>2022-08-18T09:35:42Z</time>
                                                <extensions>
                            <sog>2.3</sog>
<cog>110.8</cog>
                        </extensions>
                    </trkpt>
                    <trkpt lat="54.429035" lon="10.177441666666665">
                        <ele>0</ele>
                        <time>2022-08-18T09:36:12Z</time>
                                                <extensions>
                            <sog>3.4</sog>
<cog>122.1</cog>
                        </extensions>
                    </trkpt>
                    <trkpt lat="54.427645" lon="10.182649999999999">
                        <ele>0</ele>
                        <time>2022-08-18T09:38:42Z</time>
                                                <extensions>
                            <sog>5.1</sog>
<cog>111.7</cog>
                        </extensions>
                    </trkpt>
                    <trkpt lat="54.42730666666667" lon="10.183895">
                        <ele>0</ele>
                        <time>2022-08-18T09:39:12Z</time>
                                                <extensions>
                            <sog>5.7</sog>
<cog>122.2</cog>
                        </extensions>
                    </trkpt>
                    <trkpt lat="54.427005" lon="10.185033333333333">
                        <ele>0</ele>
                        <time>2022-08-18T09:39:41Z</time>
                                                <extensions>
                            <sog>5.4</sog>
<cog>116.8</cog>
                        </extensions>
                    </trkpt>
                    <trkpt lat="54.42671166666666" lon="10.186271666666666">
                        <ele>0</ele>
                        <time>2022-08-18T09:40:12Z</time>
                                                <extensions>
                            <sog>5.3</sog>
<cog>112.1</cog>
                        </extensions>
                    </trkpt>
                    <trkpt lat="54.42646" lon="10.187355">
                        <ele>0</ele>
                        <time>2022-08-18T09:40:41Z</time>
                                                <extensions>
                            <sog>5.6</sog>
<cog>113.3</cog>
                        </extensions>
                    </trkpt>
                    <trkpt lat="54.42549333333333" lon="10.191061666666666">
                        <ele>0</ele>
                        <time>2022-08-18T09:42:12Z</time>
                                                <extensions>
                            <sog>5.9</sog>
<cog>114.1</cog>
                        </extensions>
                    </trkpt>
                    <trkpt lat="54.42523333333334" lon="10.19223">
                        <ele>0</ele>
                        <time>2022-08-18T09:42:43Z</time>
                                                <extensions>
                            <sog>4.7</sog>
<cog>108.3</cog>
                        </extensions>
                    </trkpt>
                    <trkpt lat="54.42511666666667" lon="10.193033333333334">
                        <ele>0</ele>
                        <time>2022-08-18T09:43:13Z</time>
                                                <extensions>
                            <sog>2.2</sog>
<cog>23.1</cog>
                        </extensions>
                    </trkpt>
                    <trkpt lat="54.42578" lon="10.193154999999999">
                        <ele>0</ele>
                        <time>2022-08-18T09:43:42Z</time>
                                                <extensions>
                            <sog>5.2</sog>
<cog>13.0</cog>
                        </extensions>
                    </trkpt>
                    <trkpt lat="54.42632666666667" lon="10.193673333333333">
                        <ele>0</ele>
                        <time>2022-08-18T09:44:12Z</time>
                                                <extensions>
                            <sog>3.9</sog>
<cog>24.7</cog>
                        </extensions>
                    </trkpt>
                    <trkpt lat="54.426995000000005" lon="10.194028333333334">
                        <ele>0</ele>
                        <time>2022-08-18T09:44:41Z</time>
                                                <extensions>
                            <sog>5.1</sog>
<cog>19.0</cog>
                        </extensions>
                    </trkpt>
                    <trkpt lat="54.42758666666667" lon="10.194443333333334">
                        <ele>0</ele>
                        <time>2022-08-18T09:45:12Z</time>
                                                <extensions>
                            <sog>4.9</sog>
<cog>25.6</cog>
                        </extensions>
                    </trkpt>
                    <trkpt lat="54.42817166666667" lon="10.194801666666667">
                        <ele>0</ele>
                        <time>2022-08-18T09:45:41Z</time>
                                                <extensions>
                            <sog>5.0</sog>
<cog>17.9</cog>
                        </extensions>
                    </trkpt>
                    <trkpt lat="54.42892" lon="10.195255">
                        <ele>0</ele>
                        <time>2022-08-18T09:46:16Z</time>
                                                <extensions>
                            <sog>5.6</sog>
<cog>17.2</cog>
                        </extensions>
                    </trkpt>
                    <trkpt lat="54.42946666666667" lon="10.19569">
                        <ele>0</ele>
                        <time>2022-08-18T09:46:42Z</time>
                                                <extensions>
                            <sog>4.6</sog>
<cog>21.9</cog>
                        </extensions>
                    </trkpt>
                    <trkpt lat="54.43024333333334" lon="10.196206666666665">
                        <ele>0</ele>
                        <time>2022-08-18T09:47:12Z</time>
                                                <extensions>
                            <sog>5.5</sog>
<cog>23.3</cog>
                        </extensions>
                    </trkpt>
                    <trkpt lat="54.430746666666664" lon="10.196648333333334">
                        <ele>0</ele>
                        <time>2022-08-18T09:47:43Z</time>
                                                <extensions>
                            <sog>3.4</sog>
<cog>28.1</cog>
                        </extensions>
                    </trkpt>
                    <trkpt lat="54.431375" lon="10.197138333333333">
                        <ele>0</ele>
                        <time>2022-08-18T09:48:12Z</time>
                                                <extensions>
                            <sog>4.8</sog>
<cog>20.6</cog>
                        </extensions>
                    </trkpt>
                    <trkpt lat="54.43192333333333" lon="10.197623333333333">
                        <ele>0</ele>
                        <time>2022-08-18T09:48:41Z</time>
                                                <extensions>
                            <sog>4.5</sog>
<cog>22.8</cog>
                        </extensions>
                    </trkpt>
                    <trkpt lat="54.43309" lon="10.198498333333333">
                        <ele>0</ele>
                        <time>2022-08-18T09:49:41Z</time>
                                                <extensions>
                            <sog>5.4</sog>
<cog>30.3</cog>
                        </extensions>
                    </trkpt>
                    <trkpt lat="54.43376666666666" lon="10.199048333333334">
                        <ele>0</ele>
                        <time>2022-08-18T09:50:12Z</time>
                                                <extensions>
                            <sog>4.1</sog>
<cog>24.1</cog>
                        </extensions>
                    </trkpt>
                    <trkpt lat="54.434398333333334" lon="10.199575000000001">
                        <ele>0</ele>
                        <time>2022-08-18T09:50:42Z</time>
                                                <extensions>
                            <sog>5.3</sog>
<cog>32.0</cog>
                        </extensions>
                    </trkpt>
                    <trkpt lat="54.43516666666667" lon="10.200266666666666">
                        <ele>0</ele>
                        <time>2022-08-18T09:51:15Z</time>
                                                <extensions>
                            <sog>5.9</sog>
<cog>23.9</cog>
                        </extensions>
                    </trkpt>
                    <trkpt lat="54.435658333333336" lon="10.200629999999999">
                        <ele>0</ele>
                        <time>2022-08-18T09:51:42Z</time>
                                                <extensions>
                            <sog>5.7</sog>
<cog>18.1</cog>
                        </extensions>
                    </trkpt>
                    <trkpt lat="54.436326666666666" lon="10.201143333333333">
                        <ele>0</ele>
                        <time>2022-08-18T09:52:13Z</time>
                                                <extensions>
                            <sog>5.2</sog>
<cog>24.4</cog>
                        </extensions>
                    </trkpt>
                    <trkpt lat="54.43707166666666" lon="10.201771666666668">
                        <ele>0</ele>
                        <time>2022-08-18T09:52:42Z</time>
                                                <extensions>
                            <sog>6.0</sog>
<cog>30.1</cog>
                        </extensions>
                    </trkpt>
                    <trkpt lat="54.43762166666667" lon="10.202336666666667">
                        <ele>0</ele>
                        <time>2022-08-18T09:53:12Z</time>
                                                <extensions>
                            <sog>3.9</sog>
<cog>31.0</cog>
                        </extensions>
                    </trkpt>
                    <trkpt lat="54.43891333333333" lon="10.203948333333333">
                        <ele>0</ele>
                        <time>2022-08-18T09:54:12Z</time>
                                                <extensions>
                            <sog>6.5</sog>
<cog>44.6</cog>
                        </extensions>
                    </trkpt>
                    <trkpt lat="54.439535" lon="10.204315000000001">
                        <ele>0</ele>
                        <time>2022-08-18T09:54:41Z</time>
                                                <extensions>
                            <sog>5.4</sog>
<cog>22.4</cog>
                        </extensions>
                    </trkpt>
                    <trkpt lat="54.44031666666667" lon="10.204466666666667">
                        <ele>0</ele>
                        <time>2022-08-18T09:55:12Z</time>
                                                <extensions>
                            <sog>6.3</sog>
<cog>7.1</cog>
                        </extensions>
                    </trkpt>
                    <trkpt lat="54.441111666666664" lon="10.204513333333333">
                        <ele>0</ele>
                        <time>2022-08-18T09:55:42Z</time>
                                                <extensions>
                            <sog>4.8</sog>
<cog>355.8</cog>
                        </extensions>
                    </trkpt>
                    <trkpt lat="54.44204333333333" lon="10.204663333333334">
                        <ele>0</ele>
                        <time>2022-08-18T09:56:13Z</time>
                                                <extensions>
                            <sog>6.3</sog>
<cog>6.4</cog>
                        </extensions>
                    </trkpt>
                    <trkpt lat="54.44287833333333" lon="10.20491">
                        <ele>0</ele>
                        <time>2022-08-18T09:56:42Z</time>
                                                <extensions>
                            <sog>5.4</sog>
<cog>7.9</cog>
                        </extensions>
                    </trkpt>
                    <trkpt lat="54.443668333333335" lon="10.205131666666666">
                        <ele>0</ele>
                        <time>2022-08-18T09:57:13Z</time>
                                                <extensions>
                            <sog>4.8</sog>
<cog>11.3</cog>
                        </extensions>
                    </trkpt>
                    <trkpt lat="54.445299999999996" lon="10.205556666666666">
                        <ele>0</ele>
                        <time>2022-08-18T09:58:12Z</time>
                                                <extensions>
                            <sog>5.1</sog>
<cog>9.5</cog>
                        </extensions>
                    </trkpt>
                    <trkpt lat="54.44608" lon="10.205833333333334">
                        <ele>0</ele>
                        <time>2022-08-18T09:58:41Z</time>
                                                <extensions>
                            <sog>5.7</sog>
<cog>11.3</cog>
                        </extensions>
                    </trkpt>
                    <trkpt lat="54.44688833333333" lon="10.206118333333334">
                        <ele>0</ele>
                        <time>2022-08-18T09:59:12Z</time>
                                                <extensions>
                            <sog>5.0</sog>
<cog>18.7</cog>
                        </extensions>
                    </trkpt>
                    <trkpt lat="54.448258333333335" lon="10.206836666666668">
                        <ele>0</ele>
                        <time>2022-08-18T10:00:11Z</time>
                                                <extensions>
                            <sog>5.3</sog>
<cog>18.8</cog>
                        </extensions>
                    </trkpt>
                    <trkpt lat="54.448258333333335" lon="10.206836666666668">
                        <ele>0</ele>
                        <time>2022-08-18T10:00:11Z</time>
                                                <extensions>
                            <sog>5.3</sog>
<cog>18.8</cog>
                        </extensions>
                    </trkpt>
                    <trkpt lat="54.451285" lon="10.207683333333334">
                        <ele>0</ele>
                        <time>2022-08-18T10:02:12Z</time>
                                                <extensions>
                            <sog>5.6</sog>
<cog>349.7</cog>
                        </extensions>
                    </trkpt>
                    <trkpt lat="54.45206666666666" lon="10.207573333333332">
                        <ele>0</ele>
                        <time>2022-08-18T10:02:42Z</time>
                                                <extensions>
                            <sog>5.4</sog>
<cog>358.7</cog>
                        </extensions>
                    </trkpt>
                    <trkpt lat="54.453939999999996" lon="10.205876666666667">
                        <ele>0</ele>
                        <time>2022-08-18T10:04:13Z</time>
                                                <extensions>
                            <sog>4.9</sog>
<cog>343.3</cog>
                        </extensions>
                    </trkpt>
                    <trkpt lat="54.45467333333333" lon="10.205568333333334">
                        <ele>0</ele>
                        <time>2022-08-18T10:04:42Z</time>
                                                <extensions>
                            <sog>4.1</sog>
<cog>338.2</cog>
                        </extensions>
                    </trkpt>
                    <trkpt lat="54.45545333333334" lon="10.205166666666665">
                        <ele>0</ele>
                        <time>2022-08-18T10:05:14Z</time>
                                                <extensions>
                            <sog>6.0</sog>
<cog>342.6</cog>
                        </extensions>
                    </trkpt>
                    <trkpt lat="54.456043333333334" lon="10.204863333333332">
                        <ele>0</ele>
                        <time>2022-08-18T10:05:41Z</time>
                                                <extensions>
                            <sog>6.2</sog>
<cog>346.8</cog>
                        </extensions>
                    </trkpt>
                    <trkpt lat="54.456895" lon="10.204514999999999">
                        <ele>0</ele>
                        <time>2022-08-18T10:06:14Z</time>
                                                <extensions>
                            <sog>5.4</sog>
<cog>350.7</cog>
                        </extensions>
                    </trkpt>
                    <trkpt lat="54.45764833333333" lon="10.204546666666666">
                        <ele>0</ele>
                        <time>2022-08-18T10:06:43Z</time>
                                                <extensions>
                            <sog>5.2</sog>
<cog>3.3</cog>
                        </extensions>
                    </trkpt>
                    <trkpt lat="54.45917333333333" lon="10.204818333333332">
                        <ele>0</ele>
                        <time>2022-08-18T10:07:42Z</time>
                                                <extensions>
                            <sog>6.6</sog>
<cog>11.5</cog>
                        </extensions>
                    </trkpt>
                    <trkpt lat="54.45995833333333" lon="10.204856666666666">
                        <ele>0</ele>
                        <time>2022-08-18T10:08:14Z</time>
                                                <extensions>
                            <sog>5.4</sog>
<cog>354.2</cog>
                        </extensions>
                    </trkpt>
                    <trkpt lat="54.46075666666666" lon="10.204616666666668">
                        <ele>0</ele>
                        <time>2022-08-18T10:08:43Z</time>
                                                <extensions>
                            <sog>5.6</sog>
<cog>351.9</cog>
                        </extensions>
                    </trkpt>
                    <trkpt lat="54.461585" lon="10.204363333333333">
                        <ele>0</ele>
                        <time>2022-08-18T10:09:12Z</time>
                                                <extensions>
                            <sog>6.6</sog>
<cog>344.7</cog>
                        </extensions>
                    </trkpt>
                    <trkpt lat="54.46315166666667" lon="10.203208333333333">
                        <ele>0</ele>
                        <time>2022-08-18T10:10:12Z</time>
                                                <extensions>
                            <sog>5.4</sog>
<cog>339.5</cog>
                        </extensions>
                    </trkpt>
                    <trkpt lat="54.46393" lon="10.202753333333334">
                        <ele>0</ele>
                        <time>2022-08-18T10:10:45Z</time>
                                                <extensions>
                            <sog>4.4</sog>
<cog>342.9</cog>
                        </extensions>
                    </trkpt>
                    <trkpt lat="54.46462666666666" lon="10.202328333333332">
                        <ele>0</ele>
                        <time>2022-08-18T10:11:14Z</time>
                                                <extensions>
                            <sog>5.7</sog>
<cog>341.7</cog>
                        </extensions>
                    </trkpt>
                    <trkpt lat="54.465363333333336" lon="10.20182">
                        <ele>0</ele>
                        <time>2022-08-18T10:11:41Z</time>
                                                <extensions>
                            <sog>5.2</sog>
<cog>341.4</cog>
                        </extensions>
                    </trkpt>
                    <trkpt lat="54.46605833333333" lon="10.201488333333334">
                        <ele>0</ele>
                        <time>2022-08-18T10:12:11Z</time>
                                                <extensions>
                            <sog>5.0</sog>
<cog>340.5</cog>
                        </extensions>
                    </trkpt>
                    <trkpt lat="54.466765" lon="10.200921666666666">
                        <ele>0</ele>
                        <time>2022-08-18T10:12:45Z</time>
                                                <extensions>
                            <sog>4.5</sog>
<cog>334.7</cog>
                        </extensions>
                    </trkpt>
                    <trkpt lat="54.46727833333333" lon="10.20049">
                        <ele>0</ele>
                        <time>2022-08-18T10:13:11Z</time>
                                                <extensions>
                            <sog>5.5</sog>
<cog>330.1</cog>
                        </extensions>
                    </trkpt>
                    <trkpt lat="54.467945" lon="10.199863333333333">
                        <ele>0</ele>
                        <time>2022-08-18T10:13:42Z</time>
                                                <extensions>
                            <sog>4.1</sog>
<cog>334.5</cog>
                        </extensions>
                    </trkpt>
                    <trkpt lat="54.46861333333333" lon="10.199316666666666">
                        <ele>0</ele>
                        <time>2022-08-18T10:14:13Z</time>
                                                <extensions>
                            <sog>5.1</sog>
<cog>328.8</cog>
                        </extensions>
                    </trkpt>
                    <trkpt lat="54.469195" lon="10.198888333333334">
                        <ele>0</ele>
                        <time>2022-08-18T10:14:41Z</time>
                                                <extensions>
                            <sog>3.3</sog>
<cog>342.3</cog>
                        </extensions>
                    </trkpt>
                    <trkpt lat="54.46985666666667" lon="10.198286666666666">
                        <ele>0</ele>
                        <time>2022-08-18T10:15:13Z</time>
                                                <extensions>
                            <sog>5.3</sog>
<cog>338.2</cog>
                        </extensions>
                    </trkpt>
                    <trkpt lat="54.47045" lon="10.197815">
                        <ele>0</ele>
                        <time>2022-08-18T10:15:42Z</time>
                                                <extensions>
                            <sog>4.5</sog>
<cog>327.4</cog>
                        </extensions>
                    </trkpt>
                    <trkpt lat="54.470983333333336" lon="10.197365">
                        <ele>0</ele>
                        <time>2022-08-18T10:16:12Z</time>
                                                <extensions>
                            <sog>4.7</sog>
<cog>334.4</cog>
                        </extensions>
                    </trkpt>
                    <trkpt lat="54.472213333333336" lon="10.195866666666666">
                        <ele>0</ele>
                        <time>2022-08-18T10:17:41Z</time>
                                                <extensions>
                            <sog>3.2</sog>
<cog>310.4</cog>
                        </extensions>
                    </trkpt>
                    <trkpt lat="54.47266666666667" lon="10.195179999999999">
                        <ele>0</ele>
                        <time>2022-08-18T10:18:12Z</time>
                                                <extensions>
                            <sog>3.3</sog>
<cog>319.6</cog>
                        </extensions>
                    </trkpt>
                    <trkpt lat="54.47345333333333" lon="10.194008333333333">
                        <ele>0</ele>
                        <time>2022-08-18T10:19:12Z</time>
                                                <extensions>
                            <sog>3.9</sog>
<cog>321.1</cog>
                        </extensions>
                    </trkpt>
                    <trkpt lat="54.4739" lon="10.193658333333333">
                        <ele>0</ele>
                        <time>2022-08-18T10:19:42Z</time>
                                                <extensions>
                            <sog>4.1</sog>
<cog>331.1</cog>
                        </extensions>
                    </trkpt>
                    <trkpt lat="54.474646666666665" lon="10.192986666666666">
                        <ele>0</ele>
                        <time>2022-08-18T10:20:16Z</time>
                                                <extensions>
                            <sog>5.2</sog>
<cog>340.1</cog>
                        </extensions>
                    </trkpt>
                    <trkpt lat="54.47520833333333" lon="10.192635">
                        <ele>0</ele>
                        <time>2022-08-18T10:20:41Z</time>
                                                <extensions>
                            <sog>5.4</sog>
<cog>334.9</cog>
                        </extensions>
                    </trkpt>
                    <trkpt lat="54.47646333333333" lon="10.191443333333332">
                        <ele>0</ele>
                        <time>2022-08-18T10:21:42Z</time>
                                                <extensions>
                            <sog>4.9</sog>
<cog>323.6</cog>
                        </extensions>
                    </trkpt>
                    <trkpt lat="54.478451666666665" lon="10.190386666666665">
                        <ele>0</ele>
                        <time>2022-08-18T10:23:12Z</time>
                                                <extensions>
                            <sog>5.0</sog>
<cog>345.7</cog>
                        </extensions>
                    </trkpt>
                    <trkpt lat="54.47995" lon="10.189805">
                        <ele>0</ele>
                        <time>2022-08-18T10:24:12Z</time>
                                                <extensions>
                            <sog>6.4</sog>
<cog>348.6</cog>
                        </extensions>
                    </trkpt>
                    <trkpt lat="54.48056333333333" lon="10.189455">
                        <ele>0</ele>
                        <time>2022-08-18T10:24:42Z</time>
                                                <extensions>
                            <sog>4.3</sog>
<cog>353.2</cog>
                        </extensions>
                    </trkpt>
                    <trkpt lat="54.48110166666667" lon="10.189008333333334">
                        <ele>0</ele>
                        <time>2022-08-18T10:25:12Z</time>
                                                <extensions>
                            <sog>4.6</sog>
<cog>346.7</cog>
                        </extensions>
                    </trkpt>
                    <trkpt lat="54.481750000000005" lon="10.188681666666668">
                        <ele>0</ele>
                        <time>2022-08-18T10:25:42Z</time>
                                                <extensions>
                            <sog>4.5</sog>
<cog>346.4</cog>
                        </extensions>
                    </trkpt>
                    <trkpt lat="54.482324999999996" lon="10.188476666666666">
                        <ele>0</ele>
                        <time>2022-08-18T10:26:12Z</time>
                                                <extensions>
                            <sog>4.2</sog>
<cog>348.2</cog>
                        </extensions>
                    </trkpt>
                    <trkpt lat="54.48290833333333" lon="10.188243333333332">
                        <ele>0</ele>
                        <time>2022-08-18T10:26:41Z</time>
                                                <extensions>
                            <sog>4.0</sog>
<cog>354.2</cog>
                        </extensions>
                    </trkpt>
                    <trkpt lat="54.48344" lon="10.187916666666666">
                        <ele>0</ele>
                        <time>2022-08-18T10:27:12Z</time>
                                                <extensions>
                            <sog>4.6</sog>
<cog>344.7</cog>
                        </extensions>
                    </trkpt>
                    <trkpt lat="54.48405666666667" lon="10.187725">
                        <ele>0</ele>
                        <time>2022-08-18T10:27:42Z</time>
                                                <extensions>
                            <sog>4.3</sog>
<cog>352.3</cog>
                        </extensions>
                    </trkpt>
                    <trkpt lat="54.484656666666666" lon="10.18759">
                        <ele>0</ele>
                        <time>2022-08-18T10:28:11Z</time>
                                                <extensions>
                            <sog>4.3</sog>
<cog>353.6</cog>
                        </extensions>
                    </trkpt>
                    <trkpt lat="54.485285" lon="10.187358333333332">
                        <ele>0</ele>
                        <time>2022-08-18T10:28:42Z</time>
                                                <extensions>
                            <sog>4.6</sog>
<cog>2.4</cog>
                        </extensions>
                    </trkpt>
                    <trkpt lat="54.485855" lon="10.187019999999999">
                        <ele>0</ele>
                        <time>2022-08-18T10:29:12Z</time>
                                                <extensions>
                            <sog>3.5</sog>
<cog>346.9</cog>
                        </extensions>
                    </trkpt>
                    <trkpt lat="54.48645833333333" lon="10.186543333333333">
                        <ele>0</ele>
                        <time>2022-08-18T10:29:42Z</time>
                                                <extensions>
                            <sog>4.2</sog>
<cog>327.2</cog>
                        </extensions>
                    </trkpt>
                    <trkpt lat="54.48705833333334" lon="10.186336666666667">
                        <ele>0</ele>
                        <time>2022-08-18T10:30:12Z</time>
                                                <extensions>
                            <sog>4.5</sog>
<cog>340.9</cog>
                        </extensions>
                    </trkpt>
                    <trkpt lat="54.487635" lon="10.185905">
                        <ele>0</ele>
                        <time>2022-08-18T10:30:42Z</time>
                                                <extensions>
                            <sog>2.9</sog>
<cog>313.7</cog>
                        </extensions>
                    </trkpt>
                    <trkpt lat="54.488416666666666" lon="10.185723333333334">
                        <ele>0</ele>
                        <time>2022-08-18T10:31:13Z</time>
                                                <extensions>
                            <sog>5.3</sog>
<cog>341.5</cog>
                        </extensions>
                    </trkpt>
                    <trkpt lat="54.489623333333334" lon="10.184845">
                        <ele>0</ele>
                        <time>2022-08-18T10:32:11Z</time>
                                                <extensions>
                            <sog>5.6</sog>
<cog>339.8</cog>
                        </extensions>
                    </trkpt>
                    <trkpt lat="54.49068166666667" lon="10.1842">
                        <ele>0</ele>
                        <time>2022-08-18T10:33:12Z</time>
                                                <extensions>
                            <sog>3.4</sog>
<cog>340.4</cog>
                        </extensions>
                    </trkpt>
                    <trkpt lat="54.49182166666667" lon="10.183663333333334">
                        <ele>0</ele>
                        <time>2022-08-18T10:34:12Z</time>
                                                <extensions>
                            <sog>4.2</sog>
<cog>346.6</cog>
                        </extensions>
                    </trkpt>
                    <trkpt lat="54.49303333333333" lon="10.183311666666667">
                        <ele>0</ele>
                        <time>2022-08-18T10:35:14Z</time>
                                                <extensions>
                            <sog>4.1</sog>
<cog>352.3</cog>
                        </extensions>
                    </trkpt>
                    <trkpt lat="54.49352" lon="10.183068333333333">
                        <ele>0</ele>
                        <time>2022-08-18T10:35:42Z</time>
                                                <extensions>
                            <sog>4.0</sog>
<cog>330.3</cog>
                        </extensions>
                    </trkpt>
                    <trkpt lat="54.49390666666667" lon="10.182555">
                        <ele>0</ele>
                        <time>2022-08-18T10:36:11Z</time>
                                                <extensions>
                            <sog>4.0</sog>
<cog>338.4</cog>
                        </extensions>
                    </trkpt>
                    <trkpt lat="54.49496833333333" lon="10.182075">
                        <ele>0</ele>
                        <time>2022-08-18T10:37:13Z</time>
                                                <extensions>
                            <sog>4.4</sog>
<cog>352.3</cog>
                        </extensions>
                    </trkpt>
                    <trkpt lat="54.496093333333334" lon="10.181451666666668">
                        <ele>0</ele>
                        <time>2022-08-18T10:38:11Z</time>
                                                <extensions>
                            <sog>4.5</sog>
<cog>344.9</cog>
                        </extensions>
                    </trkpt>
                    <trkpt lat="54.497236666666666" lon="10.181038333333333">
                        <ele>0</ele>
                        <time>2022-08-18T10:39:11Z</time>
                                                <extensions>
                            <sog>4.3</sog>
<cog>349.4</cog>
                        </extensions>
                    </trkpt>
                    <trkpt lat="54.49781666666667" lon="10.180828333333332">
                        <ele>0</ele>
                        <time>2022-08-18T10:39:41Z</time>
                                                <extensions>
                            <sog>4.1</sog>
<cog>344.7</cog>
                        </extensions>
                    </trkpt>
                    <trkpt lat="54.498365" lon="10.180641666666666">
                        <ele>0</ele>
                        <time>2022-08-18T10:40:12Z</time>
                                                <extensions>
                            <sog>3.9</sog>
<cog>347.3</cog>
                        </extensions>
                    </trkpt>
                    <trkpt lat="54.49954" lon="10.180091666666668">
                        <ele>0</ele>
                        <time>2022-08-18T10:41:13Z</time>
                                                <extensions>
                            <sog>4.5</sog>
<cog>342.0</cog>
                        </extensions>
                    </trkpt>
                    <trkpt lat="54.500051666666664" lon="10.179858333333334">
                        <ele>0</ele>
                        <time>2022-08-18T10:41:42Z</time>
                                                <extensions>
                            <sog>4.5</sog>
<cog>349.9</cog>
                        </extensions>
                    </trkpt>
                    <trkpt lat="54.501015" lon="10.179341666666666">
                        <ele>0</ele>
                        <time>2022-08-18T10:42:41Z</time>
                                                <extensions>
                            <sog>3.9</sog>
<cog>342.9</cog>
                        </extensions>
                    </trkpt>
                    <trkpt lat="54.501395" lon="10.179156666666668">
                        <ele>0</ele>
                        <time>2022-08-18T10:43:12Z</time>
                                                <extensions>
                            <sog>2.2</sog>
<cog>343.7</cog>
                        </extensions>
                    </trkpt>
                    <trkpt lat="54.50209666666667" lon="10.178761666666666">
                        <ele>0</ele>
                        <time>2022-08-18T10:44:12Z</time>
                                                <extensions>
                            <sog>2.5</sog>
<cog>337.1</cog>
                        </extensions>
                    </trkpt>
                    <trkpt lat="54.50254666666667" lon="10.178516666666667">
                        <ele>0</ele>
                        <time>2022-08-18T10:44:44Z</time>
                                                <extensions>
                            <sog>3.7</sog>
<cog>338.8</cog>
                        </extensions>
                    </trkpt>
                    <trkpt lat="54.50293" lon="10.178220000000001">
                        <ele>0</ele>
                        <time>2022-08-18T10:45:12Z</time>
                                                <extensions>
                            <sog>3.4</sog>
<cog>342.1</cog>
                        </extensions>
                    </trkpt>
                    <trkpt lat="54.503413333333334" lon="10.177985">
                        <ele>0</ele>
                        <time>2022-08-18T10:45:42Z</time>
                                                <extensions>
                            <sog>3.7</sog>
<cog>339.4</cog>
                        </extensions>
                    </trkpt>
                    <trkpt lat="54.50589333333333" lon="10.176608333333332">
                        <ele>0</ele>
                        <time>2022-08-18T10:48:11Z</time>
                                                <extensions>
                            <sog>3.9</sog>
<cog>333.3</cog>
                        </extensions>
                    </trkpt>
                    <trkpt lat="54.50700166666666" lon="10.175988333333333">
                        <ele>0</ele>
                        <time>2022-08-18T10:49:11Z</time>
                                                <extensions>
                            <sog>4.1</sog>
<cog>340.1</cog>
                        </extensions>
                    </trkpt>
                    <trkpt lat="54.507484999999996" lon="10.175645">
                        <ele>0</ele>
                        <time>2022-08-18T10:49:41Z</time>
                                                <extensions>
                            <sog>4.2</sog>
<cog>332.9</cog>
                        </extensions>
                    </trkpt>
                    <trkpt lat="54.507976666666664" lon="10.175286666666667">
                        <ele>0</ele>
                        <time>2022-08-18T10:50:11Z</time>
                                                <extensions>
                            <sog>4.3</sog>
<cog>334.7</cog>
                        </extensions>
                    </trkpt>
                    <trkpt lat="54.50893333333333" lon="10.174638333333332">
                        <ele>0</ele>
                        <time>2022-08-18T10:51:11Z</time>
                                                <extensions>
                            <sog>3.6</sog>
<cog>339.1</cog>
                        </extensions>
                    </trkpt>
                    <trkpt lat="54.50941" lon="10.17434">
                        <ele>0</ele>
                        <time>2022-08-18T10:51:43Z</time>
                                                <extensions>
                            <sog>3.2</sog>
<cog>347.7</cog>
                        </extensions>
                    </trkpt>
                    <trkpt lat="54.50979666666667" lon="10.174065">
                        <ele>0</ele>
                        <time>2022-08-18T10:52:13Z</time>
                                                <extensions>
                            <sog>3.2</sog>
<cog>339.0</cog>
                        </extensions>
                    </trkpt>
                    <trkpt lat="54.51053" lon="10.17356">
                        <ele>0</ele>
                        <time>2022-08-18T10:53:12Z</time>
                                                <extensions>
                            <sog>2.7</sog>
<cog>337.1</cog>
                        </extensions>
                    </trkpt>
                    <trkpt lat="54.511179999999996" lon="10.173036666666667">
                        <ele>0</ele>
                        <time>2022-08-18T10:54:11Z</time>
                                                <extensions>
                            <sog>2.6</sog>
<cog>338.2</cog>
                        </extensions>
                    </trkpt>
                    <trkpt lat="54.512935" lon="10.171545">
                        <ele>0</ele>
                        <time>2022-08-18T10:56:41Z</time>
                                                <extensions>
                            <sog>3.0</sog>
<cog>336.4</cog>
                        </extensions>
                    </trkpt>
                    <trkpt lat="54.51332333333333" lon="10.171261666666668">
                        <ele>0</ele>
                        <time>2022-08-18T10:57:12Z</time>
                                                <extensions>
                            <sog>3.7</sog>
<cog>333.0</cog>
                        </extensions>
                    </trkpt>
                    <trkpt lat="54.51406333333333" lon="10.170796666666666">
                        <ele>0</ele>
                        <time>2022-08-18T10:58:12Z</time>
                                                <extensions>
                            <sog>2.4</sog>
<cog>342.7</cog>
                        </extensions>
                    </trkpt>
                    <trkpt lat="54.51473166666666" lon="10.170385000000001">
                        <ele>0</ele>
                        <time>2022-08-18T10:59:12Z</time>
                                                <extensions>
                            <sog>2.3</sog>
<cog>334.4</cog>
                        </extensions>
                    </trkpt>
                    <trkpt lat="54.51544333333333" lon="10.169913333333334">
                        <ele>0</ele>
                        <time>2022-08-18T11:00:12Z</time>
                                                <extensions>
                            <sog>2.7</sog>
<cog>340.5</cog>
                        </extensions>
                    </trkpt>
                    <trkpt lat="54.51544333333333" lon="10.169913333333334">
                        <ele>0</ele>
                        <time>2022-08-18T11:00:12Z</time>
                                                <extensions>
                            <sog>2.7</sog>
<cog>340.5</cog>
                        </extensions>
                    </trkpt>
                    <trkpt lat="54.515766666666664" lon="10.169718333333332">
                        <ele>0</ele>
                        <time>2022-08-18T11:00:44Z</time>
                                                <extensions>
                            <sog>2.4</sog>
<cog>338.8</cog>
                        </extensions>
                    </trkpt>
                    <trkpt lat="54.515766666666664" lon="10.169718333333332">
                        <ele>0</ele>
                        <time>2022-08-18T11:00:44Z</time>
                                                <extensions>
                            <sog>2.4</sog>
<cog>338.8</cog>
                        </extensions>
                    </trkpt>
                    <trkpt lat="54.51611166666667" lon="10.169576666666668">
                        <ele>0</ele>
                        <time>2022-08-18T11:01:12Z</time>
                                                <extensions>
                            <sog>2.0</sog>
<cog>341.3</cog>
                        </extensions>
                    </trkpt>
                    <trkpt lat="54.516423333333336" lon="10.169405000000001">
                        <ele>0</ele>
                        <time>2022-08-18T11:01:42Z</time>
                                                <extensions>
                            <sog>2.5</sog>
<cog>346.4</cog>
                        </extensions>
                    </trkpt>
                    <trkpt lat="54.516783333333336" lon="10.169270000000001">
                        <ele>0</ele>
                        <time>2022-08-18T11:02:14Z</time>
                                                <extensions>
                            <sog>2.7</sog>
<cog>343.5</cog>
                        </extensions>
                    </trkpt>
                    <trkpt lat="54.51707" lon="10.169158333333334">
                        <ele>0</ele>
                        <time>2022-08-18T11:02:41Z</time>
                                                <extensions>
                            <sog>2.3</sog>
<cog>344.0</cog>
                        </extensions>
                    </trkpt>
                    <trkpt lat="54.51744333333333" lon="10.169023333333334">
                        <ele>0</ele>
                        <time>2022-08-18T11:03:12Z</time>
                                                <extensions>
                            <sog>3.1</sog>
<cog>345.2</cog>
                        </extensions>
                    </trkpt>
                    <trkpt lat="54.517736666666664" lon="10.168868333333334">
                        <ele>0</ele>
                        <time>2022-08-18T11:03:41Z</time>
                                                <extensions>
                            <sog>2.6</sog>
<cog>339.7</cog>
                        </extensions>
                    </trkpt>
                    <trkpt lat="54.51797666666666" lon="10.168738333333332">
                        <ele>0</ele>
                        <time>2022-08-18T11:04:11Z</time>
                                                <extensions>
                            <sog>2.0</sog>
<cog>348.5</cog>
                        </extensions>
                    </trkpt>
                    <trkpt lat="54.518505" lon="10.168371666666667">
                        <ele>0</ele>
                        <time>2022-08-18T11:05:12Z</time>
                                                <extensions>
                            <sog>2.1</sog>
<cog>348.3</cog>
                        </extensions>
                    </trkpt>
                    <trkpt lat="54.519396666666665" lon="10.16785">
                        <ele>0</ele>
                        <time>2022-08-18T11:06:41Z</time>
                                                <extensions>
                            <sog>2.3</sog>
<cog>335.8</cog>
                        </extensions>
                    </trkpt>
                    <trkpt lat="54.519585" lon="10.167636666666668">
                        <ele>0</ele>
                        <time>2022-08-18T11:07:14Z</time>
                                                <extensions>
                            <sog>1.8</sog>
<cog>327.2</cog>
                        </extensions>
                    </trkpt>
                    <trkpt lat="54.51979333333334" lon="10.167403333333334">
                        <ele>0</ele>
                        <time>2022-08-18T11:07:42Z</time>
                                                <extensions>
                            <sog>2.4</sog>
<cog>333.9</cog>
                        </extensions>
                    </trkpt>
                    <trkpt lat="54.52006333333333" lon="10.167136666666666">
                        <ele>0</ele>
                        <time>2022-08-18T11:08:11Z</time>
                                                <extensions>
                            <sog>2.4</sog>
<cog>331.3</cog>
                        </extensions>
                    </trkpt>
                    <trkpt lat="54.52066666666666" lon="10.166635000000001">
                        <ele>0</ele>
                        <time>2022-08-18T11:09:13Z</time>
                                                <extensions>
                            <sog>2.3</sog>
<cog>338.8</cog>
                        </extensions>
                    </trkpt>
                    <trkpt lat="54.521283333333336" lon="10.166243333333334">
                        <ele>0</ele>
                        <time>2022-08-18T11:10:13Z</time>
                                                <extensions>
                            <sog>2.7</sog>
<cog>342.8</cog>
                        </extensions>
                    </trkpt>
                    <trkpt lat="54.52152666666667" lon="10.166091666666667">
                        <ele>0</ele>
                        <time>2022-08-18T11:10:42Z</time>
                                                <extensions>
                            <sog>1.6</sog>
<cog>336.0</cog>
                        </extensions>
                    </trkpt>
                    <trkpt lat="54.52179833333333" lon="10.165856666666667">
                        <ele>0</ele>
                        <time>2022-08-18T11:11:12Z</time>
                                                <extensions>
                            <sog>2.3</sog>
<cog>336.2</cog>
                        </extensions>
                    </trkpt>
                    <trkpt lat="54.52309833333334" lon="10.16449">
                        <ele>0</ele>
                        <time>2022-08-18T11:13:41Z</time>
                                                <extensions>
                            <sog>2.1</sog>
<cog>347.0</cog>
                        </extensions>
                    </trkpt>
                    <trkpt lat="54.52346" lon="10.164258333333333">
                        <ele>0</ele>
                        <time>2022-08-18T11:14:12Z</time>
                                                <extensions>
                            <sog>3.3</sog>
<cog>338.7</cog>
                        </extensions>
                    </trkpt>
                    <trkpt lat="54.52372833333333" lon="10.163998333333332">
                        <ele>0</ele>
                        <time>2022-08-18T11:14:42Z</time>
                                                <extensions>
                            <sog>2.8</sog>
<cog>330.8</cog>
                        </extensions>
                    </trkpt>
                    <trkpt lat="54.52430833333334" lon="10.163548333333333">
                        <ele>0</ele>
                        <time>2022-08-18T11:15:44Z</time>
                                                <extensions>
                            <sog>2.7</sog>
<cog>336.3</cog>
                        </extensions>
                    </trkpt>
                    <trkpt lat="54.524559999999994" lon="10.163288333333332">
                        <ele>0</ele>
                        <time>2022-08-18T11:16:12Z</time>
                                                <extensions>
                            <sog>2.9</sog>
<cog>333.5</cog>
                        </extensions>
                    </trkpt>
                    <trkpt lat="54.52477833333333" lon="10.16303">
                        <ele>0</ele>
                        <time>2022-08-18T11:16:42Z</time>
                                                <extensions>
                            <sog>1.5</sog>
<cog>325.8</cog>
                        </extensions>
                    </trkpt>
                    <trkpt lat="54.524993333333335" lon="10.16272">
                        <ele>0</ele>
                        <time>2022-08-18T11:17:11Z</time>
                                                <extensions>
                            <sog>2.1</sog>
<cog>320.5</cog>
                        </extensions>
                    </trkpt>
                    <trkpt lat="54.52542833333334" lon="10.16213">
                        <ele>0</ele>
                        <time>2022-08-18T11:18:11Z</time>
                                                <extensions>
                            <sog>2.4</sog>
<cog>329.3</cog>
                        </extensions>
                    </trkpt>
                    <trkpt lat="54.525870000000005" lon="10.161548333333334">
                        <ele>0</ele>
                        <time>2022-08-18T11:19:12Z</time>
                                                <extensions>
                            <sog>1.1</sog>
<cog>325.5</cog>
                        </extensions>
                    </trkpt>
                    <trkpt lat="54.52612333333333" lon="10.161216666666666">
                        <ele>0</ele>
                        <time>2022-08-18T11:19:43Z</time>
                                                <extensions>
                            <sog>2.3</sog>
<cog>324.9</cog>
                        </extensions>
                    </trkpt>
                    <trkpt lat="54.526335" lon="10.160985">
                        <ele>0</ele>
                        <time>2022-08-18T11:20:12Z</time>
                                                <extensions>
                            <sog>2.2</sog>
<cog>325.9</cog>
                        </extensions>
                    </trkpt>
                    <trkpt lat="54.52653833333333" lon="10.16072">
                        <ele>0</ele>
                        <time>2022-08-18T11:20:41Z</time>
                                                <extensions>
                            <sog>1.8</sog>
<cog>324.9</cog>
                        </extensions>
                    </trkpt>
                    <trkpt lat="54.526755" lon="10.16044">
                        <ele>0</ele>
                        <time>2022-08-18T11:21:11Z</time>
                                                <extensions>
                            <sog>2.2</sog>
<cog>326.3</cog>
                        </extensions>
                    </trkpt>
                    <trkpt lat="54.52803166666667" lon="10.158196666666667">
                        <ele>0</ele>
                        <time>2022-08-18T11:24:12Z</time>
                                                <extensions>
                            <sog>2.4</sog>
<cog>318.8</cog>
                        </extensions>
                    </trkpt>
                    <trkpt lat="54.528488333333335" lon="10.157588333333333">
                        <ele>0</ele>
                        <time>2022-08-18T11:25:12Z</time>
                                                <extensions>
                            <sog>2.0</sog>
<cog>323.3</cog>
                        </extensions>
                    </trkpt>
                    <trkpt lat="54.528681666666664" lon="10.157143333333332">
                        <ele>0</ele>
                        <time>2022-08-18T11:25:42Z</time>
                                                <extensions>
                            <sog>3.2</sog>
<cog>303.6</cog>
                        </extensions>
                    </trkpt>
                    <trkpt lat="54.531085" lon="10.153513333333333">
                        <ele>0</ele>
                        <time>2022-08-18T11:31:13Z</time>
                                                <extensions>
                            <sog>2.0</sog>
<cog>347.1</cog>
                        </extensions>
                    </trkpt>
                    <trkpt lat="54.531525" lon="10.152986666666667">
                        <ele>0</ele>
                        <time>2022-08-18T11:32:11Z</time>
                                                <extensions>
                            <sog>3.2</sog>
<cog>314.8</cog>
                        </extensions>
                    </trkpt>
                    <trkpt lat="54.53572" lon="10.147124999999999">
                        <ele>0</ele>
                        <time>2022-08-18T11:40:42Z</time>
                                                <extensions>
                            <sog>3.9</sog>
<cog>320.7</cog>
                        </extensions>
                    </trkpt>
                    <trkpt lat="54.54259666666667" lon="10.141076666666667">
                        <ele>0</ele>
                        <time>2022-08-18T11:51:12Z</time>
                                                <extensions>
                            <sog>3.3</sog>
<cog>329.8</cog>
                        </extensions>
                    </trkpt>
                    <trkpt lat="54.56709333333333" lon="10.112466666666668">
                        <ele>0</ele>
                        <time>2022-08-18T12:25:12Z</time>
                                                <extensions>
                            <sog>3.4</sog>
<cog>313.8</cog>
                        </extensions>
                    </trkpt>
                    <trkpt lat="54.58101333333333" lon="10.093311666666667">
                        <ele>0</ele>
                        <time>2022-08-18T12:42:43Z</time>
                                                <extensions>
                            <sog>3.4</sog>
<cog>325.4</cog>
                        </extensions>
                    </trkpt>
                    <trkpt lat="54.58322" lon="10.090679999999999">
                        <ele>0</ele>
                        <time>2022-08-18T12:45:41Z</time>
                                                <extensions>
                            <sog>2.8</sog>
<cog>336.7</cog>
                        </extensions>
                    </trkpt>
                    <trkpt lat="54.58395666666667" lon="10.089918333333333">
                        <ele>0</ele>
                        <time>2022-08-18T12:46:42Z</time>
                                                <extensions>
                            <sog>2.1</sog>
<cog>328.8</cog>
                        </extensions>
                    </trkpt>
                    <trkpt lat="54.585595" lon="10.088555000000001">
                        <ele>0</ele>
                        <time>2022-08-18T12:48:42Z</time>
                                                <extensions>
                            <sog>2.8</sog>
<cog>334.8</cog>
                        </extensions>
                    </trkpt>
                    <trkpt lat="54.59067" lon="10.084290000000001">
                        <ele>0</ele>
                        <time>2022-08-18T12:54:12Z</time>
                                                <extensions>
                            <sog>4.3</sog>
<cog>337.2</cog>
                        </extensions>
                    </trkpt>
                    <trkpt lat="54.59264333333333" lon="10.082628333333334">
                        <ele>0</ele>
                        <time>2022-08-18T12:56:12Z</time>
                                                <extensions>
                            <sog>4.4</sog>
<cog>341.9</cog>
                        </extensions>
                    </trkpt>
                    <trkpt lat="54.59597" lon="10.08002">
                        <ele>0</ele>
                        <time>2022-08-18T12:59:11Z</time>
                                                <extensions>
                            <sog>4.3</sog>
<cog>335.7</cog>
                        </extensions>
                    </trkpt>
                    <trkpt lat="54.596554999999995" lon="10.079551666666667">
                        <ele>0</ele>
                        <time>2022-08-18T12:59:44Z</time>
                                                <extensions>
                            <sog>4.1</sog>
<cog>333.6</cog>
                        </extensions>
                    </trkpt>
                    <trkpt lat="54.597060000000006" lon="10.079180000000001">
                        <ele>0</ele>
                        <time>2022-08-18T13:00:11Z</time>
                                                <extensions>
                            <sog>4.2</sog>
<cog>335.1</cog>
                        </extensions>
                    </trkpt>
                    <trkpt lat="54.597060000000006" lon="10.079180000000001">
                        <ele>0</ele>
                        <time>2022-08-18T13:00:11Z</time>
                                                <extensions>
                            <sog>4.2</sog>
<cog>335.1</cog>
                        </extensions>
                    </trkpt>
                    <trkpt lat="54.59762333333333" lon="10.07878">
                        <ele>0</ele>
                        <time>2022-08-18T13:00:42Z</time>
                                                <extensions>
                            <sog>4.3</sog>
<cog>336.7</cog>
                        </extensions>
                    </trkpt>
                    <trkpt lat="54.59762333333333" lon="10.07878">
                        <ele>0</ele>
                        <time>2022-08-18T13:00:42Z</time>
                                                <extensions>
                            <sog>4.3</sog>
<cog>336.7</cog>
                        </extensions>
                    </trkpt>
                    <trkpt lat="54.598148333333334" lon="10.078376666666665">
                        <ele>0</ele>
                        <time>2022-08-18T13:01:12Z</time>
                                                <extensions>
                            <sog>4.3</sog>
<cog>330.2</cog>
                        </extensions>
                    </trkpt>
                    <trkpt lat="54.59865" lon="10.077951666666667">
                        <ele>0</ele>
                        <time>2022-08-18T13:01:42Z</time>
                                                <extensions>
                            <sog>4.0</sog>
<cog>333.8</cog>
                        </extensions>
                    </trkpt>
                    <trkpt lat="54.599180000000004" lon="10.077528333333333">
                        <ele>0</ele>
                        <time>2022-08-18T13:02:13Z</time>
                                                <extensions>
                            <sog>3.8</sog>
<cog>337.0</cog>
                        </extensions>
                    </trkpt>
                    <trkpt lat="54.5997" lon="10.077138333333332">
                        <ele>0</ele>
                        <time>2022-08-18T13:02:43Z</time>
                                                <extensions>
                            <sog>4.2</sog>
<cog>337.2</cog>
                        </extensions>
                    </trkpt>
                    <trkpt lat="54.600183333333334" lon="10.076753333333333">
                        <ele>0</ele>
                        <time>2022-08-18T13:03:12Z</time>
                                                <extensions>
                            <sog>3.8</sog>
<cog>332.7</cog>
                        </extensions>
                    </trkpt>
                    <trkpt lat="54.602178333333335" lon="10.075275">
                        <ele>0</ele>
                        <time>2022-08-18T13:05:12Z</time>
                                                <extensions>
                            <sog>3.9</sog>
<cog>331.8</cog>
                        </extensions>
                    </trkpt>
                    <trkpt lat="54.60314833333334" lon="10.074565">
                        <ele>0</ele>
                        <time>2022-08-18T13:06:11Z</time>
                                                <extensions>
                            <sog>3.7</sog>
<cog>339.8</cog>
                        </extensions>
                    </trkpt>
                    <trkpt lat="54.603698333333334" lon="10.074171666666667">
                        <ele>0</ele>
                        <time>2022-08-18T13:06:43Z</time>
                                                <extensions>
                            <sog>4.4</sog>
<cog>337.0</cog>
                        </extensions>
                    </trkpt>
                    <trkpt lat="54.604146666666665" lon="10.07383">
                        <ele>0</ele>
                        <time>2022-08-18T13:07:11Z</time>
                                                <extensions>
                            <sog>3.9</sog>
<cog>330.7</cog>
                        </extensions>
                    </trkpt>
                    <trkpt lat="54.60521000000001" lon="10.072973333333334">
                        <ele>0</ele>
                        <time>2022-08-18T13:08:11Z</time>
                                                <extensions>
                            <sog>4.2</sog>
<cog>341.0</cog>
                        </extensions>
                    </trkpt>
                    <trkpt lat="54.605693333333335" lon="10.072476666666667">
                        <ele>0</ele>
                        <time>2022-08-18T13:08:42Z</time>
                                                <extensions>
                            <sog>4.0</sog>
<cog>328.3</cog>
                        </extensions>
                    </trkpt>
                    <trkpt lat="54.60729333333334" lon="10.071056666666667">
                        <ele>0</ele>
                        <time>2022-08-18T13:10:11Z</time>
                                                <extensions>
                            <sog>3.6</sog>
<cog>337.4</cog>
                        </extensions>
                    </trkpt>
                    <trkpt lat="54.60783666666667" lon="10.070581666666667">
                        <ele>0</ele>
                        <time>2022-08-18T13:10:42Z</time>
                                                <extensions>
                            <sog>4.0</sog>
<cog>327.1</cog>
                        </extensions>
                    </trkpt>
                    <trkpt lat="54.608435" lon="10.070061666666668">
                        <ele>0</ele>
                        <time>2022-08-18T13:11:12Z</time>
                                                <extensions>
                            <sog>5.2</sog>
<cog>334.3</cog>
                        </extensions>
                    </trkpt>
                    <trkpt lat="54.614355" lon="10.065454999999998">
                        <ele>0</ele>
                        <time>2022-08-18T13:16:41Z</time>
                                                <extensions>
                            <sog>3.9</sog>
<cog>340.9</cog>
                        </extensions>
                    </trkpt>
                    <trkpt lat="54.667955" lon="10.051874999999999">
                        <ele>0</ele>
                        <time>2022-08-18T14:05:12Z</time>
                                                <extensions>
                            <sog>6.0</sog>
<cog>304.0</cog>
                        </extensions>
                    </trkpt>
                    </trkseg>
                </trk>
</gpx>