<?xml version="1.0" encoding="UTF-8"?>
<gpx version="1.1" creator="AIS-to-GPX Converter" xmlns="http://www.topografix.com/GPX/1/1">
                <trk>
                    <name>anon0290</name>
                    <trkseg>
                                            <trkpt lat="54.538935" lon="10.307173333333333">
                        <ele>0</ele>
                        <time>2022-08-18T12:09:08Z</time>
                                                <extensions>
                            <sog>3.1</sog>
<cog>193.4</cog>
                        </extensions>
                    </trkpt>
                    <trkpt lat="54.529556666666664" lon="10.295141666666666">
                        <ele>0</ele>
                        <time>2022-08-18T12:24:07Z</time>
                                                <extensions>
                            <sog>3.9</sog>
<cog>228.0</cog>
                        </extensions>
                    </trkpt>
                    <trkpt lat="54.51927166666667" lon="10.282755">
                        <ele>0</ele>
                        <time>2022-08-18T12:38:08Z</time>
                                                <extensions>
                            <sog>4.2</sog>
<cog>210.4</cog>
                        </extensions>
                    </trkpt>
                    <trkpt lat="54.51884833333334" lon="10.282433333333334">
                        <ele>0</ele>
                        <time>2022-08-18T12:38:39Z</time>
                                                <extensions>
                            <sog>2.4</sog>
<cog>198.3</cog>
                        </extensions>
                    </trkpt>
                    <trkpt lat="54.517385" lon="10.280771666666668">
                        <ele>0</ele>
                        <time>2022-08-18T12:40:38Z</time>
                                                <extensions>
                            <sog>2.2</sog>
<cog>219.6</cog>
                        </extensions>
                    </trkpt>
                    <trkpt lat="54.514601666666664" lon="10.277658333333333">
                        <ele>0</ele>
                        <time>2022-08-18T12:44:07Z</time>
                                                <extensions>
                            <sog>3.9</sog>
<cog>214.1</cog>
                        </extensions>
                    </trkpt>
                    <trkpt lat="54.51110833333333" lon="10.274126666666666">
                        <ele>0</ele>
                        <time>2022-08-18T12:48:10Z</time>
                                                <extensions>
                            <sog>3.1</sog>
<cog>204.0</cog>
                        </extensions>
                    </trkpt>
                    <trkpt lat="54.50747833333333" lon="10.27032">
                        <ele>0</ele>
                        <time>2022-08-18T12:52:08Z</time>
                                                <extensions>
                            <sog>4.3</sog>
<cog>219.7</cog>
                        </extensions>
                    </trkpt>
                    <trkpt lat="54.50110666666667" lon="10.265095">
                        <ele>0</ele>
                        <time>2022-08-18T12:59:08Z</time>
                                                <extensions>
                            <sog>4.1</sog>
<cog>208.1</cog>
                        </extensions>
                    </trkpt>
                    <trkpt lat="54.498005" lon="10.263068333333333">
                        <ele>0</ele>
                        <time>2022-08-18T13:02:38Z</time>
                                                <extensions>
                            <sog>3.2</sog>
<cog>195.4</cog>
                        </extensions>
                    </trkpt>
                    <trkpt lat="54.496734999999994" lon="10.262186666666667">
                        <ele>0</ele>
                        <time>2022-08-18T13:04:07Z</time>
                                                <extensions>
                            <sog>3.8</sog>
<cog>179.1</cog>
                        </extensions>
                    </trkpt>
                    <trkpt lat="54.49628" lon="10.261983333333335">
                        <ele>0</ele>
                        <time>2022-08-18T13:04:39Z</time>
                                                <extensions>
                            <sog>3.2</sog>
<cog>171.8</cog>
                        </extensions>
                    </trkpt>
                    <trkpt lat="54.49583666666667" lon="10.261483333333333">
                        <ele>0</ele>
                        <time>2022-08-18T13:05:08Z</time>
                                                <extensions>
                            <sog>3.4</sog>
<cog>220.2</cog>
                        </extensions>
                    </trkpt>
                    <trkpt lat="54.49501166666666" lon="10.26102">
                        <ele>0</ele>
                        <time>2022-08-18T13:06:10Z</time>
                                                <extensions>
                            <sog>2.8</sog>
<cog>194.1</cog>
                        </extensions>
                    </trkpt>
                    <trkpt lat="54.49466666666667" lon="10.260430000000001">
                        <ele>0</ele>
                        <time>2022-08-18T13:06:37Z</time>
                                                <extensions>
                            <sog>2.8</sog>
<cog>228.2</cog>
                        </extensions>
                    </trkpt>
                    <trkpt lat="54.49424666666666" lon="10.260281666666666">
                        <ele>0</ele>
                        <time>2022-08-18T13:07:08Z</time>
                                                <extensions>
                            <sog>4.7</sog>
<cog>220.2</cog>
                        </extensions>
                    </trkpt>
                    <trkpt lat="54.493323333333336" lon="10.259543333333333">
                        <ele>0</ele>
                        <time>2022-08-18T13:08:08Z</time>
                                                <extensions>
                            <sog>3.3</sog>
<cog>209.8</cog>
                        </extensions>
                    </trkpt>
                    <trkpt lat="54.48979" lon="10.256541666666667">
                        <ele>0</ele>
                        <time>2022-08-18T13:12:08Z</time>
                                                <extensions>
                            <sog>3.2</sog>
<cog>236.2</cog>
                        </extensions>
                    </trkpt>
                    <trkpt lat="54.489375" lon="10.256203333333334">
                        <ele>0</ele>
                        <time>2022-08-18T13:12:38Z</time>
                                                <extensions>
                            <sog>4.0</sog>
<cog>219.9</cog>
                        </extensions>
                    </trkpt>
                    <trkpt lat="54.48901166666667" lon="10.255799999999999">
                        <ele>0</ele>
                        <time>2022-08-18T13:13:08Z</time>
                                                <extensions>
                            <sog>3.2</sog>
<cog>235.6</cog>
                        </extensions>
                    </trkpt>
                    <trkpt lat="54.48869833333333" lon="10.255803333333334">
                        <ele>0</ele>
                        <time>2022-08-18T13:13:37Z</time>
                                                <extensions>
                            <sog>2.7</sog>
<cog>171.3</cog>
                        </extensions>
                    </trkpt>
                    <trkpt lat="54.48840666666667" lon="10.255446666666668">
                        <ele>0</ele>
                        <time>2022-08-18T13:14:09Z</time>
                                                <extensions>
                            <sog>2.5</sog>
<cog>206.8</cog>
                        </extensions>
                    </trkpt>
                    <trkpt lat="54.487496666666665" lon="10.254551666666666">
                        <ele>0</ele>
                        <time>2022-08-18T13:15:38Z</time>
                                                <extensions>
                            <sog>2.6</sog>
<cog>220.6</cog>
                        </extensions>
                    </trkpt>
                    <trkpt lat="54.485971666666664" lon="10.253588333333333">
                        <ele>0</ele>
                        <time>2022-08-18T13:18:07Z</time>
                                                <extensions>
                            <sog>3.6</sog>
<cog>170.9</cog>
                        </extensions>
                    </trkpt>
                    <trkpt lat="54.484858333333335" lon="10.252406666666667">
                        <ele>0</ele>
                        <time>2022-08-18T13:20:08Z</time>
                                                <extensions>
                            <sog>2.4</sog>
<cog>240.2</cog>
                        </extensions>
                    </trkpt>
                    <trkpt lat="54.484548333333336" lon="10.251851666666665">
                        <ele>0</ele>
                        <time>2022-08-18T13:20:39Z</time>
                                                <extensions>
                            <sog>4.5</sog>
<cog>240.5</cog>
                        </extensions>
                    </trkpt>
                    <trkpt lat="54.483444999999996" lon="10.251148333333333">
                        <ele>0</ele>
                        <time>2022-08-18T13:21:39Z</time>
                                                <extensions>
                            <sog>6.4</sog>
<cog>216.7</cog>
                        </extensions>
                    </trkpt>
                    <trkpt lat="54.48273833333334" lon="10.250881666666666">
                        <ele>0</ele>
                        <time>2022-08-18T13:22:08Z</time>
                                                <extensions>
                            <sog>6.2</sog>
<cog>211.6</cog>
                        </extensions>
                    </trkpt>
                    <trkpt lat="54.47961166666666" lon="10.247261666666667">
                        <ele>0</ele>
                        <time>2022-08-18T13:24:11Z</time>
                                                <extensions>
                            <sog>7.3</sog>
<cog>242.1</cog>
                        </extensions>
                    </trkpt>
                    <trkpt lat="54.475631666666665" lon="10.245534999999999">
                        <ele>0</ele>
                        <time>2022-08-18T13:26:38Z</time>
                                                <extensions>
                            <sog>6.4</sog>
<cog>203.1</cog>
                        </extensions>
                    </trkpt>
                    <trkpt lat="54.47480333333333" lon="10.244998333333333">
                        <ele>0</ele>
                        <time>2022-08-18T13:27:09Z</time>
                                                <extensions>
                            <sog>6.1</sog>
<cog>213.9</cog>
                        </extensions>
                    </trkpt>
                    <trkpt lat="54.474055" lon="10.244423333333334">
                        <ele>0</ele>
                        <time>2022-08-18T13:27:38Z</time>
                                                <extensions>
                            <sog>6.3</sog>
<cog>211.5</cog>
                        </extensions>
                    </trkpt>
                    <trkpt lat="54.47155" lon="10.243203333333334">
                        <ele>0</ele>
                        <time>2022-08-18T13:29:09Z</time>
                                                <extensions>
                            <sog>6.8</sog>
<cog>186.5</cog>
                        </extensions>
                    </trkpt>
                    <trkpt lat="54.470778333333335" lon="10.242703333333333">
                        <ele>0</ele>
                        <time>2022-08-18T13:29:39Z</time>
                                                <extensions>
                            <sog>6.2</sog>
<cog>210.4</cog>
                        </extensions>
                    </trkpt>
                    <trkpt lat="54.4699" lon="10.242618333333333">
                        <ele>0</ele>
                        <time>2022-08-18T13:30:10Z</time>
                                                <extensions>
                            <sog>5.6</sog>
<cog>194.2</cog>
                        </extensions>
                    </trkpt>
                    <trkpt lat="54.469185" lon="10.241881666666666">
                        <ele>0</ele>
                        <time>2022-08-18T13:30:38Z</time>
                                                <extensions>
                            <sog>6.4</sog>
<cog>216.4</cog>
                        </extensions>
                    </trkpt>
                    <trkpt lat="54.468345" lon="10.241254999999999">
                        <ele>0</ele>
                        <time>2022-08-18T13:31:09Z</time>
                                                <extensions>
                            <sog>6.7</sog>
<cog>216.9</cog>
                        </extensions>
                    </trkpt>
                    <trkpt lat="54.467513333333336" lon="10.240753333333334">
                        <ele>0</ele>
                        <time>2022-08-18T13:31:38Z</time>
                                                <extensions>
                            <sog>6.9</sog>
<cog>205.0</cog>
                        </extensions>
                    </trkpt>
                    <trkpt lat="54.466649999999994" lon="10.240595">
                        <ele>0</ele>
                        <time>2022-08-18T13:32:08Z</time>
                                                <extensions>
                            <sog>7.7</sog>
<cog>193.6</cog>
                        </extensions>
                    </trkpt>
                    <trkpt lat="54.465691666666665" lon="10.240228333333333">
                        <ele>0</ele>
                        <time>2022-08-18T13:32:38Z</time>
                                                <extensions>
                            <sog>6.8</sog>
<cog>197.9</cog>
                        </extensions>
                    </trkpt>
                    <trkpt lat="54.46482833333334" lon="10.239711666666667">
                        <ele>0</ele>
                        <time>2022-08-18T13:33:07Z</time>
                                                <extensions>
                            <sog>8.1</sog>
<cog>201.0</cog>
                        </extensions>
                    </trkpt>
                    <trkpt lat="54.373108333333334" lon="10.185300000000002">
                        <ele>0</ele>
                        <time>2022-08-18T14:32:34Z</time>
                                                <extensions>
                            <sog>0.0</sog>
<cog>124.7</cog>
                        </extensions>
                    </trkpt>
                    <trkpt lat="54.37149333333333" lon="10.18657">
                        <ele>0</ele>
                        <time>2022-08-18T14:33:36Z</time>
                                                <extensions>
                            <sog>0.0</sog>
<cog>138.2</cog>
                        </extensions>
                    </trkpt>
                    <trkpt lat="54.37061833333333" lon="10.18738">
                        <ele>0</ele>
                        <time>2022-08-18T14:34:06Z</time>
                                                <extensions>
                            <sog>5.9</sog>
<cog>165.2</cog>
                        </extensions>
                    </trkpt>
                    <trkpt lat="54.36976666666667" lon="10.188973333333333">
                        <ele>0</ele>
                        <time>2022-08-18T14:34:41Z</time>
                                                <extensions>
                            <sog>6.8</sog>
<cog>125.1</cog>
                        </extensions>
                    </trkpt>
                    <trkpt lat="54.369146666666666" lon="10.189516666666666">
                        <ele>0</ele>
                        <time>2022-08-18T14:35:10Z</time>
                                                <extensions>
                            <sog>4.5</sog>
<cog>145.4</cog>
                        </extensions>
                    </trkpt>
                    <trkpt lat="54.36779333333333" lon="10.190965">
                        <ele>0</ele>
                        <time>2022-08-18T14:36:36Z</time>
                                                <extensions>
                            <sog>5.8</sog>
<cog>66.9</cog>
                        </extensions>
                    </trkpt>
                    <trkpt lat="54.36747833333333" lon="10.190818333333334">
                        <ele>0</ele>
                        <time>2022-08-18T14:37:12Z</time>
                                                <extensions>
                            <sog>2.0</sog>
<cog>254.7</cog>
                        </extensions>
                    </trkpt>
                    <trkpt lat="54.367218333333334" lon="10.19092">
                        <ele>0</ele>
                        <time>2022-08-18T14:37:35Z</time>
                                                <extensions>
                            <sog>0.0</sog>
<cog>98.4</cog>
                        </extensions>
                    </trkpt>
                    <trkpt lat="54.36696166666666" lon="10.190940000000001">
                        <ele>0</ele>
                        <time>2022-08-18T14:38:03Z</time>
                                                <extensions>
                            <sog>2.1</sog>
<cog>175.1</cog>
                        </extensions>
                    </trkpt>
                    <trkpt lat="54.36669166666666" lon="10.191703333333333">
                        <ele>0</ele>
                        <time>2022-08-18T14:38:32Z</time>
                                                <extensions>
                            <sog>6.0</sog>
<cog>248.8</cog>
                        </extensions>
                    </trkpt>
                    <trkpt lat="54.36709166666667" lon="10.192675000000001">
                        <ele>0</ele>
                        <time>2022-08-18T14:39:02Z</time>
                                                <extensions>
                            <sog>14.8</sog>
<cog>255.3</cog>
                        </extensions>
                    </trkpt>
                    <trkpt lat="54.366818333333335" lon="10.191743333333333">
                        <ele>0</ele>
                        <time>2022-08-18T14:39:34Z</time>
                                                <extensions>
                            <sog>1.5</sog>
<cog>247.3</cog>
                        </extensions>
                    </trkpt>
                    <trkpt lat="54.366685" lon="10.19168">
                        <ele>0</ele>
                        <time>2022-08-18T14:40:03Z</time>
                                                <extensions>
                            <sog>2.9</sog>
<cog>112.9</cog>
                        </extensions>
                    </trkpt>
                    <trkpt lat="54.36680333333334" lon="10.192056666666668">
                        <ele>0</ele>
                        <time>2022-08-18T14:40:33Z</time>
                                                <extensions>
                            <sog>3.4</sog>
<cog>196.3</cog>
                        </extensions>
                    </trkpt>
                    <trkpt lat="54.36671" lon="10.192108333333334">
                        <ele>0</ele>
                        <time>2022-08-18T14:41:04Z</time>
                                                <extensions>
                            <sog>0.8</sog>
<cog>266.1</cog>
                        </extensions>
                    </trkpt>
                    <trkpt lat="54.36683166666667" lon="10.19261">
                        <ele>0</ele>
                        <time>2022-08-18T14:41:42Z</time>
                                                <extensions>
                            <sog>3.9</sog>
<cog>288.9</cog>
                        </extensions>
                    </trkpt>
                    <trkpt lat="54.366845" lon="10.192048333333334">
                        <ele>0</ele>
                        <time>2022-08-18T14:42:04Z</time>
                                                <extensions>
                            <sog>0.6</sog>
<cog>266.3</cog>
                        </extensions>
                    </trkpt>
                    <trkpt lat="54.366685" lon="10.191438333333334">
                        <ele>0</ele>
                        <time>2022-08-18T14:42:35Z</time>
                                                <extensions>
                            <sog>2.8</sog>
<cog>296.5</cog>
                        </extensions>
                    </trkpt>
                    <trkpt lat="54.366625" lon="10.191156666666666">
                        <ele>0</ele>
                        <time>2022-08-18T14:43:07Z</time>
                                                <extensions>
                            <sog>8.7</sog>
<cog>257.0</cog>
                        </extensions>
                    </trkpt>
                    <trkpt lat="54.36586" lon="10.191373333333333">
                        <ele>0</ele>
                        <time>2022-08-18T14:43:34Z</time>
                                                <extensions>
                            <sog>0.0</sog>
<cog>14.4</cog>
                        </extensions>
                    </trkpt>
                    <trkpt lat="54.36670166666667" lon="10.191665">
                        <ele>0</ele>
                        <time>2022-08-18T14:44:03Z</time>
                                                <extensions>
                            <sog>0.9</sog>
<cog>13.0</cog>
                        </extensions>
                    </trkpt>
                    <trkpt lat="54.36662666666667" lon="10.191631666666666">
                        <ele>0</ele>
                        <time>2022-08-18T14:44:34Z</time>
                                                <extensions>
                            <sog>0.5</sog>
<cog>289.3</cog>
                        </extensions>
                    </trkpt>
                    <trkpt lat="54.366751666666666" lon="10.191731666666668">
                        <ele>0</ele>
                        <time>2022-08-18T14:45:03Z</time>
                                                <extensions>
                            <sog>1.6</sog>
<cog>37.4</cog>
                        </extensions>
                    </trkpt>
                    <trkpt lat="54.366726666666665" lon="10.191778333333334">
                        <ele>0</ele>
                        <time>2022-08-18T14:45:34Z</time>
                                                <extensions>
                            <sog>0.7</sog>
<cog>31.9</cog>
                        </extensions>
                    </trkpt>
                    <trkpt lat="54.36681" lon="10.191806666666668">
                        <ele>0</ele>
                        <time>2022-08-18T14:46:06Z</time>
                                                <extensions>
                            <sog>0.5</sog>
<cog>88.1</cog>
                        </extensions>
                    </trkpt>
                    <trkpt lat="54.36684833333334" lon="10.191791666666667">
                        <ele>0</ele>
                        <time>2022-08-18T14:46:34Z</time>
                                                <extensions>
                            <sog>1.3</sog>
<cog>67.4</cog>
                        </extensions>
                    </trkpt>
                    <trkpt lat="54.366843333333335" lon="10.19182">
                        <ele>0</ele>
                        <time>2022-08-18T14:47:05Z</time>
                                                <extensions>
                            <sog>0.2</sog>
<cog>56.1</cog>
                        </extensions>
                    </trkpt>
                    <trkpt lat="54.36682833333334" lon="10.1918">
                        <ele>0</ele>
                        <time>2022-08-18T14:47:33Z</time>
                                                <extensions>
                            <sog>1.4</sog>
<cog>344.8</cog>
                        </extensions>
                    </trkpt>
                    <trkpt lat="54.36680833333333" lon="10.191828333333332">
                        <ele>0</ele>
                        <time>2022-08-18T14:48:03Z</time>
                                                <extensions>
                            <sog>0.4</sog>
<cog>80.6</cog>
                        </extensions>
                    </trkpt>
                    <trkpt lat="54.36682833333334" lon="10.191825">
                        <ele>0</ele>
                        <time>2022-08-18T14:48:34Z</time>
                                                <extensions>
                            <sog>0.4</sog>
<cog>98.3</cog>
                        </extensions>
                    </trkpt>
                    <trkpt lat="54.36685333333333" lon="10.191804999999999">
                        <ele>0</ele>
                        <time>2022-08-18T14:49:03Z</time>
                                                <extensions>
                            <sog>0.6</sog>
<cog>98.3</cog>
                        </extensions>
                    </trkpt>
                    <trkpt lat="54.366875" lon="10.191801666666667">
                        <ele>0</ele>
                        <time>2022-08-18T14:49:35Z</time>
                                                <extensions>
                            <sog>0.1</sog>
<cog>87.1</cog>
                        </extensions>
                    </trkpt>
                    <trkpt lat="54.36688166666667" lon="10.191743333333333">
                        <ele>0</ele>
                        <time>2022-08-18T14:50:33Z</time>
                                                <extensions>
                            <sog>0.5</sog>
<cog>305.3</cog>
                        </extensions>
                    </trkpt>
                    <trkpt lat="54.36685666666666" lon="10.19182">
                        <ele>0</ele>
                        <time>2022-08-18T14:51:04Z</time>
                                                <extensions>
                            <sog>0.0</sog>
<cog>98.5</cog>
                        </extensions>
                    </trkpt>
                    <trkpt lat="54.36687333333334" lon="10.1918">
                        <ele>0</ele>
                        <time>2022-08-18T14:51:34Z</time>
                                                <extensions>
                            <sog>0.9</sog>
<cog>158.4</cog>
                        </extensions>
                    </trkpt>
                    </trkseg>
                </trk>
</gpx>