<?xml version="1.0" encoding="UTF-8"?>
<gpx version="1.1" creator="AIS-to-GPX Converter" xmlns="http://www.topografix.com/GPX/1/1">
                <trk>
                    <name>anon0182</name>
                    <trkseg>
                                            <trkpt lat="54.43426833333333" lon="10.173431666666666">
                        <ele>0</ele>
                        <time>2022-08-18T09:46:18Z</time>
                                                <extensions>
                            <sog>4.9</sog>
<cog>138.2</cog>
                        </extensions>
                    </trkpt>
                    <trkpt lat="54.43290666666667" lon="10.175278333333333">
                        <ele>0</ele>
                        <time>2022-08-18T09:48:19Z</time>
                                                <extensions>
                            <sog>2.2</sog>
<cog>120.6</cog>
                        </extensions>
                    </trkpt>
                    <trkpt lat="54.42986" lon="10.180051666666666">
                        <ele>0</ele>
                        <time>2022-08-18T09:54:48Z</time>
                                                <extensions>
                            <sog>2.8</sog>
<cog>149.3</cog>
                        </extensions>
                    </trkpt>
                    <trkpt lat="54.426395" lon="10.184543333333332">
                        <ele>0</ele>
                        <time>2022-08-18T10:00:22Z</time>
                                                <extensions>
                            <sog>2.0</sog>
<cog>119.5</cog>
                        </extensions>
                    </trkpt>
                    <trkpt lat="54.426395" lon="10.184543333333332">
                        <ele>0</ele>
                        <time>2022-08-18T10:00:22Z</time>
                                                <extensions>
                            <sog>2.0</sog>
<cog>119.5</cog>
                        </extensions>
                    </trkpt>
                    <trkpt lat="54.42563166666666" lon="10.186020000000001">
                        <ele>0</ele>
                        <time>2022-08-18T10:02:21Z</time>
                                                <extensions>
                            <sog>2.0</sog>
<cog>122.6</cog>
                        </extensions>
                    </trkpt>
                    <trkpt lat="54.42501" lon="10.187291666666665">
                        <ele>0</ele>
                        <time>2022-08-18T10:04:18Z</time>
                                                <extensions>
                            <sog>1.7</sog>
<cog>132.1</cog>
                        </extensions>
                    </trkpt>
                    <trkpt lat="54.42485666666666" lon="10.187613333333333">
                        <ele>0</ele>
                        <time>2022-08-18T10:04:48Z</time>
                                                <extensions>
                            <sog>1.6</sog>
<cog>124.5</cog>
                        </extensions>
                    </trkpt>
                    <trkpt lat="54.42304333333333" lon="10.191766666666666">
                        <ele>0</ele>
                        <time>2022-08-18T10:10:28Z</time>
                                                <extensions>
                            <sog>2.1</sog>
<cog>120.8</cog>
                        </extensions>
                    </trkpt>
                    <trkpt lat="54.422869999999996" lon="10.19225">
                        <ele>0</ele>
                        <time>2022-08-18T10:10:59Z</time>
                                                <extensions>
                            <sog>2.4</sog>
<cog>118.7</cog>
                        </extensions>
                    </trkpt>
                    <trkpt lat="54.422533333333334" lon="10.19318">
                        <ele>0</ele>
                        <time>2022-08-18T10:11:57Z</time>
                                                <extensions>
                            <sog>2.2</sog>
<cog>123.5</cog>
                        </extensions>
                    </trkpt>
                    <trkpt lat="54.42234" lon="10.193663333333335">
                        <ele>0</ele>
                        <time>2022-08-18T10:12:27Z</time>
                                                <extensions>
                            <sog>2.4</sog>
<cog>125.1</cog>
                        </extensions>
                    </trkpt>
                    <trkpt lat="54.42214333333333" lon="10.194146666666667">
                        <ele>0</ele>
                        <time>2022-08-18T10:12:58Z</time>
                                                <extensions>
                            <sog>2.5</sog>
<cog>125.8</cog>
                        </extensions>
                    </trkpt>
                    <trkpt lat="54.420944999999996" lon="10.195286666666668">
                        <ele>0</ele>
                        <time>2022-08-18T10:14:57Z</time>
                                                <extensions>
                            <sog>2.2</sog>
<cog>162.8</cog>
                        </extensions>
                    </trkpt>
                    <trkpt lat="54.42063333333333" lon="10.19547">
                        <ele>0</ele>
                        <time>2022-08-18T10:15:28Z</time>
                                                <extensions>
                            <sog>2.2</sog>
<cog>160.4</cog>
                        </extensions>
                    </trkpt>
                    <trkpt lat="54.420343333333335" lon="10.195631666666666">
                        <ele>0</ele>
                        <time>2022-08-18T10:15:57Z</time>
                                                <extensions>
                            <sog>2.3</sog>
<cog>167.0</cog>
                        </extensions>
                    </trkpt>
                    <trkpt lat="54.42003" lon="10.195786666666667">
                        <ele>0</ele>
                        <time>2022-08-18T10:16:27Z</time>
                                                <extensions>
                            <sog>2.3</sog>
<cog>160.9</cog>
                        </extensions>
                    </trkpt>
                    <trkpt lat="54.41969166666667" lon="10.195978333333333">
                        <ele>0</ele>
                        <time>2022-08-18T10:16:59Z</time>
                                                <extensions>
                            <sog>2.4</sog>
<cog>168.1</cog>
                        </extensions>
                    </trkpt>
                    <trkpt lat="54.41938666666667" lon="10.196176666666666">
                        <ele>0</ele>
                        <time>2022-08-18T10:17:27Z</time>
                                                <extensions>
                            <sog>2.3</sog>
<cog>158.3</cog>
                        </extensions>
                    </trkpt>
                    <trkpt lat="54.419055" lon="10.196315">
                        <ele>0</ele>
                        <time>2022-08-18T10:17:58Z</time>
                                                <extensions>
                            <sog>2.3</sog>
<cog>167.0</cog>
                        </extensions>
                    </trkpt>
                    <trkpt lat="54.418765" lon="10.196461666666666">
                        <ele>0</ele>
                        <time>2022-08-18T10:18:28Z</time>
                                                <extensions>
                            <sog>2.3</sog>
<cog>164.2</cog>
                        </extensions>
                    </trkpt>
                    <trkpt lat="54.41846833333333" lon="10.196598333333332">
                        <ele>0</ele>
                        <time>2022-08-18T10:18:57Z</time>
                                                <extensions>
                            <sog>2.1</sog>
<cog>162.3</cog>
                        </extensions>
                    </trkpt>
                    <trkpt lat="54.41815999999999" lon="10.196748333333334">
                        <ele>0</ele>
                        <time>2022-08-18T10:19:28Z</time>
                                                <extensions>
                            <sog>2.2</sog>
<cog>170.8</cog>
                        </extensions>
                    </trkpt>
                    <trkpt lat="54.417856666666665" lon="10.196858333333333">
                        <ele>0</ele>
                        <time>2022-08-18T10:19:57Z</time>
                                                <extensions>
                            <sog>2.1</sog>
<cog>169.2</cog>
                        </extensions>
                    </trkpt>
                    <trkpt lat="54.417276666666666" lon="10.196995">
                        <ele>0</ele>
                        <time>2022-08-18T10:20:58Z</time>
                                                <extensions>
                            <sog>1.9</sog>
<cog>173.3</cog>
                        </extensions>
                    </trkpt>
                    <trkpt lat="54.416735" lon="10.197113333333334">
                        <ele>0</ele>
                        <time>2022-08-18T10:21:57Z</time>
                                                <extensions>
                            <sog>1.9</sog>
<cog>169.1</cog>
                        </extensions>
                    </trkpt>
                    <trkpt lat="54.416156666666666" lon="10.197288333333335">
                        <ele>0</ele>
                        <time>2022-08-18T10:22:57Z</time>
                                                <extensions>
                            <sog>2.0</sog>
<cog>165.9</cog>
                        </extensions>
                    </trkpt>
                    <trkpt lat="54.415868333333336" lon="10.197361666666666">
                        <ele>0</ele>
                        <time>2022-08-18T10:23:29Z</time>
                                                <extensions>
                            <sog>1.9</sog>
<cog>171.3</cog>
                        </extensions>
                    </trkpt>
                    <trkpt lat="54.415591666666664" lon="10.197446666666668">
                        <ele>0</ele>
                        <time>2022-08-18T10:23:58Z</time>
                                                <extensions>
                            <sog>2.1</sog>
<cog>173.1</cog>
                        </extensions>
                    </trkpt>
                    <trkpt lat="54.41531333333333" lon="10.197498333333334">
                        <ele>0</ele>
                        <time>2022-08-18T10:24:27Z</time>
                                                <extensions>
                            <sog>1.9</sog>
<cog>174.4</cog>
                        </extensions>
                    </trkpt>
                    <trkpt lat="54.41444666666666" lon="10.197706666666667">
                        <ele>0</ele>
                        <time>2022-08-18T10:26:00Z</time>
                                                <extensions>
                            <sog>2.0</sog>
<cog>172.9</cog>
                        </extensions>
                    </trkpt>
                    <trkpt lat="54.414184999999996" lon="10.197728333333334">
                        <ele>0</ele>
                        <time>2022-08-18T10:26:28Z</time>
                                                <extensions>
                            <sog>2.0</sog>
<cog>180.1</cog>
                        </extensions>
                    </trkpt>
                    <trkpt lat="54.413885" lon="10.197761666666667">
                        <ele>0</ele>
                        <time>2022-08-18T10:26:57Z</time>
                                                <extensions>
                            <sog>2.1</sog>
<cog>173.6</cog>
                        </extensions>
                    </trkpt>
                    <trkpt lat="54.413295" lon="10.197776666666666">
                        <ele>0</ele>
                        <time>2022-08-18T10:27:59Z</time>
                                                <extensions>
                            <sog>2.0</sog>
<cog>179.3</cog>
                        </extensions>
                    </trkpt>
                    <trkpt lat="54.41276166666667" lon="10.197803333333333">
                        <ele>0</ele>
                        <time>2022-08-18T10:28:57Z</time>
                                                <extensions>
                            <sog>2.0</sog>
<cog>180.6</cog>
                        </extensions>
                    </trkpt>
                    <trkpt lat="54.412485" lon="10.197823333333334">
                        <ele>0</ele>
                        <time>2022-08-18T10:29:27Z</time>
                                                <extensions>
                            <sog>2.1</sog>
<cog>185.3</cog>
                        </extensions>
                    </trkpt>
                    <trkpt lat="54.41187" lon="10.197781666666666">
                        <ele>0</ele>
                        <time>2022-08-18T10:30:30Z</time>
                                                <extensions>
                            <sog>1.9</sog>
<cog>178.5</cog>
                        </extensions>
                    </trkpt>
                    <trkpt lat="54.41159666666667" lon="10.197778333333334">
                        <ele>0</ele>
                        <time>2022-08-18T10:30:59Z</time>
                                                <extensions>
                            <sog>1.9</sog>
<cog>183.4</cog>
                        </extensions>
                    </trkpt>
                    <trkpt lat="54.41133333333333" lon="10.197741666666667">
                        <ele>0</ele>
                        <time>2022-08-18T10:31:28Z</time>
                                                <extensions>
                            <sog>1.9</sog>
<cog>184.6</cog>
                        </extensions>
                    </trkpt>
                    <trkpt lat="54.41106" lon="10.197741666666667">
                        <ele>0</ele>
                        <time>2022-08-18T10:31:58Z</time>
                                                <extensions>
                            <sog>1.9</sog>
<cog>177.5</cog>
                        </extensions>
                    </trkpt>
                    <trkpt lat="54.410795" lon="10.197741666666667">
                        <ele>0</ele>
                        <time>2022-08-18T10:32:27Z</time>
                                                <extensions>
                            <sog>2.1</sog>
<cog>184.3</cog>
                        </extensions>
                    </trkpt>
                    <trkpt lat="54.41052333333334" lon="10.197728333333334">
                        <ele>0</ele>
                        <time>2022-08-18T10:32:58Z</time>
                                                <extensions>
                            <sog>2.0</sog>
<cog>183.5</cog>
                        </extensions>
                    </trkpt>
                    <trkpt lat="54.41023" lon="10.197711666666667">
                        <ele>0</ele>
                        <time>2022-08-18T10:33:29Z</time>
                                                <extensions>
                            <sog>2.2</sog>
<cog>185.1</cog>
                        </extensions>
                    </trkpt>
                    <trkpt lat="54.409951666666664" lon="10.197703333333333">
                        <ele>0</ele>
                        <time>2022-08-18T10:33:58Z</time>
                                                <extensions>
                            <sog>2.1</sog>
<cog>182.9</cog>
                        </extensions>
                    </trkpt>
                    <trkpt lat="54.40967833333333" lon="10.197678333333332">
                        <ele>0</ele>
                        <time>2022-08-18T10:34:28Z</time>
                                                <extensions>
                            <sog>1.8</sog>
<cog>182.8</cog>
                        </extensions>
                    </trkpt>
                    <trkpt lat="54.40938333333334" lon="10.197643333333334">
                        <ele>0</ele>
                        <time>2022-08-18T10:35:02Z</time>
                                                <extensions>
                            <sog>1.9</sog>
<cog>187.3</cog>
                        </extensions>
                    </trkpt>
                    <trkpt lat="54.40914833333333" lon="10.197613333333333">
                        <ele>0</ele>
                        <time>2022-08-18T10:35:27Z</time>
                                                <extensions>
                            <sog>2.0</sog>
<cog>183.5</cog>
                        </extensions>
                    </trkpt>
                    <trkpt lat="54.408863333333336" lon="10.197588333333334">
                        <ele>0</ele>
                        <time>2022-08-18T10:35:57Z</time>
                                                <extensions>
                            <sog>2.0</sog>
<cog>184.4</cog>
                        </extensions>
                    </trkpt>
                    <trkpt lat="54.40830666666667" lon="10.197511666666665">
                        <ele>0</ele>
                        <time>2022-08-18T10:36:57Z</time>
                                                <extensions>
                            <sog>1.9</sog>
<cog>185.3</cog>
                        </extensions>
                    </trkpt>
                    <trkpt lat="54.40802833333333" lon="10.197463333333333">
                        <ele>0</ele>
                        <time>2022-08-18T10:37:27Z</time>
                                                <extensions>
                            <sog>2.0</sog>
<cog>184.9</cog>
                        </extensions>
                    </trkpt>
                    <trkpt lat="54.407735" lon="10.197413333333333">
                        <ele>0</ele>
                        <time>2022-08-18T10:37:57Z</time>
                                                <extensions>
                            <sog>2.1</sog>
<cog>184.9</cog>
                        </extensions>
                    </trkpt>
                    <trkpt lat="54.40743666666666" lon="10.197366666666666">
                        <ele>0</ele>
                        <time>2022-08-18T10:38:27Z</time>
                                                <extensions>
                            <sog>2.0</sog>
<cog>186.7</cog>
                        </extensions>
                    </trkpt>
                    <trkpt lat="54.407151666666664" lon="10.19732">
                        <ele>0</ele>
                        <time>2022-08-18T10:38:57Z</time>
                                                <extensions>
                            <sog>2.0</sog>
<cog>184.8</cog>
                        </extensions>
                    </trkpt>
                    <trkpt lat="54.40687666666667" lon="10.197286666666667">
                        <ele>0</ele>
                        <time>2022-08-18T10:39:28Z</time>
                                                <extensions>
                            <sog>1.8</sog>
<cog>184.6</cog>
                        </extensions>
                    </trkpt>
                    <trkpt lat="54.40660666666667" lon="10.197253333333332">
                        <ele>0</ele>
                        <time>2022-08-18T10:39:57Z</time>
                                                <extensions>
                            <sog>1.8</sog>
<cog>183.2</cog>
                        </extensions>
                    </trkpt>
                    <trkpt lat="54.40633666666667" lon="10.19722">
                        <ele>0</ele>
                        <time>2022-08-18T10:40:27Z</time>
                                                <extensions>
                            <sog>1.9</sog>
<cog>185.2</cog>
                        </extensions>
                    </trkpt>
                    <trkpt lat="54.40605666666667" lon="10.197194999999999">
                        <ele>0</ele>
                        <time>2022-08-18T10:40:58Z</time>
                                                <extensions>
                            <sog>2.0</sog>
<cog>186.1</cog>
                        </extensions>
                    </trkpt>
                    <trkpt lat="54.405791666666666" lon="10.197128333333334">
                        <ele>0</ele>
                        <time>2022-08-18T10:41:27Z</time>
                                                <extensions>
                            <sog>2.0</sog>
<cog>187.1</cog>
                        </extensions>
                    </trkpt>
                    <trkpt lat="54.40550666666666" lon="10.197083333333333">
                        <ele>0</ele>
                        <time>2022-08-18T10:41:57Z</time>
                                                <extensions>
                            <sog>2.0</sog>
<cog>184.5</cog>
                        </extensions>
                    </trkpt>
                    <trkpt lat="54.40522833333333" lon="10.197061666666666">
                        <ele>0</ele>
                        <time>2022-08-18T10:42:27Z</time>
                                                <extensions>
                            <sog>1.9</sog>
<cog>184.0</cog>
                        </extensions>
                    </trkpt>
                    <trkpt lat="54.40495166666666" lon="10.197038333333333">
                        <ele>0</ele>
                        <time>2022-08-18T10:42:57Z</time>
                                                <extensions>
                            <sog>1.9</sog>
<cog>182.8</cog>
                        </extensions>
                    </trkpt>
                    <trkpt lat="54.404338333333335" lon="10.196866666666667">
                        <ele>0</ele>
                        <time>2022-08-18T10:44:27Z</time>
                                                <extensions>
                            <sog>1.1</sog>
<cog>184.9</cog>
                        </extensions>
                    </trkpt>
                    <trkpt lat="54.404133333333334" lon="10.196843333333334">
                        <ele>0</ele>
                        <time>2022-08-18T10:44:58Z</time>
                                                <extensions>
                            <sog>1.4</sog>
<cog>179.1</cog>
                        </extensions>
                    </trkpt>
                    <trkpt lat="54.40258666666667" lon="10.196855">
                        <ele>0</ele>
                        <time>2022-08-18T10:47:57Z</time>
                                                <extensions>
                            <sog>1.9</sog>
<cog>181.0</cog>
                        </extensions>
                    </trkpt>
                    <trkpt lat="54.402074999999996" lon="10.196856666666667">
                        <ele>0</ele>
                        <time>2022-08-18T10:48:53Z</time>
                                                <extensions>
                            <sog>1.9</sog>
<cog>182.3</cog>
                        </extensions>
                    </trkpt>
                    <trkpt lat="54.40153" lon="10.196865">
                        <ele>0</ele>
                        <time>2022-08-18T10:49:57Z</time>
                                                <extensions>
                            <sog>1.7</sog>
<cog>180.2</cog>
                        </extensions>
                    </trkpt>
                    <trkpt lat="54.40128333333334" lon="10.196878333333332">
                        <ele>0</ele>
                        <time>2022-08-18T10:50:26Z</time>
                                                <extensions>
                            <sog>1.9</sog>
<cog>177.6</cog>
                        </extensions>
                    </trkpt>
                    <trkpt lat="54.40102666666667" lon="10.196885">
                        <ele>0</ele>
                        <time>2022-08-18T10:50:54Z</time>
                                                <extensions>
                            <sog>2.1</sog>
<cog>179.8</cog>
                        </extensions>
                    </trkpt>
                    <trkpt lat="54.40074333333334" lon="10.196896666666667">
                        <ele>0</ele>
                        <time>2022-08-18T10:51:23Z</time>
                                                <extensions>
                            <sog>2.1</sog>
<cog>177.5</cog>
                        </extensions>
                    </trkpt>
                    <trkpt lat="54.40012333333333" lon="10.196971666666666">
                        <ele>0</ele>
                        <time>2022-08-18T10:52:25Z</time>
                                                <extensions>
                            <sog>2.2</sog>
<cog>174.4</cog>
                        </extensions>
                    </trkpt>
                    <trkpt lat="54.39952666666667" lon="10.197066666666666">
                        <ele>0</ele>
                        <time>2022-08-18T10:53:23Z</time>
                                                <extensions>
                            <sog>2.1</sog>
<cog>172.5</cog>
                        </extensions>
                    </trkpt>
                    <trkpt lat="54.398896666666666" lon="10.197406666666666">
                        <ele>0</ele>
                        <time>2022-08-18T10:54:28Z</time>
                                                <extensions>
                            <sog>2.2</sog>
<cog>157.7</cog>
                        </extensions>
                    </trkpt>
                    <trkpt lat="54.39864333333333" lon="10.197581666666668">
                        <ele>0</ele>
                        <time>2022-08-18T10:54:53Z</time>
                                                <extensions>
                            <sog>2.1</sog>
<cog>157.7</cog>
                        </extensions>
                    </trkpt>
                    <trkpt lat="54.39805333333334" lon="10.197915">
                        <ele>0</ele>
                        <time>2022-08-18T10:55:53Z</time>
                                                <extensions>
                            <sog>2.2</sog>
<cog>161.2</cog>
                        </extensions>
                    </trkpt>
                    <trkpt lat="54.39776" lon="10.19807">
                        <ele>0</ele>
                        <time>2022-08-18T10:56:24Z</time>
                                                <extensions>
                            <sog>2.2</sog>
<cog>165.2</cog>
                        </extensions>
                    </trkpt>
                    <trkpt lat="54.39747166666667" lon="10.198208333333334">
                        <ele>0</ele>
                        <time>2022-08-18T10:56:53Z</time>
                                                <extensions>
                            <sog>2.2</sog>
<cog>164.0</cog>
                        </extensions>
                    </trkpt>
                    <trkpt lat="54.397175" lon="10.198376666666666">
                        <ele>0</ele>
                        <time>2022-08-18T10:57:23Z</time>
                                                <extensions>
                            <sog>2.1</sog>
<cog>157.3</cog>
                        </extensions>
                    </trkpt>
                    <trkpt lat="54.39660666666667" lon="10.198701666666667">
                        <ele>0</ele>
                        <time>2022-08-18T10:58:24Z</time>
                                                <extensions>
                            <sog>2.0</sog>
<cog>163.8</cog>
                        </extensions>
                    </trkpt>
                    <trkpt lat="54.39634" lon="10.198823333333333">
                        <ele>0</ele>
                        <time>2022-08-18T10:58:53Z</time>
                                                <extensions>
                            <sog>1.8</sog>
<cog>164.6</cog>
                        </extensions>
                    </trkpt>
                    <trkpt lat="54.39581333333333" lon="10.199038333333334">
                        <ele>0</ele>
                        <time>2022-08-18T10:59:54Z</time>
                                                <extensions>
                            <sog>1.9</sog>
<cog>164.6</cog>
                        </extensions>
                    </trkpt>
                    <trkpt lat="54.39555" lon="10.199178333333332">
                        <ele>0</ele>
                        <time>2022-08-18T11:00:24Z</time>
                                                <extensions>
                            <sog>1.8</sog>
<cog>165.5</cog>
                        </extensions>
                    </trkpt>
                    <trkpt lat="54.39555" lon="10.199178333333332">
                        <ele>0</ele>
                        <time>2022-08-18T11:00:24Z</time>
                                                <extensions>
                            <sog>1.8</sog>
<cog>165.5</cog>
                        </extensions>
                    </trkpt>
                    <trkpt lat="54.39529666666667" lon="10.199328333333334">
                        <ele>0</ele>
                        <time>2022-08-18T11:00:54Z</time>
                                                <extensions>
                            <sog>1.8</sog>
<cog>160.6</cog>
                        </extensions>
                    </trkpt>
                    <trkpt lat="54.39529666666667" lon="10.199328333333334">
                        <ele>0</ele>
                        <time>2022-08-18T11:00:54Z</time>
                                                <extensions>
                            <sog>1.8</sog>
<cog>160.6</cog>
                        </extensions>
                    </trkpt>
                    <trkpt lat="54.39503833333333" lon="10.199444999999999">
                        <ele>0</ele>
                        <time>2022-08-18T11:01:24Z</time>
                                                <extensions>
                            <sog>1.8</sog>
<cog>160.9</cog>
                        </extensions>
                    </trkpt>
                    <trkpt lat="54.39478166666667" lon="10.199565">
                        <ele>0</ele>
                        <time>2022-08-18T11:01:53Z</time>
                                                <extensions>
                            <sog>1.9</sog>
<cog>174.5</cog>
                        </extensions>
                    </trkpt>
                    <trkpt lat="54.389914999999995" lon="10.199426666666666">
                        <ele>0</ele>
                        <time>2022-08-18T11:10:27Z</time>
                                                <extensions>
                            <sog>2.0</sog>
<cog>183.1</cog>
                        </extensions>
                    </trkpt>
                    <trkpt lat="54.38961333333334" lon="10.199414999999998">
                        <ele>0</ele>
                        <time>2022-08-18T11:10:58Z</time>
                                                <extensions>
                            <sog>2.1</sog>
<cog>180.7</cog>
                        </extensions>
                    </trkpt>
                    <trkpt lat="54.38932333333333" lon="10.199391666666665">
                        <ele>0</ele>
                        <time>2022-08-18T11:11:27Z</time>
                                                <extensions>
                            <sog>2.1</sog>
<cog>184.1</cog>
                        </extensions>
                    </trkpt>
                    <trkpt lat="54.38903833333333" lon="10.199366666666666">
                        <ele>0</ele>
                        <time>2022-08-18T11:11:57Z</time>
                                                <extensions>
                            <sog>2.0</sog>
<cog>182.5</cog>
                        </extensions>
                    </trkpt>
                    <trkpt lat="54.388176666666666" lon="10.199098333333334">
                        <ele>0</ele>
                        <time>2022-08-18T11:13:28Z</time>
                                                <extensions>
                            <sog>1.9</sog>
<cog>191.8</cog>
                        </extensions>
                    </trkpt>
                    <trkpt lat="54.38768666666667" lon="10.198910000000001">
                        <ele>0</ele>
                        <time>2022-08-18T11:14:27Z</time>
                                                <extensions>
                            <sog>1.8</sog>
<cog>194.7</cog>
                        </extensions>
                    </trkpt>
                    <trkpt lat="54.387433333333334" lon="10.19879">
                        <ele>0</ele>
                        <time>2022-08-18T11:14:57Z</time>
                                                <extensions>
                            <sog>1.8</sog>
<cog>196.3</cog>
                        </extensions>
                    </trkpt>
                    <trkpt lat="54.38714" lon="10.198646666666667">
                        <ele>0</ele>
                        <time>2022-08-18T11:15:31Z</time>
                                                <extensions>
                            <sog>1.9</sog>
<cog>197.3</cog>
                        </extensions>
                    </trkpt>
                    <trkpt lat="54.38690666666666" lon="10.198535">
                        <ele>0</ele>
                        <time>2022-08-18T11:15:59Z</time>
                                                <extensions>
                            <sog>1.9</sog>
<cog>196.4</cog>
                        </extensions>
                    </trkpt>
                    <trkpt lat="54.386651666666666" lon="10.198378333333332">
                        <ele>0</ele>
                        <time>2022-08-18T11:16:27Z</time>
                                                <extensions>
                            <sog>2.0</sog>
<cog>200.1</cog>
                        </extensions>
                    </trkpt>
                    <trkpt lat="54.38505333333333" lon="10.19739">
                        <ele>0</ele>
                        <time>2022-08-18T11:19:32Z</time>
                                                <extensions>
                            <sog>1.9</sog>
<cog>202.7</cog>
                        </extensions>
                    </trkpt>
                    <trkpt lat="54.38072666666667" lon="10.193856666666667">
                        <ele>0</ele>
                        <time>2022-08-18T11:28:31Z</time>
                                                <extensions>
                            <sog>2.0</sog>
<cog>208.1</cog>
                        </extensions>
                    </trkpt>
                    <trkpt lat="54.38026333333333" lon="10.19338">
                        <ele>0</ele>
                        <time>2022-08-18T11:29:30Z</time>
                                                <extensions>
                            <sog>1.9</sog>
<cog>213.2</cog>
                        </extensions>
                    </trkpt>
                    <trkpt lat="54.380030000000005" lon="10.193141666666666">
                        <ele>0</ele>
                        <time>2022-08-18T11:30:01Z</time>
                                                <extensions>
                            <sog>1.9</sog>
<cog>210.0</cog>
                        </extensions>
                    </trkpt>
                    <trkpt lat="54.37974833333333" lon="10.192941666666666">
                        <ele>0</ele>
                        <time>2022-08-18T11:30:33Z</time>
                                                <extensions>
                            <sog>1.9</sog>
<cog>193.1</cog>
                        </extensions>
                    </trkpt>
                    <trkpt lat="54.379485" lon="10.192853333333334">
                        <ele>0</ele>
                        <time>2022-08-18T11:31:02Z</time>
                                                <extensions>
                            <sog>2.0</sog>
<cog>189.0</cog>
                        </extensions>
                    </trkpt>
                    <trkpt lat="54.37922666666667" lon="10.192765000000001">
                        <ele>0</ele>
                        <time>2022-08-18T11:31:31Z</time>
                                                <extensions>
                            <sog>2.0</sog>
<cog>192.0</cog>
                        </extensions>
                    </trkpt>
                    <trkpt lat="54.37893833333333" lon="10.192716666666666">
                        <ele>0</ele>
                        <time>2022-08-18T11:32:01Z</time>
                                                <extensions>
                            <sog>2.0</sog>
<cog>182.9</cog>
                        </extensions>
                    </trkpt>
                    <trkpt lat="54.37865333333333" lon="10.192708333333334">
                        <ele>0</ele>
                        <time>2022-08-18T11:32:30Z</time>
                                                <extensions>
                            <sog>2.0</sog>
<cog>179.0</cog>
                        </extensions>
                    </trkpt>
                    <trkpt lat="54.37686833333333" lon="10.19327">
                        <ele>0</ele>
                        <time>2022-08-18T11:35:36Z</time>
                                                <extensions>
                            <sog>1.8</sog>
<cog>158.8</cog>
                        </extensions>
                    </trkpt>
                    <trkpt lat="54.37665333333334" lon="10.193363333333334">
                        <ele>0</ele>
                        <time>2022-08-18T11:36:05Z</time>
                                                <extensions>
                            <sog>1.9</sog>
<cog>173.1</cog>
                        </extensions>
                    </trkpt>
                    <trkpt lat="54.374721666666666" lon="10.195838333333334">
                        <ele>0</ele>
                        <time>2022-08-18T11:40:06Z</time>
                        <extensions>
    <sog>0.2</sog>
</extensions>
                    </trkpt>
                    <trkpt lat="54.374698333333335" lon="10.195831666666667">
                        <ele>0</ele>
                        <time>2022-08-18T11:40:35Z</time>
                        <extensions>
    <sog>0.0</sog>
</extensions>
                    </trkpt>
                    <trkpt lat="54.37468333333334" lon="10.195843333333332">
                        <ele>0</ele>
                        <time>2022-08-18T11:41:05Z</time>
                        <extensions>
    <sog>0.1</sog>
</extensions>
                    </trkpt>
                    <trkpt lat="54.37461" lon="10.195828333333333">
                        <ele>0</ele>
                        <time>2022-08-18T11:45:34Z</time>
                        <extensions>
    <sog>0.0</sog>
</extensions>
                    </trkpt>
                    <trkpt lat="54.37464" lon="10.195836666666667">
                        <ele>0</ele>
                        <time>2022-08-18T11:51:37Z</time>
                        <extensions>
    <sog>0.0</sog>
</extensions>
                    </trkpt>
                    <trkpt lat="54.37463" lon="10.195851666666666">
                        <ele>0</ele>
                        <time>2022-08-18T11:57:36Z</time>
                        <extensions>
    <sog>0.0</sog>
</extensions>
                    </trkpt>
                    <trkpt lat="54.374633333333335" lon="10.195848333333334">
                        <ele>0</ele>
                        <time>2022-08-18T12:03:34Z</time>
                        <extensions>
    <sog>0.0</sog>
</extensions>
                    </trkpt>
                    <trkpt lat="54.37462166666667" lon="10.195878333333333">
                        <ele>0</ele>
                        <time>2022-08-18T12:09:34Z</time>
                        <extensions>
    <sog>0.0</sog>
</extensions>
                    </trkpt>
                    <trkpt lat="54.374608333333335" lon="10.195856666666666">
                        <ele>0</ele>
                        <time>2022-08-18T12:12:36Z</time>
                        <extensions>
    <sog>0.0</sog>
</extensions>
                    </trkpt>
                    <trkpt lat="54.374628333333334" lon="10.19584">
                        <ele>0</ele>
                        <time>2022-08-18T12:15:34Z</time>
                        <extensions>
    <sog>0.0</sog>
</extensions>
                    </trkpt>
                    </trkseg>
                </trk>
</gpx>