<?xml version="1.0" encoding="UTF-8"?>
<gpx version="1.1" creator="AIS-to-GPX Converter" xmlns="http://www.topografix.com/GPX/1/1">
                <trk>
                    <name>anon0088</name>
                    <trkseg>
                                            <trkpt lat="54.32868" lon="10.148531666666665">
                        <ele>0</ele>
                        <time>2022-08-18T16:23:53Z</time>
                                                <extensions>
                            <sog>0.0</sog>
<cog>8.3</cog>
                        </extensions>
                    </trkpt>
                    <trkpt lat="54.32869166666667" lon="10.14853">
                        <ele>0</ele>
                        <time>2022-08-18T16:24:22Z</time>
                                                <extensions>
                            <sog>0.0</sog>
<cog>0.0</cog>
                        </extensions>
                    </trkpt>
                    <trkpt lat="54.328693333333334" lon="10.148528333333333">
                        <ele>0</ele>
                        <time>2022-08-18T16:24:54Z</time>
                                                <extensions>
                            <sog>0.0</sog>
<cog>0.2</cog>
                        </extensions>
                    </trkpt>
                    <trkpt lat="54.328695" lon="10.148531666666665">
                        <ele>0</ele>
                        <time>2022-08-18T16:25:25Z</time>
                                                <extensions>
                            <sog>0.0</sog>
<cog>358.4</cog>
                        </extensions>
                    </trkpt>
                    <trkpt lat="54.32870333333334" lon="10.148528333333333">
                        <ele>0</ele>
                        <time>2022-08-18T16:25:52Z</time>
                                                <extensions>
                            <sog>0.0</sog>
<cog>323.7</cog>
                        </extensions>
                    </trkpt>
                    <trkpt lat="54.32871166666666" lon="10.148511666666668">
                        <ele>0</ele>
                        <time>2022-08-18T16:26:23Z</time>
                                                <extensions>
                            <sog>0.0</sog>
<cog>315.8</cog>
                        </extensions>
                    </trkpt>
                    <trkpt lat="54.32870166666667" lon="10.148525000000001">
                        <ele>0</ele>
                        <time>2022-08-18T16:26:52Z</time>
                                                <extensions>
                            <sog>0.0</sog>
<cog>273.0</cog>
                        </extensions>
                    </trkpt>
                    <trkpt lat="54.32870833333333" lon="10.148548333333334">
                        <ele>0</ele>
                        <time>2022-08-18T16:29:52Z</time>
                                                <extensions>
                            <sog>0.0</sog>
<cog>190.5</cog>
                        </extensions>
                    </trkpt>
                    <trkpt lat="54.32871333333333" lon="10.148525000000001">
                        <ele>0</ele>
                        <time>2022-08-18T16:32:53Z</time>
                                                <extensions>
                            <sog>0.0</sog>
<cog>191.7</cog>
                        </extensions>
                    </trkpt>
                    <trkpt lat="54.32870833333333" lon="10.148535">
                        <ele>0</ele>
                        <time>2022-08-18T16:35:52Z</time>
                                                <extensions>
                            <sog>0.0</sog>
<cog>221.3</cog>
                        </extensions>
                    </trkpt>
                    <trkpt lat="54.328715" lon="10.148541666666667">
                        <ele>0</ele>
                        <time>2022-08-18T16:38:52Z</time>
                                                <extensions>
                            <sog>0.0</sog>
<cog>0.0</cog>
                        </extensions>
                    </trkpt>
                    <trkpt lat="54.32872166666667" lon="10.14852">
                        <ele>0</ele>
                        <time>2022-08-18T16:41:52Z</time>
                                                <extensions>
                            <sog>0.0</sog>
<cog>179.2</cog>
                        </extensions>
                    </trkpt>
                    <trkpt lat="54.32871333333333" lon="10.148515">
                        <ele>0</ele>
                        <time>2022-08-18T16:44:53Z</time>
                                                <extensions>
                            <sog>0.0</sog>
<cog>0.0</cog>
                        </extensions>
                    </trkpt>
                    <trkpt lat="54.328718333333335" lon="10.148501666666668">
                        <ele>0</ele>
                        <time>2022-08-18T16:47:52Z</time>
                                                <extensions>
                            <sog>0.0</sog>
<cog>0.0</cog>
                        </extensions>
                    </trkpt>
                    <trkpt lat="54.328725" lon="10.148513333333334">
                        <ele>0</ele>
                        <time>2022-08-18T16:50:52Z</time>
                                                <extensions>
                            <sog>0.0</sog>
<cog>178.6</cog>
                        </extensions>
                    </trkpt>
                    <trkpt lat="54.32871166666666" lon="10.148526666666667">
                        <ele>0</ele>
                        <time>2022-08-18T16:53:55Z</time>
                                                <extensions>
                            <sog>0.0</sog>
<cog>217.0</cog>
                        </extensions>
                    </trkpt>
                    <trkpt lat="54.328715" lon="10.148526666666667">
                        <ele>0</ele>
                        <time>2022-08-18T16:56:52Z</time>
                                                <extensions>
                            <sog>0.0</sog>
<cog>200.5</cog>
                        </extensions>
                    </trkpt>
                    <trkpt lat="54.328716666666665" lon="10.148528333333333">
                        <ele>0</ele>
                        <time>2022-08-18T16:59:52Z</time>
                                                <extensions>
                            <sog>0.0</sog>
<cog>191.5</cog>
                        </extensions>
                    </trkpt>
                    <trkpt lat="54.32872" lon="10.148516666666666">
                        <ele>0</ele>
                        <time>2022-08-18T17:02:52Z</time>
                                                <extensions>
                            <sog>0.0</sog>
<cog>191.6</cog>
                        </extensions>
                    </trkpt>
                    <trkpt lat="54.32871" lon="10.148536666666667">
                        <ele>0</ele>
                        <time>2022-08-18T17:05:53Z</time>
                                                <extensions>
                            <sog>0.0</sog>
<cog>197.7</cog>
                        </extensions>
                    </trkpt>
                    <trkpt lat="54.32870833333333" lon="10.148548333333334">
                        <ele>0</ele>
                        <time>2022-08-18T17:08:55Z</time>
                                                <extensions>
                            <sog>0.0</sog>
<cog>0.0</cog>
                        </extensions>
                    </trkpt>
                    <trkpt lat="54.32872" lon="10.148521666666666">
                        <ele>0</ele>
                        <time>2022-08-18T17:11:52Z</time>
                                                <extensions>
                            <sog>0.0</sog>
<cog>193.5</cog>
                        </extensions>
                    </trkpt>
                    <trkpt lat="54.32872833333333" lon="10.148536666666667">
                        <ele>0</ele>
                        <time>2022-08-18T17:14:53Z</time>
                                                <extensions>
                            <sog>0.0</sog>
<cog>0.0</cog>
                        </extensions>
                    </trkpt>
                    <trkpt lat="54.32870833333333" lon="10.148515">
                        <ele>0</ele>
                        <time>2022-08-18T17:17:52Z</time>
                                                <extensions>
                            <sog>0.0</sog>
<cog>0.0</cog>
                        </extensions>
                    </trkpt>
                    <trkpt lat="54.32870833333333" lon="10.148506666666666">
                        <ele>0</ele>
                        <time>2022-08-18T17:20:53Z</time>
                                                <extensions>
                            <sog>0.0</sog>
<cog>0.0</cog>
                        </extensions>
                    </trkpt>
                    <trkpt lat="54.32873166666666" lon="10.148518333333334">
                        <ele>0</ele>
                        <time>2022-08-18T17:23:53Z</time>
                                                <extensions>
                            <sog>0.0</sog>
<cog>179.3</cog>
                        </extensions>
                    </trkpt>
                    <trkpt lat="54.32875166666667" lon="10.148483333333333">
                        <ele>0</ele>
                        <time>2022-08-18T17:26:52Z</time>
                                                <extensions>
                            <sog>0.0</sog>
<cog>180.3</cog>
                        </extensions>
                    </trkpt>
                    <trkpt lat="54.328700000000005" lon="10.148521666666666">
                        <ele>0</ele>
                        <time>2022-08-18T17:29:52Z</time>
                                                <extensions>
                            <sog>0.0</sog>
<cog>180.8</cog>
                        </extensions>
                    </trkpt>
                    <trkpt lat="54.32870333333334" lon="10.148561666666666">
                        <ele>0</ele>
                        <time>2022-08-18T17:32:52Z</time>
                                                <extensions>
                            <sog>0.0</sog>
<cog>212.9</cog>
                        </extensions>
                    </trkpt>
                    <trkpt lat="54.328695" lon="10.148536666666667">
                        <ele>0</ele>
                        <time>2022-08-18T17:38:22Z</time>
                                                <extensions>
                            <sog>0.0</sog>
<cog>0.0</cog>
                        </extensions>
                    </trkpt>
                    <trkpt lat="54.32870666666667" lon="10.14852">
                        <ele>0</ele>
                        <time>2022-08-18T17:41:22Z</time>
                                                <extensions>
                            <sog>0.0</sog>
<cog>0.0</cog>
                        </extensions>
                    </trkpt>
                    <trkpt lat="54.32868166666666" lon="10.148523333333333">
                        <ele>0</ele>
                        <time>2022-08-18T17:44:22Z</time>
                                                <extensions>
                            <sog>0.0</sog>
<cog>0.0</cog>
                        </extensions>
                    </trkpt>
                    <trkpt lat="54.32869166666667" lon="10.148556666666668">
                        <ele>0</ele>
                        <time>2022-08-18T17:47:24Z</time>
                                                <extensions>
                            <sog>0.0</sog>
<cog>212.2</cog>
                        </extensions>
                    </trkpt>
                    <trkpt lat="54.328685" lon="10.148543333333333">
                        <ele>0</ele>
                        <time>2022-08-18T17:50:21Z</time>
                                                <extensions>
                            <sog>0.0</sog>
<cog>203.9</cog>
                        </extensions>
                    </trkpt>
                    <trkpt lat="54.32870333333334" lon="10.14853">
                        <ele>0</ele>
                        <time>2022-08-18T17:53:24Z</time>
                                                <extensions>
                            <sog>0.0</sog>
<cog>0.0</cog>
                        </extensions>
                    </trkpt>
                    <trkpt lat="54.328698333333335" lon="10.148501666666668">
                        <ele>0</ele>
                        <time>2022-08-18T17:56:22Z</time>
                                                <extensions>
                            <sog>0.0</sog>
<cog>197.7</cog>
                        </extensions>
                    </trkpt>
                    <trkpt lat="54.328698333333335" lon="10.148533333333335">
                        <ele>0</ele>
                        <time>2022-08-18T17:59:22Z</time>
                                                <extensions>
                            <sog>0.0</sog>
<cog>0.0</cog>
                        </extensions>
                    </trkpt>
                    <trkpt lat="54.32869" lon="10.148521666666666">
                        <ele>0</ele>
                        <time>2022-08-18T18:02:24Z</time>
                                                <extensions>
                            <sog>0.0</sog>
<cog>232.5</cog>
                        </extensions>
                    </trkpt>
                    <trkpt lat="54.32868833333334" lon="10.148531666666665">
                        <ele>0</ele>
                        <time>2022-08-18T18:05:21Z</time>
                                                <extensions>
                            <sog>0.0</sog>
<cog>173.5</cog>
                        </extensions>
                    </trkpt>
                    <trkpt lat="54.328675" lon="10.148536666666667">
                        <ele>0</ele>
                        <time>2022-08-18T18:08:22Z</time>
                                                <extensions>
                            <sog>0.0</sog>
<cog>192.1</cog>
                        </extensions>
                    </trkpt>
                    <trkpt lat="54.328700000000005" lon="10.148545">
                        <ele>0</ele>
                        <time>2022-08-18T18:11:23Z</time>
                                                <extensions>
                            <sog>0.0</sog>
<cog>191.4</cog>
                        </extensions>
                    </trkpt>
                    <trkpt lat="54.32868166666666" lon="10.148546666666666">
                        <ele>0</ele>
                        <time>2022-08-18T18:14:23Z</time>
                                                <extensions>
                            <sog>0.0</sog>
<cog>0.0</cog>
                        </extensions>
                    </trkpt>
                    <trkpt lat="54.32868166666666" lon="10.148563333333334">
                        <ele>0</ele>
                        <time>2022-08-18T18:17:23Z</time>
                                                <extensions>
                            <sog>0.0</sog>
<cog>0.0</cog>
                        </extensions>
                    </trkpt>
                    <trkpt lat="54.328698333333335" lon="10.148541666666667">
                        <ele>0</ele>
                        <time>2022-08-18T18:20:24Z</time>
                                                <extensions>
                            <sog>0.0</sog>
<cog>184.4</cog>
                        </extensions>
                    </trkpt>
                    <trkpt lat="54.328685" lon="10.148558333333334">
                        <ele>0</ele>
                        <time>2022-08-18T18:23:22Z</time>
                                                <extensions>
                            <sog>0.0</sog>
<cog>0.0</cog>
                        </extensions>
                    </trkpt>
                    <trkpt lat="54.328698333333335" lon="10.148508333333332">
                        <ele>0</ele>
                        <time>2022-08-18T18:26:21Z</time>
                                                <extensions>
                            <sog>0.0</sog>
<cog>172.2</cog>
                        </extensions>
                    </trkpt>
                    <trkpt lat="54.328693333333334" lon="10.148535">
                        <ele>0</ele>
                        <time>2022-08-18T18:29:21Z</time>
                                                <extensions>
                            <sog>0.0</sog>
<cog>210.7</cog>
                        </extensions>
                    </trkpt>
                    <trkpt lat="54.32868666666666" lon="10.148536666666667">
                        <ele>0</ele>
                        <time>2022-08-18T18:32:23Z</time>
                                                <extensions>
                            <sog>0.0</sog>
<cog>189.0</cog>
                        </extensions>
                    </trkpt>
                    <trkpt lat="54.328675" lon="10.14852">
                        <ele>0</ele>
                        <time>2022-08-18T18:38:21Z</time>
                                                <extensions>
                            <sog>0.0</sog>
<cog>217.7</cog>
                        </extensions>
                    </trkpt>
                    <trkpt lat="54.328675" lon="10.148511666666668">
                        <ele>0</ele>
                        <time>2022-08-18T18:41:21Z</time>
                                                <extensions>
                            <sog>0.0</sog>
<cog>0.0</cog>
                        </extensions>
                    </trkpt>
                    <trkpt lat="54.32868333333333" lon="10.148533333333335">
                        <ele>0</ele>
                        <time>2022-08-18T18:44:23Z</time>
                                                <extensions>
                            <sog>0.0</sog>
<cog>0.0</cog>
                        </extensions>
                    </trkpt>
                    <trkpt lat="54.328685" lon="10.14854">
                        <ele>0</ele>
                        <time>2022-08-18T18:47:21Z</time>
                                                <extensions>
                            <sog>0.0</sog>
<cog>221.2</cog>
                        </extensions>
                    </trkpt>
                    <trkpt lat="54.32868166666666" lon="10.148513333333334">
                        <ele>0</ele>
                        <time>2022-08-18T18:50:23Z</time>
                                                <extensions>
                            <sog>0.0</sog>
<cog>200.0</cog>
                        </extensions>
                    </trkpt>
                    <trkpt lat="54.32867666666667" lon="10.148516666666666">
                        <ele>0</ele>
                        <time>2022-08-18T18:53:23Z</time>
                                                <extensions>
                            <sog>0.0</sog>
<cog>188.3</cog>
                        </extensions>
                    </trkpt>
                    <trkpt lat="54.328675" lon="10.14852">
                        <ele>0</ele>
                        <time>2022-08-18T18:56:21Z</time>
                                                <extensions>
                            <sog>0.0</sog>
<cog>169.7</cog>
                        </extensions>
                    </trkpt>
                    <trkpt lat="54.32867666666667" lon="10.148528333333333">
                        <ele>0</ele>
                        <time>2022-08-18T18:59:22Z</time>
                                                <extensions>
                            <sog>0.0</sog>
<cog>217.4</cog>
                        </extensions>
                    </trkpt>
                    <trkpt lat="54.32868166666666" lon="10.148528333333333">
                        <ele>0</ele>
                        <time>2022-08-18T19:02:21Z</time>
                                                <extensions>
                            <sog>0.0</sog>
<cog>211.2</cog>
                        </extensions>
                    </trkpt>
                    <trkpt lat="54.32867833333333" lon="10.14853">
                        <ele>0</ele>
                        <time>2022-08-18T19:05:21Z</time>
                                                <extensions>
                            <sog>0.0</sog>
<cog>156.6</cog>
                        </extensions>
                    </trkpt>
                    <trkpt lat="54.32867833333333" lon="10.148528333333333">
                        <ele>0</ele>
                        <time>2022-08-18T19:08:21Z</time>
                                                <extensions>
                            <sog>0.0</sog>
<cog>165.8</cog>
                        </extensions>
                    </trkpt>
                    <trkpt lat="54.32867833333333" lon="10.148528333333333">
                        <ele>0</ele>
                        <time>2022-08-18T19:11:23Z</time>
                                                <extensions>
                            <sog>0.0</sog>
<cog>177.6</cog>
                        </extensions>
                    </trkpt>
                    <trkpt lat="54.32868166666666" lon="10.148533333333335">
                        <ele>0</ele>
                        <time>2022-08-18T19:14:21Z</time>
                                                <extensions>
                            <sog>0.0</sog>
<cog>0.0</cog>
                        </extensions>
                    </trkpt>
                    <trkpt lat="54.328673333333334" lon="10.148518333333334">
                        <ele>0</ele>
                        <time>2022-08-18T19:17:22Z</time>
                                                <extensions>
                            <sog>0.0</sog>
<cog>215.3</cog>
                        </extensions>
                    </trkpt>
                    <trkpt lat="54.32867" lon="10.148533333333335">
                        <ele>0</ele>
                        <time>2022-08-18T19:20:22Z</time>
                                                <extensions>
                            <sog>0.0</sog>
<cog>0.0</cog>
                        </extensions>
                    </trkpt>
                    <trkpt lat="54.328673333333334" lon="10.148533333333335">
                        <ele>0</ele>
                        <time>2022-08-18T19:23:21Z</time>
                                                <extensions>
                            <sog>0.0</sog>
<cog>217.8</cog>
                        </extensions>
                    </trkpt>
                    <trkpt lat="54.32868666666666" lon="10.148545">
                        <ele>0</ele>
                        <time>2022-08-18T19:26:21Z</time>
                                                <extensions>
                            <sog>0.0</sog>
<cog>0.0</cog>
                        </extensions>
                    </trkpt>
                    <trkpt lat="54.328671666666665" lon="10.148545">
                        <ele>0</ele>
                        <time>2022-08-18T19:29:22Z</time>
                                                <extensions>
                            <sog>0.0</sog>
<cog>216.4</cog>
                        </extensions>
                    </trkpt>
                    <trkpt lat="54.32866666666666" lon="10.148521666666666">
                        <ele>0</ele>
                        <time>2022-08-18T19:32:20Z</time>
                                                <extensions>
                            <sog>0.0</sog>
<cog>212.3</cog>
                        </extensions>
                    </trkpt>
                    <trkpt lat="54.328673333333334" lon="10.148538333333333">
                        <ele>0</ele>
                        <time>2022-08-18T19:35:21Z</time>
                                                <extensions>
                            <sog>0.0</sog>
<cog>184.7</cog>
                        </extensions>
                    </trkpt>
                    <trkpt lat="54.32868666666666" lon="10.14852">
                        <ele>0</ele>
                        <time>2022-08-18T19:38:21Z</time>
                                                <extensions>
                            <sog>0.0</sog>
<cog>184.1</cog>
                        </extensions>
                    </trkpt>
                    <trkpt lat="54.328675" lon="10.14854">
                        <ele>0</ele>
                        <time>2022-08-18T19:41:20Z</time>
                                                <extensions>
                            <sog>0.0</sog>
<cog>177.5</cog>
                        </extensions>
                    </trkpt>
                    <trkpt lat="54.32867" lon="10.14854">
                        <ele>0</ele>
                        <time>2022-08-18T19:44:20Z</time>
                                                <extensions>
                            <sog>0.0</sog>
<cog>212.4</cog>
                        </extensions>
                    </trkpt>
                    <trkpt lat="54.32868" lon="10.148525000000001">
                        <ele>0</ele>
                        <time>2022-08-18T19:47:21Z</time>
                                                <extensions>
                            <sog>0.0</sog>
<cog>0.0</cog>
                        </extensions>
                    </trkpt>
                    <trkpt lat="54.328685" lon="10.148528333333333">
                        <ele>0</ele>
                        <time>2022-08-18T19:50:22Z</time>
                                                <extensions>
                            <sog>0.0</sog>
<cog>230.3</cog>
                        </extensions>
                    </trkpt>
                    <trkpt lat="54.328673333333334" lon="10.14854">
                        <ele>0</ele>
                        <time>2022-08-18T19:53:20Z</time>
                                                <extensions>
                            <sog>0.0</sog>
<cog>0.0</cog>
                        </extensions>
                    </trkpt>
                    <trkpt lat="54.32867833333333" lon="10.148526666666667">
                        <ele>0</ele>
                        <time>2022-08-18T19:56:22Z</time>
                                                <extensions>
                            <sog>0.0</sog>
<cog>184.6</cog>
                        </extensions>
                    </trkpt>
                    <trkpt lat="54.32866833333333" lon="10.148531666666665">
                        <ele>0</ele>
                        <time>2022-08-18T19:59:20Z</time>
                                                <extensions>
                            <sog>0.0</sog>
<cog>178.9</cog>
                        </extensions>
                    </trkpt>
                    <trkpt lat="54.328671666666665" lon="10.14853">
                        <ele>0</ele>
                        <time>2022-08-18T20:02:20Z</time>
                                                <extensions>
                            <sog>0.0</sog>
<cog>180.4</cog>
                        </extensions>
                    </trkpt>
                    <trkpt lat="54.328675" lon="10.148533333333335">
                        <ele>0</ele>
                        <time>2022-08-18T20:05:20Z</time>
                                                <extensions>
                            <sog>0.0</sog>
<cog>187.6</cog>
                        </extensions>
                    </trkpt>
                    <trkpt lat="54.32867666666667" lon="10.148536666666667">
                        <ele>0</ele>
                        <time>2022-08-18T20:08:21Z</time>
                                                <extensions>
                            <sog>0.0</sog>
<cog>203.9</cog>
                        </extensions>
                    </trkpt>
                    <trkpt lat="54.32868" lon="10.14854">
                        <ele>0</ele>
                        <time>2022-08-18T20:11:20Z</time>
                                                <extensions>
                            <sog>0.0</sog>
<cog>199.1</cog>
                        </extensions>
                    </trkpt>
                    <trkpt lat="54.328671666666665" lon="10.14853">
                        <ele>0</ele>
                        <time>2022-08-18T20:14:20Z</time>
                                                <extensions>
                            <sog>0.0</sog>
<cog>0.0</cog>
                        </extensions>
                    </trkpt>
                    <trkpt lat="54.32867" lon="10.148535">
                        <ele>0</ele>
                        <time>2022-08-18T20:17:21Z</time>
                                                <extensions>
                            <sog>0.0</sog>
<cog>0.0</cog>
                        </extensions>
                    </trkpt>
                    <trkpt lat="54.32868166666666" lon="10.14854">
                        <ele>0</ele>
                        <time>2022-08-18T20:20:20Z</time>
                                                <extensions>
                            <sog>0.0</sog>
<cog>180.6</cog>
                        </extensions>
                    </trkpt>
                    <trkpt lat="54.328671666666665" lon="10.148535">
                        <ele>0</ele>
                        <time>2022-08-18T20:26:21Z</time>
                                                <extensions>
                            <sog>0.0</sog>
<cog>0.0</cog>
                        </extensions>
                    </trkpt>
                    <trkpt lat="54.32865833333334" lon="10.148505">
                        <ele>0</ele>
                        <time>2022-08-18T20:29:20Z</time>
                                                <extensions>
                            <sog>0.0</sog>
<cog>182.9</cog>
                        </extensions>
                    </trkpt>
                    <trkpt lat="54.328673333333334" lon="10.148545">
                        <ele>0</ele>
                        <time>2022-08-18T20:32:20Z</time>
                                                <extensions>
                            <sog>0.0</sog>
<cog>176.5</cog>
                        </extensions>
                    </trkpt>
                    </trkseg>
                </trk>
</gpx>