<?xml version="1.0" encoding="UTF-8"?>
<gpx version="1.1" creator="AIS-to-GPX Converter" xmlns="http://www.topografix.com/GPX/1/1">
                <trk>
                    <name>anon0152</name>
                    <trkseg>
                                            <trkpt lat="54.43093666666667" lon="10.170505">
                        <ele>0</ele>
                        <time>2022-08-18T00:01:25Z</time>
                        <extensions>
    <sog>0.0</sog>
</extensions>
                    </trkpt>
                    <trkpt lat="54.430931666666666" lon="10.170481666666666">
                        <ele>0</ele>
                        <time>2022-08-18T00:04:40Z</time>
                        <extensions>
    <sog>0.0</sog>
</extensions>
                    </trkpt>
                    <trkpt lat="54.43093" lon="10.1705">
                        <ele>0</ele>
                        <time>2022-08-18T00:07:31Z</time>
                        <extensions>
    <sog>0.0</sog>
</extensions>
                    </trkpt>
                    <trkpt lat="54.43096" lon="10.170486666666667">
                        <ele>0</ele>
                        <time>2022-08-18T00:19:34Z</time>
                        <extensions>
    <sog>0.0</sog>
</extensions>
                    </trkpt>
                    <trkpt lat="54.430973333333334" lon="10.1705">
                        <ele>0</ele>
                        <time>2022-08-18T00:25:46Z</time>
                        <extensions>
    <sog>0.0</sog>
</extensions>
                    </trkpt>
                    <trkpt lat="54.430946666666664" lon="10.170476666666667">
                        <ele>0</ele>
                        <time>2022-08-18T00:28:19Z</time>
                        <extensions>
    <sog>0.0</sog>
</extensions>
                    </trkpt>
                    <trkpt lat="54.430933333333336" lon="10.170493333333333">
                        <ele>0</ele>
                        <time>2022-08-18T00:31:49Z</time>
                        <extensions>
    <sog>0.0</sog>
</extensions>
                    </trkpt>
                    <trkpt lat="54.43094333333333" lon="10.170503333333333">
                        <ele>0</ele>
                        <time>2022-08-18T00:46:48Z</time>
                        <extensions>
    <sog>0.0</sog>
</extensions>
                    </trkpt>
                    <trkpt lat="54.43098666666666" lon="10.17051">
                        <ele>0</ele>
                        <time>2022-08-18T00:49:29Z</time>
                        <extensions>
    <sog>0.0</sog>
</extensions>
                    </trkpt>
                    <trkpt lat="54.430971666666665" lon="10.170478333333334">
                        <ele>0</ele>
                        <time>2022-08-18T01:10:24Z</time>
                        <extensions>
    <sog>0.0</sog>
</extensions>
                    </trkpt>
                    <trkpt lat="54.43096833333333" lon="10.170486666666667">
                        <ele>0</ele>
                        <time>2022-08-18T01:13:25Z</time>
                        <extensions>
    <sog>0.0</sog>
</extensions>
                    </trkpt>
                    <trkpt lat="54.43095" lon="10.170476666666667">
                        <ele>0</ele>
                        <time>2022-08-18T01:37:31Z</time>
                        <extensions>
    <sog>0.0</sog>
</extensions>
                    </trkpt>
                    <trkpt lat="54.430926666666664" lon="10.170481666666666">
                        <ele>0</ele>
                        <time>2022-08-18T02:19:42Z</time>
                        <extensions>
    <sog>0.0</sog>
</extensions>
                    </trkpt>
                    <trkpt lat="54.430946666666664" lon="10.170476666666667">
                        <ele>0</ele>
                        <time>2022-08-18T02:40:27Z</time>
                        <extensions>
    <sog>0.1</sog>
</extensions>
                    </trkpt>
                    <trkpt lat="54.43096166666667" lon="10.170488333333333">
                        <ele>0</ele>
                        <time>2022-08-18T03:16:40Z</time>
                        <extensions>
    <sog>0.0</sog>
</extensions>
                    </trkpt>
                    <trkpt lat="54.430925" lon="10.170491666666667">
                        <ele>0</ele>
                        <time>2022-08-18T03:19:36Z</time>
                        <extensions>
    <sog>0.0</sog>
</extensions>
                    </trkpt>
                    <trkpt lat="54.43094833333334" lon="10.170475000000001">
                        <ele>0</ele>
                        <time>2022-08-18T03:25:18Z</time>
                        <extensions>
    <sog>0.0</sog>
</extensions>
                    </trkpt>
                    <trkpt lat="54.430931666666666" lon="10.170501666666667">
                        <ele>0</ele>
                        <time>2022-08-18T03:37:38Z</time>
                        <extensions>
    <sog>0.1</sog>
</extensions>
                    </trkpt>
                    <trkpt lat="54.430933333333336" lon="10.170481666666666">
                        <ele>0</ele>
                        <time>2022-08-18T03:49:44Z</time>
                        <extensions>
    <sog>0.0</sog>
</extensions>
                    </trkpt>
                    <trkpt lat="54.43091833333334" lon="10.170478333333334">
                        <ele>0</ele>
                        <time>2022-08-18T04:19:48Z</time>
                        <extensions>
    <sog>0.0</sog>
</extensions>
                    </trkpt>
                    <trkpt lat="54.43093" lon="10.170486666666667">
                        <ele>0</ele>
                        <time>2022-08-18T04:22:42Z</time>
                        <extensions>
    <sog>0.0</sog>
</extensions>
                    </trkpt>
                    <trkpt lat="54.43093" lon="10.170511666666666">
                        <ele>0</ele>
                        <time>2022-08-18T04:43:15Z</time>
                        <extensions>
    <sog>0.0</sog>
</extensions>
                    </trkpt>
                    <trkpt lat="54.430953333333335" lon="10.170483333333333">
                        <ele>0</ele>
                        <time>2022-08-18T04:49:22Z</time>
                        <extensions>
    <sog>0.0</sog>
</extensions>
                    </trkpt>
                    <trkpt lat="54.430978333333336" lon="10.170481666666666">
                        <ele>0</ele>
                        <time>2022-08-18T05:37:42Z</time>
                        <extensions>
    <sog>0.0</sog>
</extensions>
                    </trkpt>
                    <trkpt lat="54.43094833333334" lon="10.170486666666667">
                        <ele>0</ele>
                        <time>2022-08-18T05:43:16Z</time>
                        <extensions>
    <sog>0.0</sog>
</extensions>
                    </trkpt>
                    <trkpt lat="54.430955000000004" lon="10.170505">
                        <ele>0</ele>
                        <time>2022-08-18T06:01:30Z</time>
                        <extensions>
    <sog>0.0</sog>
</extensions>
                    </trkpt>
                    <trkpt lat="54.43094166666666" lon="10.170463333333334">
                        <ele>0</ele>
                        <time>2022-08-18T06:04:17Z</time>
                        <extensions>
    <sog>0.0</sog>
</extensions>
                    </trkpt>
                    <trkpt lat="54.43093" lon="10.170476666666667">
                        <ele>0</ele>
                        <time>2022-08-18T06:06:03Z</time>
                        <extensions>
    <sog>0.1</sog>
</extensions>
                    </trkpt>
                    <trkpt lat="54.430928333333334" lon="10.170476666666667">
                        <ele>0</ele>
                        <time>2022-08-18T06:06:17Z</time>
                        <extensions>
    <sog>0.0</sog>
</extensions>
                    </trkpt>
                    <trkpt lat="54.43093" lon="10.17048">
                        <ele>0</ele>
                        <time>2022-08-18T06:06:33Z</time>
                        <extensions>
    <sog>0.0</sog>
</extensions>
                    </trkpt>
                    <trkpt lat="54.43093833333333" lon="10.170503333333333">
                        <ele>0</ele>
                        <time>2022-08-18T06:16:02Z</time>
                        <extensions>
    <sog>0.0</sog>
</extensions>
                    </trkpt>
                    <trkpt lat="54.43093" lon="10.170505">
                        <ele>0</ele>
                        <time>2022-08-18T06:23:45Z</time>
                        <extensions>
    <sog>0.0</sog>
</extensions>
                    </trkpt>
                    <trkpt lat="54.430935" lon="10.170506666666666">
                        <ele>0</ele>
                        <time>2022-08-18T06:25:15Z</time>
                        <extensions>
    <sog>0.1</sog>
</extensions>
                    </trkpt>
                    <trkpt lat="54.43093" lon="10.170508333333334">
                        <ele>0</ele>
                        <time>2022-08-18T06:35:44Z</time>
                        <extensions>
    <sog>0.0</sog>
</extensions>
                    </trkpt>
                    <trkpt lat="54.43095" lon="10.1705">
                        <ele>0</ele>
                        <time>2022-08-18T06:54:11Z</time>
                        <extensions>
    <sog>0.1</sog>
</extensions>
                    </trkpt>
                    <trkpt lat="54.43096333333334" lon="10.170613333333334">
                        <ele>0</ele>
                        <time>2022-08-18T06:55:11Z</time>
                        <extensions>
    <sog>0.3</sog>
</extensions>
                    </trkpt>
                    <trkpt lat="54.430975" lon="10.170743333333332">
                        <ele>0</ele>
                        <time>2022-08-18T06:56:11Z</time>
                        <extensions>
    <sog>0.2</sog>
</extensions>
                    </trkpt>
                    <trkpt lat="54.43096166666667" lon="10.170751666666666">
                        <ele>0</ele>
                        <time>2022-08-18T06:56:29Z</time>
                        <extensions>
    <sog>0.1</sog>
</extensions>
                    </trkpt>
                    <trkpt lat="54.42999833333333" lon="10.1747">
                        <ele>0</ele>
                        <time>2022-08-18T07:00:57Z</time>
                                                <extensions>
                            <sog>5.2</sog>
<cog>66.1</cog>
                        </extensions>
                    </trkpt>
                    <trkpt lat="54.42999833333333" lon="10.1747">
                        <ele>0</ele>
                        <time>2022-08-18T07:00:57Z</time>
                                                <extensions>
                            <sog>5.2</sog>
<cog>66.1</cog>
                        </extensions>
                    </trkpt>
                    <trkpt lat="54.430991666666664" lon="10.176168333333333">
                        <ele>0</ele>
                        <time>2022-08-18T07:01:57Z</time>
                                                <extensions>
                            <sog>5.3</sog>
<cog>355.4</cog>
                        </extensions>
                    </trkpt>
                    <trkpt lat="54.43165" lon="10.175726666666666">
                        <ele>0</ele>
                        <time>2022-08-18T07:02:27Z</time>
                                                <extensions>
                            <sog>4.9</sog>
<cog>337.2</cog>
                        </extensions>
                    </trkpt>
                    <trkpt lat="54.43230666666667" lon="10.175251666666666">
                        <ele>0</ele>
                        <time>2022-08-18T07:02:57Z</time>
                                                <extensions>
                            <sog>5.1</sog>
<cog>341.5</cog>
                        </extensions>
                    </trkpt>
                    <trkpt lat="54.435673333333334" lon="10.17245">
                        <ele>0</ele>
                        <time>2022-08-18T07:06:25Z</time>
                                                <extensions>
                            <sog>1.0</sog>
<cog>307.6</cog>
                        </extensions>
                    </trkpt>
                    <trkpt lat="54.434263333333334" lon="10.17825">
                        <ele>0</ele>
                        <time>2022-08-18T07:18:47Z</time>
                                                <extensions>
                            <sog>4.9</sog>
<cog>79.2</cog>
                        </extensions>
                    </trkpt>
                    <trkpt lat="54.43452833333333" lon="10.180461666666668">
                        <ele>0</ele>
                        <time>2022-08-18T07:19:47Z</time>
                                                <extensions>
                            <sog>4.5</sog>
<cog>86.8</cog>
                        </extensions>
                    </trkpt>
                    <trkpt lat="54.43470833333333" lon="10.185066666666668">
                        <ele>0</ele>
                        <time>2022-08-18T07:21:47Z</time>
                                                <extensions>
                            <sog>4.8</sog>
<cog>75.3</cog>
                        </extensions>
                    </trkpt>
                    <trkpt lat="54.436906666666665" lon="10.196736666666668">
                        <ele>0</ele>
                        <time>2022-08-18T07:27:20Z</time>
                                                <extensions>
                            <sog>5.2</sog>
<cog>54.5</cog>
                        </extensions>
                    </trkpt>
                    <trkpt lat="54.43834666666667" lon="10.20101">
                        <ele>0</ele>
                        <time>2022-08-18T07:29:20Z</time>
                                                <extensions>
                            <sog>4.9</sog>
<cog>48.4</cog>
                        </extensions>
                    </trkpt>
                    <trkpt lat="54.438898333333334" lon="10.20172">
                        <ele>0</ele>
                        <time>2022-08-18T07:29:48Z</time>
                                                <extensions>
                            <sog>5.4</sog>
<cog>40.3</cog>
                        </extensions>
                    </trkpt>
                    <trkpt lat="54.44057333333333" lon="10.204165">
                        <ele>0</ele>
                        <time>2022-08-18T07:31:20Z</time>
                                                <extensions>
                            <sog>4.9</sog>
<cog>39.0</cog>
                        </extensions>
                    </trkpt>
                    <trkpt lat="54.44151166666666" lon="10.205578333333333">
                        <ele>0</ele>
                        <time>2022-08-18T07:32:15Z</time>
                                                <extensions>
                            <sog>4.9</sog>
<cog>37.9</cog>
                        </extensions>
                    </trkpt>
                    <trkpt lat="54.44254166666666" lon="10.207135">
                        <ele>0</ele>
                        <time>2022-08-18T07:33:15Z</time>
                                                <extensions>
                            <sog>5.2</sog>
<cog>42.3</cog>
                        </extensions>
                    </trkpt>
                    <trkpt lat="54.44305333333333" lon="10.207931666666667">
                        <ele>0</ele>
                        <time>2022-08-18T07:33:45Z</time>
                                                <extensions>
                            <sog>4.8</sog>
<cog>42.1</cog>
                        </extensions>
                    </trkpt>
                    <trkpt lat="54.44409333333333" lon="10.209553333333334">
                        <ele>0</ele>
                        <time>2022-08-18T07:34:46Z</time>
                                                <extensions>
                            <sog>4.8</sog>
<cog>42.5</cog>
                        </extensions>
                    </trkpt>
                    <trkpt lat="54.44569666666666" lon="10.211756666666668">
                        <ele>0</ele>
                        <time>2022-08-18T07:36:15Z</time>
                                                <extensions>
                            <sog>4.9</sog>
<cog>21.8</cog>
                        </extensions>
                    </trkpt>
                    <trkpt lat="54.44842833333333" lon="10.211741666666667">
                        <ele>0</ele>
                        <time>2022-08-18T07:38:18Z</time>
                                                <extensions>
                            <sog>4.4</sog>
<cog>353.4</cog>
                        </extensions>
                    </trkpt>
                    <trkpt lat="54.456805" lon="10.210566666666667">
                        <ele>0</ele>
                        <time>2022-08-18T07:44:18Z</time>
                                                <extensions>
                            <sog>6.3</sog>
<cog>356.0</cog>
                        </extensions>
                    </trkpt>
                    <trkpt lat="54.45861166666667" lon="10.210316666666667">
                        <ele>0</ele>
                        <time>2022-08-18T07:45:20Z</time>
                                                <extensions>
                            <sog>6.6</sog>
<cog>356.7</cog>
                        </extensions>
                    </trkpt>
                    <trkpt lat="54.45943333333333" lon="10.210203333333334">
                        <ele>0</ele>
                        <time>2022-08-18T07:45:49Z</time>
                                                <extensions>
                            <sog>6.0</sog>
<cog>354.0</cog>
                        </extensions>
                    </trkpt>
                    <trkpt lat="54.461101666666664" lon="10.20996">
                        <ele>0</ele>
                        <time>2022-08-18T07:46:49Z</time>
                                                <extensions>
                            <sog>6.2</sog>
<cog>0.6</cog>
                        </extensions>
                    </trkpt>
                    <trkpt lat="54.46196166666667" lon="10.209848333333333">
                        <ele>0</ele>
                        <time>2022-08-18T07:47:20Z</time>
                                                <extensions>
                            <sog>5.7</sog>
<cog>358.2</cog>
                        </extensions>
                    </trkpt>
                    <trkpt lat="54.46443" lon="10.209388333333333">
                        <ele>0</ele>
                        <time>2022-08-18T07:48:49Z</time>
                                                <extensions>
                            <sog>6.0</sog>
<cog>352.1</cog>
                        </extensions>
                    </trkpt>
                    <trkpt lat="54.47175166666667" lon="10.208243333333334">
                        <ele>0</ele>
                        <time>2022-08-18T07:53:19Z</time>
                                                <extensions>
                            <sog>6.1</sog>
<cog>358.0</cog>
                        </extensions>
                    </trkpt>
                    <trkpt lat="54.474203333333335" lon="10.207865">
                        <ele>0</ele>
                        <time>2022-08-18T07:54:49Z</time>
                                                <extensions>
                            <sog>6.1</sog>
<cog>354.6</cog>
                        </extensions>
                    </trkpt>
                    <trkpt lat="54.47498666666667" lon="10.207756666666667">
                        <ele>0</ele>
                        <time>2022-08-18T07:55:19Z</time>
                                                <extensions>
                            <sog>5.5</sog>
<cog>356.9</cog>
                        </extensions>
                    </trkpt>
                    <trkpt lat="54.47574833333333" lon="10.207656666666667">
                        <ele>0</ele>
                        <time>2022-08-18T07:55:49Z</time>
                                                <extensions>
                            <sog>5.1</sog>
<cog>353.8</cog>
                        </extensions>
                    </trkpt>
                    <trkpt lat="54.477205000000005" lon="10.207483333333332">
                        <ele>0</ele>
                        <time>2022-08-18T07:56:45Z</time>
                                                <extensions>
                            <sog>5.3</sog>
<cog>355.6</cog>
                        </extensions>
                    </trkpt>
                    <trkpt lat="54.48027833333333" lon="10.207105">
                        <ele>0</ele>
                        <time>2022-08-18T07:58:45Z</time>
                                                <extensions>
                            <sog>6.4</sog>
<cog>357.6</cog>
                        </extensions>
                    </trkpt>
                    <trkpt lat="54.48200666666666" lon="10.206806666666667">
                        <ele>0</ele>
                        <time>2022-08-18T07:59:45Z</time>
                                                <extensions>
                            <sog>6.0</sog>
<cog>353.1</cog>
                        </extensions>
                    </trkpt>
                    <trkpt lat="54.48372833333334" lon="10.206606666666666">
                        <ele>0</ele>
                        <time>2022-08-18T08:00:47Z</time>
                                                <extensions>
                            <sog>5.7</sog>
<cog>356.6</cog>
                        </extensions>
                    </trkpt>
                    <trkpt lat="54.48372833333334" lon="10.206606666666666">
                        <ele>0</ele>
                        <time>2022-08-18T08:00:47Z</time>
                                                <extensions>
                            <sog>5.7</sog>
<cog>356.6</cog>
                        </extensions>
                    </trkpt>
                    <trkpt lat="54.485459999999996" lon="10.206341666666667">
                        <ele>0</ele>
                        <time>2022-08-18T08:01:47Z</time>
                                                <extensions>
                            <sog>6.2</sog>
<cog>353.4</cog>
                        </extensions>
                    </trkpt>
                    <trkpt lat="54.487125" lon="10.206078333333332">
                        <ele>0</ele>
                        <time>2022-08-18T08:02:47Z</time>
                                                <extensions>
                            <sog>6.2</sog>
<cog>355.8</cog>
                        </extensions>
                    </trkpt>
                    <trkpt lat="54.49028833333333" lon="10.205655">
                        <ele>0</ele>
                        <time>2022-08-18T08:04:47Z</time>
                                                <extensions>
                            <sog>4.2</sog>
<cog>356.5</cog>
                        </extensions>
                    </trkpt>
                    <trkpt lat="54.49379" lon="10.205258333333335">
                        <ele>0</ele>
                        <time>2022-08-18T08:07:18Z</time>
                                                <extensions>
                            <sog>5.6</sog>
<cog>2.9</cog>
                        </extensions>
                    </trkpt>
                    <trkpt lat="54.495956666666665" lon="10.20506">
                        <ele>0</ele>
                        <time>2022-08-18T08:08:49Z</time>
                                                <extensions>
                            <sog>5.3</sog>
<cog>357.8</cog>
                        </extensions>
                    </trkpt>
                    <trkpt lat="54.50308666666667" lon="10.2046">
                        <ele>0</ele>
                        <time>2022-08-18T08:14:44Z</time>
                                                <extensions>
                            <sog>5.3</sog>
<cog>358.2</cog>
                        </extensions>
                    </trkpt>
                    <trkpt lat="54.50900333333333" lon="10.204441666666666">
                        <ele>0</ele>
                        <time>2022-08-18T08:18:49Z</time>
                                                <extensions>
                            <sog>5.2</sog>
<cog>359.8</cog>
                        </extensions>
                    </trkpt>
                    </trkseg>
                </trk>
</gpx>