<?xml version="1.0" encoding="UTF-8"?>
<gpx version="1.1" creator="AIS-to-GPX Converter" xmlns="http://www.topografix.com/GPX/1/1">
                <trk>
                    <name>anon0109</name>
                    <trkseg>
                                            <trkpt lat="53.902073333333334" lon="9.161621666666667">
                        <ele>0</ele>
                        <time>2022-08-18T01:10:08Z</time>
                                                <extensions>
                            <sog>4.5</sog>
<cog>43.4</cog>
                        </extensions>
                    </trkpt>
                    </trkseg>
                </trk>
</gpx>