<?xml version="1.0" encoding="UTF-8"?>
<gpx version="1.1" creator="AIS-to-GPX Converter" xmlns="http://www.topografix.com/GPX/1/1">
                <trk>
                    <name>anon0211</name>
                    <trkseg>
                                            <trkpt lat="54.67305666666667" lon="10.029173333333334">
                        <ele>0</ele>
                        <time>2022-08-18T12:46:49Z</time>
                                                <extensions>
                            <sog>6.4</sog>
<cog>121.1</cog>
                        </extensions>
                    </trkpt>
                    <trkpt lat="54.672623333333334" lon="10.032711666666668">
                        <ele>0</ele>
                        <time>2022-08-18T13:07:49Z</time>
                                                <extensions>
                            <sog>0.0</sog>
<cog>0.0</cog>
                        </extensions>
                    </trkpt>
                    <trkpt lat="54.67263833333333" lon="10.032738333333333">
                        <ele>0</ele>
                        <time>2022-08-18T13:13:47Z</time>
                                                <extensions>
                            <sog>0.0</sog>
<cog>0.0</cog>
                        </extensions>
                    </trkpt>
                    <trkpt lat="54.67263333333334" lon="10.032703333333334">
                        <ele>0</ele>
                        <time>2022-08-18T13:22:48Z</time>
                                                <extensions>
                            <sog>0.0</sog>
<cog>0.0</cog>
                        </extensions>
                    </trkpt>
                    <trkpt lat="54.67263833333333" lon="10.032721666666667">
                        <ele>0</ele>
                        <time>2022-08-18T13:25:50Z</time>
                                                <extensions>
                            <sog>0.0</sog>
<cog>313.5</cog>
                        </extensions>
                    </trkpt>
                    <trkpt lat="54.67281833333333" lon="10.031998333333332">
                        <ele>0</ele>
                        <time>2022-08-18T13:27:31Z</time>
                                                <extensions>
                            <sog>5.0</sog>
<cog>294.8</cog>
                        </extensions>
                    </trkpt>
                    </trkseg>
                </trk>
</gpx>