<?xml version="1.0" encoding="UTF-8"?>
<gpx version="1.1" creator="AIS-to-GPX Converter" xmlns="http://www.topografix.com/GPX/1/1">
                <trk>
                    <name>anon0334</name>
                    <trkseg>
                                            <trkpt lat="54.51616333333333" lon="10.004375000000001">
                        <ele>0</ele>
                        <time>2022-08-18T00:49:55Z</time>
                                                <extensions>
                            <sog>6.7</sog>
<cog>206.3</cog>
                        </extensions>
                    </trkpt>
                    <trkpt lat="54.51464" lon="10.00274">
                        <ele>0</ele>
                        <time>2022-08-18T00:50:55Z</time>
                                                <extensions>
                            <sog>6.4</sog>
<cog>214.0</cog>
                        </extensions>
                    </trkpt>
                    <trkpt lat="54.51382666666667" lon="10.001751666666667">
                        <ele>0</ele>
                        <time>2022-08-18T00:51:29Z</time>
                                                <extensions>
                            <sog>6.5</sog>
<cog>203.8</cog>
                        </extensions>
                    </trkpt>
                    <trkpt lat="54.513176666666666" lon="10.000921666666667">
                        <ele>0</ele>
                        <time>2022-08-18T00:51:55Z</time>
                                                <extensions>
                            <sog>6.5</sog>
<cog>213.5</cog>
                        </extensions>
                    </trkpt>
                    <trkpt lat="54.512386666666664" lon="9.999938333333334">
                        <ele>0</ele>
                        <time>2022-08-18T00:52:27Z</time>
                                                <extensions>
                            <sog>6.9</sog>
<cog>217.5</cog>
                        </extensions>
                    </trkpt>
                    <trkpt lat="54.511693333333334" lon="9.999083333333335">
                        <ele>0</ele>
                        <time>2022-08-18T00:52:55Z</time>
                                                <extensions>
                            <sog>6.4</sog>
<cog>209.5</cog>
                        </extensions>
                    </trkpt>
                    <trkpt lat="54.509519999999995" lon="9.996283333333334">
                        <ele>0</ele>
                        <time>2022-08-18T00:54:25Z</time>
                                                <extensions>
                            <sog>6.5</sog>
<cog>229.4</cog>
                        </extensions>
                    </trkpt>
                    <trkpt lat="54.50887" lon="9.995203333333334">
                        <ele>0</ele>
                        <time>2022-08-18T00:54:55Z</time>
                                                <extensions>
                            <sog>6.3</sog>
<cog>224.9</cog>
                        </extensions>
                    </trkpt>
                    <trkpt lat="54.50822" lon="9.994021666666667">
                        <ele>0</ele>
                        <time>2022-08-18T00:55:26Z</time>
                                                <extensions>
                            <sog>6.9</sog>
<cog>231.2</cog>
                        </extensions>
                    </trkpt>
                    <trkpt lat="54.50757" lon="9.992871666666668">
                        <ele>0</ele>
                        <time>2022-08-18T00:55:56Z</time>
                                                <extensions>
                            <sog>7.0</sog>
<cog>224.4</cog>
                        </extensions>
                    </trkpt>
                    <trkpt lat="54.50695666666666" lon="9.991793333333334">
                        <ele>0</ele>
                        <time>2022-08-18T00:56:25Z</time>
                                                <extensions>
                            <sog>6.1</sog>
<cog>229.3</cog>
                        </extensions>
                    </trkpt>
                    <trkpt lat="54.50443666666667" lon="9.987155">
                        <ele>0</ele>
                        <time>2022-08-18T00:58:26Z</time>
                                                <extensions>
                            <sog>6.6</sog>
<cog>237.8</cog>
                        </extensions>
                    </trkpt>
                    <trkpt lat="54.50395666666667" lon="9.985891666666667">
                        <ele>0</ele>
                        <time>2022-08-18T00:58:55Z</time>
                                                <extensions>
                            <sog>6.9</sog>
<cog>242.7</cog>
                        </extensions>
                    </trkpt>
                    <trkpt lat="54.50347333333333" lon="9.98456">
                        <ele>0</ele>
                        <time>2022-08-18T00:59:25Z</time>
                                                <extensions>
                            <sog>6.6</sog>
<cog>237.2</cog>
                        </extensions>
                    </trkpt>
                    <trkpt lat="54.50299333333333" lon="9.983246666666668">
                        <ele>0</ele>
                        <time>2022-08-18T00:59:55Z</time>
                                                <extensions>
                            <sog>6.5</sog>
<cog>237.1</cog>
                        </extensions>
                    </trkpt>
                    <trkpt lat="54.50200333333333" lon="9.98054">
                        <ele>0</ele>
                        <time>2022-08-18T01:00:56Z</time>
                                                <extensions>
                            <sog>6.5</sog>
<cog>233.0</cog>
                        </extensions>
                    </trkpt>
                    <trkpt lat="54.50200333333333" lon="9.98054">
                        <ele>0</ele>
                        <time>2022-08-18T01:00:56Z</time>
                                                <extensions>
                            <sog>6.5</sog>
<cog>233.0</cog>
                        </extensions>
                    </trkpt>
                    <trkpt lat="54.50147333333334" lon="9.979108333333333">
                        <ele>0</ele>
                        <time>2022-08-18T01:01:28Z</time>
                                                <extensions>
                            <sog>6.2</sog>
<cog>243.7</cog>
                        </extensions>
                    </trkpt>
                    <trkpt lat="54.50002333333334" lon="9.975193333333333">
                        <ele>0</ele>
                        <time>2022-08-18T01:02:56Z</time>
                                                <extensions>
                            <sog>6.8</sog>
<cog>239.2</cog>
                        </extensions>
                    </trkpt>
                    <trkpt lat="54.49907333333333" lon="9.972573333333335">
                        <ele>0</ele>
                        <time>2022-08-18T01:03:55Z</time>
                                                <extensions>
                            <sog>6.7</sog>
<cog>238.8</cog>
                        </extensions>
                    </trkpt>
                    <trkpt lat="54.498113333333336" lon="9.969869999999998">
                        <ele>0</ele>
                        <time>2022-08-18T01:04:55Z</time>
                                                <extensions>
                            <sog>6.9</sog>
<cog>240.1</cog>
                        </extensions>
                    </trkpt>
                    <trkpt lat="54.49709333333333" lon="9.967096666666666">
                        <ele>0</ele>
                        <time>2022-08-18T01:06:03Z</time>
                                                <extensions>
                            <sog>6.6</sog>
<cog>239.5</cog>
                        </extensions>
                    </trkpt>
                    <trkpt lat="54.49368333333334" lon="9.957566666666667">
                        <ele>0</ele>
                        <time>2022-08-18T01:09:26Z</time>
                                                <extensions>
                            <sog>6.8</sog>
<cog>238.6</cog>
                        </extensions>
                    </trkpt>
                    <trkpt lat="54.49319" lon="9.956145">
                        <ele>0</ele>
                        <time>2022-08-18T01:09:56Z</time>
                                                <extensions>
                            <sog>6.5</sog>
<cog>234.1</cog>
                        </extensions>
                    </trkpt>
                    <trkpt lat="54.48829" lon="9.942376666666666">
                        <ele>0</ele>
                        <time>2022-08-18T01:14:56Z</time>
                                                <extensions>
                            <sog>6.5</sog>
<cog>241.8</cog>
                        </extensions>
                    </trkpt>
                    <trkpt lat="54.4868" lon="9.938191666666667">
                        <ele>0</ele>
                        <time>2022-08-18T01:16:25Z</time>
                                                <extensions>
                            <sog>6.6</sog>
<cog>236.5</cog>
                        </extensions>
                    </trkpt>
                    <trkpt lat="54.48582333333333" lon="9.935408333333333">
                        <ele>0</ele>
                        <time>2022-08-18T01:17:25Z</time>
                                                <extensions>
                            <sog>6.8</sog>
<cog>237.7</cog>
                        </extensions>
                    </trkpt>
                    <trkpt lat="54.48533666666666" lon="9.933983333333334">
                        <ele>0</ele>
                        <time>2022-08-18T01:17:55Z</time>
                                                <extensions>
                            <sog>7.0</sog>
<cog>243.5</cog>
                        </extensions>
                    </trkpt>
                    <trkpt lat="54.48488" lon="9.93251">
                        <ele>0</ele>
                        <time>2022-08-18T01:18:25Z</time>
                                                <extensions>
                            <sog>6.8</sog>
<cog>242.6</cog>
                        </extensions>
                    </trkpt>
                    <trkpt lat="54.48263333333333" lon="9.925146666666667">
                        <ele>0</ele>
                        <time>2022-08-18T01:20:57Z</time>
                                                <extensions>
                            <sog>6.9</sog>
<cog>241.4</cog>
                        </extensions>
                    </trkpt>
                    <trkpt lat="54.48132333333333" lon="9.920823333333335">
                        <ele>0</ele>
                        <time>2022-08-18T01:22:26Z</time>
                                                <extensions>
                            <sog>6.7</sog>
<cog>240.9</cog>
                        </extensions>
                    </trkpt>
                    <trkpt lat="54.48090666666667" lon="9.91942">
                        <ele>0</ele>
                        <time>2022-08-18T01:22:55Z</time>
                                                <extensions>
                            <sog>6.6</sog>
<cog>243.4</cog>
                        </extensions>
                    </trkpt>
                    <trkpt lat="54.48045333333334" lon="9.917913333333333">
                        <ele>0</ele>
                        <time>2022-08-18T01:23:26Z</time>
                                                <extensions>
                            <sog>7.0</sog>
<cog>241.7</cog>
                        </extensions>
                    </trkpt>
                    <trkpt lat="54.47866333333333" lon="9.912166666666668">
                        <ele>0</ele>
                        <time>2022-08-18T01:25:25Z</time>
                                                <extensions>
                            <sog>7.0</sog>
<cog>239.4</cog>
                        </extensions>
                    </trkpt>
                    <trkpt lat="54.47818333333333" lon="9.910675">
                        <ele>0</ele>
                        <time>2022-08-18T01:25:56Z</time>
                                                <extensions>
                            <sog>6.3</sog>
<cog>242.3</cog>
                        </extensions>
                    </trkpt>
                    <trkpt lat="54.47771" lon="9.909105">
                        <ele>0</ele>
                        <time>2022-08-18T01:26:29Z</time>
                                                <extensions>
                            <sog>6.7</sog>
<cog>245.4</cog>
                        </extensions>
                    </trkpt>
                    <trkpt lat="54.477293333333336" lon="9.907833333333334">
                        <ele>0</ele>
                        <time>2022-08-18T01:26:56Z</time>
                                                <extensions>
                            <sog>6.8</sog>
<cog>241.3</cog>
                        </extensions>
                    </trkpt>
                    <trkpt lat="54.476213333333334" lon="9.903416666666667">
                        <ele>0</ele>
                        <time>2022-08-18T01:28:25Z</time>
                                                <extensions>
                            <sog>6.9</sog>
<cog>251.2</cog>
                        </extensions>
                    </trkpt>
                    <trkpt lat="54.47589666666667" lon="9.901846666666668">
                        <ele>0</ele>
                        <time>2022-08-18T01:28:56Z</time>
                                                <extensions>
                            <sog>6.8</sog>
<cog>249.3</cog>
                        </extensions>
                    </trkpt>
                    <trkpt lat="54.47528333333333" lon="9.898828333333334">
                        <ele>0</ele>
                        <time>2022-08-18T01:29:56Z</time>
                                                <extensions>
                            <sog>6.6</sog>
<cog>250.6</cog>
                        </extensions>
                    </trkpt>
                    <trkpt lat="54.47438" lon="9.894296666666666">
                        <ele>0</ele>
                        <time>2022-08-18T01:31:26Z</time>
                                                <extensions>
                            <sog>6.2</sog>
<cog>253.7</cog>
                        </extensions>
                    </trkpt>
                    <trkpt lat="54.47406333333333" lon="9.892765">
                        <ele>0</ele>
                        <time>2022-08-18T01:31:57Z</time>
                                                <extensions>
                            <sog>6.6</sog>
<cog>249.2</cog>
                        </extensions>
                    </trkpt>
                    <trkpt lat="54.47345333333333" lon="9.889796666666665">
                        <ele>0</ele>
                        <time>2022-08-18T01:32:56Z</time>
                                                <extensions>
                            <sog>6.5</sog>
<cog>252.7</cog>
                        </extensions>
                    </trkpt>
                    <trkpt lat="54.473333333333336" lon="9.855871666666667">
                        <ele>0</ele>
                        <time>2022-08-18T01:46:26Z</time>
                                                <extensions>
                            <sog>3.6</sog>
<cog>4.2</cog>
                        </extensions>
                    </trkpt>
                    <trkpt lat="54.47539" lon="9.854623333333333">
                        <ele>0</ele>
                        <time>2022-08-18T01:49:55Z</time>
                                                <extensions>
                            <sog>1.7</sog>
<cog>358.7</cog>
                        </extensions>
                    </trkpt>
                    <trkpt lat="54.47560333333333" lon="9.854623333333333">
                        <ele>0</ele>
                        <time>2022-08-18T01:50:25Z</time>
                                                <extensions>
                            <sog>0.4</sog>
<cog>4.3</cog>
                        </extensions>
                    </trkpt>
                    </trkseg>
                </trk>
</gpx>