<?xml version="1.0" encoding="UTF-8"?>
<gpx version="1.1" creator="AIS-to-GPX Converter" xmlns="http://www.topografix.com/GPX/1/1">
                <trk>
                    <name>anon0185</name>
                    <trkseg>
                                            <trkpt lat="54.499865" lon="10.175514999999999">
                        <ele>0</ele>
                        <time>2022-08-18T11:35:58Z</time>
                                                <extensions>
                            <sog>5.6</sog>
<cog>160.0</cog>
                        </extensions>
                    </trkpt>
                    <trkpt lat="54.481555" lon="10.191593333333334">
                        <ele>0</ele>
                        <time>2022-08-18T11:49:00Z</time>
                                                <extensions>
                            <sog>5.3</sog>
<cog>162.0</cog>
                        </extensions>
                    </trkpt>
                    <trkpt lat="54.47309" lon="10.197986666666667">
                        <ele>0</ele>
                        <time>2022-08-18T11:54:59Z</time>
                                                <extensions>
                            <sog>5.3</sog>
<cog>154.1</cog>
                        </extensions>
                    </trkpt>
                    <trkpt lat="54.47022333333334" lon="10.200026666666668">
                        <ele>0</ele>
                        <time>2022-08-18T11:56:59Z</time>
                                                <extensions>
                            <sog>5.5</sog>
<cog>156.1</cog>
                        </extensions>
                    </trkpt>
                    <trkpt lat="54.467468333333336" lon="10.202433333333333">
                        <ele>0</ele>
                        <time>2022-08-18T11:59:01Z</time>
                                                <extensions>
                            <sog>5.5</sog>
<cog>154.9</cog>
                        </extensions>
                    </trkpt>
                    <trkpt lat="54.463415000000005" lon="10.206106666666667">
                        <ele>0</ele>
                        <time>2022-08-18T12:02:00Z</time>
                                                <extensions>
                            <sog>5.5</sog>
<cog>151.6</cog>
                        </extensions>
                    </trkpt>
                    <trkpt lat="54.460591666666666" lon="10.20829">
                        <ele>0</ele>
                        <time>2022-08-18T12:04:01Z</time>
                                                <extensions>
                            <sog>5.3</sog>
<cog>163.4</cog>
                        </extensions>
                    </trkpt>
                    <trkpt lat="54.459115" lon="10.208536666666667">
                        <ele>0</ele>
                        <time>2022-08-18T12:05:00Z</time>
                                                <extensions>
                            <sog>5.1</sog>
<cog>178.6</cog>
                        </extensions>
                    </trkpt>
                    <trkpt lat="54.45481666666667" lon="10.207868333333332">
                        <ele>0</ele>
                        <time>2022-08-18T12:08:01Z</time>
                                                <extensions>
                            <sog>5.8</sog>
<cog>164.2</cog>
                        </extensions>
                    </trkpt>
                    <trkpt lat="54.45325666666667" lon="10.208205">
                        <ele>0</ele>
                        <time>2022-08-18T12:09:00Z</time>
                                                <extensions>
                            <sog>5.8</sog>
<cog>175.7</cog>
                        </extensions>
                    </trkpt>
                    <trkpt lat="54.45166166666667" lon="10.208471666666666">
                        <ele>0</ele>
                        <time>2022-08-18T12:10:00Z</time>
                                                <extensions>
                            <sog>5.8</sog>
<cog>156.8</cog>
                        </extensions>
                    </trkpt>
                    <trkpt lat="54.443713333333335" lon="10.211006666666666">
                        <ele>0</ele>
                        <time>2022-08-18T12:15:00Z</time>
                                                <extensions>
                            <sog>5.9</sog>
<cog>176.0</cog>
                        </extensions>
                    </trkpt>
                    <trkpt lat="54.442053333333334" lon="10.211236666666668">
                        <ele>0</ele>
                        <time>2022-08-18T12:16:01Z</time>
                                                <extensions>
                            <sog>5.8</sog>
<cog>174.4</cog>
                        </extensions>
                    </trkpt>
                    <trkpt lat="54.44041" lon="10.211321666666667">
                        <ele>0</ele>
                        <time>2022-08-18T12:17:02Z</time>
                                                <extensions>
                            <sog>5.7</sog>
<cog>180.7</cog>
                        </extensions>
                    </trkpt>
                    <trkpt lat="54.437185" lon="10.21153">
                        <ele>0</ele>
                        <time>2022-08-18T12:19:01Z</time>
                                                <extensions>
                            <sog>5.8</sog>
<cog>172.7</cog>
                        </extensions>
                    </trkpt>
                    <trkpt lat="54.43551" lon="10.211528333333332">
                        <ele>0</ele>
                        <time>2022-08-18T12:20:01Z</time>
                                                <extensions>
                            <sog>5.7</sog>
<cog>179.9</cog>
                        </extensions>
                    </trkpt>
                    <trkpt lat="54.433906666666665" lon="10.211548333333333">
                        <ele>0</ele>
                        <time>2022-08-18T12:21:00Z</time>
                                                <extensions>
                            <sog>5.9</sog>
<cog>179.2</cog>
                        </extensions>
                    </trkpt>
                    <trkpt lat="54.432255000000005" lon="10.211463333333334">
                        <ele>0</ele>
                        <time>2022-08-18T12:22:01Z</time>
                                                <extensions>
                            <sog>5.8</sog>
<cog>185.3</cog>
                        </extensions>
                    </trkpt>
                    <trkpt lat="54.430598333333336" lon="10.21097">
                        <ele>0</ele>
                        <time>2022-08-18T12:23:02Z</time>
                                                <extensions>
                            <sog>6.0</sog>
<cog>188.8</cog>
                        </extensions>
                    </trkpt>
                    <trkpt lat="54.428958333333334" lon="10.210665">
                        <ele>0</ele>
                        <time>2022-08-18T12:24:01Z</time>
                                                <extensions>
                            <sog>5.6</sog>
<cog>184.3</cog>
                        </extensions>
                    </trkpt>
                    <trkpt lat="54.42579166666667" lon="10.209186666666666">
                        <ele>0</ele>
                        <time>2022-08-18T12:26:00Z</time>
                                                <extensions>
                            <sog>6.0</sog>
<cog>198.1</cog>
                        </extensions>
                    </trkpt>
                    <trkpt lat="54.42259833333333" lon="10.207666666666666">
                        <ele>0</ele>
                        <time>2022-08-18T12:28:01Z</time>
                                                <extensions>
                            <sog>5.9</sog>
<cog>196.3</cog>
                        </extensions>
                    </trkpt>
                    <trkpt lat="54.420966666666665" lon="10.206886666666666">
                        <ele>0</ele>
                        <time>2022-08-18T12:29:02Z</time>
                                                <extensions>
                            <sog>6.1</sog>
<cog>200.2</cog>
                        </extensions>
                    </trkpt>
                    <trkpt lat="54.41865333333333" lon="10.206243333333333">
                        <ele>0</ele>
                        <time>2022-08-18T12:32:02Z</time>
                                                <extensions>
                            <sog>1.6</sog>
<cog>89.5</cog>
                        </extensions>
                    </trkpt>
                    <trkpt lat="54.418985" lon="10.206355">
                        <ele>0</ele>
                        <time>2022-08-18T12:33:00Z</time>
                                                <extensions>
                            <sog>1.3</sog>
<cog>2.7</cog>
                        </extensions>
                    </trkpt>
                    <trkpt lat="54.41940666666667" lon="10.20639">
                        <ele>0</ele>
                        <time>2022-08-18T12:34:00Z</time>
                                                <extensions>
                            <sog>2.0</sog>
<cog>11.0</cog>
                        </extensions>
                    </trkpt>
                    <trkpt lat="54.41963" lon="10.206636666666666">
                        <ele>0</ele>
                        <time>2022-08-18T12:34:31Z</time>
                                                <extensions>
                            <sog>1.8</sog>
<cog>40.5</cog>
                        </extensions>
                    </trkpt>
                    <trkpt lat="54.41987166666667" lon="10.206966666666666">
                        <ele>0</ele>
                        <time>2022-08-18T12:35:00Z</time>
                                                <extensions>
                            <sog>2.7</sog>
<cog>39.0</cog>
                        </extensions>
                    </trkpt>
                    <trkpt lat="54.42017" lon="10.207483333333332">
                        <ele>0</ele>
                        <time>2022-08-18T12:35:31Z</time>
                                                <extensions>
                            <sog>3.4</sog>
<cog>55.7</cog>
                        </extensions>
                    </trkpt>
                    <trkpt lat="54.42039333333333" lon="10.208094999999998">
                        <ele>0</ele>
                        <time>2022-08-18T12:36:00Z</time>
                                                <extensions>
                            <sog>3.6</sog>
<cog>73.4</cog>
                        </extensions>
                    </trkpt>
                    <trkpt lat="54.41965833333334" lon="10.209728333333334">
                        <ele>0</ele>
                        <time>2022-08-18T12:37:02Z</time>
                                                <extensions>
                            <sog>5.1</sog>
<cog>160.6</cog>
                        </extensions>
                    </trkpt>
                    <trkpt lat="54.418395000000004" lon="10.210741666666667">
                        <ele>0</ele>
                        <time>2022-08-18T12:38:00Z</time>
                                                <extensions>
                            <sog>5.2</sog>
<cog>160.1</cog>
                        </extensions>
                    </trkpt>
                    <trkpt lat="54.41587166666667" lon="10.21326">
                        <ele>0</ele>
                        <time>2022-08-18T12:40:00Z</time>
                                                <extensions>
                            <sog>5.3</sog>
<cog>148.0</cog>
                        </extensions>
                    </trkpt>
                    <trkpt lat="54.41191333333334" lon="10.214215">
                        <ele>0</ele>
                        <time>2022-08-18T12:43:01Z</time>
                                                <extensions>
                            <sog>4.1</sog>
<cog>191.0</cog>
                        </extensions>
                    </trkpt>
                    <trkpt lat="54.40971666666667" lon="10.213204999999999">
                        <ele>0</ele>
                        <time>2022-08-18T12:45:01Z</time>
                                                <extensions>
                            <sog>4.0</sog>
<cog>193.7</cog>
                        </extensions>
                    </trkpt>
                    <trkpt lat="54.4043" lon="10.214013333333332">
                        <ele>0</ele>
                        <time>2022-08-18T12:49:31Z</time>
                                                <extensions>
                            <sog>4.4</sog>
<cog>157.4</cog>
                        </extensions>
                    </trkpt>
                    <trkpt lat="54.40374666666666" lon="10.21753">
                        <ele>0</ele>
                        <time>2022-08-18T13:25:00Z</time>
                                                <extensions>
                            <sog>0.4</sog>
<cog>324.0</cog>
                        </extensions>
                    </trkpt>
                    <trkpt lat="54.40676833333334" lon="10.211085">
                        <ele>0</ele>
                        <time>2022-08-18T13:30:34Z</time>
                                                <extensions>
                            <sog>5.4</sog>
<cog>334.3</cog>
                        </extensions>
                    </trkpt>
                    <trkpt lat="54.410975" lon="10.206976666666666">
                        <ele>0</ele>
                        <time>2022-08-18T13:33:33Z</time>
                                                <extensions>
                            <sog>5.8</sog>
<cog>332.4</cog>
                        </extensions>
                    </trkpt>
                    <trkpt lat="54.41236333333333" lon="10.205816666666667">
                        <ele>0</ele>
                        <time>2022-08-18T13:34:30Z</time>
                                                <extensions>
                            <sog>5.8</sog>
<cog>335.2</cog>
                        </extensions>
                    </trkpt>
                    <trkpt lat="54.413875" lon="10.20524">
                        <ele>0</ele>
                        <time>2022-08-18T13:35:32Z</time>
                                                <extensions>
                            <sog>4.6</sog>
<cog>23.3</cog>
                        </extensions>
                    </trkpt>
                    <trkpt lat="54.416075" lon="10.204426666666667">
                        <ele>0</ele>
                        <time>2022-08-18T13:37:30Z</time>
                                                <extensions>
                            <sog>4.7</sog>
<cog>336.3</cog>
                        </extensions>
                    </trkpt>
                    <trkpt lat="54.41840166666667" lon="10.202426666666666">
                        <ele>0</ele>
                        <time>2022-08-18T13:39:30Z</time>
                                                <extensions>
                            <sog>4.8</sog>
<cog>328.6</cog>
                        </extensions>
                    </trkpt>
                    <trkpt lat="54.42175333333333" lon="10.199656666666668">
                        <ele>0</ele>
                        <time>2022-08-18T13:42:31Z</time>
                                                <extensions>
                            <sog>4.4</sog>
<cog>357.7</cog>
                        </extensions>
                    </trkpt>
                    <trkpt lat="54.42297833333334" lon="10.199504999999998">
                        <ele>0</ele>
                        <time>2022-08-18T13:43:31Z</time>
                                                <extensions>
                            <sog>4.1</sog>
<cog>354.1</cog>
                        </extensions>
                    </trkpt>
                    <trkpt lat="54.42536" lon="10.199209999999999">
                        <ele>0</ele>
                        <time>2022-08-18T13:45:32Z</time>
                                                <extensions>
                            <sog>4.2</sog>
<cog>351.7</cog>
                        </extensions>
                    </trkpt>
                    <trkpt lat="54.42849833333333" lon="10.200128333333334">
                        <ele>0</ele>
                        <time>2022-08-18T13:48:30Z</time>
                                                <extensions>
                            <sog>3.9</sog>
<cog>30.4</cog>
                        </extensions>
                    </trkpt>
                    <trkpt lat="54.42945333333333" lon="10.201105">
                        <ele>0</ele>
                        <time>2022-08-18T13:49:32Z</time>
                                                <extensions>
                            <sog>4.0</sog>
<cog>26.9</cog>
                        </extensions>
                    </trkpt>
                    <trkpt lat="54.434081666666664" lon="10.206421666666667">
                        <ele>0</ele>
                        <time>2022-08-18T13:54:31Z</time>
                                                <extensions>
                            <sog>4.0</sog>
<cog>33.2</cog>
                        </extensions>
                    </trkpt>
                    <trkpt lat="54.43502" lon="10.207518333333333">
                        <ele>0</ele>
                        <time>2022-08-18T13:55:30Z</time>
                                                <extensions>
                            <sog>3.9</sog>
<cog>40.2</cog>
                        </extensions>
                    </trkpt>
                    <trkpt lat="54.4359" lon="10.208611666666666">
                        <ele>0</ele>
                        <time>2022-08-18T13:56:30Z</time>
                                                <extensions>
                            <sog>3.9</sog>
<cog>35.7</cog>
                        </extensions>
                    </trkpt>
                    <trkpt lat="54.43679833333333" lon="10.209683333333334">
                        <ele>0</ele>
                        <time>2022-08-18T13:57:30Z</time>
                                                <extensions>
                            <sog>3.9</sog>
<cog>34.3</cog>
                        </extensions>
                    </trkpt>
                    <trkpt lat="54.43773833333333" lon="10.210868333333334">
                        <ele>0</ele>
                        <time>2022-08-18T13:58:30Z</time>
                                                <extensions>
                            <sog>4.0</sog>
<cog>38.0</cog>
                        </extensions>
                    </trkpt>
                    <trkpt lat="54.44041666666667" lon="10.214298333333334">
                        <ele>0</ele>
                        <time>2022-08-18T14:01:30Z</time>
                                                <extensions>
                            <sog>2.4</sog>
<cog>65.6</cog>
                        </extensions>
                    </trkpt>
                    <trkpt lat="54.440745" lon="10.21416">
                        <ele>0</ele>
                        <time>2022-08-18T14:03:32Z</time>
                                                <extensions>
                            <sog>0.9</sog>
<cog>227.5</cog>
                        </extensions>
                    </trkpt>
                    <trkpt lat="54.44012166666666" lon="10.214688333333333">
                        <ele>0</ele>
                        <time>2022-08-18T14:05:30Z</time>
                                                <extensions>
                            <sog>3.9</sog>
<cog>157.8</cog>
                        </extensions>
                    </trkpt>
                    <trkpt lat="54.43745" lon="10.216990000000001">
                        <ele>0</ele>
                        <time>2022-08-18T14:09:31Z</time>
                                                <extensions>
                            <sog>0.9</sog>
<cog>291.6</cog>
                        </extensions>
                    </trkpt>
                    <trkpt lat="54.43742333333333" lon="10.216465">
                        <ele>0</ele>
                        <time>2022-08-18T14:10:32Z</time>
                                                <extensions>
                            <sog>1.4</sog>
<cog>259.0</cog>
                        </extensions>
                    </trkpt>
                    <trkpt lat="54.437175" lon="10.21142">
                        <ele>0</ele>
                        <time>2022-08-18T14:16:03Z</time>
                                                <extensions>
                            <sog>1.9</sog>
<cog>266.7</cog>
                        </extensions>
                    </trkpt>
                    <trkpt lat="54.437176666666666" lon="10.21096">
                        <ele>0</ele>
                        <time>2022-08-18T14:16:31Z</time>
                                                <extensions>
                            <sog>1.9</sog>
<cog>274.3</cog>
                        </extensions>
                    </trkpt>
                    <trkpt lat="54.43715666666667" lon="10.209515000000001">
                        <ele>0</ele>
                        <time>2022-08-18T14:18:00Z</time>
                                                <extensions>
                            <sog>1.7</sog>
<cog>264.8</cog>
                        </extensions>
                    </trkpt>
                    <trkpt lat="54.436969999999995" lon="10.208775000000001">
                        <ele>0</ele>
                        <time>2022-08-18T14:19:00Z</time>
                                                <extensions>
                            <sog>1.4</sog>
<cog>251.4</cog>
                        </extensions>
                    </trkpt>
                    <trkpt lat="54.436326666666666" lon="10.207056666666666">
                        <ele>0</ele>
                        <time>2022-08-18T14:21:02Z</time>
                                                <extensions>
                            <sog>1.8</sog>
<cog>268.7</cog>
                        </extensions>
                    </trkpt>
                    <trkpt lat="54.436025" lon="10.206266666666666">
                        <ele>0</ele>
                        <time>2022-08-18T14:22:00Z</time>
                                                <extensions>
                            <sog>1.9</sog>
<cog>232.2</cog>
                        </extensions>
                    </trkpt>
                    <trkpt lat="54.43563166666667" lon="10.205463333333334">
                        <ele>0</ele>
                        <time>2022-08-18T14:23:00Z</time>
                                                <extensions>
                            <sog>2.2</sog>
<cog>240.0</cog>
                        </extensions>
                    </trkpt>
                    <trkpt lat="54.43537" lon="10.20452">
                        <ele>0</ele>
                        <time>2022-08-18T14:24:00Z</time>
                                                <extensions>
                            <sog>2.1</sog>
<cog>239.4</cog>
                        </extensions>
                    </trkpt>
                    <trkpt lat="54.43496666666667" lon="10.203660000000001">
                        <ele>0</ele>
                        <time>2022-08-18T14:25:00Z</time>
                                                <extensions>
                            <sog>2.2</sog>
<cog>232.8</cog>
                        </extensions>
                    </trkpt>
                    <trkpt lat="54.43388" lon="10.202316666666666">
                        <ele>0</ele>
                        <time>2022-08-18T14:27:01Z</time>
                                                <extensions>
                            <sog>2.3</sog>
<cog>212.8</cog>
                        </extensions>
                    </trkpt>
                    <trkpt lat="54.43342333333333" lon="10.201668333333334">
                        <ele>0</ele>
                        <time>2022-08-18T14:28:00Z</time>
                                                <extensions>
                            <sog>2.1</sog>
<cog>221.0</cog>
                        </extensions>
                    </trkpt>
                    <trkpt lat="54.43324" lon="10.2013">
                        <ele>0</ele>
                        <time>2022-08-18T14:28:30Z</time>
                                                <extensions>
                            <sog>1.8</sog>
<cog>228.7</cog>
                        </extensions>
                    </trkpt>
                    <trkpt lat="54.432611666666666" lon="10.200238333333335">
                        <ele>0</ele>
                        <time>2022-08-18T14:30:00Z</time>
                                                <extensions>
                            <sog>2.0</sog>
<cog>222.7</cog>
                        </extensions>
                    </trkpt>
                    <trkpt lat="54.43225333333333" lon="10.19951">
                        <ele>0</ele>
                        <time>2022-08-18T14:31:00Z</time>
                                                <extensions>
                            <sog>1.7</sog>
<cog>238.9</cog>
                        </extensions>
                    </trkpt>
                    <trkpt lat="54.43208166666667" lon="10.197973333333334">
                        <ele>0</ele>
                        <time>2022-08-18T14:33:02Z</time>
                                                <extensions>
                            <sog>1.9</sog>
<cog>281.4</cog>
                        </extensions>
                    </trkpt>
                    <trkpt lat="54.43212333333334" lon="10.196991666666666">
                        <ele>0</ele>
                        <time>2022-08-18T14:34:01Z</time>
                                                <extensions>
                            <sog>2.0</sog>
<cog>261.8</cog>
                        </extensions>
                    </trkpt>
                    <trkpt lat="54.431889999999996" lon="10.195205">
                        <ele>0</ele>
                        <time>2022-08-18T14:36:00Z</time>
                                                <extensions>
                            <sog>1.9</sog>
<cog>247.3</cog>
                        </extensions>
                    </trkpt>
                    <trkpt lat="54.431145" lon="10.192665">
                        <ele>0</ele>
                        <time>2022-08-18T14:39:01Z</time>
                                                <extensions>
                            <sog>2.0</sog>
<cog>240.0</cog>
                        </extensions>
                    </trkpt>
                    <trkpt lat="54.430058333333335" lon="10.189453333333335">
                        <ele>0</ele>
                        <time>2022-08-18T14:43:01Z</time>
                                                <extensions>
                            <sog>1.2</sog>
<cog>197.4</cog>
                        </extensions>
                    </trkpt>
                    <trkpt lat="54.42969333333333" lon="10.189388333333333">
                        <ele>0</ele>
                        <time>2022-08-18T14:44:00Z</time>
                                                <extensions>
                            <sog>1.0</sog>
<cog>196.7</cog>
                        </extensions>
                    </trkpt>
                    <trkpt lat="54.42759" lon="10.19061">
                        <ele>0</ele>
                        <time>2022-08-18T14:49:30Z</time>
                                                <extensions>
                            <sog>1.7</sog>
<cog>169.1</cog>
                        </extensions>
                    </trkpt>
                    <trkpt lat="54.425756666666665" lon="10.19109">
                        <ele>0</ele>
                        <time>2022-08-18T14:54:01Z</time>
                                                <extensions>
                            <sog>1.4</sog>
<cog>167.3</cog>
                        </extensions>
                    </trkpt>
                    <trkpt lat="54.42451333333334" lon="10.19221">
                        <ele>0</ele>
                        <time>2022-08-18T14:56:02Z</time>
                                                <extensions>
                            <sog>3.0</sog>
<cog>149.5</cog>
                        </extensions>
                    </trkpt>
                    <trkpt lat="54.424144999999996" lon="10.192556666666666">
                        <ele>0</ele>
                        <time>2022-08-18T14:56:34Z</time>
                                                <extensions>
                            <sog>2.9</sog>
<cog>155.1</cog>
                        </extensions>
                    </trkpt>
                    <trkpt lat="54.423786666666665" lon="10.192794999999998">
                        <ele>0</ele>
                        <time>2022-08-18T14:57:00Z</time>
                                                <extensions>
                            <sog>3.1</sog>
<cog>160.5</cog>
                        </extensions>
                    </trkpt>
                    <trkpt lat="54.42289166666667" lon="10.193256666666667">
                        <ele>0</ele>
                        <time>2022-08-18T14:58:02Z</time>
                                                <extensions>
                            <sog>3.4</sog>
<cog>161.1</cog>
                        </extensions>
                    </trkpt>
                    <trkpt lat="54.422088333333335" lon="10.193986666666666">
                        <ele>0</ele>
                        <time>2022-08-18T14:59:01Z</time>
                                                <extensions>
                            <sog>3.1</sog>
<cog>145.0</cog>
                        </extensions>
                    </trkpt>
                    <trkpt lat="54.420831666666665" lon="10.195673333333334">
                        <ele>0</ele>
                        <time>2022-08-18T15:01:01Z</time>
                                                <extensions>
                            <sog>2.8</sog>
<cog>147.5</cog>
                        </extensions>
                    </trkpt>
                    <trkpt lat="54.420535" lon="10.196046666666666">
                        <ele>0</ele>
                        <time>2022-08-18T15:01:31Z</time>
                                                <extensions>
                            <sog>2.8</sog>
<cog>150.4</cog>
                        </extensions>
                    </trkpt>
                    <trkpt lat="54.420179999999995" lon="10.196318333333332">
                        <ele>0</ele>
                        <time>2022-08-18T15:02:00Z</time>
                                                <extensions>
                            <sog>2.7</sog>
<cog>163.4</cog>
                        </extensions>
                    </trkpt>
                    <trkpt lat="54.41893166666667" lon="10.197563333333333">
                        <ele>0</ele>
                        <time>2022-08-18T15:04:01Z</time>
                                                <extensions>
                            <sog>2.3</sog>
<cog>146.0</cog>
                        </extensions>
                    </trkpt>
                    <trkpt lat="54.41839" lon="10.198205">
                        <ele>0</ele>
                        <time>2022-08-18T15:05:02Z</time>
                                                <extensions>
                            <sog>2.4</sog>
<cog>148.8</cog>
                        </extensions>
                    </trkpt>
                    <trkpt lat="54.417815000000004" lon="10.198735">
                        <ele>0</ele>
                        <time>2022-08-18T15:06:01Z</time>
                                                <extensions>
                            <sog>2.3</sog>
<cog>150.1</cog>
                        </extensions>
                    </trkpt>
                    <trkpt lat="54.41737" lon="10.199318333333334">
                        <ele>0</ele>
                        <time>2022-08-18T15:07:00Z</time>
                                                <extensions>
                            <sog>1.6</sog>
<cog>123.8</cog>
                        </extensions>
                    </trkpt>
                    <trkpt lat="54.41722333333333" lon="10.199928333333334">
                        <ele>0</ele>
                        <time>2022-08-18T15:08:00Z</time>
                                                <extensions>
                            <sog>1.1</sog>
<cog>98.7</cog>
                        </extensions>
                    </trkpt>
                    <trkpt lat="54.41711333333333" lon="10.200365">
                        <ele>0</ele>
                        <time>2022-08-18T15:09:01Z</time>
                                                <extensions>
                            <sog>1.1</sog>
<cog>109.2</cog>
                        </extensions>
                    </trkpt>
                    <trkpt lat="54.415724999999995" lon="10.201796666666667">
                        <ele>0</ele>
                        <time>2022-08-18T15:10:33Z</time>
                                                <extensions>
                            <sog>5.6</sog>
<cog>155.0</cog>
                        </extensions>
                    </trkpt>
                    <trkpt lat="54.415079999999996" lon="10.202383333333334">
                        <ele>0</ele>
                        <time>2022-08-18T15:11:00Z</time>
                                                <extensions>
                            <sog>5.4</sog>
<cog>151.5</cog>
                        </extensions>
                    </trkpt>
                    <trkpt lat="54.41251666666667" lon="10.205273333333334">
                        <ele>0</ele>
                        <time>2022-08-18T15:13:02Z</time>
                                                <extensions>
                            <sog>5.1</sog>
<cog>151.1</cog>
                        </extensions>
                    </trkpt>
                    <trkpt lat="54.411935" lon="10.205811666666667">
                        <ele>0</ele>
                        <time>2022-08-18T15:13:29Z</time>
                                                <extensions>
                            <sog>4.9</sog>
<cog>152.6</cog>
                        </extensions>
                    </trkpt>
                    <trkpt lat="54.40956333333334" lon="10.208063333333333">
                        <ele>0</ele>
                        <time>2022-08-18T15:15:29Z</time>
                                                <extensions>
                            <sog>4.6</sog>
<cog>145.8</cog>
                        </extensions>
                    </trkpt>
                    <trkpt lat="54.40781666666667" lon="10.209698333333334">
                        <ele>0</ele>
                        <time>2022-08-18T15:16:58Z</time>
                                                <extensions>
                            <sog>4.7</sog>
<cog>155.1</cog>
                        </extensions>
                    </trkpt>
                    <trkpt lat="54.40723" lon="10.210186666666667">
                        <ele>0</ele>
                        <time>2022-08-18T15:17:29Z</time>
                                                <extensions>
                            <sog>4.7</sog>
<cog>153.7</cog>
                        </extensions>
                    </trkpt>
                    <trkpt lat="54.406621666666666" lon="10.210706666666665">
                        <ele>0</ele>
                        <time>2022-08-18T15:18:00Z</time>
                                                <extensions>
                            <sog>4.6</sog>
<cog>151.5</cog>
                        </extensions>
                    </trkpt>
                    <trkpt lat="54.405015000000006" lon="10.212355">
                        <ele>0</ele>
                        <time>2022-08-18T15:19:30Z</time>
                                                <extensions>
                            <sog>4.3</sog>
<cog>142.7</cog>
                        </extensions>
                    </trkpt>
                    <trkpt lat="54.404221666666665" lon="10.213366666666667">
                        <ele>0</ele>
                        <time>2022-08-18T15:20:28Z</time>
                                                <extensions>
                            <sog>2.5</sog>
<cog>138.4</cog>
                        </extensions>
                    </trkpt>
                    <trkpt lat="54.403119999999994" lon="10.215828333333333">
                        <ele>0</ele>
                        <time>2022-08-18T15:23:00Z</time>
                                                <extensions>
                            <sog>2.2</sog>
<cog>63.7</cog>
                        </extensions>
                    </trkpt>
                    </trkseg>
                </trk>
</gpx>