<?xml version="1.0" encoding="UTF-8"?>
<gpx version="1.1" creator="AIS-to-GPX Converter" xmlns="http://www.topografix.com/GPX/1/1">
                <trk>
                    <name>anon0053</name>
                    <trkseg>
                                            <trkpt lat="54.63427" lon="10.05862">
                        <ele>0</ele>
                        <time>2022-08-18T10:28:44Z</time>
                                                <extensions>
                            <sog>3.1</sog>
<cog>164.8</cog>
                        </extensions>
                    </trkpt>
                    <trkpt lat="54.620335" lon="10.064515">
                        <ele>0</ele>
                        <time>2022-08-18T10:46:42Z</time>
                                                <extensions>
                            <sog>2.3</sog>
<cog>169.2</cog>
                        </extensions>
                    </trkpt>
                    <trkpt lat="54.61322333333333" lon="10.067186666666666">
                        <ele>0</ele>
                        <time>2022-08-18T10:52:42Z</time>
                                                <extensions>
                            <sog>5.6</sog>
<cog>166.9</cog>
                        </extensions>
                    </trkpt>
                    <trkpt lat="54.600175" lon="10.071786666666666">
                        <ele>0</ele>
                        <time>2022-08-18T11:01:42Z</time>
                                                <extensions>
                            <sog>5.5</sog>
<cog>169.0</cog>
                        </extensions>
                    </trkpt>
                    <trkpt lat="54.596199999999996" lon="10.075106666666667">
                        <ele>0</ele>
                        <time>2022-08-18T11:04:42Z</time>
                                                <extensions>
                            <sog>5.3</sog>
<cog>150.9</cog>
                        </extensions>
                    </trkpt>
                    <trkpt lat="54.59556333333333" lon="10.075783333333334">
                        <ele>0</ele>
                        <time>2022-08-18T11:05:13Z</time>
                                                <extensions>
                            <sog>5.6</sog>
<cog>145.0</cog>
                        </extensions>
                    </trkpt>
                    <trkpt lat="54.59428833333333" lon="10.077173333333333">
                        <ele>0</ele>
                        <time>2022-08-18T11:06:13Z</time>
                                                <extensions>
                            <sog>5.5</sog>
<cog>149.1</cog>
                        </extensions>
                    </trkpt>
                    <trkpt lat="54.593665" lon="10.077791666666666">
                        <ele>0</ele>
                        <time>2022-08-18T11:06:42Z</time>
                                                <extensions>
                            <sog>5.5</sog>
<cog>149.6</cog>
                        </extensions>
                    </trkpt>
                    <trkpt lat="54.59238833333333" lon="10.07906">
                        <ele>0</ele>
                        <time>2022-08-18T11:07:42Z</time>
                                                <extensions>
                            <sog>5.3</sog>
<cog>149.4</cog>
                        </extensions>
                    </trkpt>
                    <trkpt lat="54.589818333333334" lon="10.081648333333334">
                        <ele>0</ele>
                        <time>2022-08-18T11:09:43Z</time>
                                                <extensions>
                            <sog>5.3</sog>
<cog>148.7</cog>
                        </extensions>
                    </trkpt>
                    <trkpt lat="54.58788166666667" lon="10.083541666666667">
                        <ele>0</ele>
                        <time>2022-08-18T11:11:13Z</time>
                                                <extensions>
                            <sog>5.4</sog>
<cog>152.2</cog>
                        </extensions>
                    </trkpt>
                    <trkpt lat="54.58060833333333" lon="10.090766666666667">
                        <ele>0</ele>
                        <time>2022-08-18T11:16:43Z</time>
                                                <extensions>
                            <sog>5.6</sog>
<cog>150.1</cog>
                        </extensions>
                    </trkpt>
                    <trkpt lat="54.57931166666666" lon="10.092061666666666">
                        <ele>0</ele>
                        <time>2022-08-18T11:17:42Z</time>
                                                <extensions>
                            <sog>5.6</sog>
<cog>151.7</cog>
                        </extensions>
                    </trkpt>
                    <trkpt lat="54.57797666666667" lon="10.093413333333332">
                        <ele>0</ele>
                        <time>2022-08-18T11:18:43Z</time>
                                                <extensions>
                            <sog>5.5</sog>
<cog>151.1</cog>
                        </extensions>
                    </trkpt>
                    <trkpt lat="54.56453" lon="10.105925000000001">
                        <ele>0</ele>
                        <time>2022-08-18T11:28:42Z</time>
                                                <extensions>
                            <sog>5.5</sog>
<cog>151.2</cog>
                        </extensions>
                    </trkpt>
                    <trkpt lat="54.551021666666664" lon="10.118191666666666">
                        <ele>0</ele>
                        <time>2022-08-18T11:38:44Z</time>
                                                <extensions>
                            <sog>5.6</sog>
<cog>153.1</cog>
                        </extensions>
                    </trkpt>
                    <trkpt lat="54.544983333333334" lon="10.123791666666667">
                        <ele>0</ele>
                        <time>2022-08-18T11:43:13Z</time>
                                                <extensions>
                            <sog>5.5</sog>
<cog>152.1</cog>
                        </extensions>
                    </trkpt>
                    <trkpt lat="54.544333333333334" lon="10.124396666666666">
                        <ele>0</ele>
                        <time>2022-08-18T11:43:42Z</time>
                                                <extensions>
                            <sog>5.7</sog>
<cog>152.1</cog>
                        </extensions>
                    </trkpt>
                    <trkpt lat="54.53535" lon="10.133251666666666">
                        <ele>0</ele>
                        <time>2022-08-18T11:50:15Z</time>
                                                <extensions>
                            <sog>5.8</sog>
<cog>151.7</cog>
                        </extensions>
                    </trkpt>
                    <trkpt lat="54.534661666666665" lon="10.133939999999999">
                        <ele>0</ele>
                        <time>2022-08-18T11:50:45Z</time>
                                                <extensions>
                            <sog>5.8</sog>
<cog>150.4</cog>
                        </extensions>
                    </trkpt>
                    <trkpt lat="54.531868333333335" lon="10.136591666666668">
                        <ele>0</ele>
                        <time>2022-08-18T11:52:46Z</time>
                                                <extensions>
                            <sog>5.8</sog>
<cog>149.0</cog>
                        </extensions>
                    </trkpt>
                    <trkpt lat="54.530546666666666" lon="10.137903333333332">
                        <ele>0</ele>
                        <time>2022-08-18T11:53:42Z</time>
                                                <extensions>
                            <sog>5.7</sog>
<cog>150.8</cog>
                        </extensions>
                    </trkpt>
                    <trkpt lat="54.52623833333334" lon="10.142033333333334">
                        <ele>0</ele>
                        <time>2022-08-18T11:56:44Z</time>
                                                <extensions>
                            <sog>6.0</sog>
<cog>150.2</cog>
                        </extensions>
                    </trkpt>
                    <trkpt lat="54.522886666666665" lon="10.145231666666666">
                        <ele>0</ele>
                        <time>2022-08-18T11:59:12Z</time>
                                                <extensions>
                            <sog>5.6</sog>
<cog>150.8</cog>
                        </extensions>
                    </trkpt>
                    <trkpt lat="54.51960166666667" lon="10.148838333333334">
                        <ele>0</ele>
                        <time>2022-08-18T12:01:43Z</time>
                                                <extensions>
                            <sog>6.0</sog>
<cog>142.2</cog>
                        </extensions>
                    </trkpt>
                    <trkpt lat="54.51826333333334" lon="10.150455">
                        <ele>0</ele>
                        <time>2022-08-18T12:02:43Z</time>
                                                <extensions>
                            <sog>5.6</sog>
<cog>143.4</cog>
                        </extensions>
                    </trkpt>
                    <trkpt lat="54.516953333333326" lon="10.152041666666666">
                        <ele>0</ele>
                        <time>2022-08-18T12:03:42Z</time>
                                                <extensions>
                            <sog>5.8</sog>
<cog>143.5</cog>
                        </extensions>
                    </trkpt>
                    <trkpt lat="54.514876666666666" lon="10.154513333333334">
                        <ele>0</ele>
                        <time>2022-08-18T12:05:15Z</time>
                                                <extensions>
                            <sog>6.0</sog>
<cog>144.4</cog>
                        </extensions>
                    </trkpt>
                    <trkpt lat="54.51424833333333" lon="10.155246666666667">
                        <ele>0</ele>
                        <time>2022-08-18T12:05:43Z</time>
                                                <extensions>
                            <sog>5.8</sog>
<cog>145.9</cog>
                        </extensions>
                    </trkpt>
                    <trkpt lat="54.513569999999994" lon="10.156031666666667">
                        <ele>0</ele>
                        <time>2022-08-18T12:06:14Z</time>
                                                <extensions>
                            <sog>5.9</sog>
<cog>145.4</cog>
                        </extensions>
                    </trkpt>
                    <trkpt lat="54.51141833333334" lon="10.157975">
                        <ele>0</ele>
                        <time>2022-08-18T12:07:43Z</time>
                                                <extensions>
                            <sog>5.8</sog>
<cog>151.3</cog>
                        </extensions>
                    </trkpt>
                    <trkpt lat="54.510729999999995" lon="10.158636666666666">
                        <ele>0</ele>
                        <time>2022-08-18T12:08:12Z</time>
                                                <extensions>
                            <sog>6.0</sog>
<cog>150.5</cog>
                        </extensions>
                    </trkpt>
                    <trkpt lat="54.51001833333333" lon="10.159321666666667">
                        <ele>0</ele>
                        <time>2022-08-18T12:08:43Z</time>
                                                <extensions>
                            <sog>5.7</sog>
<cog>151.6</cog>
                        </extensions>
                    </trkpt>
                    <trkpt lat="54.50859666666667" lon="10.160641666666667">
                        <ele>0</ele>
                        <time>2022-08-18T12:09:42Z</time>
                                                <extensions>
                            <sog>5.8</sog>
<cog>149.2</cog>
                        </extensions>
                    </trkpt>
                    <trkpt lat="54.50366333333333" lon="10.165136666666665">
                        <ele>0</ele>
                        <time>2022-08-18T12:13:12Z</time>
                                                <extensions>
                            <sog>5.6</sog>
<cog>152.1</cog>
                        </extensions>
                    </trkpt>
                    <trkpt lat="54.50159166666666" lon="10.167023333333333">
                        <ele>0</ele>
                        <time>2022-08-18T12:14:42Z</time>
                                                <extensions>
                            <sog>5.5</sog>
<cog>152.5</cog>
                        </extensions>
                    </trkpt>
                    <trkpt lat="54.49881333333334" lon="10.169498333333333">
                        <ele>0</ele>
                        <time>2022-08-18T12:16:44Z</time>
                                                <extensions>
                            <sog>5.4</sog>
<cog>152.4</cog>
                        </extensions>
                    </trkpt>
                    <trkpt lat="54.497445" lon="10.170718333333333">
                        <ele>0</ele>
                        <time>2022-08-18T12:17:42Z</time>
                                                <extensions>
                            <sog>5.6</sog>
<cog>151.8</cog>
                        </extensions>
                    </trkpt>
                    <trkpt lat="54.496721666666666" lon="10.17138">
                        <ele>0</ele>
                        <time>2022-08-18T12:18:13Z</time>
                                                <extensions>
                            <sog>5.8</sog>
<cog>152.6</cog>
                        </extensions>
                    </trkpt>
                    <trkpt lat="54.49604333333333" lon="10.172005">
                        <ele>0</ele>
                        <time>2022-08-18T12:18:42Z</time>
                                                <extensions>
                            <sog>5.8</sog>
<cog>153.6</cog>
                        </extensions>
                    </trkpt>
                    <trkpt lat="54.495325" lon="10.172663333333333">
                        <ele>0</ele>
                        <time>2022-08-18T12:19:13Z</time>
                                                <extensions>
                            <sog>5.7</sog>
<cog>152.8</cog>
                        </extensions>
                    </trkpt>
                    <trkpt lat="54.49466333333333" lon="10.173268333333334">
                        <ele>0</ele>
                        <time>2022-08-18T12:19:42Z</time>
                                                <extensions>
                            <sog>5.7</sog>
<cog>152.5</cog>
                        </extensions>
                    </trkpt>
                    <trkpt lat="54.49193833333333" lon="10.176073333333333">
                        <ele>0</ele>
                        <time>2022-08-18T12:21:44Z</time>
                                                <extensions>
                            <sog>5.8</sog>
<cog>147.1</cog>
                        </extensions>
                    </trkpt>
                    <trkpt lat="54.49131166666667" lon="10.176776666666665">
                        <ele>0</ele>
                        <time>2022-08-18T12:22:12Z</time>
                                                <extensions>
                            <sog>5.7</sog>
<cog>147.3</cog>
                        </extensions>
                    </trkpt>
                    <trkpt lat="54.490631666666665" lon="10.177516666666666">
                        <ele>0</ele>
                        <time>2022-08-18T12:22:43Z</time>
                                                <extensions>
                            <sog>5.6</sog>
<cog>149.3</cog>
                        </extensions>
                    </trkpt>
                    <trkpt lat="54.48999333333334" lon="10.178201666666666">
                        <ele>0</ele>
                        <time>2022-08-18T12:23:13Z</time>
                                                <extensions>
                            <sog>5.5</sog>
<cog>147.8</cog>
                        </extensions>
                    </trkpt>
                    <trkpt lat="54.489315000000005" lon="10.17896">
                        <ele>0</ele>
                        <time>2022-08-18T12:23:44Z</time>
                                                <extensions>
                            <sog>5.6</sog>
<cog>147.0</cog>
                        </extensions>
                    </trkpt>
                    <trkpt lat="54.48867833333334" lon="10.179635">
                        <ele>0</ele>
                        <time>2022-08-18T12:24:12Z</time>
                                                <extensions>
                            <sog>5.6</sog>
<cog>149.7</cog>
                        </extensions>
                    </trkpt>
                    <trkpt lat="54.488018333333336" lon="10.180316666666666">
                        <ele>0</ele>
                        <time>2022-08-18T12:24:42Z</time>
                                                <extensions>
                            <sog>5.7</sog>
<cog>149.3</cog>
                        </extensions>
                    </trkpt>
                    <trkpt lat="54.48731833333333" lon="10.181078333333334">
                        <ele>0</ele>
                        <time>2022-08-18T12:25:14Z</time>
                                                <extensions>
                            <sog>5.5</sog>
<cog>145.4</cog>
                        </extensions>
                    </trkpt>
                    <trkpt lat="54.48665333333334" lon="10.181808333333333">
                        <ele>0</ele>
                        <time>2022-08-18T12:25:45Z</time>
                                                <extensions>
                            <sog>5.7</sog>
<cog>147.2</cog>
                        </extensions>
                    </trkpt>
                    <trkpt lat="54.486005" lon="10.182498333333333">
                        <ele>0</ele>
                        <time>2022-08-18T12:26:13Z</time>
                                                <extensions>
                            <sog>5.7</sog>
<cog>148.3</cog>
                        </extensions>
                    </trkpt>
                    <trkpt lat="54.48536333333333" lon="10.18321">
                        <ele>0</ele>
                        <time>2022-08-18T12:26:43Z</time>
                                                <extensions>
                            <sog>5.5</sog>
<cog>148.7</cog>
                        </extensions>
                    </trkpt>
                    <trkpt lat="54.48468666666667" lon="10.183975">
                        <ele>0</ele>
                        <time>2022-08-18T12:27:15Z</time>
                                                <extensions>
                            <sog>5.9</sog>
<cog>148.5</cog>
                        </extensions>
                    </trkpt>
                    <trkpt lat="54.48399666666667" lon="10.184766666666667">
                        <ele>0</ele>
                        <time>2022-08-18T12:27:46Z</time>
                                                <extensions>
                            <sog>5.7</sog>
<cog>146.9</cog>
                        </extensions>
                    </trkpt>
                    <trkpt lat="54.48271" lon="10.186181666666666">
                        <ele>0</ele>
                        <time>2022-08-18T12:28:43Z</time>
                                                <extensions>
                            <sog>5.8</sog>
<cog>148.2</cog>
                        </extensions>
                    </trkpt>
                    <trkpt lat="54.48204333333333" lon="10.186893333333334">
                        <ele>0</ele>
                        <time>2022-08-18T12:29:13Z</time>
                                                <extensions>
                            <sog>5.7</sog>
<cog>147.2</cog>
                        </extensions>
                    </trkpt>
                    <trkpt lat="54.48136" lon="10.187625">
                        <ele>0</ele>
                        <time>2022-08-18T12:29:44Z</time>
                                                <extensions>
                            <sog>5.5</sog>
<cog>148.4</cog>
                        </extensions>
                    </trkpt>
                    <trkpt lat="54.48011833333333" lon="10.188926666666667">
                        <ele>0</ele>
                        <time>2022-08-18T12:30:42Z</time>
                                                <extensions>
                            <sog>5.5</sog>
<cog>149.1</cog>
                        </extensions>
                    </trkpt>
                    <trkpt lat="54.47945666666667" lon="10.189601666666666">
                        <ele>0</ele>
                        <time>2022-08-18T12:31:13Z</time>
                                                <extensions>
                            <sog>5.3</sog>
<cog>149.7</cog>
                        </extensions>
                    </trkpt>
                    <trkpt lat="54.47884333333333" lon="10.190221666666668">
                        <ele>0</ele>
                        <time>2022-08-18T12:31:42Z</time>
                                                <extensions>
                            <sog>5.4</sog>
<cog>147.6</cog>
                        </extensions>
                    </trkpt>
                    <trkpt lat="54.47821166666667" lon="10.190863333333334">
                        <ele>0</ele>
                        <time>2022-08-18T12:32:12Z</time>
                                                <extensions>
                            <sog>5.5</sog>
<cog>149.0</cog>
                        </extensions>
                    </trkpt>
                    <trkpt lat="54.477576666666664" lon="10.191518333333333">
                        <ele>0</ele>
                        <time>2022-08-18T12:32:42Z</time>
                                                <extensions>
                            <sog>5.4</sog>
<cog>150.5</cog>
                        </extensions>
                    </trkpt>
                    <trkpt lat="54.47691833333333" lon="10.192193333333334">
                        <ele>0</ele>
                        <time>2022-08-18T12:33:14Z</time>
                                                <extensions>
                            <sog>5.5</sog>
<cog>149.8</cog>
                        </extensions>
                    </trkpt>
                    <trkpt lat="54.476308333333336" lon="10.192836666666667">
                        <ele>0</ele>
                        <time>2022-08-18T12:33:42Z</time>
                                                <extensions>
                            <sog>5.3</sog>
<cog>149.0</cog>
                        </extensions>
                    </trkpt>
                    <trkpt lat="54.47502833333333" lon="10.194146666666667">
                        <ele>0</ele>
                        <time>2022-08-18T12:34:42Z</time>
                                                <extensions>
                            <sog>5.4</sog>
<cog>150.1</cog>
                        </extensions>
                    </trkpt>
                    <trkpt lat="54.474363333333336" lon="10.19482">
                        <ele>0</ele>
                        <time>2022-08-18T12:35:13Z</time>
                                                <extensions>
                            <sog>5.4</sog>
<cog>149.4</cog>
                        </extensions>
                    </trkpt>
                    <trkpt lat="54.473745" lon="10.195473333333332">
                        <ele>0</ele>
                        <time>2022-08-18T12:35:42Z</time>
                                                <extensions>
                            <sog>5.3</sog>
<cog>148.0</cog>
                        </extensions>
                    </trkpt>
                    <trkpt lat="54.47235" lon="10.196966666666667">
                        <ele>0</ele>
                        <time>2022-08-18T12:36:43Z</time>
                                                <extensions>
                            <sog>6.4</sog>
<cog>145.6</cog>
                        </extensions>
                    </trkpt>
                    <trkpt lat="54.47162" lon="10.197830000000002">
                        <ele>0</ele>
                        <time>2022-08-18T12:37:13Z</time>
                                                <extensions>
                            <sog>6.6</sog>
<cog>146.5</cog>
                        </extensions>
                    </trkpt>
                    <trkpt lat="54.47082666666667" lon="10.198721666666668">
                        <ele>0</ele>
                        <time>2022-08-18T12:37:43Z</time>
                                                <extensions>
                            <sog>6.6</sog>
<cog>145.8</cog>
                        </extensions>
                    </trkpt>
                    <trkpt lat="54.46932" lon="10.200398333333334">
                        <ele>0</ele>
                        <time>2022-08-18T12:38:42Z</time>
                                                <extensions>
                            <sog>6.6</sog>
<cog>148.2</cog>
                        </extensions>
                    </trkpt>
                    <trkpt lat="54.468505" lon="10.201038333333335">
                        <ele>0</ele>
                        <time>2022-08-18T12:39:12Z</time>
                                                <extensions>
                            <sog>6.4</sog>
<cog>162.0</cog>
                        </extensions>
                    </trkpt>
                    <trkpt lat="54.467684999999996" lon="10.201523333333334">
                        <ele>0</ele>
                        <time>2022-08-18T12:39:43Z</time>
                                                <extensions>
                            <sog>6.3</sog>
<cog>161.9</cog>
                        </extensions>
                    </trkpt>
                    <trkpt lat="54.46684333333334" lon="10.20203">
                        <ele>0</ele>
                        <time>2022-08-18T12:40:14Z</time>
                                                <extensions>
                            <sog>6.3</sog>
<cog>160.4</cog>
                        </extensions>
                    </trkpt>
                    <trkpt lat="54.46600166666666" lon="10.202526666666667">
                        <ele>0</ele>
                        <time>2022-08-18T12:40:44Z</time>
                                                <extensions>
                            <sog>6.1</sog>
<cog>162.9</cog>
                        </extensions>
                    </trkpt>
                    <trkpt lat="54.463541666666664" lon="10.203571666666667">
                        <ele>0</ele>
                        <time>2022-08-18T12:42:12Z</time>
                                                <extensions>
                            <sog>6.4</sog>
<cog>167.7</cog>
                        </extensions>
                    </trkpt>
                    <trkpt lat="54.46270166666667" lon="10.203906666666667">
                        <ele>0</ele>
                        <time>2022-08-18T12:42:43Z</time>
                                                <extensions>
                            <sog>6.2</sog>
<cog>168.0</cog>
                        </extensions>
                    </trkpt>
                    <trkpt lat="54.461825" lon="10.20426">
                        <ele>0</ele>
                        <time>2022-08-18T12:43:13Z</time>
                                                <extensions>
                            <sog>6.3</sog>
<cog>166.6</cog>
                        </extensions>
                    </trkpt>
                    <trkpt lat="54.461014999999996" lon="10.204598333333333">
                        <ele>0</ele>
                        <time>2022-08-18T12:43:42Z</time>
                                                <extensions>
                            <sog>6.4</sog>
<cog>167.7</cog>
                        </extensions>
                    </trkpt>
                    <trkpt lat="54.46015" lon="10.204976666666665">
                        <ele>0</ele>
                        <time>2022-08-18T12:44:13Z</time>
                                                <extensions>
                            <sog>6.2</sog>
<cog>162.7</cog>
                        </extensions>
                    </trkpt>
                    <trkpt lat="54.45927833333334" lon="10.205328333333334">
                        <ele>0</ele>
                        <time>2022-08-18T12:44:44Z</time>
                                                <extensions>
                            <sog>6.3</sog>
<cog>167.2</cog>
                        </extensions>
                    </trkpt>
                    <trkpt lat="54.457575" lon="10.205871666666667">
                        <ele>0</ele>
                        <time>2022-08-18T12:45:44Z</time>
                                                <extensions>
                            <sog>6.4</sog>
<cog>173.3</cog>
                        </extensions>
                    </trkpt>
                    <trkpt lat="54.455835" lon="10.20623">
                        <ele>0</ele>
                        <time>2022-08-18T12:46:46Z</time>
                                                <extensions>
                            <sog>6.3</sog>
<cog>175.3</cog>
                        </extensions>
                    </trkpt>
                    <trkpt lat="54.45420166666667" lon="10.20623">
                        <ele>0</ele>
                        <time>2022-08-18T12:47:42Z</time>
                                                <extensions>
                            <sog>6.2</sog>
<cog>189.0</cog>
                        </extensions>
                    </trkpt>
                    <trkpt lat="54.453375" lon="10.205758333333334">
                        <ele>0</ele>
                        <time>2022-08-18T12:48:12Z</time>
                                                <extensions>
                            <sog>6.4</sog>
<cog>194.2</cog>
                        </extensions>
                    </trkpt>
                    <trkpt lat="54.45251666666666" lon="10.205561666666666">
                        <ele>0</ele>
                        <time>2022-08-18T12:48:42Z</time>
                                                <extensions>
                            <sog>6.5</sog>
<cog>190.0</cog>
                        </extensions>
                    </trkpt>
                    <trkpt lat="54.45166" lon="10.205385">
                        <ele>0</ele>
                        <time>2022-08-18T12:49:12Z</time>
                                                <extensions>
                            <sog>6.3</sog>
<cog>183.1</cog>
                        </extensions>
                    </trkpt>
                    <trkpt lat="54.450765000000004" lon="10.205433333333334">
                        <ele>0</ele>
                        <time>2022-08-18T12:49:44Z</time>
                                                <extensions>
                            <sog>6.3</sog>
<cog>176.9</cog>
                        </extensions>
                    </trkpt>
                    <trkpt lat="54.44993833333333" lon="10.205478333333334">
                        <ele>0</ele>
                        <time>2022-08-18T12:50:12Z</time>
                                                <extensions>
                            <sog>6.1</sog>
<cog>176.5</cog>
                        </extensions>
                    </trkpt>
                    <trkpt lat="54.44905333333334" lon="10.205598333333334">
                        <ele>0</ele>
                        <time>2022-08-18T12:50:43Z</time>
                                                <extensions>
                            <sog>6.2</sog>
<cog>174.4</cog>
                        </extensions>
                    </trkpt>
                    <trkpt lat="54.448225" lon="10.205758333333334">
                        <ele>0</ele>
                        <time>2022-08-18T12:51:13Z</time>
                                                <extensions>
                            <sog>6.2</sog>
<cog>170.3</cog>
                        </extensions>
                    </trkpt>
                    <trkpt lat="54.447379999999995" lon="10.206071666666666">
                        <ele>0</ele>
                        <time>2022-08-18T12:51:42Z</time>
                                                <extensions>
                            <sog>6.3</sog>
<cog>165.2</cog>
                        </extensions>
                    </trkpt>
                    <trkpt lat="54.44654" lon="10.20641">
                        <ele>0</ele>
                        <time>2022-08-18T12:52:12Z</time>
                                                <extensions>
                            <sog>6.1</sog>
<cog>167.0</cog>
                        </extensions>
                    </trkpt>
                    <trkpt lat="54.445706666666666" lon="10.206743333333332">
                        <ele>0</ele>
                        <time>2022-08-18T12:52:42Z</time>
                                                <extensions>
                            <sog>6.2</sog>
<cog>167.9</cog>
                        </extensions>
                    </trkpt>
                    <trkpt lat="54.444833333333335" lon="10.207089999999999">
                        <ele>0</ele>
                        <time>2022-08-18T12:53:13Z</time>
                                                <extensions>
                            <sog>6.2</sog>
<cog>167.2</cog>
                        </extensions>
                    </trkpt>
                    <trkpt lat="54.444008333333336" lon="10.207405">
                        <ele>0</ele>
                        <time>2022-08-18T12:53:42Z</time>
                                                <extensions>
                            <sog>6.3</sog>
<cog>167.4</cog>
                        </extensions>
                    </trkpt>
                    <trkpt lat="54.44316" lon="10.20772">
                        <ele>0</ele>
                        <time>2022-08-18T12:54:13Z</time>
                                                <extensions>
                            <sog>6.4</sog>
<cog>169.2</cog>
                        </extensions>
                    </trkpt>
                    <trkpt lat="54.44231166666667" lon="10.208013333333334">
                        <ele>0</ele>
                        <time>2022-08-18T12:54:42Z</time>
                                                <extensions>
                            <sog>6.3</sog>
<cog>169.9</cog>
                        </extensions>
                    </trkpt>
                    <trkpt lat="54.44057333333333" lon="10.208633333333333">
                        <ele>0</ele>
                        <time>2022-08-18T12:55:44Z</time>
                                                <extensions>
                            <sog>6.0</sog>
<cog>168.2</cog>
                        </extensions>
                    </trkpt>
                    <trkpt lat="54.43978666666667" lon="10.208893333333332">
                        <ele>0</ele>
                        <time>2022-08-18T12:56:13Z</time>
                                                <extensions>
                            <sog>6.2</sog>
<cog>170.3</cog>
                        </extensions>
                    </trkpt>
                    <trkpt lat="54.43892666666667" lon="10.209106666666665">
                        <ele>0</ele>
                        <time>2022-08-18T12:56:42Z</time>
                                                <extensions>
                            <sog>6.4</sog>
<cog>169.2</cog>
                        </extensions>
                    </trkpt>
                    <trkpt lat="54.43808666666666" lon="10.209336666666667">
                        <ele>0</ele>
                        <time>2022-08-18T12:57:12Z</time>
                                                <extensions>
                            <sog>6.1</sog>
<cog>171.4</cog>
                        </extensions>
                    </trkpt>
                    <trkpt lat="54.437198333333335" lon="10.209398333333333">
                        <ele>0</ele>
                        <time>2022-08-18T12:57:43Z</time>
                                                <extensions>
                            <sog>6.2</sog>
<cog>182.7</cog>
                        </extensions>
                    </trkpt>
                    <trkpt lat="54.43636333333333" lon="10.209323333333334">
                        <ele>0</ele>
                        <time>2022-08-18T12:58:13Z</time>
                                                <extensions>
                            <sog>6.2</sog>
<cog>185.0</cog>
                        </extensions>
                    </trkpt>
                    <trkpt lat="54.43542" lon="10.20913">
                        <ele>0</ele>
                        <time>2022-08-18T12:58:45Z</time>
                                                <extensions>
                            <sog>6.3</sog>
<cog>191.1</cog>
                        </extensions>
                    </trkpt>
                    <trkpt lat="54.43465166666667" lon="10.208903333333334">
                        <ele>0</ele>
                        <time>2022-08-18T12:59:12Z</time>
                                                <extensions>
                            <sog>6.5</sog>
<cog>189.9</cog>
                        </extensions>
                    </trkpt>
                    <trkpt lat="54.433795" lon="10.20863">
                        <ele>0</ele>
                        <time>2022-08-18T12:59:42Z</time>
                                                <extensions>
                            <sog>6.2</sog>
<cog>191.3</cog>
                        </extensions>
                    </trkpt>
                    <trkpt lat="54.432915" lon="10.20836">
                        <ele>0</ele>
                        <time>2022-08-18T13:00:14Z</time>
                                                <extensions>
                            <sog>6.2</sog>
<cog>190.2</cog>
                        </extensions>
                    </trkpt>
                    <trkpt lat="54.432915" lon="10.20836">
                        <ele>0</ele>
                        <time>2022-08-18T13:00:14Z</time>
                                                <extensions>
                            <sog>6.2</sog>
<cog>190.2</cog>
                        </extensions>
                    </trkpt>
                    <trkpt lat="54.43206833333333" lon="10.208081666666667">
                        <ele>0</ele>
                        <time>2022-08-18T13:00:43Z</time>
                                                <extensions>
                            <sog>6.2</sog>
<cog>191.3</cog>
                        </extensions>
                    </trkpt>
                    <trkpt lat="54.43206833333333" lon="10.208081666666667">
                        <ele>0</ele>
                        <time>2022-08-18T13:00:43Z</time>
                                                <extensions>
                            <sog>6.2</sog>
<cog>191.3</cog>
                        </extensions>
                    </trkpt>
                    <trkpt lat="54.430391666666665" lon="10.207658333333335">
                        <ele>0</ele>
                        <time>2022-08-18T13:01:42Z</time>
                                                <extensions>
                            <sog>6.1</sog>
<cog>189.4</cog>
                        </extensions>
                    </trkpt>
                    <trkpt lat="54.428625000000004" lon="10.207348333333334">
                        <ele>0</ele>
                        <time>2022-08-18T13:02:44Z</time>
                                                <extensions>
                            <sog>6.5</sog>
<cog>184.3</cog>
                        </extensions>
                    </trkpt>
                    <trkpt lat="54.42778" lon="10.207241666666667">
                        <ele>0</ele>
                        <time>2022-08-18T13:03:12Z</time>
                                                <extensions>
                            <sog>6.3</sog>
<cog>183.5</cog>
                        </extensions>
                    </trkpt>
                    <trkpt lat="54.42688" lon="10.207131666666667">
                        <ele>0</ele>
                        <time>2022-08-18T13:03:43Z</time>
                                                <extensions>
                            <sog>6.3</sog>
<cog>184.4</cog>
                        </extensions>
                    </trkpt>
                    <trkpt lat="54.42603833333333" lon="10.207031666666667">
                        <ele>0</ele>
                        <time>2022-08-18T13:04:12Z</time>
                                                <extensions>
                            <sog>6.1</sog>
<cog>182.1</cog>
                        </extensions>
                    </trkpt>
                    <trkpt lat="54.42518" lon="10.206903333333335">
                        <ele>0</ele>
                        <time>2022-08-18T13:04:42Z</time>
                                                <extensions>
                            <sog>6.3</sog>
<cog>192.3</cog>
                        </extensions>
                    </trkpt>
                    <trkpt lat="54.423480000000005" lon="10.206303333333333">
                        <ele>0</ele>
                        <time>2022-08-18T13:05:42Z</time>
                                                <extensions>
                            <sog>6.1</sog>
<cog>192.5</cog>
                        </extensions>
                    </trkpt>
                    <trkpt lat="54.42178333333333" lon="10.205739999999999">
                        <ele>0</ele>
                        <time>2022-08-18T13:06:42Z</time>
                                                <extensions>
                            <sog>6.1</sog>
<cog>189.4</cog>
                        </extensions>
                    </trkpt>
                    <trkpt lat="54.42093833333333" lon="10.20547">
                        <ele>0</ele>
                        <time>2022-08-18T13:07:12Z</time>
                                                <extensions>
                            <sog>6.3</sog>
<cog>193.3</cog>
                        </extensions>
                    </trkpt>
                    <trkpt lat="54.420055000000005" lon="10.205188333333332">
                        <ele>0</ele>
                        <time>2022-08-18T13:07:43Z</time>
                                                <extensions>
                            <sog>6.4</sog>
<cog>192.0</cog>
                        </extensions>
                    </trkpt>
                    <trkpt lat="54.419239999999995" lon="10.204933333333335">
                        <ele>0</ele>
                        <time>2022-08-18T13:08:12Z</time>
                                                <extensions>
                            <sog>6.1</sog>
<cog>189.8</cog>
                        </extensions>
                    </trkpt>
                    <trkpt lat="54.418395000000004" lon="10.20467">
                        <ele>0</ele>
                        <time>2022-08-18T13:08:42Z</time>
                                                <extensions>
                            <sog>6.2</sog>
<cog>190.1</cog>
                        </extensions>
                    </trkpt>
                    <trkpt lat="54.41754666666667" lon="10.204408333333333">
                        <ele>0</ele>
                        <time>2022-08-18T13:09:12Z</time>
                                                <extensions>
                            <sog>6.1</sog>
<cog>190.5</cog>
                        </extensions>
                    </trkpt>
                    <trkpt lat="54.41670166666667" lon="10.20416">
                        <ele>0</ele>
                        <time>2022-08-18T13:09:42Z</time>
                                                <extensions>
                            <sog>6.1</sog>
<cog>190.0</cog>
                        </extensions>
                    </trkpt>
                    <trkpt lat="54.415823333333336" lon="10.203918333333332">
                        <ele>0</ele>
                        <time>2022-08-18T13:10:13Z</time>
                                                <extensions>
                            <sog>6.2</sog>
<cog>187.5</cog>
                        </extensions>
                    </trkpt>
                    <trkpt lat="54.415004999999994" lon="10.203676666666667">
                        <ele>0</ele>
                        <time>2022-08-18T13:10:43Z</time>
                                                <extensions>
                            <sog>6.7</sog>
<cog>191.0</cog>
                        </extensions>
                    </trkpt>
                    <trkpt lat="54.41414666666667" lon="10.203534999999999">
                        <ele>0</ele>
                        <time>2022-08-18T13:11:12Z</time>
                                                <extensions>
                            <sog>6.4</sog>
<cog>185.7</cog>
                        </extensions>
                    </trkpt>
                    <trkpt lat="54.41328333333333" lon="10.203488333333333">
                        <ele>0</ele>
                        <time>2022-08-18T13:11:42Z</time>
                                                <extensions>
                            <sog>6.1</sog>
<cog>186.5</cog>
                        </extensions>
                    </trkpt>
                    <trkpt lat="54.412415" lon="10.203293333333333">
                        <ele>0</ele>
                        <time>2022-08-18T13:12:12Z</time>
                                                <extensions>
                            <sog>6.1</sog>
<cog>189.2</cog>
                        </extensions>
                    </trkpt>
                    <trkpt lat="54.41155333333334" lon="10.203048333333333">
                        <ele>0</ele>
                        <time>2022-08-18T13:12:42Z</time>
                                                <extensions>
                            <sog>6.0</sog>
<cog>190.2</cog>
                        </extensions>
                    </trkpt>
                    <trkpt lat="54.41070833333333" lon="10.20275">
                        <ele>0</ele>
                        <time>2022-08-18T13:13:12Z</time>
                                                <extensions>
                            <sog>6.1</sog>
<cog>192.9</cog>
                        </extensions>
                    </trkpt>
                    <trkpt lat="54.409866666666666" lon="10.202461666666666">
                        <ele>0</ele>
                        <time>2022-08-18T13:13:43Z</time>
                                                <extensions>
                            <sog>6.1</sog>
<cog>190.9</cog>
                        </extensions>
                    </trkpt>
                    <trkpt lat="54.40900166666667" lon="10.202140000000002">
                        <ele>0</ele>
                        <time>2022-08-18T13:14:13Z</time>
                                                <extensions>
                            <sog>6.5</sog>
<cog>194.7</cog>
                        </extensions>
                    </trkpt>
                    <trkpt lat="54.408186666666666" lon="10.201838333333335">
                        <ele>0</ele>
                        <time>2022-08-18T13:14:42Z</time>
                                                <extensions>
                            <sog>6.3</sog>
<cog>192.3</cog>
                        </extensions>
                    </trkpt>
                    <trkpt lat="54.407244999999996" lon="10.201563333333333">
                        <ele>0</ele>
                        <time>2022-08-18T13:15:15Z</time>
                                                <extensions>
                            <sog>6.1</sog>
<cog>189.4</cog>
                        </extensions>
                    </trkpt>
                    <trkpt lat="54.40647833333333" lon="10.201193333333332">
                        <ele>0</ele>
                        <time>2022-08-18T13:15:43Z</time>
                                                <extensions>
                            <sog>6.4</sog>
<cog>182.8</cog>
                        </extensions>
                    </trkpt>
                    <trkpt lat="54.40565" lon="10.2012">
                        <ele>0</ele>
                        <time>2022-08-18T13:16:12Z</time>
                                                <extensions>
                            <sog>6.2</sog>
<cog>184.1</cog>
                        </extensions>
                    </trkpt>
                    <trkpt lat="54.404775" lon="10.201091666666667">
                        <ele>0</ele>
                        <time>2022-08-18T13:16:43Z</time>
                                                <extensions>
                            <sog>6.0</sog>
<cog>185.9</cog>
                        </extensions>
                    </trkpt>
                    <trkpt lat="54.40396" lon="10.20089">
                        <ele>0</ele>
                        <time>2022-08-18T13:17:12Z</time>
                                                <extensions>
                            <sog>6.2</sog>
<cog>187.9</cog>
                        </extensions>
                    </trkpt>
                    <trkpt lat="54.40309833333333" lon="10.200586666666668">
                        <ele>0</ele>
                        <time>2022-08-18T13:17:43Z</time>
                                                <extensions>
                            <sog>6.2</sog>
<cog>193.3</cog>
                        </extensions>
                    </trkpt>
                    <trkpt lat="54.40226666666667" lon="10.200358333333332">
                        <ele>0</ele>
                        <time>2022-08-18T13:18:12Z</time>
                                                <extensions>
                            <sog>6.2</sog>
<cog>188.3</cog>
                        </extensions>
                    </trkpt>
                    <trkpt lat="54.40129833333334" lon="10.200083333333334">
                        <ele>0</ele>
                        <time>2022-08-18T13:18:46Z</time>
                                                <extensions>
                            <sog>6.2</sog>
<cog>189.3</cog>
                        </extensions>
                    </trkpt>
                    <trkpt lat="54.39968833333333" lon="10.199616666666666">
                        <ele>0</ele>
                        <time>2022-08-18T13:19:42Z</time>
                                                <extensions>
                            <sog>6.7</sog>
<cog>183.8</cog>
                        </extensions>
                    </trkpt>
                    <trkpt lat="54.39877833333333" lon="10.199378333333334">
                        <ele>0</ele>
                        <time>2022-08-18T13:20:14Z</time>
                                                <extensions>
                            <sog>6.2</sog>
<cog>190.4</cog>
                        </extensions>
                    </trkpt>
                    <trkpt lat="54.397956666666666" lon="10.19913">
                        <ele>0</ele>
                        <time>2022-08-18T13:20:43Z</time>
                                                <extensions>
                            <sog>6.2</sog>
<cog>190.1</cog>
                        </extensions>
                    </trkpt>
                    <trkpt lat="54.39627666666667" lon="10.198675">
                        <ele>0</ele>
                        <time>2022-08-18T13:21:42Z</time>
                                                <extensions>
                            <sog>6.3</sog>
<cog>190.3</cog>
                        </extensions>
                    </trkpt>
                    <trkpt lat="54.39453666666667" lon="10.198178333333335">
                        <ele>0</ele>
                        <time>2022-08-18T13:22:43Z</time>
                                                <extensions>
                            <sog>6.2</sog>
<cog>185.8</cog>
                        </extensions>
                    </trkpt>
                    <trkpt lat="54.39369166666667" lon="10.197915">
                        <ele>0</ele>
                        <time>2022-08-18T13:23:13Z</time>
                                                <extensions>
                            <sog>6.3</sog>
<cog>188.3</cog>
                        </extensions>
                    </trkpt>
                    <trkpt lat="54.39286166666667" lon="10.197538333333334">
                        <ele>0</ele>
                        <time>2022-08-18T13:23:43Z</time>
                                                <extensions>
                            <sog>6.2</sog>
<cog>199.3</cog>
                        </extensions>
                    </trkpt>
                    <trkpt lat="54.39117" lon="10.197115">
                        <ele>0</ele>
                        <time>2022-08-18T13:24:42Z</time>
                                                <extensions>
                            <sog>6.3</sog>
<cog>188.3</cog>
                        </extensions>
                    </trkpt>
                    <trkpt lat="54.39028666666666" lon="10.19689">
                        <ele>0</ele>
                        <time>2022-08-18T13:25:13Z</time>
                                                <extensions>
                            <sog>6.2</sog>
<cog>189.1</cog>
                        </extensions>
                    </trkpt>
                    <trkpt lat="54.38939666666667" lon="10.196656666666666">
                        <ele>0</ele>
                        <time>2022-08-18T13:25:44Z</time>
                                                <extensions>
                            <sog>6.2</sog>
<cog>189.1</cog>
                        </extensions>
                    </trkpt>
                    <trkpt lat="54.38856166666667" lon="10.196426666666667">
                        <ele>0</ele>
                        <time>2022-08-18T13:26:13Z</time>
                                                <extensions>
                            <sog>6.4</sog>
<cog>189.6</cog>
                        </extensions>
                    </trkpt>
                    <trkpt lat="54.3877" lon="10.196213333333333">
                        <ele>0</ele>
                        <time>2022-08-18T13:26:43Z</time>
                                                <extensions>
                            <sog>6.2</sog>
<cog>187.4</cog>
                        </extensions>
                    </trkpt>
                    <trkpt lat="54.38688" lon="10.195995">
                        <ele>0</ele>
                        <time>2022-08-18T13:27:12Z</time>
                                                <extensions>
                            <sog>6.3</sog>
<cog>189.9</cog>
                        </extensions>
                    </trkpt>
                    <trkpt lat="54.38603666666667" lon="10.195756666666666">
                        <ele>0</ele>
                        <time>2022-08-18T13:27:42Z</time>
                                                <extensions>
                            <sog>6.2</sog>
<cog>189.8</cog>
                        </extensions>
                    </trkpt>
                    <trkpt lat="54.385194999999996" lon="10.195535">
                        <ele>0</ele>
                        <time>2022-08-18T13:28:12Z</time>
                                                <extensions>
                            <sog>6.0</sog>
<cog>187.7</cog>
                        </extensions>
                    </trkpt>
                    <trkpt lat="54.38437333333333" lon="10.195303333333333">
                        <ele>0</ele>
                        <time>2022-08-18T13:28:42Z</time>
                                                <extensions>
                            <sog>6.1</sog>
<cog>190.0</cog>
                        </extensions>
                    </trkpt>
                    <trkpt lat="54.383535" lon="10.195043333333333">
                        <ele>0</ele>
                        <time>2022-08-18T13:29:12Z</time>
                                                <extensions>
                            <sog>6.2</sog>
<cog>189.9</cog>
                        </extensions>
                    </trkpt>
                    <trkpt lat="54.38266" lon="10.194778333333334">
                        <ele>0</ele>
                        <time>2022-08-18T13:29:43Z</time>
                                                <extensions>
                            <sog>6.2</sog>
<cog>191.1</cog>
                        </extensions>
                    </trkpt>
                    <trkpt lat="54.381840000000004" lon="10.194498333333334">
                        <ele>0</ele>
                        <time>2022-08-18T13:30:12Z</time>
                                                <extensions>
                            <sog>6.2</sog>
<cog>195.5</cog>
                        </extensions>
                    </trkpt>
                    <trkpt lat="54.381033333333335" lon="10.193968333333334">
                        <ele>0</ele>
                        <time>2022-08-18T13:30:42Z</time>
                                                <extensions>
                            <sog>6.2</sog>
<cog>204.9</cog>
                        </extensions>
                    </trkpt>
                    <trkpt lat="54.380248333333334" lon="10.19335">
                        <ele>0</ele>
                        <time>2022-08-18T13:31:13Z</time>
                                                <extensions>
                            <sog>6.3</sog>
<cog>195.9</cog>
                        </extensions>
                    </trkpt>
                    <trkpt lat="54.379333333333335" lon="10.192935">
                        <ele>0</ele>
                        <time>2022-08-18T13:31:45Z</time>
                                                <extensions>
                            <sog>6.3</sog>
<cog>193.2</cog>
                        </extensions>
                    </trkpt>
                    <trkpt lat="54.37858000000001" lon="10.19271">
                        <ele>0</ele>
                        <time>2022-08-18T13:32:12Z</time>
                                                <extensions>
                            <sog>6.2</sog>
<cog>186.1</cog>
                        </extensions>
                    </trkpt>
                    <trkpt lat="54.376935" lon="10.192793333333332">
                        <ele>0</ele>
                        <time>2022-08-18T13:33:12Z</time>
                                                <extensions>
                            <sog>6.1</sog>
<cog>171.3</cog>
                        </extensions>
                    </trkpt>
                    <trkpt lat="54.376108333333335" lon="10.193015">
                        <ele>0</ele>
                        <time>2022-08-18T13:33:42Z</time>
                                                <extensions>
                            <sog>6.1</sog>
<cog>172.8</cog>
                        </extensions>
                    </trkpt>
                    <trkpt lat="54.37527333333333" lon="10.193138333333334">
                        <ele>0</ele>
                        <time>2022-08-18T13:34:12Z</time>
                                                <extensions>
                            <sog>6.0</sog>
<cog>176.4</cog>
                        </extensions>
                    </trkpt>
                    <trkpt lat="54.3744" lon="10.193226666666668">
                        <ele>0</ele>
                        <time>2022-08-18T13:34:44Z</time>
                                                <extensions>
                            <sog>5.6</sog>
<cog>173.8</cog>
                        </extensions>
                    </trkpt>
                    <trkpt lat="54.373545" lon="10.194111666666666">
                        <ele>0</ele>
                        <time>2022-08-18T13:35:43Z</time>
                                                <extensions>
                            <sog>3.0</sog>
<cog>10.0</cog>
                        </extensions>
                    </trkpt>
                    <trkpt lat="54.37383" lon="10.19458">
                        <ele>0</ele>
                        <time>2022-08-18T13:36:13Z</time>
                                                <extensions>
                            <sog>3.0</sog>
<cog>53.0</cog>
                        </extensions>
                    </trkpt>
                    <trkpt lat="54.37408666666667" lon="10.195108333333334">
                        <ele>0</ele>
                        <time>2022-08-18T13:36:45Z</time>
                                                <extensions>
                            <sog>2.1</sog>
<cog>44.1</cog>
                        </extensions>
                    </trkpt>
                    <trkpt lat="54.374143333333336" lon="10.195400000000001">
                        <ele>0</ele>
                        <time>2022-08-18T13:37:12Z</time>
                                                <extensions>
                            <sog>1.4</sog>
<cog>119.0</cog>
                        </extensions>
                    </trkpt>
                    <trkpt lat="54.37405833333333" lon="10.195561666666666">
                        <ele>0</ele>
                        <time>2022-08-18T13:37:45Z</time>
                                                <extensions>
                            <sog>0.9</sog>
<cog>304.1</cog>
                        </extensions>
                    </trkpt>
                    <trkpt lat="54.374050000000004" lon="10.195053333333334">
                        <ele>0</ele>
                        <time>2022-08-18T13:38:42Z</time>
                                                <extensions>
                            <sog>1.6</sog>
<cog>230.1</cog>
                        </extensions>
                    </trkpt>
                    <trkpt lat="54.373875" lon="10.194706666666667">
                        <ele>0</ele>
                        <time>2022-08-18T13:39:13Z</time>
                                                <extensions>
                            <sog>1.8</sog>
<cog>236.0</cog>
                        </extensions>
                    </trkpt>
                    <trkpt lat="54.37380333333333" lon="10.194535">
                        <ele>0</ele>
                        <time>2022-08-18T13:39:42Z</time>
                                                <extensions>
                            <sog>0.1</sog>
<cog>229.3</cog>
                        </extensions>
                    </trkpt>
                    <trkpt lat="54.373844999999996" lon="10.194585">
                        <ele>0</ele>
                        <time>2022-08-18T13:40:45Z</time>
                                                <extensions>
                            <sog>0.4</sog>
<cog>36.4</cog>
                        </extensions>
                    </trkpt>
                    <trkpt lat="54.37389666666666" lon="10.194718333333332">
                        <ele>0</ele>
                        <time>2022-08-18T13:43:43Z</time>
                                                <extensions>
                            <sog>0.2</sog>
<cog>209.9</cog>
                        </extensions>
                    </trkpt>
                    <trkpt lat="54.373866666666665" lon="10.194611666666667">
                        <ele>0</ele>
                        <time>2022-08-18T13:46:42Z</time>
                                                <extensions>
                            <sog>1.0</sog>
<cog>59.6</cog>
                        </extensions>
                    </trkpt>
                    <trkpt lat="54.374305" lon="10.195458333333333">
                        <ele>0</ele>
                        <time>2022-08-18T13:49:37Z</time>
                                                <extensions>
                            <sog>1.8</sog>
<cog>326.7</cog>
                        </extensions>
                    </trkpt>
                    <trkpt lat="54.37440333333333" lon="10.195178333333333">
                        <ele>0</ele>
                        <time>2022-08-18T13:50:07Z</time>
                                                <extensions>
                            <sog>0.9</sog>
<cog>309.4</cog>
                        </extensions>
                    </trkpt>
                    <trkpt lat="54.37441833333333" lon="10.19516">
                        <ele>0</ele>
                        <time>2022-08-18T13:51:07Z</time>
                                                <extensions>
                            <sog>0.2</sog>
<cog>325.7</cog>
                        </extensions>
                    </trkpt>
                    <trkpt lat="54.374408333333335" lon="10.195165">
                        <ele>0</ele>
                        <time>2022-08-18T13:51:37Z</time>
                                                <extensions>
                            <sog>0.1</sog>
<cog>325.7</cog>
                        </extensions>
                    </trkpt>
                    <trkpt lat="54.37441166666667" lon="10.19517">
                        <ele>0</ele>
                        <time>2022-08-18T13:52:07Z</time>
                                                <extensions>
                            <sog>0.0</sog>
<cog>325.7</cog>
                        </extensions>
                    </trkpt>
                    <trkpt lat="54.37441666666667" lon="10.195165">
                        <ele>0</ele>
                        <time>2022-08-18T13:52:37Z</time>
                                                <extensions>
                            <sog>0.0</sog>
<cog>325.7</cog>
                        </extensions>
                    </trkpt>
                    <trkpt lat="54.374424999999995" lon="10.195165">
                        <ele>0</ele>
                        <time>2022-08-18T13:55:40Z</time>
                                                <extensions>
                            <sog>0.0</sog>
<cog>325.7</cog>
                        </extensions>
                    </trkpt>
                    <trkpt lat="54.374405" lon="10.19514">
                        <ele>0</ele>
                        <time>2022-08-18T13:58:37Z</time>
                                                <extensions>
                            <sog>0.1</sog>
<cog>325.7</cog>
                        </extensions>
                    </trkpt>
                    <trkpt lat="54.37442166666666" lon="10.19515">
                        <ele>0</ele>
                        <time>2022-08-18T14:01:37Z</time>
                                                <extensions>
                            <sog>0.0</sog>
<cog>325.7</cog>
                        </extensions>
                    </trkpt>
                    <trkpt lat="54.37441833333333" lon="10.195148333333332">
                        <ele>0</ele>
                        <time>2022-08-18T14:04:38Z</time>
                                                <extensions>
                            <sog>0.0</sog>
<cog>325.7</cog>
                        </extensions>
                    </trkpt>
                    <trkpt lat="54.37441333333334" lon="10.19516">
                        <ele>0</ele>
                        <time>2022-08-18T14:07:37Z</time>
                                                <extensions>
                            <sog>0.0</sog>
<cog>325.7</cog>
                        </extensions>
                    </trkpt>
                    <trkpt lat="54.374428333333334" lon="10.195156666666666">
                        <ele>0</ele>
                        <time>2022-08-18T14:13:37Z</time>
                                                <extensions>
                            <sog>0.0</sog>
<cog>325.7</cog>
                        </extensions>
                    </trkpt>
                    <trkpt lat="54.374426666666665" lon="10.195145">
                        <ele>0</ele>
                        <time>2022-08-18T14:16:37Z</time>
                                                <extensions>
                            <sog>0.0</sog>
<cog>325.7</cog>
                        </extensions>
                    </trkpt>
                    <trkpt lat="54.37439166666666" lon="10.195195">
                        <ele>0</ele>
                        <time>2022-08-18T14:19:38Z</time>
                                                <extensions>
                            <sog>0.0</sog>
<cog>325.7</cog>
                        </extensions>
                    </trkpt>
                    <trkpt lat="54.37441833333333" lon="10.195201666666666">
                        <ele>0</ele>
                        <time>2022-08-18T14:28:38Z</time>
                                                <extensions>
                            <sog>0.0</sog>
<cog>325.7</cog>
                        </extensions>
                    </trkpt>
                    <trkpt lat="54.37441833333333" lon="10.195195">
                        <ele>0</ele>
                        <time>2022-08-18T14:31:37Z</time>
                                                <extensions>
                            <sog>0.0</sog>
<cog>325.7</cog>
                        </extensions>
                    </trkpt>
                    <trkpt lat="54.37444833333333" lon="10.195176666666667">
                        <ele>0</ele>
                        <time>2022-08-18T14:34:38Z</time>
                                                <extensions>
                            <sog>0.1</sog>
<cog>325.7</cog>
                        </extensions>
                    </trkpt>
                    <trkpt lat="54.37440166666667" lon="10.195161666666667">
                        <ele>0</ele>
                        <time>2022-08-18T14:40:38Z</time>
                                                <extensions>
                            <sog>0.0</sog>
<cog>325.7</cog>
                        </extensions>
                    </trkpt>
                    <trkpt lat="54.37441833333333" lon="10.195153333333334">
                        <ele>0</ele>
                        <time>2022-08-18T14:43:39Z</time>
                                                <extensions>
                            <sog>0.0</sog>
<cog>325.7</cog>
                        </extensions>
                    </trkpt>
                    <trkpt lat="54.374408333333335" lon="10.195151666666668">
                        <ele>0</ele>
                        <time>2022-08-18T14:46:37Z</time>
                                                <extensions>
                            <sog>0.0</sog>
<cog>325.7</cog>
                        </extensions>
                    </trkpt>
                    <trkpt lat="54.37443666666666" lon="10.195178333333333">
                        <ele>0</ele>
                        <time>2022-08-18T14:49:37Z</time>
                                                <extensions>
                            <sog>0.0</sog>
<cog>325.7</cog>
                        </extensions>
                    </trkpt>
                    <trkpt lat="54.37439" lon="10.195126666666665">
                        <ele>0</ele>
                        <time>2022-08-18T14:52:39Z</time>
                                                <extensions>
                            <sog>0.0</sog>
<cog>325.7</cog>
                        </extensions>
                    </trkpt>
                    <trkpt lat="54.37442333333333" lon="10.195134999999999">
                        <ele>0</ele>
                        <time>2022-08-18T14:55:37Z</time>
                                                <extensions>
                            <sog>0.0</sog>
<cog>325.7</cog>
                        </extensions>
                    </trkpt>
                    <trkpt lat="54.374408333333335" lon="10.195136666666667">
                        <ele>0</ele>
                        <time>2022-08-18T15:01:42Z</time>
                                                <extensions>
                            <sog>0.0</sog>
<cog>325.7</cog>
                        </extensions>
                    </trkpt>
                    <trkpt lat="54.3744" lon="10.195138333333334">
                        <ele>0</ele>
                        <time>2022-08-18T15:04:37Z</time>
                                                <extensions>
                            <sog>0.0</sog>
<cog>325.7</cog>
                        </extensions>
                    </trkpt>
                    <trkpt lat="54.374405" lon="10.195138333333334">
                        <ele>0</ele>
                        <time>2022-08-18T15:07:38Z</time>
                                                <extensions>
                            <sog>0.0</sog>
<cog>325.7</cog>
                        </extensions>
                    </trkpt>
                    <trkpt lat="54.37441166666667" lon="10.195158333333334">
                        <ele>0</ele>
                        <time>2022-08-18T15:10:37Z</time>
                                                <extensions>
                            <sog>0.0</sog>
<cog>325.7</cog>
                        </extensions>
                    </trkpt>
                    <trkpt lat="54.37441333333334" lon="10.195148333333332">
                        <ele>0</ele>
                        <time>2022-08-18T15:13:37Z</time>
                                                <extensions>
                            <sog>0.0</sog>
<cog>325.7</cog>
                        </extensions>
                    </trkpt>
                    <trkpt lat="54.374415" lon="10.195153333333334">
                        <ele>0</ele>
                        <time>2022-08-18T15:16:38Z</time>
                                                <extensions>
                            <sog>0.0</sog>
<cog>325.7</cog>
                        </extensions>
                    </trkpt>
                    <trkpt lat="54.3744" lon="10.195148333333332">
                        <ele>0</ele>
                        <time>2022-08-18T15:19:37Z</time>
                                                <extensions>
                            <sog>0.0</sog>
<cog>325.7</cog>
                        </extensions>
                    </trkpt>
                    <trkpt lat="54.37442166666666" lon="10.195133333333333">
                        <ele>0</ele>
                        <time>2022-08-18T15:22:37Z</time>
                                                <extensions>
                            <sog>0.0</sog>
<cog>325.7</cog>
                        </extensions>
                    </trkpt>
                    <trkpt lat="54.37442" lon="10.195146666666666">
                        <ele>0</ele>
                        <time>2022-08-18T15:25:37Z</time>
                                                <extensions>
                            <sog>0.0</sog>
<cog>325.7</cog>
                        </extensions>
                    </trkpt>
                    <trkpt lat="54.37442166666666" lon="10.195155">
                        <ele>0</ele>
                        <time>2022-08-18T15:28:38Z</time>
                                                <extensions>
                            <sog>0.0</sog>
<cog>325.7</cog>
                        </extensions>
                    </trkpt>
                    <trkpt lat="54.37442" lon="10.195158333333334">
                        <ele>0</ele>
                        <time>2022-08-18T15:31:38Z</time>
                                                <extensions>
                            <sog>0.0</sog>
<cog>325.7</cog>
                        </extensions>
                    </trkpt>
                    <trkpt lat="54.37442166666666" lon="10.195166666666667">
                        <ele>0</ele>
                        <time>2022-08-18T15:34:37Z</time>
                                                <extensions>
                            <sog>0.0</sog>
<cog>325.7</cog>
                        </extensions>
                    </trkpt>
                    <trkpt lat="54.374424999999995" lon="10.195165">
                        <ele>0</ele>
                        <time>2022-08-18T15:37:37Z</time>
                                                <extensions>
                            <sog>0.0</sog>
<cog>325.7</cog>
                        </extensions>
                    </trkpt>
                    <trkpt lat="54.374406666666665" lon="10.195156666666666">
                        <ele>0</ele>
                        <time>2022-08-18T15:43:37Z</time>
                                                <extensions>
                            <sog>0.1</sog>
<cog>325.7</cog>
                        </extensions>
                    </trkpt>
                    <trkpt lat="54.374405" lon="10.19514">
                        <ele>0</ele>
                        <time>2022-08-18T15:46:39Z</time>
                                                <extensions>
                            <sog>0.1</sog>
<cog>325.7</cog>
                        </extensions>
                    </trkpt>
                    <trkpt lat="54.37441666666667" lon="10.195136666666667">
                        <ele>0</ele>
                        <time>2022-08-18T15:49:38Z</time>
                                                <extensions>
                            <sog>0.0</sog>
<cog>325.7</cog>
                        </extensions>
                    </trkpt>
                    <trkpt lat="54.374415" lon="10.195146666666666">
                        <ele>0</ele>
                        <time>2022-08-18T15:52:39Z</time>
                                                <extensions>
                            <sog>0.0</sog>
<cog>325.7</cog>
                        </extensions>
                    </trkpt>
                    <trkpt lat="54.374406666666665" lon="10.195161666666667">
                        <ele>0</ele>
                        <time>2022-08-18T15:55:39Z</time>
                                                <extensions>
                            <sog>0.0</sog>
<cog>325.7</cog>
                        </extensions>
                    </trkpt>
                    <trkpt lat="54.374408333333335" lon="10.195153333333334">
                        <ele>0</ele>
                        <time>2022-08-18T15:58:37Z</time>
                                                <extensions>
                            <sog>0.0</sog>
<cog>325.7</cog>
                        </extensions>
                    </trkpt>
                    <trkpt lat="54.374406666666665" lon="10.195153333333334">
                        <ele>0</ele>
                        <time>2022-08-18T16:01:37Z</time>
                                                <extensions>
                            <sog>0.0</sog>
<cog>325.7</cog>
                        </extensions>
                    </trkpt>
                    <trkpt lat="54.37441833333333" lon="10.195153333333334">
                        <ele>0</ele>
                        <time>2022-08-18T16:04:39Z</time>
                                                <extensions>
                            <sog>0.0</sog>
<cog>325.7</cog>
                        </extensions>
                    </trkpt>
                    <trkpt lat="54.37439666666667" lon="10.19514">
                        <ele>0</ele>
                        <time>2022-08-18T16:07:39Z</time>
                                                <extensions>
                            <sog>0.0</sog>
<cog>325.7</cog>
                        </extensions>
                    </trkpt>
                    <trkpt lat="54.37441166666667" lon="10.195156666666666">
                        <ele>0</ele>
                        <time>2022-08-18T16:13:37Z</time>
                                                <extensions>
                            <sog>0.0</sog>
<cog>325.7</cog>
                        </extensions>
                    </trkpt>
                    <trkpt lat="54.374415" lon="10.19516">
                        <ele>0</ele>
                        <time>2022-08-18T16:16:37Z</time>
                                                <extensions>
                            <sog>0.0</sog>
<cog>325.7</cog>
                        </extensions>
                    </trkpt>
                    <trkpt lat="54.37440166666667" lon="10.195146666666666">
                        <ele>0</ele>
                        <time>2022-08-18T16:19:38Z</time>
                                                <extensions>
                            <sog>0.0</sog>
<cog>325.7</cog>
                        </extensions>
                    </trkpt>
                    <trkpt lat="54.37440333333333" lon="10.195158333333334">
                        <ele>0</ele>
                        <time>2022-08-18T16:22:38Z</time>
                                                <extensions>
                            <sog>0.0</sog>
<cog>325.7</cog>
                        </extensions>
                    </trkpt>
                    <trkpt lat="54.374406666666665" lon="10.19517">
                        <ele>0</ele>
                        <time>2022-08-18T16:31:38Z</time>
                                                <extensions>
                            <sog>0.1</sog>
<cog>325.7</cog>
                        </extensions>
                    </trkpt>
                    <trkpt lat="54.374405" lon="10.195161666666667">
                        <ele>0</ele>
                        <time>2022-08-18T16:34:37Z</time>
                                                <extensions>
                            <sog>0.0</sog>
<cog>325.7</cog>
                        </extensions>
                    </trkpt>
                    <trkpt lat="54.37441166666667" lon="10.195168333333333">
                        <ele>0</ele>
                        <time>2022-08-18T16:37:38Z</time>
                                                <extensions>
                            <sog>0.1</sog>
<cog>325.7</cog>
                        </extensions>
                    </trkpt>
                    <trkpt lat="54.374435" lon="10.195175">
                        <ele>0</ele>
                        <time>2022-08-18T16:40:37Z</time>
                                                <extensions>
                            <sog>0.0</sog>
<cog>325.7</cog>
                        </extensions>
                    </trkpt>
                    <trkpt lat="54.37441" lon="10.195166666666667">
                        <ele>0</ele>
                        <time>2022-08-18T16:43:37Z</time>
                                                <extensions>
                            <sog>0.0</sog>
<cog>325.7</cog>
                        </extensions>
                    </trkpt>
                    <trkpt lat="54.374405" lon="10.19514">
                        <ele>0</ele>
                        <time>2022-08-18T16:46:37Z</time>
                                                <extensions>
                            <sog>0.0</sog>
<cog>325.7</cog>
                        </extensions>
                    </trkpt>
                    <trkpt lat="54.37441333333334" lon="10.195138333333334">
                        <ele>0</ele>
                        <time>2022-08-18T16:49:37Z</time>
                                                <extensions>
                            <sog>0.0</sog>
<cog>325.7</cog>
                        </extensions>
                    </trkpt>
                    <trkpt lat="54.37441333333334" lon="10.195151666666668">
                        <ele>0</ele>
                        <time>2022-08-18T16:52:40Z</time>
                                                <extensions>
                            <sog>0.0</sog>
<cog>325.7</cog>
                        </extensions>
                    </trkpt>
                    <trkpt lat="54.37442333333333" lon="10.195163333333333">
                        <ele>0</ele>
                        <time>2022-08-18T16:55:37Z</time>
                                                <extensions>
                            <sog>0.0</sog>
<cog>325.7</cog>
                        </extensions>
                    </trkpt>
                    <trkpt lat="54.37441333333334" lon="10.195168333333333">
                        <ele>0</ele>
                        <time>2022-08-18T16:58:38Z</time>
                                                <extensions>
                            <sog>0.0</sog>
<cog>325.7</cog>
                        </extensions>
                    </trkpt>
                    <trkpt lat="54.37441" lon="10.195148333333332">
                        <ele>0</ele>
                        <time>2022-08-18T17:01:37Z</time>
                                                <extensions>
                            <sog>0.0</sog>
<cog>325.7</cog>
                        </extensions>
                    </trkpt>
                    </trkseg>
                </trk>
</gpx>