<?xml version="1.0" encoding="UTF-8"?>
<gpx version="1.1" creator="AIS-to-GPX Converter" xmlns="http://www.topografix.com/GPX/1/1">
                <trk>
                    <name>anon0241</name>
                    <trkseg>
                                            <trkpt lat="54.435673333333334" lon="10.171845">
                        <ele>0</ele>
                        <time>2022-08-18T00:02:00Z</time>
                                                <extensions>
                            <sog>0.0</sog>
<cog>63.3</cog>
                        </extensions>
                    </trkpt>
                    <trkpt lat="54.435678333333335" lon="10.171854999999999">
                        <ele>0</ele>
                        <time>2022-08-18T00:08:03Z</time>
                                                <extensions>
                            <sog>0.0</sog>
<cog>63.3</cog>
                        </extensions>
                    </trkpt>
                    <trkpt lat="54.43568833333333" lon="10.17189">
                        <ele>0</ele>
                        <time>2022-08-18T00:11:00Z</time>
                                                <extensions>
                            <sog>0.0</sog>
<cog>63.3</cog>
                        </extensions>
                    </trkpt>
                    <trkpt lat="54.43569166666667" lon="10.171881666666668">
                        <ele>0</ele>
                        <time>2022-08-18T00:14:00Z</time>
                                                <extensions>
                            <sog>0.0</sog>
<cog>63.3</cog>
                        </extensions>
                    </trkpt>
                    <trkpt lat="54.435633333333335" lon="10.171843333333333">
                        <ele>0</ele>
                        <time>2022-08-18T00:31:59Z</time>
                                                <extensions>
                            <sog>0.1</sog>
<cog>82.1</cog>
                        </extensions>
                    </trkpt>
                    <trkpt lat="54.435629999999996" lon="10.17186">
                        <ele>0</ele>
                        <time>2022-08-18T00:38:00Z</time>
                                                <extensions>
                            <sog>0.0</sog>
<cog>77.3</cog>
                        </extensions>
                    </trkpt>
                    <trkpt lat="54.43564333333334" lon="10.171856666666667">
                        <ele>0</ele>
                        <time>2022-08-18T00:43:59Z</time>
                                                <extensions>
                            <sog>0.0</sog>
<cog>77.3</cog>
                        </extensions>
                    </trkpt>
                    <trkpt lat="54.43564833333333" lon="10.171861666666667">
                        <ele>0</ele>
                        <time>2022-08-18T00:47:00Z</time>
                                                <extensions>
                            <sog>0.0</sog>
<cog>77.3</cog>
                        </extensions>
                    </trkpt>
                    <trkpt lat="54.43564166666667" lon="10.171843333333333">
                        <ele>0</ele>
                        <time>2022-08-18T00:50:01Z</time>
                                                <extensions>
                            <sog>0.0</sog>
<cog>77.3</cog>
                        </extensions>
                    </trkpt>
                    <trkpt lat="54.43561" lon="10.171838333333334">
                        <ele>0</ele>
                        <time>2022-08-18T00:56:00Z</time>
                                                <extensions>
                            <sog>0.0</sog>
<cog>90.5</cog>
                        </extensions>
                    </trkpt>
                    <trkpt lat="54.4356" lon="10.171806666666667">
                        <ele>0</ele>
                        <time>2022-08-18T00:59:01Z</time>
                                                <extensions>
                            <sog>0.0</sog>
<cog>90.5</cog>
                        </extensions>
                    </trkpt>
                    <trkpt lat="54.43561" lon="10.171785">
                        <ele>0</ele>
                        <time>2022-08-18T01:02:00Z</time>
                                                <extensions>
                            <sog>0.0</sog>
<cog>90.5</cog>
                        </extensions>
                    </trkpt>
                    <trkpt lat="54.43561833333333" lon="10.171781666666668">
                        <ele>0</ele>
                        <time>2022-08-18T01:05:00Z</time>
                                                <extensions>
                            <sog>0.1</sog>
<cog>90.5</cog>
                        </extensions>
                    </trkpt>
                    <trkpt lat="54.43564666666667" lon="10.171795">
                        <ele>0</ele>
                        <time>2022-08-18T01:08:00Z</time>
                                                <extensions>
                            <sog>0.0</sog>
<cog>90.5</cog>
                        </extensions>
                    </trkpt>
                    <trkpt lat="54.43566" lon="10.17179">
                        <ele>0</ele>
                        <time>2022-08-18T01:11:00Z</time>
                                                <extensions>
                            <sog>0.0</sog>
<cog>90.5</cog>
                        </extensions>
                    </trkpt>
                    <trkpt lat="54.43566333333333" lon="10.171808333333333">
                        <ele>0</ele>
                        <time>2022-08-18T01:13:59Z</time>
                                                <extensions>
                            <sog>0.0</sog>
<cog>69.8</cog>
                        </extensions>
                    </trkpt>
                    <trkpt lat="54.43564833333333" lon="10.171858333333335">
                        <ele>0</ele>
                        <time>2022-08-18T01:20:02Z</time>
                                                <extensions>
                            <sog>0.0</sog>
<cog>57.1</cog>
                        </extensions>
                    </trkpt>
                    <trkpt lat="54.43564333333334" lon="10.171875">
                        <ele>0</ele>
                        <time>2022-08-18T01:26:00Z</time>
                                                <extensions>
                            <sog>0.0</sog>
<cog>57.1</cog>
                        </extensions>
                    </trkpt>
                    <trkpt lat="54.43566166666667" lon="10.171854999999999">
                        <ele>0</ele>
                        <time>2022-08-18T01:29:00Z</time>
                                                <extensions>
                            <sog>0.0</sog>
<cog>57.1</cog>
                        </extensions>
                    </trkpt>
                    <trkpt lat="54.43564833333333" lon="10.171823333333332">
                        <ele>0</ele>
                        <time>2022-08-18T01:32:00Z</time>
                                                <extensions>
                            <sog>0.0</sog>
<cog>57.1</cog>
                        </extensions>
                    </trkpt>
                    <trkpt lat="54.43566666666666" lon="10.171854999999999">
                        <ele>0</ele>
                        <time>2022-08-18T01:38:00Z</time>
                                                <extensions>
                            <sog>0.0</sog>
<cog>76.6</cog>
                        </extensions>
                    </trkpt>
                    <trkpt lat="54.43565" lon="10.171816666666667">
                        <ele>0</ele>
                        <time>2022-08-18T01:43:59Z</time>
                                                <extensions>
                            <sog>0.0</sog>
<cog>54.8</cog>
                        </extensions>
                    </trkpt>
                    <trkpt lat="54.43566333333333" lon="10.171841666666667">
                        <ele>0</ele>
                        <time>2022-08-18T01:47:02Z</time>
                                                <extensions>
                            <sog>0.0</sog>
<cog>54.8</cog>
                        </extensions>
                    </trkpt>
                    <trkpt lat="54.43564833333333" lon="10.171853333333333">
                        <ele>0</ele>
                        <time>2022-08-18T01:50:02Z</time>
                                                <extensions>
                            <sog>0.0</sog>
<cog>46.4</cog>
                        </extensions>
                    </trkpt>
                    <trkpt lat="54.43562333333333" lon="10.171833333333332">
                        <ele>0</ele>
                        <time>2022-08-18T01:56:00Z</time>
                                                <extensions>
                            <sog>0.0</sog>
<cog>46.4</cog>
                        </extensions>
                    </trkpt>
                    <trkpt lat="54.43564333333334" lon="10.171865">
                        <ele>0</ele>
                        <time>2022-08-18T02:08:02Z</time>
                                                <extensions>
                            <sog>0.0</sog>
<cog>37.1</cog>
                        </extensions>
                    </trkpt>
                    <trkpt lat="54.435669999999995" lon="10.171838333333334">
                        <ele>0</ele>
                        <time>2022-08-18T02:14:01Z</time>
                                                <extensions>
                            <sog>0.0</sog>
<cog>37.1</cog>
                        </extensions>
                    </trkpt>
                    <trkpt lat="54.43566333333333" lon="10.17182">
                        <ele>0</ele>
                        <time>2022-08-18T02:20:01Z</time>
                                                <extensions>
                            <sog>0.1</sog>
<cog>37.1</cog>
                        </extensions>
                    </trkpt>
                    <trkpt lat="54.435665" lon="10.171823333333332">
                        <ele>0</ele>
                        <time>2022-08-18T02:25:59Z</time>
                                                <extensions>
                            <sog>0.0</sog>
<cog>37.1</cog>
                        </extensions>
                    </trkpt>
                    <trkpt lat="54.435680000000005" lon="10.171853333333333">
                        <ele>0</ele>
                        <time>2022-08-18T02:29:00Z</time>
                                                <extensions>
                            <sog>0.0</sog>
<cog>37.1</cog>
                        </extensions>
                    </trkpt>
                    <trkpt lat="54.43569333333333" lon="10.171863333333333">
                        <ele>0</ele>
                        <time>2022-08-18T02:31:59Z</time>
                                                <extensions>
                            <sog>0.0</sog>
<cog>37.1</cog>
                        </extensions>
                    </trkpt>
                    <trkpt lat="54.435658333333336" lon="10.171845">
                        <ele>0</ele>
                        <time>2022-08-18T02:38:01Z</time>
                                                <extensions>
                            <sog>0.0</sog>
<cog>37.1</cog>
                        </extensions>
                    </trkpt>
                    <trkpt lat="54.43564166666667" lon="10.171861666666667">
                        <ele>0</ele>
                        <time>2022-08-18T02:41:01Z</time>
                                                <extensions>
                            <sog>0.0</sog>
<cog>37.1</cog>
                        </extensions>
                    </trkpt>
                    <trkpt lat="54.43564" lon="10.171868333333332">
                        <ele>0</ele>
                        <time>2022-08-18T02:43:59Z</time>
                                                <extensions>
                            <sog>0.0</sog>
<cog>37.1</cog>
                        </extensions>
                    </trkpt>
                    <trkpt lat="54.435613333333336" lon="10.171788333333334">
                        <ele>0</ele>
                        <time>2022-08-18T02:50:00Z</time>
                                                <extensions>
                            <sog>0.0</sog>
<cog>37.1</cog>
                        </extensions>
                    </trkpt>
                    <trkpt lat="54.435590000000005" lon="10.171873333333334">
                        <ele>0</ele>
                        <time>2022-08-18T02:56:01Z</time>
                                                <extensions>
                            <sog>0.0</sog>
<cog>37.1</cog>
                        </extensions>
                    </trkpt>
                    <trkpt lat="54.43564" lon="10.17187">
                        <ele>0</ele>
                        <time>2022-08-18T03:01:59Z</time>
                                                <extensions>
                            <sog>0.0</sog>
<cog>47.5</cog>
                        </extensions>
                    </trkpt>
                    <trkpt lat="54.435629999999996" lon="10.171878333333332">
                        <ele>0</ele>
                        <time>2022-08-18T03:05:00Z</time>
                                                <extensions>
                            <sog>0.0</sog>
<cog>47.5</cog>
                        </extensions>
                    </trkpt>
                    <trkpt lat="54.43561" lon="10.171865">
                        <ele>0</ele>
                        <time>2022-08-18T03:08:00Z</time>
                                                <extensions>
                            <sog>0.0</sog>
<cog>47.5</cog>
                        </extensions>
                    </trkpt>
                    <trkpt lat="54.43563166666667" lon="10.171899999999999">
                        <ele>0</ele>
                        <time>2022-08-18T03:10:59Z</time>
                                                <extensions>
                            <sog>0.0</sog>
<cog>47.5</cog>
                        </extensions>
                    </trkpt>
                    <trkpt lat="54.43564333333334" lon="10.171935">
                        <ele>0</ele>
                        <time>2022-08-18T03:14:00Z</time>
                                                <extensions>
                            <sog>0.0</sog>
<cog>47.5</cog>
                        </extensions>
                    </trkpt>
                    <trkpt lat="54.435645" lon="10.171871666666668">
                        <ele>0</ele>
                        <time>2022-08-18T03:22:59Z</time>
                                                <extensions>
                            <sog>0.0</sog>
<cog>47.5</cog>
                        </extensions>
                    </trkpt>
                    <trkpt lat="54.435665" lon="10.171848333333333">
                        <ele>0</ele>
                        <time>2022-08-18T03:26:01Z</time>
                                                <extensions>
                            <sog>0.0</sog>
<cog>47.5</cog>
                        </extensions>
                    </trkpt>
                    <trkpt lat="54.43566666666666" lon="10.171871666666668">
                        <ele>0</ele>
                        <time>2022-08-18T03:31:59Z</time>
                                                <extensions>
                            <sog>0.0</sog>
<cog>47.5</cog>
                        </extensions>
                    </trkpt>
                    <trkpt lat="54.43568333333334" lon="10.171805">
                        <ele>0</ele>
                        <time>2022-08-18T03:41:00Z</time>
                                                <extensions>
                            <sog>0.0</sog>
<cog>40.0</cog>
                        </extensions>
                    </trkpt>
                    <trkpt lat="54.43566333333333" lon="10.171851666666667">
                        <ele>0</ele>
                        <time>2022-08-18T03:44:00Z</time>
                                                <extensions>
                            <sog>0.0</sog>
<cog>40.0</cog>
                        </extensions>
                    </trkpt>
                    <trkpt lat="54.43564166666667" lon="10.17178">
                        <ele>0</ele>
                        <time>2022-08-18T03:55:59Z</time>
                                                <extensions>
                            <sog>0.0</sog>
<cog>57.9</cog>
                        </extensions>
                    </trkpt>
                    <trkpt lat="54.43563666666667" lon="10.171793333333333">
                        <ele>0</ele>
                        <time>2022-08-18T03:59:00Z</time>
                                                <extensions>
                            <sog>0.0</sog>
<cog>57.9</cog>
                        </extensions>
                    </trkpt>
                    <trkpt lat="54.43564" lon="10.171778333333332">
                        <ele>0</ele>
                        <time>2022-08-18T04:02:00Z</time>
                                                <extensions>
                            <sog>0.0</sog>
<cog>57.9</cog>
                        </extensions>
                    </trkpt>
                    <trkpt lat="54.43563166666667" lon="10.171761666666667">
                        <ele>0</ele>
                        <time>2022-08-18T04:08:02Z</time>
                                                <extensions>
                            <sog>0.1</sog>
<cog>57.9</cog>
                        </extensions>
                    </trkpt>
                    <trkpt lat="54.43564166666667" lon="10.171793333333333">
                        <ele>0</ele>
                        <time>2022-08-18T04:13:59Z</time>
                                                <extensions>
                            <sog>0.0</sog>
<cog>58.7</cog>
                        </extensions>
                    </trkpt>
                    <trkpt lat="54.43563166666667" lon="10.171806666666667">
                        <ele>0</ele>
                        <time>2022-08-18T04:20:03Z</time>
                                                <extensions>
                            <sog>0.0</sog>
<cog>58.7</cog>
                        </extensions>
                    </trkpt>
                    <trkpt lat="54.43564833333333" lon="10.171795">
                        <ele>0</ele>
                        <time>2022-08-18T04:26:00Z</time>
                                                <extensions>
                            <sog>0.0</sog>
<cog>58.7</cog>
                        </extensions>
                    </trkpt>
                    <trkpt lat="54.43561666666667" lon="10.171846666666665">
                        <ele>0</ele>
                        <time>2022-08-18T04:29:01Z</time>
                                                <extensions>
                            <sog>0.1</sog>
<cog>58.7</cog>
                        </extensions>
                    </trkpt>
                    <trkpt lat="54.43562333333333" lon="10.17179">
                        <ele>0</ele>
                        <time>2022-08-18T04:32:02Z</time>
                                                <extensions>
                            <sog>0.0</sog>
<cog>58.7</cog>
                        </extensions>
                    </trkpt>
                    <trkpt lat="54.43564333333334" lon="10.171786666666666">
                        <ele>0</ele>
                        <time>2022-08-18T04:34:59Z</time>
                                                <extensions>
                            <sog>0.0</sog>
<cog>58.7</cog>
                        </extensions>
                    </trkpt>
                    <trkpt lat="54.43562333333333" lon="10.17182">
                        <ele>0</ele>
                        <time>2022-08-18T04:38:00Z</time>
                                                <extensions>
                            <sog>0.1</sog>
<cog>58.7</cog>
                        </extensions>
                    </trkpt>
                    <trkpt lat="54.435633333333335" lon="10.171808333333333">
                        <ele>0</ele>
                        <time>2022-08-18T04:41:00Z</time>
                                                <extensions>
                            <sog>0.0</sog>
<cog>58.7</cog>
                        </extensions>
                    </trkpt>
                    <trkpt lat="54.435624999999995" lon="10.171885">
                        <ele>0</ele>
                        <time>2022-08-18T04:44:01Z</time>
                                                <extensions>
                            <sog>0.1</sog>
<cog>58.7</cog>
                        </extensions>
                    </trkpt>
                    <trkpt lat="54.43561166666667" lon="10.171815">
                        <ele>0</ele>
                        <time>2022-08-18T04:50:01Z</time>
                                                <extensions>
                            <sog>0.0</sog>
<cog>58.7</cog>
                        </extensions>
                    </trkpt>
                    <trkpt lat="54.43562" lon="10.171805">
                        <ele>0</ele>
                        <time>2022-08-18T04:53:00Z</time>
                                                <extensions>
                            <sog>0.0</sog>
<cog>58.7</cog>
                        </extensions>
                    </trkpt>
                    <trkpt lat="54.43566" lon="10.171798333333333">
                        <ele>0</ele>
                        <time>2022-08-18T05:02:00Z</time>
                                                <extensions>
                            <sog>0.0</sog>
<cog>10.3</cog>
                        </extensions>
                    </trkpt>
                    <trkpt lat="54.43563666666667" lon="10.171808333333333">
                        <ele>0</ele>
                        <time>2022-08-18T05:10:59Z</time>
                                                <extensions>
                            <sog>0.1</sog>
<cog>10.3</cog>
                        </extensions>
                    </trkpt>
                    <trkpt lat="54.43566166666667" lon="10.171854999999999">
                        <ele>0</ele>
                        <time>2022-08-18T05:17:01Z</time>
                                                <extensions>
                            <sog>0.0</sog>
<cog>356.0</cog>
                        </extensions>
                    </trkpt>
                    <trkpt lat="54.43569166666667" lon="10.171866666666666">
                        <ele>0</ele>
                        <time>2022-08-18T05:20:00Z</time>
                                                <extensions>
                            <sog>0.0</sog>
<cog>356.0</cog>
                        </extensions>
                    </trkpt>
                    <trkpt lat="54.43564" lon="10.171776666666666">
                        <ele>0</ele>
                        <time>2022-08-18T05:26:00Z</time>
                                                <extensions>
                            <sog>0.0</sog>
<cog>356.0</cog>
                        </extensions>
                    </trkpt>
                    <trkpt lat="54.435645" lon="10.171778333333332">
                        <ele>0</ele>
                        <time>2022-08-18T05:31:59Z</time>
                                                <extensions>
                            <sog>0.0</sog>
<cog>6.7</cog>
                        </extensions>
                    </trkpt>
                    <trkpt lat="54.43563666666667" lon="10.17177">
                        <ele>0</ele>
                        <time>2022-08-18T05:38:00Z</time>
                                                <extensions>
                            <sog>0.1</sog>
<cog>6.7</cog>
                        </extensions>
                    </trkpt>
                    <trkpt lat="54.43563166666667" lon="10.171801666666665">
                        <ele>0</ele>
                        <time>2022-08-18T05:41:05Z</time>
                                                <extensions>
                            <sog>0.0</sog>
<cog>6.7</cog>
                        </extensions>
                    </trkpt>
                    <trkpt lat="54.435628333333334" lon="10.171781666666668">
                        <ele>0</ele>
                        <time>2022-08-18T05:49:59Z</time>
                                                <extensions>
                            <sog>0.0</sog>
<cog>6.7</cog>
                        </extensions>
                    </trkpt>
                    <trkpt lat="54.435629999999996" lon="10.171835">
                        <ele>0</ele>
                        <time>2022-08-18T06:08:01Z</time>
                                                <extensions>
                            <sog>0.0</sog>
<cog>6.7</cog>
                        </extensions>
                    </trkpt>
                    <trkpt lat="54.43564166666667" lon="10.171835">
                        <ele>0</ele>
                        <time>2022-08-18T06:20:00Z</time>
                                                <extensions>
                            <sog>0.0</sog>
<cog>354.5</cog>
                        </extensions>
                    </trkpt>
                    <trkpt lat="54.43563833333334" lon="10.171863333333333">
                        <ele>0</ele>
                        <time>2022-08-18T06:26:00Z</time>
                                                <extensions>
                            <sog>0.0</sog>
<cog>354.5</cog>
                        </extensions>
                    </trkpt>
                    <trkpt lat="54.435665" lon="10.171891666666665">
                        <ele>0</ele>
                        <time>2022-08-18T06:32:00Z</time>
                                                <extensions>
                            <sog>0.1</sog>
<cog>354.5</cog>
                        </extensions>
                    </trkpt>
                    <trkpt lat="54.43566666666666" lon="10.171898333333333">
                        <ele>0</ele>
                        <time>2022-08-18T06:35:00Z</time>
                                                <extensions>
                            <sog>0.0</sog>
<cog>354.5</cog>
                        </extensions>
                    </trkpt>
                    <trkpt lat="54.435653333333335" lon="10.171846666666665">
                        <ele>0</ele>
                        <time>2022-08-18T06:40:59Z</time>
                                                <extensions>
                            <sog>0.0</sog>
<cog>354.5</cog>
                        </extensions>
                    </trkpt>
                    <trkpt lat="54.43565" lon="10.171885">
                        <ele>0</ele>
                        <time>2022-08-18T06:46:59Z</time>
                                                <extensions>
                            <sog>0.0</sog>
<cog>354.5</cog>
                        </extensions>
                    </trkpt>
                    <trkpt lat="54.43566833333333" lon="10.171953333333333">
                        <ele>0</ele>
                        <time>2022-08-18T06:49:59Z</time>
                                                <extensions>
                            <sog>0.1</sog>
<cog>7.5</cog>
                        </extensions>
                    </trkpt>
                    <trkpt lat="54.435633333333335" lon="10.171851666666667">
                        <ele>0</ele>
                        <time>2022-08-18T06:55:59Z</time>
                                                <extensions>
                            <sog>0.0</sog>
<cog>7.5</cog>
                        </extensions>
                    </trkpt>
                    <trkpt lat="54.43565" lon="10.171853333333333">
                        <ele>0</ele>
                        <time>2022-08-18T07:02:03Z</time>
                                                <extensions>
                            <sog>0.0</sog>
<cog>7.5</cog>
                        </extensions>
                    </trkpt>
                    <trkpt lat="54.43566666666666" lon="10.171811666666667">
                        <ele>0</ele>
                        <time>2022-08-18T07:08:00Z</time>
                                                <extensions>
                            <sog>0.0</sog>
<cog>7.5</cog>
                        </extensions>
                    </trkpt>
                    <trkpt lat="54.435624999999995" lon="10.171831666666666">
                        <ele>0</ele>
                        <time>2022-08-18T07:11:00Z</time>
                                                <extensions>
                            <sog>0.0</sog>
<cog>7.5</cog>
                        </extensions>
                    </trkpt>
                    <trkpt lat="54.435626666666664" lon="10.17187">
                        <ele>0</ele>
                        <time>2022-08-18T07:14:00Z</time>
                                                <extensions>
                            <sog>0.0</sog>
<cog>7.5</cog>
                        </extensions>
                    </trkpt>
                    <trkpt lat="54.43565666666667" lon="10.171863333333333">
                        <ele>0</ele>
                        <time>2022-08-18T07:20:01Z</time>
                                                <extensions>
                            <sog>0.0</sog>
<cog>7.5</cog>
                        </extensions>
                    </trkpt>
                    <trkpt lat="54.43564" lon="10.171793333333333">
                        <ele>0</ele>
                        <time>2022-08-18T07:31:59Z</time>
                                                <extensions>
                            <sog>0.0</sog>
<cog>7.5</cog>
                        </extensions>
                    </trkpt>
                    <trkpt lat="54.435645" lon="10.171821666666666">
                        <ele>0</ele>
                        <time>2022-08-18T07:35:00Z</time>
                                                <extensions>
                            <sog>0.0</sog>
<cog>7.5</cog>
                        </extensions>
                    </trkpt>
                    <trkpt lat="54.435626666666664" lon="10.171809999999999">
                        <ele>0</ele>
                        <time>2022-08-18T07:38:00Z</time>
                                                <extensions>
                            <sog>0.0</sog>
<cog>25.6</cog>
                        </extensions>
                    </trkpt>
                    <trkpt lat="54.43560166666667" lon="10.171803333333335">
                        <ele>0</ele>
                        <time>2022-08-18T07:41:00Z</time>
                                                <extensions>
                            <sog>0.0</sog>
<cog>25.6</cog>
                        </extensions>
                    </trkpt>
                    <trkpt lat="54.43562166666666" lon="10.171808333333333">
                        <ele>0</ele>
                        <time>2022-08-18T07:44:00Z</time>
                                                <extensions>
                            <sog>0.0</sog>
<cog>20.5</cog>
                        </extensions>
                    </trkpt>
                    <trkpt lat="54.43557666666666" lon="10.171805">
                        <ele>0</ele>
                        <time>2022-08-18T07:47:01Z</time>
                                                <extensions>
                            <sog>0.1</sog>
<cog>20.5</cog>
                        </extensions>
                    </trkpt>
                    <trkpt lat="54.435685" lon="10.17187">
                        <ele>0</ele>
                        <time>2022-08-18T07:56:00Z</time>
                                                <extensions>
                            <sog>0.0</sog>
<cog>344.1</cog>
                        </extensions>
                    </trkpt>
                    <trkpt lat="54.43574" lon="10.17182">
                        <ele>0</ele>
                        <time>2022-08-18T07:59:00Z</time>
                                                <extensions>
                            <sog>0.0</sog>
<cog>344.1</cog>
                        </extensions>
                    </trkpt>
                    <trkpt lat="54.435685" lon="10.171854999999999">
                        <ele>0</ele>
                        <time>2022-08-18T08:05:00Z</time>
                                                <extensions>
                            <sog>0.0</sog>
<cog>343.4</cog>
                        </extensions>
                    </trkpt>
                    <trkpt lat="54.435635000000005" lon="10.171883333333334">
                        <ele>0</ele>
                        <time>2022-08-18T08:08:00Z</time>
                                                <extensions>
                            <sog>0.0</sog>
<cog>346.5</cog>
                        </extensions>
                    </trkpt>
                    <trkpt lat="54.43564166666667" lon="10.171826666666668">
                        <ele>0</ele>
                        <time>2022-08-18T08:13:59Z</time>
                                                <extensions>
                            <sog>0.0</sog>
<cog>28.6</cog>
                        </extensions>
                    </trkpt>
                    <trkpt lat="54.43562333333333" lon="10.17184">
                        <ele>0</ele>
                        <time>2022-08-18T08:17:01Z</time>
                                                <extensions>
                            <sog>0.1</sog>
<cog>28.6</cog>
                        </extensions>
                    </trkpt>
                    <trkpt lat="54.43563833333334" lon="10.171785">
                        <ele>0</ele>
                        <time>2022-08-18T08:41:00Z</time>
                                                <extensions>
                            <sog>0.0</sog>
<cog>14.9</cog>
                        </extensions>
                    </trkpt>
                    <trkpt lat="54.435628333333334" lon="10.171756666666665">
                        <ele>0</ele>
                        <time>2022-08-18T08:43:59Z</time>
                                                <extensions>
                            <sog>0.0</sog>
<cog>14.9</cog>
                        </extensions>
                    </trkpt>
                    <trkpt lat="54.435629999999996" lon="10.171803333333335">
                        <ele>0</ele>
                        <time>2022-08-18T08:47:01Z</time>
                                                <extensions>
                            <sog>0.0</sog>
<cog>14.9</cog>
                        </extensions>
                    </trkpt>
                    <trkpt lat="54.43564166666667" lon="10.171821666666666">
                        <ele>0</ele>
                        <time>2022-08-18T08:50:00Z</time>
                                                <extensions>
                            <sog>0.0</sog>
<cog>14.9</cog>
                        </extensions>
                    </trkpt>
                    <trkpt lat="54.43565" lon="10.171816666666667">
                        <ele>0</ele>
                        <time>2022-08-18T08:53:00Z</time>
                                                <extensions>
                            <sog>0.0</sog>
<cog>14.9</cog>
                        </extensions>
                    </trkpt>
                    <trkpt lat="54.435629999999996" lon="10.17182">
                        <ele>0</ele>
                        <time>2022-08-18T08:55:59Z</time>
                                                <extensions>
                            <sog>0.0</sog>
<cog>14.9</cog>
                        </extensions>
                    </trkpt>
                    <trkpt lat="54.435629999999996" lon="10.171805">
                        <ele>0</ele>
                        <time>2022-08-18T09:01:59Z</time>
                                                <extensions>
                            <sog>0.0</sog>
<cog>14.9</cog>
                        </extensions>
                    </trkpt>
                    <trkpt lat="54.43564" lon="10.171835">
                        <ele>0</ele>
                        <time>2022-08-18T09:05:00Z</time>
                                                <extensions>
                            <sog>0.0</sog>
<cog>14.9</cog>
                        </extensions>
                    </trkpt>
                    <trkpt lat="54.43563833333334" lon="10.171836666666668">
                        <ele>0</ele>
                        <time>2022-08-18T09:14:00Z</time>
                                                <extensions>
                            <sog>0.0</sog>
<cog>14.9</cog>
                        </extensions>
                    </trkpt>
                    <trkpt lat="54.43564666666667" lon="10.171850000000001">
                        <ele>0</ele>
                        <time>2022-08-18T09:26:00Z</time>
                                                <extensions>
                            <sog>0.0</sog>
<cog>14.9</cog>
                        </extensions>
                    </trkpt>
                    <trkpt lat="54.435653333333335" lon="10.171896666666667">
                        <ele>0</ele>
                        <time>2022-08-18T09:31:59Z</time>
                                                <extensions>
                            <sog>0.0</sog>
<cog>14.9</cog>
                        </extensions>
                    </trkpt>
                    <trkpt lat="54.43564" lon="10.171896666666667">
                        <ele>0</ele>
                        <time>2022-08-18T09:38:00Z</time>
                                                <extensions>
                            <sog>0.1</sog>
<cog>2.0</cog>
                        </extensions>
                    </trkpt>
                    <trkpt lat="54.435655" lon="10.171898333333333">
                        <ele>0</ele>
                        <time>2022-08-18T09:41:01Z</time>
                                                <extensions>
                            <sog>0.0</sog>
<cog>2.0</cog>
                        </extensions>
                    </trkpt>
                    <trkpt lat="54.435635000000005" lon="10.171888333333333">
                        <ele>0</ele>
                        <time>2022-08-18T09:43:59Z</time>
                                                <extensions>
                            <sog>0.0</sog>
<cog>2.0</cog>
                        </extensions>
                    </trkpt>
                    <trkpt lat="54.435669999999995" lon="10.171851666666667">
                        <ele>0</ele>
                        <time>2022-08-18T09:50:00Z</time>
                                                <extensions>
                            <sog>0.1</sog>
<cog>2.0</cog>
                        </extensions>
                    </trkpt>
                    <trkpt lat="54.435653333333335" lon="10.17183">
                        <ele>0</ele>
                        <time>2022-08-18T09:56:00Z</time>
                                                <extensions>
                            <sog>0.0</sog>
<cog>2.0</cog>
                        </extensions>
                    </trkpt>
                    <trkpt lat="54.435655" lon="10.171853333333333">
                        <ele>0</ele>
                        <time>2022-08-18T10:01:59Z</time>
                                                <extensions>
                            <sog>0.0</sog>
<cog>9.4</cog>
                        </extensions>
                    </trkpt>
                    <trkpt lat="54.435624999999995" lon="10.171831666666666">
                        <ele>0</ele>
                        <time>2022-08-18T10:05:00Z</time>
                                                <extensions>
                            <sog>0.0</sog>
<cog>9.4</cog>
                        </extensions>
                    </trkpt>
                    <trkpt lat="54.43563166666667" lon="10.171854999999999">
                        <ele>0</ele>
                        <time>2022-08-18T10:08:01Z</time>
                                                <extensions>
                            <sog>0.0</sog>
<cog>9.4</cog>
                        </extensions>
                    </trkpt>
                    <trkpt lat="54.43564833333333" lon="10.171803333333335">
                        <ele>0</ele>
                        <time>2022-08-18T10:23:00Z</time>
                                                <extensions>
                            <sog>0.0</sog>
<cog>9.4</cog>
                        </extensions>
                    </trkpt>
                    <trkpt lat="54.43561" lon="10.171826666666668">
                        <ele>0</ele>
                        <time>2022-08-18T10:26:01Z</time>
                                                <extensions>
                            <sog>0.0</sog>
<cog>5.0</cog>
                        </extensions>
                    </trkpt>
                    <trkpt lat="54.43560333333333" lon="10.171823333333332">
                        <ele>0</ele>
                        <time>2022-08-18T10:28:59Z</time>
                                                <extensions>
                            <sog>0.0</sog>
<cog>14.7</cog>
                        </extensions>
                    </trkpt>
                    <trkpt lat="54.43557833333333" lon="10.171848333333333">
                        <ele>0</ele>
                        <time>2022-08-18T10:34:59Z</time>
                                                <extensions>
                            <sog>0.0</sog>
<cog>14.7</cog>
                        </extensions>
                    </trkpt>
                    <trkpt lat="54.43559833333334" lon="10.171853333333333">
                        <ele>0</ele>
                        <time>2022-08-18T10:38:01Z</time>
                                                <extensions>
                            <sog>0.0</sog>
<cog>14.7</cog>
                        </extensions>
                    </trkpt>
                    <trkpt lat="54.43564" lon="10.171854999999999">
                        <ele>0</ele>
                        <time>2022-08-18T10:44:00Z</time>
                                                <extensions>
                            <sog>0.0</sog>
<cog>14.7</cog>
                        </extensions>
                    </trkpt>
                    <trkpt lat="54.43565" lon="10.171863333333333">
                        <ele>0</ele>
                        <time>2022-08-18T10:50:00Z</time>
                                                <extensions>
                            <sog>0.0</sog>
<cog>7.4</cog>
                        </extensions>
                    </trkpt>
                    <trkpt lat="54.43566166666667" lon="10.171848333333333">
                        <ele>0</ele>
                        <time>2022-08-18T10:55:59Z</time>
                                                <extensions>
                            <sog>0.0</sog>
<cog>7.4</cog>
                        </extensions>
                    </trkpt>
                    <trkpt lat="54.43564666666667" lon="10.171828333333334">
                        <ele>0</ele>
                        <time>2022-08-18T11:02:00Z</time>
                                                <extensions>
                            <sog>0.0</sog>
<cog>7.4</cog>
                        </extensions>
                    </trkpt>
                    <trkpt lat="54.435669999999995" lon="10.171845">
                        <ele>0</ele>
                        <time>2022-08-18T11:14:02Z</time>
                                                <extensions>
                            <sog>0.0</sog>
<cog>30.8</cog>
                        </extensions>
                    </trkpt>
                    <trkpt lat="54.43569" lon="10.171868333333332">
                        <ele>0</ele>
                        <time>2022-08-18T11:20:00Z</time>
                                                <extensions>
                            <sog>0.0</sog>
<cog>30.8</cog>
                        </extensions>
                    </trkpt>
                    <trkpt lat="54.435615" lon="10.171899999999999">
                        <ele>0</ele>
                        <time>2022-08-18T11:26:00Z</time>
                                                <extensions>
                            <sog>0.0</sog>
<cog>7.6</cog>
                        </extensions>
                    </trkpt>
                    <trkpt lat="54.43562333333333" lon="10.17187">
                        <ele>0</ele>
                        <time>2022-08-18T11:38:00Z</time>
                                                <extensions>
                            <sog>0.0</sog>
<cog>21.8</cog>
                        </extensions>
                    </trkpt>
                    <trkpt lat="54.435678333333335" lon="10.171885">
                        <ele>0</ele>
                        <time>2022-08-18T11:56:00Z</time>
                                                <extensions>
                            <sog>0.0</sog>
<cog>32.2</cog>
                        </extensions>
                    </trkpt>
                    <trkpt lat="54.43564833333333" lon="10.171851666666667">
                        <ele>0</ele>
                        <time>2022-08-18T12:02:00Z</time>
                                                <extensions>
                            <sog>0.0</sog>
<cog>32.2</cog>
                        </extensions>
                    </trkpt>
                    <trkpt lat="54.43564" lon="10.171851666666667">
                        <ele>0</ele>
                        <time>2022-08-18T12:08:00Z</time>
                                                <extensions>
                            <sog>0.0</sog>
<cog>32.2</cog>
                        </extensions>
                    </trkpt>
                    <trkpt lat="54.43563833333334" lon="10.17187">
                        <ele>0</ele>
                        <time>2022-08-18T12:10:59Z</time>
                                                <extensions>
                            <sog>0.0</sog>
<cog>32.2</cog>
                        </extensions>
                    </trkpt>
                    <trkpt lat="54.43563166666667" lon="10.171853333333333">
                        <ele>0</ele>
                        <time>2022-08-18T12:32:02Z</time>
                                                <extensions>
                            <sog>0.0</sog>
<cog>52.1</cog>
                        </extensions>
                    </trkpt>
                    <trkpt lat="54.435651666666665" lon="10.171845">
                        <ele>0</ele>
                        <time>2022-08-18T12:34:59Z</time>
                                                <extensions>
                            <sog>0.0</sog>
<cog>52.1</cog>
                        </extensions>
                    </trkpt>
                    <trkpt lat="54.435633333333335" lon="10.171809999999999">
                        <ele>0</ele>
                        <time>2022-08-18T12:38:01Z</time>
                                                <extensions>
                            <sog>0.0</sog>
<cog>61.5</cog>
                        </extensions>
                    </trkpt>
                    <trkpt lat="54.43564833333333" lon="10.171835">
                        <ele>0</ele>
                        <time>2022-08-18T12:44:00Z</time>
                                                <extensions>
                            <sog>0.0</sog>
<cog>61.5</cog>
                        </extensions>
                    </trkpt>
                    <trkpt lat="54.435635000000005" lon="10.171823333333332">
                        <ele>0</ele>
                        <time>2022-08-18T12:50:00Z</time>
                                                <extensions>
                            <sog>0.0</sog>
<cog>61.5</cog>
                        </extensions>
                    </trkpt>
                    <trkpt lat="54.435635000000005" lon="10.171813333333334">
                        <ele>0</ele>
                        <time>2022-08-18T12:56:00Z</time>
                                                <extensions>
                            <sog>0.0</sog>
<cog>61.5</cog>
                        </extensions>
                    </trkpt>
                    <trkpt lat="54.43565" lon="10.171825">
                        <ele>0</ele>
                        <time>2022-08-18T12:59:00Z</time>
                                                <extensions>
                            <sog>0.0</sog>
<cog>61.5</cog>
                        </extensions>
                    </trkpt>
                    <trkpt lat="54.43565" lon="10.17182">
                        <ele>0</ele>
                        <time>2022-08-18T13:02:00Z</time>
                                                <extensions>
                            <sog>0.1</sog>
<cog>65.9</cog>
                        </extensions>
                    </trkpt>
                    <trkpt lat="54.4356" lon="10.171821666666666">
                        <ele>0</ele>
                        <time>2022-08-18T13:05:00Z</time>
                                                <extensions>
                            <sog>0.0</sog>
<cog>65.9</cog>
                        </extensions>
                    </trkpt>
                    <trkpt lat="54.43559166666667" lon="10.1718">
                        <ele>0</ele>
                        <time>2022-08-18T13:08:01Z</time>
                                                <extensions>
                            <sog>0.0</sog>
<cog>74.9</cog>
                        </extensions>
                    </trkpt>
                    <trkpt lat="54.43560333333333" lon="10.171838333333334">
                        <ele>0</ele>
                        <time>2022-08-18T13:10:59Z</time>
                                                <extensions>
                            <sog>0.0</sog>
<cog>74.9</cog>
                        </extensions>
                    </trkpt>
                    <trkpt lat="54.43557833333333" lon="10.171828333333334">
                        <ele>0</ele>
                        <time>2022-08-18T13:16:59Z</time>
                                                <extensions>
                            <sog>0.0</sog>
<cog>74.9</cog>
                        </extensions>
                    </trkpt>
                    <trkpt lat="54.43557833333333" lon="10.171806666666667">
                        <ele>0</ele>
                        <time>2022-08-18T13:20:00Z</time>
                                                <extensions>
                            <sog>0.0</sog>
<cog>74.9</cog>
                        </extensions>
                    </trkpt>
                    <trkpt lat="54.43559166666667" lon="10.171838333333334">
                        <ele>0</ele>
                        <time>2022-08-18T13:25:59Z</time>
                                                <extensions>
                            <sog>0.0</sog>
<cog>74.9</cog>
                        </extensions>
                    </trkpt>
                    <trkpt lat="54.435624999999995" lon="10.17179">
                        <ele>0</ele>
                        <time>2022-08-18T13:32:01Z</time>
                                                <extensions>
                            <sog>0.0</sog>
<cog>74.9</cog>
                        </extensions>
                    </trkpt>
                    <trkpt lat="54.43562166666666" lon="10.171825">
                        <ele>0</ele>
                        <time>2022-08-18T13:38:00Z</time>
                                                <extensions>
                            <sog>0.0</sog>
<cog>86.2</cog>
                        </extensions>
                    </trkpt>
                    <trkpt lat="54.435605" lon="10.171843333333333">
                        <ele>0</ele>
                        <time>2022-08-18T13:44:00Z</time>
                                                <extensions>
                            <sog>0.0</sog>
<cog>86.2</cog>
                        </extensions>
                    </trkpt>
                    <trkpt lat="54.435629999999996" lon="10.171806666666667">
                        <ele>0</ele>
                        <time>2022-08-18T14:08:00Z</time>
                                                <extensions>
                            <sog>0.0</sog>
<cog>86.2</cog>
                        </extensions>
                    </trkpt>
                    <trkpt lat="54.43563833333334" lon="10.171854999999999">
                        <ele>0</ele>
                        <time>2022-08-18T14:17:00Z</time>
                                                <extensions>
                            <sog>0.0</sog>
<cog>99.0</cog>
                        </extensions>
                    </trkpt>
                    <trkpt lat="54.43564166666667" lon="10.171845">
                        <ele>0</ele>
                        <time>2022-08-18T14:25:59Z</time>
                                                <extensions>
                            <sog>0.1</sog>
<cog>99.0</cog>
                        </extensions>
                    </trkpt>
                    <trkpt lat="54.43562166666666" lon="10.171846666666665">
                        <ele>0</ele>
                        <time>2022-08-18T14:28:59Z</time>
                                                <extensions>
                            <sog>0.0</sog>
<cog>99.0</cog>
                        </extensions>
                    </trkpt>
                    <trkpt lat="54.43561833333333" lon="10.171816666666667">
                        <ele>0</ele>
                        <time>2022-08-18T14:32:00Z</time>
                                                <extensions>
                            <sog>0.0</sog>
<cog>99.0</cog>
                        </extensions>
                    </trkpt>
                    <trkpt lat="54.435566666666666" lon="10.171828333333334">
                        <ele>0</ele>
                        <time>2022-08-18T14:37:59Z</time>
                                                <extensions>
                            <sog>0.0</sog>
<cog>76.5</cog>
                        </extensions>
                    </trkpt>
                    <trkpt lat="54.435575" lon="10.171818333333333">
                        <ele>0</ele>
                        <time>2022-08-18T14:40:59Z</time>
                                                <extensions>
                            <sog>0.0</sog>
<cog>76.5</cog>
                        </extensions>
                    </trkpt>
                    <trkpt lat="54.435595" lon="10.171838333333334">
                        <ele>0</ele>
                        <time>2022-08-18T14:44:02Z</time>
                                                <extensions>
                            <sog>0.0</sog>
<cog>70.4</cog>
                        </extensions>
                    </trkpt>
                    <trkpt lat="54.43560333333333" lon="10.171788333333334">
                        <ele>0</ele>
                        <time>2022-08-18T14:53:00Z</time>
                                                <extensions>
                            <sog>0.0</sog>
<cog>59.3</cog>
                        </extensions>
                    </trkpt>
                    <trkpt lat="54.435635000000005" lon="10.171856666666667">
                        <ele>0</ele>
                        <time>2022-08-18T15:02:01Z</time>
                                                <extensions>
                            <sog>0.0</sog>
<cog>48.4</cog>
                        </extensions>
                    </trkpt>
                    <trkpt lat="54.435613333333336" lon="10.171831666666666">
                        <ele>0</ele>
                        <time>2022-08-18T15:08:01Z</time>
                                                <extensions>
                            <sog>0.0</sog>
<cog>48.4</cog>
                        </extensions>
                    </trkpt>
                    <trkpt lat="54.435655" lon="10.171846666666665">
                        <ele>0</ele>
                        <time>2022-08-18T15:25:59Z</time>
                                                <extensions>
                            <sog>0.0</sog>
<cog>48.4</cog>
                        </extensions>
                    </trkpt>
                    <trkpt lat="54.43563666666667" lon="10.17182">
                        <ele>0</ele>
                        <time>2022-08-18T15:31:59Z</time>
                                                <extensions>
                            <sog>0.0</sog>
<cog>48.4</cog>
                        </extensions>
                    </trkpt>
                    <trkpt lat="54.43566" lon="10.17187">
                        <ele>0</ele>
                        <time>2022-08-18T15:35:00Z</time>
                                                <extensions>
                            <sog>0.0</sog>
<cog>48.4</cog>
                        </extensions>
                    </trkpt>
                    <trkpt lat="54.435658333333336" lon="10.17187">
                        <ele>0</ele>
                        <time>2022-08-18T15:38:00Z</time>
                                                <extensions>
                            <sog>0.0</sog>
<cog>48.4</cog>
                        </extensions>
                    </trkpt>
                    <trkpt lat="54.435651666666665" lon="10.171850000000001">
                        <ele>0</ele>
                        <time>2022-08-18T15:44:01Z</time>
                                                <extensions>
                            <sog>0.0</sog>
<cog>48.4</cog>
                        </extensions>
                    </trkpt>
                    <trkpt lat="54.43562" lon="10.171795">
                        <ele>0</ele>
                        <time>2022-08-18T15:53:00Z</time>
                                                <extensions>
                            <sog>0.1</sog>
<cog>56.6</cog>
                        </extensions>
                    </trkpt>
                    <trkpt lat="54.43562" lon="10.171848333333333">
                        <ele>0</ele>
                        <time>2022-08-18T15:55:59Z</time>
                                                <extensions>
                            <sog>0.0</sog>
<cog>56.6</cog>
                        </extensions>
                    </trkpt>
                    <trkpt lat="54.435595" lon="10.171841666666667">
                        <ele>0</ele>
                        <time>2022-08-18T16:02:00Z</time>
                                                <extensions>
                            <sog>0.0</sog>
<cog>56.6</cog>
                        </extensions>
                    </trkpt>
                    <trkpt lat="54.435628333333334" lon="10.171838333333334">
                        <ele>0</ele>
                        <time>2022-08-18T16:07:59Z</time>
                                                <extensions>
                            <sog>0.0</sog>
<cog>56.6</cog>
                        </extensions>
                    </trkpt>
                    <trkpt lat="54.43563833333334" lon="10.171848333333333">
                        <ele>0</ele>
                        <time>2022-08-18T16:11:00Z</time>
                                                <extensions>
                            <sog>0.0</sog>
<cog>56.6</cog>
                        </extensions>
                    </trkpt>
                    <trkpt lat="54.43565" lon="10.171806666666667">
                        <ele>0</ele>
                        <time>2022-08-18T16:14:00Z</time>
                                                <extensions>
                            <sog>0.0</sog>
<cog>56.6</cog>
                        </extensions>
                    </trkpt>
                    <trkpt lat="54.43565" lon="10.171818333333333">
                        <ele>0</ele>
                        <time>2022-08-18T16:16:59Z</time>
                                                <extensions>
                            <sog>0.0</sog>
<cog>56.6</cog>
                        </extensions>
                    </trkpt>
                    <trkpt lat="54.435628333333334" lon="10.17182">
                        <ele>0</ele>
                        <time>2022-08-18T16:22:59Z</time>
                                                <extensions>
                            <sog>0.0</sog>
<cog>56.6</cog>
                        </extensions>
                    </trkpt>
                    <trkpt lat="54.43561666666667" lon="10.171809999999999">
                        <ele>0</ele>
                        <time>2022-08-18T16:25:59Z</time>
                                                <extensions>
                            <sog>0.0</sog>
<cog>56.6</cog>
                        </extensions>
                    </trkpt>
                    <trkpt lat="54.43564333333334" lon="10.171821666666666">
                        <ele>0</ele>
                        <time>2022-08-18T16:32:01Z</time>
                                                <extensions>
                            <sog>0.0</sog>
<cog>44.4</cog>
                        </extensions>
                    </trkpt>
                    <trkpt lat="54.435624999999995" lon="10.171841666666667">
                        <ele>0</ele>
                        <time>2022-08-18T16:35:00Z</time>
                                                <extensions>
                            <sog>0.0</sog>
<cog>44.4</cog>
                        </extensions>
                    </trkpt>
                    <trkpt lat="54.435626666666664" lon="10.171861666666667">
                        <ele>0</ele>
                        <time>2022-08-18T16:38:00Z</time>
                                                <extensions>
                            <sog>0.0</sog>
<cog>44.4</cog>
                        </extensions>
                    </trkpt>
                    <trkpt lat="54.43562333333333" lon="10.17184">
                        <ele>0</ele>
                        <time>2022-08-18T16:41:00Z</time>
                                                <extensions>
                            <sog>0.0</sog>
<cog>44.4</cog>
                        </extensions>
                    </trkpt>
                    <trkpt lat="54.435633333333335" lon="10.171813333333334">
                        <ele>0</ele>
                        <time>2022-08-18T16:44:00Z</time>
                                                <extensions>
                            <sog>0.0</sog>
<cog>44.4</cog>
                        </extensions>
                    </trkpt>
                    <trkpt lat="54.435628333333334" lon="10.171848333333333">
                        <ele>0</ele>
                        <time>2022-08-18T16:47:02Z</time>
                                                <extensions>
                            <sog>0.1</sog>
<cog>44.4</cog>
                        </extensions>
                    </trkpt>
                    <trkpt lat="54.43564" lon="10.171838333333334">
                        <ele>0</ele>
                        <time>2022-08-18T16:53:00Z</time>
                                                <extensions>
                            <sog>0.1</sog>
<cog>44.4</cog>
                        </extensions>
                    </trkpt>
                    <trkpt lat="54.435624999999995" lon="10.171866666666666">
                        <ele>0</ele>
                        <time>2022-08-18T17:02:00Z</time>
                                                <extensions>
                            <sog>0.0</sog>
<cog>95.2</cog>
                        </extensions>
                    </trkpt>
                    <trkpt lat="54.43565666666667" lon="10.171895000000001">
                        <ele>0</ele>
                        <time>2022-08-18T17:14:00Z</time>
                                                <extensions>
                            <sog>0.0</sog>
<cog>101.6</cog>
                        </extensions>
                    </trkpt>
                    <trkpt lat="54.43563166666667" lon="10.171875">
                        <ele>0</ele>
                        <time>2022-08-18T17:20:00Z</time>
                                                <extensions>
                            <sog>0.0</sog>
<cog>101.6</cog>
                        </extensions>
                    </trkpt>
                    <trkpt lat="54.435613333333336" lon="10.171846666666665">
                        <ele>0</ele>
                        <time>2022-08-18T17:23:03Z</time>
                                                <extensions>
                            <sog>0.1</sog>
<cog>101.6</cog>
                        </extensions>
                    </trkpt>
                    <trkpt lat="54.4356" lon="10.171848333333333">
                        <ele>0</ele>
                        <time>2022-08-18T17:25:59Z</time>
                                                <extensions>
                            <sog>0.0</sog>
<cog>115.6</cog>
                        </extensions>
                    </trkpt>
                    <trkpt lat="54.43559833333334" lon="10.17184">
                        <ele>0</ele>
                        <time>2022-08-18T17:38:00Z</time>
                                                <extensions>
                            <sog>0.0</sog>
<cog>123.2</cog>
                        </extensions>
                    </trkpt>
                    <trkpt lat="54.43561166666667" lon="10.17182">
                        <ele>0</ele>
                        <time>2022-08-18T17:44:00Z</time>
                                                <extensions>
                            <sog>0.0</sog>
<cog>123.2</cog>
                        </extensions>
                    </trkpt>
                    <trkpt lat="54.43564" lon="10.171846666666665">
                        <ele>0</ele>
                        <time>2022-08-18T17:50:00Z</time>
                                                <extensions>
                            <sog>0.0</sog>
<cog>123.2</cog>
                        </extensions>
                    </trkpt>
                    <trkpt lat="54.43564833333333" lon="10.171821666666666">
                        <ele>0</ele>
                        <time>2022-08-18T17:53:00Z</time>
                                                <extensions>
                            <sog>0.0</sog>
<cog>123.2</cog>
                        </extensions>
                    </trkpt>
                    <trkpt lat="54.43561166666667" lon="10.171818333333333">
                        <ele>0</ele>
                        <time>2022-08-18T18:01:59Z</time>
                                                <extensions>
                            <sog>0.0</sog>
<cog>72.8</cog>
                        </extensions>
                    </trkpt>
                    <trkpt lat="54.43564666666667" lon="10.171845">
                        <ele>0</ele>
                        <time>2022-08-18T18:08:00Z</time>
                                                <extensions>
                            <sog>0.1</sog>
<cog>86.6</cog>
                        </extensions>
                    </trkpt>
                    <trkpt lat="54.43565666666667" lon="10.17187">
                        <ele>0</ele>
                        <time>2022-08-18T18:10:59Z</time>
                                                <extensions>
                            <sog>0.0</sog>
<cog>86.6</cog>
                        </extensions>
                    </trkpt>
                    <trkpt lat="54.435645" lon="10.171856666666667">
                        <ele>0</ele>
                        <time>2022-08-18T18:14:00Z</time>
                                                <extensions>
                            <sog>0.0</sog>
<cog>86.6</cog>
                        </extensions>
                    </trkpt>
                    <trkpt lat="54.43564833333333" lon="10.171828333333334">
                        <ele>0</ele>
                        <time>2022-08-18T18:20:00Z</time>
                                                <extensions>
                            <sog>0.0</sog>
<cog>86.6</cog>
                        </extensions>
                    </trkpt>
                    <trkpt lat="54.43564833333333" lon="10.171848333333333">
                        <ele>0</ele>
                        <time>2022-08-18T18:23:00Z</time>
                                                <extensions>
                            <sog>0.0</sog>
<cog>86.6</cog>
                        </extensions>
                    </trkpt>
                    <trkpt lat="54.435653333333335" lon="10.171843333333333">
                        <ele>0</ele>
                        <time>2022-08-18T18:26:00Z</time>
                                                <extensions>
                            <sog>0.0</sog>
<cog>86.6</cog>
                        </extensions>
                    </trkpt>
                    <trkpt lat="54.43566" lon="10.171883333333334">
                        <ele>0</ele>
                        <time>2022-08-18T18:29:00Z</time>
                                                <extensions>
                            <sog>0.1</sog>
<cog>86.6</cog>
                        </extensions>
                    </trkpt>
                    <trkpt lat="54.43568166666667" lon="10.171876666666666">
                        <ele>0</ele>
                        <time>2022-08-18T18:32:01Z</time>
                                                <extensions>
                            <sog>0.0</sog>
<cog>86.6</cog>
                        </extensions>
                    </trkpt>
                    <trkpt lat="54.435665" lon="10.17184">
                        <ele>0</ele>
                        <time>2022-08-18T18:38:00Z</time>
                                                <extensions>
                            <sog>0.0</sog>
<cog>108.5</cog>
                        </extensions>
                    </trkpt>
                    <trkpt lat="54.43564833333333" lon="10.171850000000001">
                        <ele>0</ele>
                        <time>2022-08-18T18:41:00Z</time>
                                                <extensions>
                            <sog>0.0</sog>
<cog>108.5</cog>
                        </extensions>
                    </trkpt>
                    <trkpt lat="54.43564333333334" lon="10.171848333333333">
                        <ele>0</ele>
                        <time>2022-08-18T18:44:00Z</time>
                                                <extensions>
                            <sog>0.0</sog>
<cog>114.7</cog>
                        </extensions>
                    </trkpt>
                    <trkpt lat="54.43564666666667" lon="10.17184">
                        <ele>0</ele>
                        <time>2022-08-18T18:49:59Z</time>
                                                <extensions>
                            <sog>0.0</sog>
<cog>114.7</cog>
                        </extensions>
                    </trkpt>
                    <trkpt lat="54.43564166666667" lon="10.171841666666667">
                        <ele>0</ele>
                        <time>2022-08-18T18:56:01Z</time>
                                                <extensions>
                            <sog>0.1</sog>
<cog>114.7</cog>
                        </extensions>
                    </trkpt>
                    <trkpt lat="54.435633333333335" lon="10.17179">
                        <ele>0</ele>
                        <time>2022-08-18T19:08:00Z</time>
                                                <extensions>
                            <sog>0.0</sog>
<cog>114.7</cog>
                        </extensions>
                    </trkpt>
                    <trkpt lat="54.435635000000005" lon="10.171825">
                        <ele>0</ele>
                        <time>2022-08-18T19:11:00Z</time>
                                                <extensions>
                            <sog>0.0</sog>
<cog>114.7</cog>
                        </extensions>
                    </trkpt>
                    <trkpt lat="54.43562" lon="10.171856666666667">
                        <ele>0</ele>
                        <time>2022-08-18T19:13:59Z</time>
                                                <extensions>
                            <sog>0.0</sog>
<cog>105.5</cog>
                        </extensions>
                    </trkpt>
                    <trkpt lat="54.43563833333334" lon="10.171836666666668">
                        <ele>0</ele>
                        <time>2022-08-18T19:23:00Z</time>
                                                <extensions>
                            <sog>0.0</sog>
<cog>105.5</cog>
                        </extensions>
                    </trkpt>
                    <trkpt lat="54.435635000000005" lon="10.171863333333333">
                        <ele>0</ele>
                        <time>2022-08-18T19:25:59Z</time>
                                                <extensions>
                            <sog>0.0</sog>
<cog>112.5</cog>
                        </extensions>
                    </trkpt>
                    <trkpt lat="54.43561166666667" lon="10.171856666666667">
                        <ele>0</ele>
                        <time>2022-08-18T19:32:00Z</time>
                                                <extensions>
                            <sog>0.0</sog>
<cog>105.2</cog>
                        </extensions>
                    </trkpt>
                    <trkpt lat="54.43561666666667" lon="10.171821666666666">
                        <ele>0</ele>
                        <time>2022-08-18T19:43:59Z</time>
                                                <extensions>
                            <sog>0.1</sog>
<cog>81.0</cog>
                        </extensions>
                    </trkpt>
                    <trkpt lat="54.43566833333333" lon="10.171831666666666">
                        <ele>0</ele>
                        <time>2022-08-18T19:49:59Z</time>
                                                <extensions>
                            <sog>0.1</sog>
<cog>81.0</cog>
                        </extensions>
                    </trkpt>
                    <trkpt lat="54.43563833333334" lon="10.171826666666668">
                        <ele>0</ele>
                        <time>2022-08-18T20:02:02Z</time>
                                                <extensions>
                            <sog>0.0</sog>
<cog>71.4</cog>
                        </extensions>
                    </trkpt>
                    <trkpt lat="54.43563833333334" lon="10.171843333333333">
                        <ele>0</ele>
                        <time>2022-08-18T20:07:59Z</time>
                                                <extensions>
                            <sog>0.0</sog>
<cog>71.4</cog>
                        </extensions>
                    </trkpt>
                    <trkpt lat="54.43564833333333" lon="10.171854999999999">
                        <ele>0</ele>
                        <time>2022-08-18T20:13:59Z</time>
                                                <extensions>
                            <sog>0.0</sog>
<cog>76.4</cog>
                        </extensions>
                    </trkpt>
                    <trkpt lat="54.43565666666667" lon="10.171833333333332">
                        <ele>0</ele>
                        <time>2022-08-18T20:16:59Z</time>
                                                <extensions>
                            <sog>0.0</sog>
<cog>97.0</cog>
                        </extensions>
                    </trkpt>
                    <trkpt lat="54.435651666666665" lon="10.171836666666668">
                        <ele>0</ele>
                        <time>2022-08-18T20:20:00Z</time>
                                                <extensions>
                            <sog>0.0</sog>
<cog>97.0</cog>
                        </extensions>
                    </trkpt>
                    <trkpt lat="54.435673333333334" lon="10.1718">
                        <ele>0</ele>
                        <time>2022-08-18T20:25:59Z</time>
                                                <extensions>
                            <sog>0.0</sog>
<cog>97.0</cog>
                        </extensions>
                    </trkpt>
                    <trkpt lat="54.43560333333333" lon="10.171838333333334">
                        <ele>0</ele>
                        <time>2022-08-18T20:32:00Z</time>
                                                <extensions>
                            <sog>0.0</sog>
<cog>97.0</cog>
                        </extensions>
                    </trkpt>
                    <trkpt lat="54.43560333333333" lon="10.171848333333333">
                        <ele>0</ele>
                        <time>2022-08-18T20:37:59Z</time>
                                                <extensions>
                            <sog>0.0</sog>
<cog>97.0</cog>
                        </extensions>
                    </trkpt>
                    <trkpt lat="54.435575" lon="10.171771666666666">
                        <ele>0</ele>
                        <time>2022-08-18T20:41:00Z</time>
                                                <extensions>
                            <sog>0.0</sog>
<cog>97.0</cog>
                        </extensions>
                    </trkpt>
                    <trkpt lat="54.43557166666667" lon="10.171828333333334">
                        <ele>0</ele>
                        <time>2022-08-18T20:50:00Z</time>
                                                <extensions>
                            <sog>0.0</sog>
<cog>116.4</cog>
                        </extensions>
                    </trkpt>
                    <trkpt lat="54.435651666666665" lon="10.17191">
                        <ele>0</ele>
                        <time>2022-08-18T20:56:00Z</time>
                                                <extensions>
                            <sog>0.0</sog>
<cog>116.4</cog>
                        </extensions>
                    </trkpt>
                    <trkpt lat="54.435671666666664" lon="10.171868333333332">
                        <ele>0</ele>
                        <time>2022-08-18T21:02:01Z</time>
                                                <extensions>
                            <sog>0.0</sog>
<cog>119.6</cog>
                        </extensions>
                    </trkpt>
                    <trkpt lat="54.435651666666665" lon="10.171899999999999">
                        <ele>0</ele>
                        <time>2022-08-18T21:05:01Z</time>
                                                <extensions>
                            <sog>0.0</sog>
<cog>119.6</cog>
                        </extensions>
                    </trkpt>
                    <trkpt lat="54.43565" lon="10.17189">
                        <ele>0</ele>
                        <time>2022-08-18T21:08:00Z</time>
                                                <extensions>
                            <sog>0.0</sog>
<cog>112.1</cog>
                        </extensions>
                    </trkpt>
                    <trkpt lat="54.43569333333333" lon="10.171903333333335">
                        <ele>0</ele>
                        <time>2022-08-18T21:14:00Z</time>
                                                <extensions>
                            <sog>0.0</sog>
<cog>112.1</cog>
                        </extensions>
                    </trkpt>
                    <trkpt lat="54.43569" lon="10.171883333333334">
                        <ele>0</ele>
                        <time>2022-08-18T21:17:01Z</time>
                                                <extensions>
                            <sog>0.0</sog>
<cog>112.1</cog>
                        </extensions>
                    </trkpt>
                    <trkpt lat="54.43564833333333" lon="10.171896666666667">
                        <ele>0</ele>
                        <time>2022-08-18T21:20:01Z</time>
                                                <extensions>
                            <sog>0.1</sog>
<cog>112.1</cog>
                        </extensions>
                    </trkpt>
                    <trkpt lat="54.43564" lon="10.171816666666667">
                        <ele>0</ele>
                        <time>2022-08-18T21:23:02Z</time>
                                                <extensions>
                            <sog>0.1</sog>
<cog>112.1</cog>
                        </extensions>
                    </trkpt>
                    <trkpt lat="54.435673333333334" lon="10.17191">
                        <ele>0</ele>
                        <time>2022-08-18T21:32:00Z</time>
                                                <extensions>
                            <sog>0.0</sog>
<cog>123.4</cog>
                        </extensions>
                    </trkpt>
                    <trkpt lat="54.43564" lon="10.171833333333332">
                        <ele>0</ele>
                        <time>2022-08-18T21:44:01Z</time>
                                                <extensions>
                            <sog>0.0</sog>
<cog>123.4</cog>
                        </extensions>
                    </trkpt>
                    <trkpt lat="54.435635000000005" lon="10.171858333333335">
                        <ele>0</ele>
                        <time>2022-08-18T21:50:00Z</time>
                                                <extensions>
                            <sog>0.0</sog>
<cog>123.4</cog>
                        </extensions>
                    </trkpt>
                    <trkpt lat="54.435653333333335" lon="10.171865">
                        <ele>0</ele>
                        <time>2022-08-18T21:53:01Z</time>
                                                <extensions>
                            <sog>0.0</sog>
<cog>123.4</cog>
                        </extensions>
                    </trkpt>
                    <trkpt lat="54.43562" lon="10.17184">
                        <ele>0</ele>
                        <time>2022-08-18T22:02:00Z</time>
                                                <extensions>
                            <sog>0.0</sog>
<cog>123.4</cog>
                        </extensions>
                    </trkpt>
                    <trkpt lat="54.435653333333335" lon="10.171833333333332">
                        <ele>0</ele>
                        <time>2022-08-18T22:08:00Z</time>
                                                <extensions>
                            <sog>0.0</sog>
<cog>123.4</cog>
                        </extensions>
                    </trkpt>
                    <trkpt lat="54.435645" lon="10.17187">
                        <ele>0</ele>
                        <time>2022-08-18T22:11:00Z</time>
                                                <extensions>
                            <sog>0.1</sog>
<cog>123.4</cog>
                        </extensions>
                    </trkpt>
                    <trkpt lat="54.435608333333334" lon="10.171858333333335">
                        <ele>0</ele>
                        <time>2022-08-18T22:14:00Z</time>
                                                <extensions>
                            <sog>0.0</sog>
<cog>111.2</cog>
                        </extensions>
                    </trkpt>
                    <trkpt lat="54.43566" lon="10.171843333333333">
                        <ele>0</ele>
                        <time>2022-08-18T22:16:59Z</time>
                                                <extensions>
                            <sog>0.0</sog>
<cog>111.2</cog>
                        </extensions>
                    </trkpt>
                    <trkpt lat="54.435624999999995" lon="10.171858333333335">
                        <ele>0</ele>
                        <time>2022-08-18T22:20:00Z</time>
                                                <extensions>
                            <sog>0.0</sog>
<cog>111.2</cog>
                        </extensions>
                    </trkpt>
                    <trkpt lat="54.43563166666667" lon="10.171841666666667">
                        <ele>0</ele>
                        <time>2022-08-18T22:26:02Z</time>
                                                <extensions>
                            <sog>0.0</sog>
<cog>92.7</cog>
                        </extensions>
                    </trkpt>
                    <trkpt lat="54.435605" lon="10.171783333333334">
                        <ele>0</ele>
                        <time>2022-08-18T22:32:00Z</time>
                                                <extensions>
                            <sog>0.0</sog>
<cog>92.7</cog>
                        </extensions>
                    </trkpt>
                    <trkpt lat="54.43566666666666" lon="10.171845">
                        <ele>0</ele>
                        <time>2022-08-18T22:38:00Z</time>
                                                <extensions>
                            <sog>0.0</sog>
<cog>79.9</cog>
                        </extensions>
                    </trkpt>
                    <trkpt lat="54.43568833333333" lon="10.171838333333334">
                        <ele>0</ele>
                        <time>2022-08-18T22:44:03Z</time>
                                                <extensions>
                            <sog>0.0</sog>
<cog>79.9</cog>
                        </extensions>
                    </trkpt>
                    <trkpt lat="54.43566166666667" lon="10.17186">
                        <ele>0</ele>
                        <time>2022-08-18T22:50:00Z</time>
                                                <extensions>
                            <sog>0.0</sog>
<cog>61.4</cog>
                        </extensions>
                    </trkpt>
                    <trkpt lat="54.43568166666667" lon="10.171851666666667">
                        <ele>0</ele>
                        <time>2022-08-18T22:56:00Z</time>
                                                <extensions>
                            <sog>0.0</sog>
<cog>61.4</cog>
                        </extensions>
                    </trkpt>
                    <trkpt lat="54.435680000000005" lon="10.171846666666665">
                        <ele>0</ele>
                        <time>2022-08-18T23:05:00Z</time>
                                                <extensions>
                            <sog>0.0</sog>
<cog>61.4</cog>
                        </extensions>
                    </trkpt>
                    <trkpt lat="54.435665" lon="10.171865">
                        <ele>0</ele>
                        <time>2022-08-18T23:08:00Z</time>
                                                <extensions>
                            <sog>0.0</sog>
<cog>61.4</cog>
                        </extensions>
                    </trkpt>
                    <trkpt lat="54.43565666666667" lon="10.171821666666666">
                        <ele>0</ele>
                        <time>2022-08-18T23:11:00Z</time>
                                                <extensions>
                            <sog>0.0</sog>
<cog>61.4</cog>
                        </extensions>
                    </trkpt>
                    <trkpt lat="54.435645" lon="10.171773333333334">
                        <ele>0</ele>
                        <time>2022-08-18T23:14:00Z</time>
                                                <extensions>
                            <sog>0.0</sog>
<cog>61.4</cog>
                        </extensions>
                    </trkpt>
                    <trkpt lat="54.435626666666664" lon="10.17184">
                        <ele>0</ele>
                        <time>2022-08-18T23:20:01Z</time>
                                                <extensions>
                            <sog>0.0</sog>
<cog>61.4</cog>
                        </extensions>
                    </trkpt>
                    <trkpt lat="54.43566333333333" lon="10.171846666666665">
                        <ele>0</ele>
                        <time>2022-08-18T23:26:00Z</time>
                                                <extensions>
                            <sog>0.0</sog>
<cog>61.4</cog>
                        </extensions>
                    </trkpt>
                    <trkpt lat="54.43564" lon="10.171881666666668">
                        <ele>0</ele>
                        <time>2022-08-18T23:31:59Z</time>
                                                <extensions>
                            <sog>0.0</sog>
<cog>61.4</cog>
                        </extensions>
                    </trkpt>
                    <trkpt lat="54.435605" lon="10.171875">
                        <ele>0</ele>
                        <time>2022-08-18T23:35:00Z</time>
                                                <extensions>
                            <sog>0.0</sog>
<cog>61.4</cog>
                        </extensions>
                    </trkpt>
                    <trkpt lat="54.435629999999996" lon="10.171858333333335">
                        <ele>0</ele>
                        <time>2022-08-18T23:44:00Z</time>
                                                <extensions>
                            <sog>0.0</sog>
<cog>61.4</cog>
                        </extensions>
                    </trkpt>
                    <trkpt lat="54.43562" lon="10.171846666666665">
                        <ele>0</ele>
                        <time>2022-08-18T23:49:59Z</time>
                                                <extensions>
                            <sog>0.0</sog>
<cog>61.4</cog>
                        </extensions>
                    </trkpt>
                    </trkseg>
                </trk>
</gpx>