<?xml version="1.0" encoding="UTF-8"?>
<gpx version="1.1" creator="AIS-to-GPX Converter" xmlns="http://www.topografix.com/GPX/1/1">
                <trk>
                    <name>anon0359</name>
                    <trkseg>
                                            <trkpt lat="54.40202" lon="10.2148">
                        <ele>0</ele>
                        <time>2022-08-18T00:01:49Z</time>
                        <extensions>
    <sog>0.1</sog>
</extensions>
                    </trkpt>
                    <trkpt lat="54.40199833333334" lon="10.214798333333333">
                        <ele>0</ele>
                        <time>2022-08-18T00:04:49Z</time>
                        <extensions>
    <sog>0.0</sog>
</extensions>
                    </trkpt>
                    <trkpt lat="54.40200333333333" lon="10.214803333333332">
                        <ele>0</ele>
                        <time>2022-08-18T00:07:49Z</time>
                        <extensions>
    <sog>0.0</sog>
</extensions>
                    </trkpt>
                    <trkpt lat="54.40199833333334" lon="10.214801666666666">
                        <ele>0</ele>
                        <time>2022-08-18T00:13:51Z</time>
                        <extensions>
    <sog>0.0</sog>
</extensions>
                    </trkpt>
                    <trkpt lat="54.401984999999996" lon="10.214795">
                        <ele>0</ele>
                        <time>2022-08-18T00:16:51Z</time>
                        <extensions>
    <sog>0.0</sog>
</extensions>
                    </trkpt>
                    <trkpt lat="54.40199333333333" lon="10.214801666666666">
                        <ele>0</ele>
                        <time>2022-08-18T00:19:53Z</time>
                        <extensions>
    <sog>0.0</sog>
</extensions>
                    </trkpt>
                    <trkpt lat="54.40199833333334" lon="10.214801666666666">
                        <ele>0</ele>
                        <time>2022-08-18T00:22:52Z</time>
                        <extensions>
    <sog>0.0</sog>
</extensions>
                    </trkpt>
                    <trkpt lat="54.401983333333334" lon="10.21482">
                        <ele>0</ele>
                        <time>2022-08-18T00:25:50Z</time>
                        <extensions>
    <sog>0.0</sog>
</extensions>
                    </trkpt>
                    <trkpt lat="54.40199833333334" lon="10.214803333333332">
                        <ele>0</ele>
                        <time>2022-08-18T00:31:50Z</time>
                        <extensions>
    <sog>0.0</sog>
</extensions>
                    </trkpt>
                    <trkpt lat="54.401984999999996" lon="10.214801666666666">
                        <ele>0</ele>
                        <time>2022-08-18T00:34:50Z</time>
                        <extensions>
    <sog>0.0</sog>
</extensions>
                    </trkpt>
                    <trkpt lat="54.401983333333334" lon="10.21481">
                        <ele>0</ele>
                        <time>2022-08-18T00:37:50Z</time>
                        <extensions>
    <sog>0.0</sog>
</extensions>
                    </trkpt>
                    <trkpt lat="54.40198833333333" lon="10.214789999999999">
                        <ele>0</ele>
                        <time>2022-08-18T00:40:53Z</time>
                        <extensions>
    <sog>0.0</sog>
</extensions>
                    </trkpt>
                    <trkpt lat="54.401968333333336" lon="10.214805">
                        <ele>0</ele>
                        <time>2022-08-18T00:43:50Z</time>
                        <extensions>
    <sog>0.0</sog>
</extensions>
                    </trkpt>
                    <trkpt lat="54.401981666666664" lon="10.214793333333335">
                        <ele>0</ele>
                        <time>2022-08-18T00:49:52Z</time>
                        <extensions>
    <sog>0.0</sog>
</extensions>
                    </trkpt>
                    <trkpt lat="54.401984999999996" lon="10.214793333333335">
                        <ele>0</ele>
                        <time>2022-08-18T00:52:49Z</time>
                        <extensions>
    <sog>0.0</sog>
</extensions>
                    </trkpt>
                    <trkpt lat="54.401961666666665" lon="10.214805">
                        <ele>0</ele>
                        <time>2022-08-18T00:55:51Z</time>
                        <extensions>
    <sog>0.0</sog>
</extensions>
                    </trkpt>
                    <trkpt lat="54.40199833333334" lon="10.214821666666667">
                        <ele>0</ele>
                        <time>2022-08-18T00:58:52Z</time>
                        <extensions>
    <sog>0.0</sog>
</extensions>
                    </trkpt>
                    <trkpt lat="54.401986666666666" lon="10.214831666666667">
                        <ele>0</ele>
                        <time>2022-08-18T01:01:51Z</time>
                        <extensions>
    <sog>0.0</sog>
</extensions>
                    </trkpt>
                    <trkpt lat="54.40197833333333" lon="10.214825">
                        <ele>0</ele>
                        <time>2022-08-18T01:04:49Z</time>
                        <extensions>
    <sog>0.0</sog>
</extensions>
                    </trkpt>
                    <trkpt lat="54.40197166666667" lon="10.214828333333333">
                        <ele>0</ele>
                        <time>2022-08-18T01:07:53Z</time>
                        <extensions>
    <sog>0.0</sog>
</extensions>
                    </trkpt>
                    <trkpt lat="54.401968333333336" lon="10.214831666666667">
                        <ele>0</ele>
                        <time>2022-08-18T01:10:52Z</time>
                        <extensions>
    <sog>0.0</sog>
</extensions>
                    </trkpt>
                    <trkpt lat="54.40197333333333" lon="10.214830000000001">
                        <ele>0</ele>
                        <time>2022-08-18T01:13:50Z</time>
                        <extensions>
    <sog>0.0</sog>
</extensions>
                    </trkpt>
                    <trkpt lat="54.40199" lon="10.214851666666668">
                        <ele>0</ele>
                        <time>2022-08-18T01:19:49Z</time>
                        <extensions>
    <sog>0.0</sog>
</extensions>
                    </trkpt>
                    <trkpt lat="54.401986666666666" lon="10.214821666666667">
                        <ele>0</ele>
                        <time>2022-08-18T01:25:50Z</time>
                        <extensions>
    <sog>0.0</sog>
</extensions>
                    </trkpt>
                    <trkpt lat="54.40199166666666" lon="10.214831666666667">
                        <ele>0</ele>
                        <time>2022-08-18T01:28:52Z</time>
                        <extensions>
    <sog>0.0</sog>
</extensions>
                    </trkpt>
                    <trkpt lat="54.40197833333333" lon="10.214823333333333">
                        <ele>0</ele>
                        <time>2022-08-18T01:31:51Z</time>
                        <extensions>
    <sog>0.1</sog>
</extensions>
                    </trkpt>
                    <trkpt lat="54.401981666666664" lon="10.214811666666666">
                        <ele>0</ele>
                        <time>2022-08-18T01:34:49Z</time>
                        <extensions>
    <sog>0.0</sog>
</extensions>
                    </trkpt>
                    <trkpt lat="54.40197333333333" lon="10.214813333333332">
                        <ele>0</ele>
                        <time>2022-08-18T01:37:51Z</time>
                        <extensions>
    <sog>0.0</sog>
</extensions>
                    </trkpt>
                    <trkpt lat="54.40199500000001" lon="10.214813333333332">
                        <ele>0</ele>
                        <time>2022-08-18T01:40:50Z</time>
                        <extensions>
    <sog>0.0</sog>
</extensions>
                    </trkpt>
                    <trkpt lat="54.40198833333333" lon="10.214801666666666">
                        <ele>0</ele>
                        <time>2022-08-18T01:43:50Z</time>
                        <extensions>
    <sog>0.0</sog>
</extensions>
                    </trkpt>
                    <trkpt lat="54.402" lon="10.214791666666667">
                        <ele>0</ele>
                        <time>2022-08-18T01:46:53Z</time>
                        <extensions>
    <sog>0.0</sog>
</extensions>
                    </trkpt>
                    <trkpt lat="54.402" lon="10.214806666666668">
                        <ele>0</ele>
                        <time>2022-08-18T01:52:52Z</time>
                        <extensions>
    <sog>0.0</sog>
</extensions>
                    </trkpt>
                    <trkpt lat="54.40200333333333" lon="10.214785000000001">
                        <ele>0</ele>
                        <time>2022-08-18T01:55:52Z</time>
                        <extensions>
    <sog>0.0</sog>
</extensions>
                    </trkpt>
                    <trkpt lat="54.40199833333334" lon="10.214801666666666">
                        <ele>0</ele>
                        <time>2022-08-18T01:58:50Z</time>
                        <extensions>
    <sog>0.0</sog>
</extensions>
                    </trkpt>
                    <trkpt lat="54.40202" lon="10.214803333333332">
                        <ele>0</ele>
                        <time>2022-08-18T02:01:53Z</time>
                        <extensions>
    <sog>0.0</sog>
</extensions>
                    </trkpt>
                    <trkpt lat="54.402015" lon="10.214801666666666">
                        <ele>0</ele>
                        <time>2022-08-18T02:04:51Z</time>
                        <extensions>
    <sog>0.0</sog>
</extensions>
                    </trkpt>
                    <trkpt lat="54.40200333333333" lon="10.214801666666666">
                        <ele>0</ele>
                        <time>2022-08-18T02:07:50Z</time>
                        <extensions>
    <sog>0.0</sog>
</extensions>
                    </trkpt>
                    <trkpt lat="54.40201833333333" lon="10.214793333333335">
                        <ele>0</ele>
                        <time>2022-08-18T02:10:51Z</time>
                        <extensions>
    <sog>0.0</sog>
</extensions>
                    </trkpt>
                    <trkpt lat="54.402" lon="10.21481">
                        <ele>0</ele>
                        <time>2022-08-18T02:13:50Z</time>
                        <extensions>
    <sog>0.0</sog>
</extensions>
                    </trkpt>
                    <trkpt lat="54.402010000000004" lon="10.214798333333333">
                        <ele>0</ele>
                        <time>2022-08-18T02:19:50Z</time>
                        <extensions>
    <sog>0.0</sog>
</extensions>
                    </trkpt>
                    <trkpt lat="54.402006666666665" lon="10.214818333333334">
                        <ele>0</ele>
                        <time>2022-08-18T02:22:49Z</time>
                        <extensions>
    <sog>0.0</sog>
</extensions>
                    </trkpt>
                    <trkpt lat="54.402010000000004" lon="10.214801666666666">
                        <ele>0</ele>
                        <time>2022-08-18T02:28:49Z</time>
                        <extensions>
    <sog>0.0</sog>
</extensions>
                    </trkpt>
                    <trkpt lat="54.402031666666666" lon="10.214815">
                        <ele>0</ele>
                        <time>2022-08-18T02:34:49Z</time>
                        <extensions>
    <sog>0.0</sog>
</extensions>
                    </trkpt>
                    <trkpt lat="54.40203833333333" lon="10.214808333333334">
                        <ele>0</ele>
                        <time>2022-08-18T02:37:49Z</time>
                        <extensions>
    <sog>0.1</sog>
</extensions>
                    </trkpt>
                    <trkpt lat="54.402028333333334" lon="10.214813333333332">
                        <ele>0</ele>
                        <time>2022-08-18T02:40:49Z</time>
                        <extensions>
    <sog>0.0</sog>
</extensions>
                    </trkpt>
                    <trkpt lat="54.40202" lon="10.214805">
                        <ele>0</ele>
                        <time>2022-08-18T02:43:50Z</time>
                        <extensions>
    <sog>0.1</sog>
</extensions>
                    </trkpt>
                    <trkpt lat="54.40201833333333" lon="10.214798333333333">
                        <ele>0</ele>
                        <time>2022-08-18T02:46:52Z</time>
                        <extensions>
    <sog>0.0</sog>
</extensions>
                    </trkpt>
                    <trkpt lat="54.40204000000001" lon="10.214795">
                        <ele>0</ele>
                        <time>2022-08-18T02:49:52Z</time>
                        <extensions>
    <sog>0.0</sog>
</extensions>
                    </trkpt>
                    <trkpt lat="54.40202333333333" lon="10.214793333333335">
                        <ele>0</ele>
                        <time>2022-08-18T02:52:51Z</time>
                        <extensions>
    <sog>0.1</sog>
</extensions>
                    </trkpt>
                    <trkpt lat="54.402031666666666" lon="10.214805">
                        <ele>0</ele>
                        <time>2022-08-18T02:55:51Z</time>
                        <extensions>
    <sog>0.0</sog>
</extensions>
                    </trkpt>
                    <trkpt lat="54.40203333333333" lon="10.214803333333332">
                        <ele>0</ele>
                        <time>2022-08-18T03:01:51Z</time>
                        <extensions>
    <sog>0.0</sog>
</extensions>
                    </trkpt>
                    <trkpt lat="54.40204166666667" lon="10.214789999999999">
                        <ele>0</ele>
                        <time>2022-08-18T03:04:51Z</time>
                        <extensions>
    <sog>0.0</sog>
</extensions>
                    </trkpt>
                    <trkpt lat="54.402026666666664" lon="10.214786666666667">
                        <ele>0</ele>
                        <time>2022-08-18T03:07:50Z</time>
                        <extensions>
    <sog>0.0</sog>
</extensions>
                    </trkpt>
                    <trkpt lat="54.402015" lon="10.214791666666667">
                        <ele>0</ele>
                        <time>2022-08-18T03:10:49Z</time>
                        <extensions>
    <sog>0.0</sog>
</extensions>
                    </trkpt>
                    <trkpt lat="54.402015" lon="10.21477">
                        <ele>0</ele>
                        <time>2022-08-18T03:28:49Z</time>
                        <extensions>
    <sog>0.1</sog>
</extensions>
                    </trkpt>
                    <trkpt lat="54.40200333333333" lon="10.21478">
                        <ele>0</ele>
                        <time>2022-08-18T03:31:51Z</time>
                        <extensions>
    <sog>0.0</sog>
</extensions>
                    </trkpt>
                    <trkpt lat="54.40200333333333" lon="10.2148">
                        <ele>0</ele>
                        <time>2022-08-18T03:40:50Z</time>
                        <extensions>
    <sog>0.0</sog>
</extensions>
                    </trkpt>
                    <trkpt lat="54.402006666666665" lon="10.214803333333332">
                        <ele>0</ele>
                        <time>2022-08-18T03:43:52Z</time>
                        <extensions>
    <sog>0.0</sog>
</extensions>
                    </trkpt>
                    <trkpt lat="54.402" lon="10.214775">
                        <ele>0</ele>
                        <time>2022-08-18T03:46:49Z</time>
                        <extensions>
    <sog>0.0</sog>
</extensions>
                    </trkpt>
                    <trkpt lat="54.40200166666667" lon="10.21478">
                        <ele>0</ele>
                        <time>2022-08-18T03:49:51Z</time>
                        <extensions>
    <sog>0.0</sog>
</extensions>
                    </trkpt>
                    <trkpt lat="54.402008333333335" lon="10.214786666666667">
                        <ele>0</ele>
                        <time>2022-08-18T03:55:52Z</time>
                        <extensions>
    <sog>0.0</sog>
</extensions>
                    </trkpt>
                    <trkpt lat="54.40200166666667" lon="10.214776666666667">
                        <ele>0</ele>
                        <time>2022-08-18T03:58:49Z</time>
                        <extensions>
    <sog>0.0</sog>
</extensions>
                    </trkpt>
                    <trkpt lat="54.402" lon="10.214786666666667">
                        <ele>0</ele>
                        <time>2022-08-18T04:01:50Z</time>
                        <extensions>
    <sog>0.0</sog>
</extensions>
                    </trkpt>
                    <trkpt lat="54.402008333333335" lon="10.214786666666667">
                        <ele>0</ele>
                        <time>2022-08-18T04:04:52Z</time>
                        <extensions>
    <sog>0.0</sog>
</extensions>
                    </trkpt>
                    <trkpt lat="54.40201166666667" lon="10.21478">
                        <ele>0</ele>
                        <time>2022-08-18T04:10:52Z</time>
                        <extensions>
    <sog>0.0</sog>
</extensions>
                    </trkpt>
                    <trkpt lat="54.40201833333333" lon="10.214785000000001">
                        <ele>0</ele>
                        <time>2022-08-18T04:13:50Z</time>
                        <extensions>
    <sog>0.0</sog>
</extensions>
                    </trkpt>
                    <trkpt lat="54.402015" lon="10.214783333333333">
                        <ele>0</ele>
                        <time>2022-08-18T04:19:52Z</time>
                        <extensions>
    <sog>0.1</sog>
</extensions>
                    </trkpt>
                    <trkpt lat="54.40201666666667" lon="10.214801666666666">
                        <ele>0</ele>
                        <time>2022-08-18T04:25:53Z</time>
                        <extensions>
    <sog>0.0</sog>
</extensions>
                    </trkpt>
                    <trkpt lat="54.402010000000004" lon="10.214776666666667">
                        <ele>0</ele>
                        <time>2022-08-18T04:28:52Z</time>
                        <extensions>
    <sog>0.0</sog>
</extensions>
                    </trkpt>
                    <trkpt lat="54.40202" lon="10.214781666666665">
                        <ele>0</ele>
                        <time>2022-08-18T04:31:53Z</time>
                        <extensions>
    <sog>0.0</sog>
</extensions>
                    </trkpt>
                    <trkpt lat="54.402010000000004" lon="10.214775">
                        <ele>0</ele>
                        <time>2022-08-18T04:34:51Z</time>
                        <extensions>
    <sog>0.0</sog>
</extensions>
                    </trkpt>
                    <trkpt lat="54.40201833333333" lon="10.214789999999999">
                        <ele>0</ele>
                        <time>2022-08-18T04:37:51Z</time>
                        <extensions>
    <sog>0.0</sog>
</extensions>
                    </trkpt>
                    <trkpt lat="54.40202333333333" lon="10.214805">
                        <ele>0</ele>
                        <time>2022-08-18T04:46:52Z</time>
                        <extensions>
    <sog>0.1</sog>
</extensions>
                    </trkpt>
                    <trkpt lat="54.402028333333334" lon="10.214791666666667">
                        <ele>0</ele>
                        <time>2022-08-18T04:52:50Z</time>
                        <extensions>
    <sog>0.0</sog>
</extensions>
                    </trkpt>
                    <trkpt lat="54.402010000000004" lon="10.2148">
                        <ele>0</ele>
                        <time>2022-08-18T04:55:50Z</time>
                        <extensions>
    <sog>0.1</sog>
</extensions>
                    </trkpt>
                    <trkpt lat="54.402010000000004" lon="10.214811666666666">
                        <ele>0</ele>
                        <time>2022-08-18T05:01:50Z</time>
                        <extensions>
    <sog>0.0</sog>
</extensions>
                    </trkpt>
                    <trkpt lat="54.402005" lon="10.214803333333332">
                        <ele>0</ele>
                        <time>2022-08-18T05:10:49Z</time>
                        <extensions>
    <sog>0.0</sog>
</extensions>
                    </trkpt>
                    <trkpt lat="54.402013333333336" lon="10.214796666666667">
                        <ele>0</ele>
                        <time>2022-08-18T05:13:50Z</time>
                        <extensions>
    <sog>0.0</sog>
</extensions>
                    </trkpt>
                    <trkpt lat="54.401975" lon="10.21481">
                        <ele>0</ele>
                        <time>2022-08-18T05:19:50Z</time>
                        <extensions>
    <sog>0.0</sog>
</extensions>
                    </trkpt>
                    <trkpt lat="54.401984999999996" lon="10.214805">
                        <ele>0</ele>
                        <time>2022-08-18T05:22:50Z</time>
                        <extensions>
    <sog>0.0</sog>
</extensions>
                    </trkpt>
                    <trkpt lat="54.40197166666667" lon="10.214803333333332">
                        <ele>0</ele>
                        <time>2022-08-18T05:25:52Z</time>
                        <extensions>
    <sog>0.0</sog>
</extensions>
                    </trkpt>
                    <trkpt lat="54.40197666666666" lon="10.214786666666667">
                        <ele>0</ele>
                        <time>2022-08-18T05:28:52Z</time>
                        <extensions>
    <sog>0.0</sog>
</extensions>
                    </trkpt>
                    <trkpt lat="54.40197333333333" lon="10.214805">
                        <ele>0</ele>
                        <time>2022-08-18T05:31:51Z</time>
                        <extensions>
    <sog>0.0</sog>
</extensions>
                    </trkpt>
                    <trkpt lat="54.401983333333334" lon="10.21482">
                        <ele>0</ele>
                        <time>2022-08-18T05:34:53Z</time>
                        <extensions>
    <sog>0.0</sog>
</extensions>
                    </trkpt>
                    <trkpt lat="54.40197833333333" lon="10.214801666666666">
                        <ele>0</ele>
                        <time>2022-08-18T05:37:53Z</time>
                        <extensions>
    <sog>0.0</sog>
</extensions>
                    </trkpt>
                    <trkpt lat="54.40197833333333" lon="10.2148">
                        <ele>0</ele>
                        <time>2022-08-18T05:40:51Z</time>
                        <extensions>
    <sog>0.0</sog>
</extensions>
                    </trkpt>
                    <trkpt lat="54.40199666666667" lon="10.214821666666667">
                        <ele>0</ele>
                        <time>2022-08-18T05:43:50Z</time>
                        <extensions>
    <sog>0.1</sog>
</extensions>
                    </trkpt>
                    <trkpt lat="54.401984999999996" lon="10.21482">
                        <ele>0</ele>
                        <time>2022-08-18T05:46:51Z</time>
                        <extensions>
    <sog>0.0</sog>
</extensions>
                    </trkpt>
                    <trkpt lat="54.401984999999996" lon="10.214785000000001">
                        <ele>0</ele>
                        <time>2022-08-18T05:49:49Z</time>
                        <extensions>
    <sog>0.0</sog>
</extensions>
                    </trkpt>
                    <trkpt lat="54.401984999999996" lon="10.214816666666668">
                        <ele>0</ele>
                        <time>2022-08-18T05:52:50Z</time>
                        <extensions>
    <sog>0.0</sog>
</extensions>
                    </trkpt>
                    <trkpt lat="54.40197333333333" lon="10.214806666666668">
                        <ele>0</ele>
                        <time>2022-08-18T05:55:52Z</time>
                        <extensions>
    <sog>0.0</sog>
</extensions>
                    </trkpt>
                    <trkpt lat="54.401986666666666" lon="10.21481">
                        <ele>0</ele>
                        <time>2022-08-18T06:01:50Z</time>
                        <extensions>
    <sog>0.0</sog>
</extensions>
                    </trkpt>
                    <trkpt lat="54.4022" lon="10.214403333333333">
                        <ele>0</ele>
                        <time>2022-08-18T06:03:49Z</time>
                                                <extensions>
                            <sog>2.6</sog>
<cog>304.9</cog>
                        </extensions>
                    </trkpt>
                    <trkpt lat="54.40248333333333" lon="10.213885">
                        <ele>0</ele>
                        <time>2022-08-18T06:04:19Z</time>
                                                <extensions>
                            <sog>3.3</sog>
<cog>321.3</cog>
                        </extensions>
                    </trkpt>
                    <trkpt lat="54.402935" lon="10.213586666666666">
                        <ele>0</ele>
                        <time>2022-08-18T06:04:49Z</time>
                                                <extensions>
                            <sog>3.7</sog>
<cog>345.4</cog>
                        </extensions>
                    </trkpt>
                    <trkpt lat="54.403434999999995" lon="10.213456666666668">
                        <ele>0</ele>
                        <time>2022-08-18T06:05:19Z</time>
                                                <extensions>
                            <sog>3.9</sog>
<cog>356.7</cog>
                        </extensions>
                    </trkpt>
                    <trkpt lat="54.404003333333335" lon="10.213433333333334">
                        <ele>0</ele>
                        <time>2022-08-18T06:05:49Z</time>
                                                <extensions>
                            <sog>4.1</sog>
<cog>0.1</cog>
                        </extensions>
                    </trkpt>
                    <trkpt lat="54.40457666666667" lon="10.213435">
                        <ele>0</ele>
                        <time>2022-08-18T06:06:19Z</time>
                                                <extensions>
                            <sog>4.4</sog>
<cog>359.6</cog>
                        </extensions>
                    </trkpt>
                    <trkpt lat="54.405184999999996" lon="10.213445">
                        <ele>0</ele>
                        <time>2022-08-18T06:06:49Z</time>
                                                <extensions>
                            <sog>4.4</sog>
<cog>2.5</cog>
                        </extensions>
                    </trkpt>
                    <trkpt lat="54.407045000000004" lon="10.21365">
                        <ele>0</ele>
                        <time>2022-08-18T06:08:19Z</time>
                                                <extensions>
                            <sog>4.6</sog>
<cog>1.5</cog>
                        </extensions>
                    </trkpt>
                    <trkpt lat="54.407695" lon="10.213671666666666">
                        <ele>0</ele>
                        <time>2022-08-18T06:08:49Z</time>
                                                <extensions>
                            <sog>4.7</sog>
<cog>0.6</cog>
                        </extensions>
                    </trkpt>
                    <trkpt lat="54.40835666666667" lon="10.213666666666667">
                        <ele>0</ele>
                        <time>2022-08-18T06:09:19Z</time>
                                                <extensions>
                            <sog>5.1</sog>
<cog>359.6</cog>
                        </extensions>
                    </trkpt>
                    <trkpt lat="54.40907" lon="10.21366">
                        <ele>0</ele>
                        <time>2022-08-18T06:09:49Z</time>
                                                <extensions>
                            <sog>5.2</sog>
<cog>359.8</cog>
                        </extensions>
                    </trkpt>
                    <trkpt lat="54.40979166666667" lon="10.213641666666666">
                        <ele>0</ele>
                        <time>2022-08-18T06:10:19Z</time>
                                                <extensions>
                            <sog>5.2</sog>
<cog>359.5</cog>
                        </extensions>
                    </trkpt>
                    <trkpt lat="54.410563333333336" lon="10.21368">
                        <ele>0</ele>
                        <time>2022-08-18T06:10:50Z</time>
                                                <extensions>
                            <sog>5.1</sog>
<cog>2.8</cog>
                        </extensions>
                    </trkpt>
                    <trkpt lat="54.41195333333334" lon="10.214025">
                        <ele>0</ele>
                        <time>2022-08-18T06:11:50Z</time>
                                                <extensions>
                            <sog>5.0</sog>
<cog>10.0</cog>
                        </extensions>
                    </trkpt>
                    <trkpt lat="54.413329999999995" lon="10.214606666666667">
                        <ele>0</ele>
                        <time>2022-08-18T06:12:50Z</time>
                                                <extensions>
                            <sog>5.2</sog>
<cog>18.6</cog>
                        </extensions>
                    </trkpt>
                    <trkpt lat="54.41472" lon="10.215318333333332">
                        <ele>0</ele>
                        <time>2022-08-18T06:13:50Z</time>
                                                <extensions>
                            <sog>5.2</sog>
<cog>15.4</cog>
                        </extensions>
                    </trkpt>
                    <trkpt lat="54.41611833333333" lon="10.215956666666667">
                        <ele>0</ele>
                        <time>2022-08-18T06:14:52Z</time>
                                                <extensions>
                            <sog>5.1</sog>
<cog>15.6</cog>
                        </extensions>
                    </trkpt>
                    <trkpt lat="54.42015833333333" lon="10.218301666666667">
                        <ele>0</ele>
                        <time>2022-08-18T06:17:52Z</time>
                                                <extensions>
                            <sog>5.1</sog>
<cog>20.1</cog>
                        </extensions>
                    </trkpt>
                    <trkpt lat="54.421436666666665" lon="10.219206666666667">
                        <ele>0</ele>
                        <time>2022-08-18T06:18:52Z</time>
                                                <extensions>
                            <sog>5.2</sog>
<cog>24.6</cog>
                        </extensions>
                    </trkpt>
                    <trkpt lat="54.422015" lon="10.219646666666668">
                        <ele>0</ele>
                        <time>2022-08-18T06:19:19Z</time>
                                                <extensions>
                            <sog>5.1</sog>
<cog>22.9</cog>
                        </extensions>
                    </trkpt>
                    <trkpt lat="54.42274166666667" lon="10.220183333333333">
                        <ele>0</ele>
                        <time>2022-08-18T06:19:52Z</time>
                                                <extensions>
                            <sog>5.1</sog>
<cog>23.4</cog>
                        </extensions>
                    </trkpt>
                    <trkpt lat="54.423318333333334" lon="10.220601666666665">
                        <ele>0</ele>
                        <time>2022-08-18T06:20:19Z</time>
                                                <extensions>
                            <sog>4.8</sog>
<cog>21.9</cog>
                        </extensions>
                    </trkpt>
                    <trkpt lat="54.424589999999995" lon="10.221485">
                        <ele>0</ele>
                        <time>2022-08-18T06:21:19Z</time>
                                                <extensions>
                            <sog>5.2</sog>
<cog>23.0</cog>
                        </extensions>
                    </trkpt>
                    <trkpt lat="54.42527666666667" lon="10.221991666666666">
                        <ele>0</ele>
                        <time>2022-08-18T06:21:52Z</time>
                                                <extensions>
                            <sog>4.9</sog>
<cog>22.0</cog>
                        </extensions>
                    </trkpt>
                    <trkpt lat="54.42584333333333" lon="10.222389999999999">
                        <ele>0</ele>
                        <time>2022-08-18T06:22:19Z</time>
                                                <extensions>
                            <sog>4.8</sog>
<cog>22.9</cog>
                        </extensions>
                    </trkpt>
                    <trkpt lat="54.426458333333336" lon="10.223080000000001">
                        <ele>0</ele>
                        <time>2022-08-18T06:22:52Z</time>
                                                <extensions>
                            <sog>5.1</sog>
<cog>35.5</cog>
                        </extensions>
                    </trkpt>
                    <trkpt lat="54.42698" lon="10.223683333333334">
                        <ele>0</ele>
                        <time>2022-08-18T06:23:19Z</time>
                                                <extensions>
                            <sog>4.7</sog>
<cog>31.8</cog>
                        </extensions>
                    </trkpt>
                    <trkpt lat="54.42755833333333" lon="10.224383333333332">
                        <ele>0</ele>
                        <time>2022-08-18T06:23:52Z</time>
                                                <extensions>
                            <sog>4.9</sog>
<cog>34.5</cog>
                        </extensions>
                    </trkpt>
                    <trkpt lat="54.42819" lon="10.224883333333334">
                        <ele>0</ele>
                        <time>2022-08-18T06:24:22Z</time>
                                                <extensions>
                            <sog>5.0</sog>
<cog>24.8</cog>
                        </extensions>
                    </trkpt>
                    <trkpt lat="54.42879333333334" lon="10.225323333333334">
                        <ele>0</ele>
                        <time>2022-08-18T06:24:52Z</time>
                                                <extensions>
                            <sog>4.9</sog>
<cog>25.9</cog>
                        </extensions>
                    </trkpt>
                    <trkpt lat="54.429431666666666" lon="10.225816666666667">
                        <ele>0</ele>
                        <time>2022-08-18T06:25:22Z</time>
                                                <extensions>
                            <sog>4.8</sog>
<cog>23.0</cog>
                        </extensions>
                    </trkpt>
                    <trkpt lat="54.43007166666666" lon="10.226271666666666">
                        <ele>0</ele>
                        <time>2022-08-18T06:25:52Z</time>
                                                <extensions>
                            <sog>5.3</sog>
<cog>21.6</cog>
                        </extensions>
                    </trkpt>
                    <trkpt lat="54.43201" lon="10.228190000000001">
                        <ele>0</ele>
                        <time>2022-08-18T06:27:22Z</time>
                                                <extensions>
                            <sog>5.6</sog>
<cog>34.8</cog>
                        </extensions>
                    </trkpt>
                    <trkpt lat="54.43263" lon="10.228938333333334">
                        <ele>0</ele>
                        <time>2022-08-18T06:27:52Z</time>
                                                <extensions>
                            <sog>5.6</sog>
<cog>38.1</cog>
                        </extensions>
                    </trkpt>
                    <trkpt lat="54.433234999999996" lon="10.229713333333333">
                        <ele>0</ele>
                        <time>2022-08-18T06:28:22Z</time>
                                                <extensions>
                            <sog>5.2</sog>
<cog>34.8</cog>
                        </extensions>
                    </trkpt>
                    <trkpt lat="54.433841666666666" lon="10.230428333333332">
                        <ele>0</ele>
                        <time>2022-08-18T06:28:52Z</time>
                                                <extensions>
                            <sog>5.5</sog>
<cog>33.2</cog>
                        </extensions>
                    </trkpt>
                    <trkpt lat="54.43447333333334" lon="10.231151666666667">
                        <ele>0</ele>
                        <time>2022-08-18T06:29:22Z</time>
                                                <extensions>
                            <sog>5.3</sog>
<cog>33.6</cog>
                        </extensions>
                    </trkpt>
                    <trkpt lat="54.435051666666666" lon="10.231818333333333">
                        <ele>0</ele>
                        <time>2022-08-18T06:29:50Z</time>
                                                <extensions>
                            <sog>5.5</sog>
<cog>33.5</cog>
                        </extensions>
                    </trkpt>
                    <trkpt lat="54.43573" lon="10.232581666666666">
                        <ele>0</ele>
                        <time>2022-08-18T06:30:22Z</time>
                                                <extensions>
                            <sog>5.7</sog>
<cog>33.9</cog>
                        </extensions>
                    </trkpt>
                    <trkpt lat="54.436321666666664" lon="10.23324">
                        <ele>0</ele>
                        <time>2022-08-18T06:30:50Z</time>
                                                <extensions>
                            <sog>5.6</sog>
<cog>33.8</cog>
                        </extensions>
                    </trkpt>
                    <trkpt lat="54.436976666666666" lon="10.233968333333333">
                        <ele>0</ele>
                        <time>2022-08-18T06:31:21Z</time>
                                                <extensions>
                            <sog>5.4</sog>
<cog>31.9</cog>
                        </extensions>
                    </trkpt>
                    <trkpt lat="54.43757166666667" lon="10.234631666666667">
                        <ele>0</ele>
                        <time>2022-08-18T06:31:50Z</time>
                                                <extensions>
                            <sog>5.0</sog>
<cog>33.1</cog>
                        </extensions>
                    </trkpt>
                    <trkpt lat="54.438203333333334" lon="10.235358333333332">
                        <ele>0</ele>
                        <time>2022-08-18T06:32:21Z</time>
                                                <extensions>
                            <sog>5.4</sog>
<cog>33.7</cog>
                        </extensions>
                    </trkpt>
                    <trkpt lat="54.43880166666667" lon="10.236051666666667">
                        <ele>0</ele>
                        <time>2022-08-18T06:32:50Z</time>
                                                <extensions>
                            <sog>5.3</sog>
<cog>34.2</cog>
                        </extensions>
                    </trkpt>
                    <trkpt lat="54.44004833333334" lon="10.237503333333333">
                        <ele>0</ele>
                        <time>2022-08-18T06:33:50Z</time>
                                                <extensions>
                            <sog>5.5</sog>
<cog>35.1</cog>
                        </extensions>
                    </trkpt>
                    <trkpt lat="54.44068666666667" lon="10.238215">
                        <ele>0</ele>
                        <time>2022-08-18T06:34:21Z</time>
                                                <extensions>
                            <sog>5.4</sog>
<cog>31.0</cog>
                        </extensions>
                    </trkpt>
                    <trkpt lat="54.441918333333334" lon="10.239493333333334">
                        <ele>0</ele>
                        <time>2022-08-18T06:35:21Z</time>
                                                <extensions>
                            <sog>5.0</sog>
<cog>31.3</cog>
                        </extensions>
                    </trkpt>
                    <trkpt lat="54.443194999999996" lon="10.240873333333333">
                        <ele>0</ele>
                        <time>2022-08-18T06:36:20Z</time>
                                                <extensions>
                            <sog>5.3</sog>
<cog>30.3</cog>
                        </extensions>
                    </trkpt>
                    <trkpt lat="54.44381" lon="10.241516666666666">
                        <ele>0</ele>
                        <time>2022-08-18T06:36:50Z</time>
                                                <extensions>
                            <sog>5.5</sog>
<cog>31.9</cog>
                        </extensions>
                    </trkpt>
                    <trkpt lat="54.44518666666667" lon="10.242986666666667">
                        <ele>0</ele>
                        <time>2022-08-18T06:37:52Z</time>
                                                <extensions>
                            <sog>5.4</sog>
<cog>31.4</cog>
                        </extensions>
                    </trkpt>
                    <trkpt lat="54.445771666666666" lon="10.243603333333335">
                        <ele>0</ele>
                        <time>2022-08-18T06:38:20Z</time>
                                                <extensions>
                            <sog>5.3</sog>
<cog>30.7</cog>
                        </extensions>
                    </trkpt>
                    <trkpt lat="54.44828" lon="10.246255">
                        <ele>0</ele>
                        <time>2022-08-18T06:40:22Z</time>
                                                <extensions>
                            <sog>5.3</sog>
<cog>31.7</cog>
                        </extensions>
                    </trkpt>
                    <trkpt lat="54.44947" lon="10.24756">
                        <ele>0</ele>
                        <time>2022-08-18T06:41:22Z</time>
                                                <extensions>
                            <sog>5.0</sog>
<cog>30.1</cog>
                        </extensions>
                    </trkpt>
                    <trkpt lat="54.450026666666666" lon="10.248085">
                        <ele>0</ele>
                        <time>2022-08-18T06:41:49Z</time>
                                                <extensions>
                            <sog>4.9</sog>
<cog>26.3</cog>
                        </extensions>
                    </trkpt>
                    <trkpt lat="54.45071" lon="10.248773333333332">
                        <ele>0</ele>
                        <time>2022-08-18T06:42:22Z</time>
                                                <extensions>
                            <sog>5.5</sog>
<cog>31.8</cog>
                        </extensions>
                    </trkpt>
                    <trkpt lat="54.45126666666667" lon="10.249341666666668">
                        <ele>0</ele>
                        <time>2022-08-18T06:42:49Z</time>
                                                <extensions>
                            <sog>5.3</sog>
<cog>28.2</cog>
                        </extensions>
                    </trkpt>
                    <trkpt lat="54.451980000000006" lon="10.25">
                        <ele>0</ele>
                        <time>2022-08-18T06:43:22Z</time>
                                                <extensions>
                            <sog>5.1</sog>
<cog>28.9</cog>
                        </extensions>
                    </trkpt>
                    <trkpt lat="54.453245" lon="10.251183333333334">
                        <ele>0</ele>
                        <time>2022-08-18T06:44:22Z</time>
                                                <extensions>
                            <sog>5.1</sog>
<cog>23.7</cog>
                        </extensions>
                    </trkpt>
                    <trkpt lat="54.453905" lon="10.251538333333334">
                        <ele>0</ele>
                        <time>2022-08-18T06:44:49Z</time>
                                                <extensions>
                            <sog>5.4</sog>
<cog>14.4</cog>
                        </extensions>
                    </trkpt>
                    <trkpt lat="54.45470833333333" lon="10.251965">
                        <ele>0</ele>
                        <time>2022-08-18T06:45:23Z</time>
                                                <extensions>
                            <sog>5.4</sog>
<cog>14.3</cog>
                        </extensions>
                    </trkpt>
                    <trkpt lat="54.45534333333333" lon="10.252236666666667">
                        <ele>0</ele>
                        <time>2022-08-18T06:45:49Z</time>
                                                <extensions>
                            <sog>5.4</sog>
<cog>12.5</cog>
                        </extensions>
                    </trkpt>
                    <trkpt lat="54.45684833333333" lon="10.252621666666666">
                        <ele>0</ele>
                        <time>2022-08-18T06:46:49Z</time>
                                                <extensions>
                            <sog>5.6</sog>
<cog>357.1</cog>
                        </extensions>
                    </trkpt>
                    <trkpt lat="54.45834166666667" lon="10.252766666666668">
                        <ele>0</ele>
                        <time>2022-08-18T06:47:49Z</time>
                                                <extensions>
                            <sog>5.5</sog>
<cog>17.3</cog>
                        </extensions>
                    </trkpt>
                    <trkpt lat="54.46250833333333" lon="10.255374999999999">
                        <ele>0</ele>
                        <time>2022-08-18T06:50:51Z</time>
                                                <extensions>
                            <sog>5.4</sog>
<cog>22.5</cog>
                        </extensions>
                    </trkpt>
                    <trkpt lat="54.463905" lon="10.256268333333333">
                        <ele>0</ele>
                        <time>2022-08-18T06:51:51Z</time>
                                                <extensions>
                            <sog>5.4</sog>
<cog>22.8</cog>
                        </extensions>
                    </trkpt>
                    <trkpt lat="54.464596666666665" lon="10.256615">
                        <ele>0</ele>
                        <time>2022-08-18T06:52:20Z</time>
                                                <extensions>
                            <sog>5.5</sog>
<cog>12.6</cog>
                        </extensions>
                    </trkpt>
                    <trkpt lat="54.46535166666667" lon="10.257003333333333">
                        <ele>0</ele>
                        <time>2022-08-18T06:52:51Z</time>
                                                <extensions>
                            <sog>5.5</sog>
<cog>15.1</cog>
                        </extensions>
                    </trkpt>
                    <trkpt lat="54.466045" lon="10.257381666666667">
                        <ele>0</ele>
                        <time>2022-08-18T06:53:20Z</time>
                                                <extensions>
                            <sog>5.5</sog>
<cog>18.0</cog>
                        </extensions>
                    </trkpt>
                    <trkpt lat="54.46684666666667" lon="10.257718333333335">
                        <ele>0</ele>
                        <time>2022-08-18T06:53:51Z</time>
                                                <extensions>
                            <sog>5.3</sog>
<cog>12.4</cog>
                        </extensions>
                    </trkpt>
                    <trkpt lat="54.468336666666666" lon="10.258311666666666">
                        <ele>0</ele>
                        <time>2022-08-18T06:54:51Z</time>
                                                <extensions>
                            <sog>5.6</sog>
<cog>15.4</cog>
                        </extensions>
                    </trkpt>
                    <trkpt lat="54.46984166666667" lon="10.258866666666668">
                        <ele>0</ele>
                        <time>2022-08-18T06:55:51Z</time>
                                                <extensions>
                            <sog>5.4</sog>
<cog>11.3</cog>
                        </extensions>
                    </trkpt>
                    <trkpt lat="54.47286333333333" lon="10.259865">
                        <ele>0</ele>
                        <time>2022-08-18T06:57:51Z</time>
                                                <extensions>
                            <sog>5.7</sog>
<cog>13.0</cog>
                        </extensions>
                    </trkpt>
                    <trkpt lat="54.47445166666667" lon="10.260078333333333">
                        <ele>0</ele>
                        <time>2022-08-18T06:58:53Z</time>
                                                <extensions>
                            <sog>5.8</sog>
<cog>4.7</cog>
                        </extensions>
                    </trkpt>
                    <trkpt lat="54.47752833333333" lon="10.260021666666667">
                        <ele>0</ele>
                        <time>2022-08-18T07:00:53Z</time>
                                                <extensions>
                            <sog>5.5</sog>
<cog>4.5</cog>
                        </extensions>
                    </trkpt>
                    <trkpt lat="54.47752833333333" lon="10.260021666666667">
                        <ele>0</ele>
                        <time>2022-08-18T07:00:53Z</time>
                                                <extensions>
                            <sog>5.5</sog>
<cog>4.5</cog>
                        </extensions>
                    </trkpt>
                    <trkpt lat="54.478295" lon="10.260161666666667">
                        <ele>0</ele>
                        <time>2022-08-18T07:01:22Z</time>
                                                <extensions>
                            <sog>5.5</sog>
<cog>3.1</cog>
                        </extensions>
                    </trkpt>
                    <trkpt lat="54.479815" lon="10.26051">
                        <ele>0</ele>
                        <time>2022-08-18T07:02:22Z</time>
                                                <extensions>
                            <sog>5.6</sog>
<cog>6.3</cog>
                        </extensions>
                    </trkpt>
                    <trkpt lat="54.48059" lon="10.260698333333332">
                        <ele>0</ele>
                        <time>2022-08-18T07:02:53Z</time>
                                                <extensions>
                            <sog>5.9</sog>
<cog>9.0</cog>
                        </extensions>
                    </trkpt>
                    <trkpt lat="54.48128666666666" lon="10.26089">
                        <ele>0</ele>
                        <time>2022-08-18T07:03:20Z</time>
                                                <extensions>
                            <sog>5.6</sog>
<cog>12.1</cog>
                        </extensions>
                    </trkpt>
                    <trkpt lat="54.482139999999994" lon="10.261131666666667">
                        <ele>0</ele>
                        <time>2022-08-18T07:03:53Z</time>
                                                <extensions>
                            <sog>5.7</sog>
<cog>1.8</cog>
                        </extensions>
                    </trkpt>
                    <trkpt lat="54.48367833333334" lon="10.261638333333334">
                        <ele>0</ele>
                        <time>2022-08-18T07:04:53Z</time>
                                                <extensions>
                            <sog>5.6</sog>
<cog>5.6</cog>
                        </extensions>
                    </trkpt>
                    <trkpt lat="54.485261666666666" lon="10.261778333333332">
                        <ele>0</ele>
                        <time>2022-08-18T07:05:52Z</time>
                                                <extensions>
                            <sog>5.7</sog>
<cog>3.7</cog>
                        </extensions>
                    </trkpt>
                    <trkpt lat="54.48596833333333" lon="10.261813333333333">
                        <ele>0</ele>
                        <time>2022-08-18T07:06:20Z</time>
                                                <extensions>
                            <sog>5.9</sog>
<cog>357.4</cog>
                        </extensions>
                    </trkpt>
                    <trkpt lat="54.48681833333333" lon="10.261775">
                        <ele>0</ele>
                        <time>2022-08-18T07:06:52Z</time>
                                                <extensions>
                            <sog>5.6</sog>
<cog>356.2</cog>
                        </extensions>
                    </trkpt>
                    <trkpt lat="54.490786666666665" lon="10.261316666666666">
                        <ele>0</ele>
                        <time>2022-08-18T07:09:22Z</time>
                                                <extensions>
                            <sog>5.9</sog>
<cog>5.3</cog>
                        </extensions>
                    </trkpt>
                    <trkpt lat="54.494675" lon="10.26236">
                        <ele>0</ele>
                        <time>2022-08-18T07:11:49Z</time>
                                                <extensions>
                            <sog>5.8</sog>
<cog>7.8</cog>
                        </extensions>
                    </trkpt>
                    <trkpt lat="54.49556166666667" lon="10.262464999999999">
                        <ele>0</ele>
                        <time>2022-08-18T07:12:22Z</time>
                                                <extensions>
                            <sog>5.5</sog>
<cog>4.1</cog>
                        </extensions>
                    </trkpt>
                    <trkpt lat="54.497155" lon="10.26274">
                        <ele>0</ele>
                        <time>2022-08-18T07:13:22Z</time>
                                                <extensions>
                            <sog>5.8</sog>
<cog>359.9</cog>
                        </extensions>
                    </trkpt>
                    <trkpt lat="54.498810000000006" lon="10.262693333333335">
                        <ele>0</ele>
                        <time>2022-08-18T07:14:22Z</time>
                                                <extensions>
                            <sog>6.0</sog>
<cog>355.4</cog>
                        </extensions>
                    </trkpt>
                    <trkpt lat="54.502915" lon="10.262376666666666">
                        <ele>0</ele>
                        <time>2022-08-18T07:16:49Z</time>
                                                <extensions>
                            <sog>6.0</sog>
<cog>356.2</cog>
                        </extensions>
                    </trkpt>
                    <trkpt lat="54.504580000000004" lon="10.262221666666667">
                        <ele>0</ele>
                        <time>2022-08-18T07:17:49Z</time>
                                                <extensions>
                            <sog>6.2</sog>
<cog>356.7</cog>
                        </extensions>
                    </trkpt>
                    <trkpt lat="54.50625" lon="10.26204">
                        <ele>0</ele>
                        <time>2022-08-18T07:18:49Z</time>
                                                <extensions>
                            <sog>6.0</sog>
<cog>356.2</cog>
                        </extensions>
                    </trkpt>
                    <trkpt lat="54.509605" lon="10.261738333333334">
                        <ele>0</ele>
                        <time>2022-08-18T07:20:49Z</time>
                                                <extensions>
                            <sog>6.0</sog>
<cog>354.9</cog>
                        </extensions>
                    </trkpt>
                    <trkpt lat="54.51045" lon="10.261658333333333">
                        <ele>0</ele>
                        <time>2022-08-18T07:21:19Z</time>
                                                <extensions>
                            <sog>6.2</sog>
<cog>359.7</cog>
                        </extensions>
                    </trkpt>
                    <trkpt lat="54.511295000000004" lon="10.261593333333334">
                        <ele>0</ele>
                        <time>2022-08-18T07:21:49Z</time>
                                                <extensions>
                            <sog>6.0</sog>
<cog>359.1</cog>
                        </extensions>
                    </trkpt>
                    <trkpt lat="54.512973333333335" lon="10.261451666666666">
                        <ele>0</ele>
                        <time>2022-08-18T07:22:49Z</time>
                                                <extensions>
                            <sog>6.3</sog>
<cog>354.1</cog>
                        </extensions>
                    </trkpt>
                    <trkpt lat="54.513855" lon="10.2614">
                        <ele>0</ele>
                        <time>2022-08-18T07:23:19Z</time>
                                                <extensions>
                            <sog>6.4</sog>
<cog>0.1</cog>
                        </extensions>
                    </trkpt>
                    <trkpt lat="54.515570000000004" lon="10.261141666666667">
                        <ele>0</ele>
                        <time>2022-08-18T07:24:19Z</time>
                                                <extensions>
                            <sog>6.2</sog>
<cog>358.1</cog>
                        </extensions>
                    </trkpt>
                    <trkpt lat="54.51900833333333" lon="10.260598333333332">
                        <ele>0</ele>
                        <time>2022-08-18T07:26:19Z</time>
                                                <extensions>
                            <sog>6.0</sog>
<cog>354.6</cog>
                        </extensions>
                    </trkpt>
                    <trkpt lat="54.52298166666667" lon="10.259960000000001">
                        <ele>0</ele>
                        <time>2022-08-18T07:28:51Z</time>
                                                <extensions>
                            <sog>5.8</sog>
<cog>355.5</cog>
                        </extensions>
                    </trkpt>
                    <trkpt lat="54.5238" lon="10.259816666666667">
                        <ele>0</ele>
                        <time>2022-08-18T07:29:22Z</time>
                                                <extensions>
                            <sog>5.6</sog>
<cog>355.5</cog>
                        </extensions>
                    </trkpt>
                    <trkpt lat="54.524575" lon="10.259686666666665">
                        <ele>0</ele>
                        <time>2022-08-18T07:29:51Z</time>
                                                <extensions>
                            <sog>5.9</sog>
<cog>356.1</cog>
                        </extensions>
                    </trkpt>
                    <trkpt lat="54.52784333333333" lon="10.259108333333334">
                        <ele>0</ele>
                        <time>2022-08-18T07:31:51Z</time>
                                                <extensions>
                            <sog>5.8</sog>
<cog>354.3</cog>
                        </extensions>
                    </trkpt>
                    <trkpt lat="54.52870666666667" lon="10.258946666666667">
                        <ele>0</ele>
                        <time>2022-08-18T07:32:22Z</time>
                                                <extensions>
                            <sog>5.9</sog>
<cog>350.6</cog>
                        </extensions>
                    </trkpt>
                    <trkpt lat="54.53105" lon="10.258535">
                        <ele>0</ele>
                        <time>2022-08-18T07:33:51Z</time>
                                                <extensions>
                            <sog>5.6</sog>
<cog>357.1</cog>
                        </extensions>
                    </trkpt>
                    <trkpt lat="54.532664999999994" lon="10.258241666666667">
                        <ele>0</ele>
                        <time>2022-08-18T07:34:51Z</time>
                                                <extensions>
                            <sog>5.9</sog>
<cog>351.0</cog>
                        </extensions>
                    </trkpt>
                    <trkpt lat="54.53507333333334" lon="10.257816666666667">
                        <ele>0</ele>
                        <time>2022-08-18T07:36:19Z</time>
                                                <extensions>
                            <sog>6.0</sog>
<cog>354.2</cog>
                        </extensions>
                    </trkpt>
                    <trkpt lat="54.5358" lon="10.257643333333334">
                        <ele>0</ele>
                        <time>2022-08-18T07:36:50Z</time>
                                                <extensions>
                            <sog>4.7</sog>
<cog>351.1</cog>
                        </extensions>
                    </trkpt>
                    <trkpt lat="54.5364" lon="10.257483333333333">
                        <ele>0</ele>
                        <time>2022-08-18T07:37:19Z</time>
                                                <extensions>
                            <sog>4.5</sog>
<cog>349.4</cog>
                        </extensions>
                    </trkpt>
                    <trkpt lat="54.537659999999995" lon="10.257115">
                        <ele>0</ele>
                        <time>2022-08-18T07:38:19Z</time>
                                                <extensions>
                            <sog>4.6</sog>
<cog>353.2</cog>
                        </extensions>
                    </trkpt>
                    <trkpt lat="54.53827833333333" lon="10.256995">
                        <ele>0</ele>
                        <time>2022-08-18T07:38:50Z</time>
                                                <extensions>
                            <sog>4.3</sog>
<cog>349.4</cog>
                        </extensions>
                    </trkpt>
                    <trkpt lat="54.538940000000004" lon="10.256861666666667">
                        <ele>0</ele>
                        <time>2022-08-18T07:39:19Z</time>
                                                <extensions>
                            <sog>5.4</sog>
<cog>352.7</cog>
                        </extensions>
                    </trkpt>
                    <trkpt lat="54.53966666666667" lon="10.256733333333333">
                        <ele>0</ele>
                        <time>2022-08-18T07:39:49Z</time>
                                                <extensions>
                            <sog>5.8</sog>
<cog>352.1</cog>
                        </extensions>
                    </trkpt>
                    <trkpt lat="54.540438333333334" lon="10.256568333333332">
                        <ele>0</ele>
                        <time>2022-08-18T07:40:19Z</time>
                                                <extensions>
                            <sog>5.6</sog>
<cog>351.8</cog>
                        </extensions>
                    </trkpt>
                    <trkpt lat="54.542005" lon="10.256285">
                        <ele>0</ele>
                        <time>2022-08-18T07:41:19Z</time>
                                                <extensions>
                            <sog>5.7</sog>
<cog>354.9</cog>
                        </extensions>
                    </trkpt>
                    <trkpt lat="54.54279833333333" lon="10.256111666666667">
                        <ele>0</ele>
                        <time>2022-08-18T07:41:49Z</time>
                                                <extensions>
                            <sog>5.6</sog>
<cog>353.8</cog>
                        </extensions>
                    </trkpt>
                    <trkpt lat="54.54698833333334" lon="10.255201666666666">
                        <ele>0</ele>
                        <time>2022-08-18T07:44:19Z</time>
                                                <extensions>
                            <sog>6.2</sog>
<cog>353.4</cog>
                        </extensions>
                    </trkpt>
                    <trkpt lat="54.547855" lon="10.254995000000001">
                        <ele>0</ele>
                        <time>2022-08-18T07:44:49Z</time>
                                                <extensions>
                            <sog>6.6</sog>
<cog>351.8</cog>
                        </extensions>
                    </trkpt>
                    <trkpt lat="54.548745000000004" lon="10.254811666666665">
                        <ele>0</ele>
                        <time>2022-08-18T07:45:19Z</time>
                                                <extensions>
                            <sog>6.4</sog>
<cog>354.1</cog>
                        </extensions>
                    </trkpt>
                    <trkpt lat="54.54962666666667" lon="10.254586666666667">
                        <ele>0</ele>
                        <time>2022-08-18T07:45:49Z</time>
                                                <extensions>
                            <sog>6.6</sog>
<cog>350.5</cog>
                        </extensions>
                    </trkpt>
                    <trkpt lat="54.550575" lon="10.254353333333334">
                        <ele>0</ele>
                        <time>2022-08-18T07:46:19Z</time>
                                                <extensions>
                            <sog>6.6</sog>
<cog>352.1</cog>
                        </extensions>
                    </trkpt>
                    <trkpt lat="54.556205" lon="10.2531">
                        <ele>0</ele>
                        <time>2022-08-18T07:49:19Z</time>
                                                <extensions>
                            <sog>6.9</sog>
<cog>352.3</cog>
                        </extensions>
                    </trkpt>
                    <trkpt lat="54.55715166666666" lon="10.252846666666667">
                        <ele>0</ele>
                        <time>2022-08-18T07:49:50Z</time>
                                                <extensions>
                            <sog>6.9</sog>
<cog>348.0</cog>
                        </extensions>
                    </trkpt>
                    <trkpt lat="54.558078333333334" lon="10.252591666666666">
                        <ele>0</ele>
                        <time>2022-08-18T07:50:19Z</time>
                                                <extensions>
                            <sog>6.8</sog>
<cog>349.2</cog>
                        </extensions>
                    </trkpt>
                    <trkpt lat="54.558985" lon="10.252348333333334">
                        <ele>0</ele>
                        <time>2022-08-18T07:50:50Z</time>
                                                <extensions>
                            <sog>6.5</sog>
<cog>349.0</cog>
                        </extensions>
                    </trkpt>
                    <trkpt lat="54.564523333333334" lon="10.250723333333333">
                        <ele>0</ele>
                        <time>2022-08-18T07:54:21Z</time>
                                                <extensions>
                            <sog>4.9</sog>
<cog>350.8</cog>
                        </extensions>
                    </trkpt>
                    <trkpt lat="54.56889833333333" lon="10.249456666666667">
                        <ele>0</ele>
                        <time>2022-08-18T07:57:20Z</time>
                                                <extensions>
                            <sog>5.5</sog>
<cog>348.5</cog>
                        </extensions>
                    </trkpt>
                    <trkpt lat="54.56971166666666" lon="10.249198333333334">
                        <ele>0</ele>
                        <time>2022-08-18T07:57:53Z</time>
                                                <extensions>
                            <sog>5.4</sog>
<cog>351.5</cog>
                        </extensions>
                    </trkpt>
                    <trkpt lat="54.57040166666666" lon="10.248975">
                        <ele>0</ele>
                        <time>2022-08-18T07:58:20Z</time>
                                                <extensions>
                            <sog>5.4</sog>
<cog>348.6</cog>
                        </extensions>
                    </trkpt>
                    <trkpt lat="54.571225" lon="10.248688333333332">
                        <ele>0</ele>
                        <time>2022-08-18T07:58:53Z</time>
                                                <extensions>
                            <sog>5.4</sog>
<cog>348.3</cog>
                        </extensions>
                    </trkpt>
                    <trkpt lat="54.57279166666667" lon="10.248173333333334">
                        <ele>0</ele>
                        <time>2022-08-18T07:59:53Z</time>
                                                <extensions>
                            <sog>6.0</sog>
<cog>351.4</cog>
                        </extensions>
                    </trkpt>
                    <trkpt lat="54.57357666666667" lon="10.247941666666666">
                        <ele>0</ele>
                        <time>2022-08-18T08:00:20Z</time>
                                                <extensions>
                            <sog>6.0</sog>
<cog>349.2</cog>
                        </extensions>
                    </trkpt>
                    <trkpt lat="54.57357666666667" lon="10.247941666666666">
                        <ele>0</ele>
                        <time>2022-08-18T08:00:20Z</time>
                                                <extensions>
                            <sog>6.0</sog>
<cog>349.2</cog>
                        </extensions>
                    </trkpt>
                    <trkpt lat="54.574394999999996" lon="10.247635">
                        <ele>0</ele>
                        <time>2022-08-18T08:00:52Z</time>
                                                <extensions>
                            <sog>5.1</sog>
<cog>347.5</cog>
                        </extensions>
                    </trkpt>
                    <trkpt lat="54.574394999999996" lon="10.247635">
                        <ele>0</ele>
                        <time>2022-08-18T08:00:52Z</time>
                                                <extensions>
                            <sog>5.1</sog>
<cog>347.5</cog>
                        </extensions>
                    </trkpt>
                    <trkpt lat="54.57504666666667" lon="10.247371666666668">
                        <ele>0</ele>
                        <time>2022-08-18T08:01:20Z</time>
                                                <extensions>
                            <sog>5.5</sog>
<cog>351.2</cog>
                        </extensions>
                    </trkpt>
                    <trkpt lat="54.576368333333335" lon="10.246843333333334">
                        <ele>0</ele>
                        <time>2022-08-18T08:02:20Z</time>
                                                <extensions>
                            <sog>4.8</sog>
<cog>349.5</cog>
                        </extensions>
                    </trkpt>
                    <trkpt lat="54.577083333333334" lon="10.246598333333333">
                        <ele>0</ele>
                        <time>2022-08-18T08:02:52Z</time>
                                                <extensions>
                            <sog>4.8</sog>
<cog>347.6</cog>
                        </extensions>
                    </trkpt>
                    <trkpt lat="54.577688333333334" lon="10.246361666666667">
                        <ele>0</ele>
                        <time>2022-08-18T08:03:20Z</time>
                                                <extensions>
                            <sog>4.9</sog>
<cog>349.2</cog>
                        </extensions>
                    </trkpt>
                    <trkpt lat="54.57903666666667" lon="10.245856666666667">
                        <ele>0</ele>
                        <time>2022-08-18T08:04:20Z</time>
                                                <extensions>
                            <sog>4.9</sog>
<cog>345.3</cog>
                        </extensions>
                    </trkpt>
                    <trkpt lat="54.579730000000005" lon="10.24562">
                        <ele>0</ele>
                        <time>2022-08-18T08:04:52Z</time>
                                                <extensions>
                            <sog>4.6</sog>
<cog>348.0</cog>
                        </extensions>
                    </trkpt>
                    <trkpt lat="54.58242833333334" lon="10.244603333333334">
                        <ele>0</ele>
                        <time>2022-08-18T08:06:51Z</time>
                                                <extensions>
                            <sog>4.9</sog>
<cog>347.7</cog>
                        </extensions>
                    </trkpt>
                    <trkpt lat="54.58380833333333" lon="10.24406">
                        <ele>0</ele>
                        <time>2022-08-18T08:07:51Z</time>
                                                <extensions>
                            <sog>5.0</sog>
<cog>349.1</cog>
                        </extensions>
                    </trkpt>
                    <trkpt lat="54.58443666666667" lon="10.243788333333333">
                        <ele>0</ele>
                        <time>2022-08-18T08:08:20Z</time>
                                                <extensions>
                            <sog>5.0</sog>
<cog>340.9</cog>
                        </extensions>
                    </trkpt>
                    <trkpt lat="54.58577666666667" lon="10.243201666666666">
                        <ele>0</ele>
                        <time>2022-08-18T08:09:19Z</time>
                                                <extensions>
                            <sog>5.1</sog>
<cog>347.3</cog>
                        </extensions>
                    </trkpt>
                    <trkpt lat="54.587853333333335" lon="10.242375000000001">
                        <ele>0</ele>
                        <time>2022-08-18T08:10:51Z</time>
                                                <extensions>
                            <sog>4.9</sog>
<cog>347.9</cog>
                        </extensions>
                    </trkpt>
                    <trkpt lat="54.589185" lon="10.241823333333334">
                        <ele>0</ele>
                        <time>2022-08-18T08:11:51Z</time>
                                                <extensions>
                            <sog>4.9</sog>
<cog>348.4</cog>
                        </extensions>
                    </trkpt>
                    <trkpt lat="54.58982666666667" lon="10.241555">
                        <ele>0</ele>
                        <time>2022-08-18T08:12:19Z</time>
                                                <extensions>
                            <sog>5.0</sog>
<cog>346.8</cog>
                        </extensions>
                    </trkpt>
                    <trkpt lat="54.590493333333335" lon="10.241285">
                        <ele>0</ele>
                        <time>2022-08-18T08:12:51Z</time>
                                                <extensions>
                            <sog>4.7</sog>
<cog>347.9</cog>
                        </extensions>
                    </trkpt>
                    <trkpt lat="54.593028333333336" lon="10.240315">
                        <ele>0</ele>
                        <time>2022-08-18T08:14:51Z</time>
                                                <extensions>
                            <sog>4.6</sog>
<cog>349.7</cog>
                        </extensions>
                    </trkpt>
                    <trkpt lat="54.594926666666666" lon="10.239608333333333">
                        <ele>0</ele>
                        <time>2022-08-18T08:16:19Z</time>
                                                <extensions>
                            <sog>5.1</sog>
<cog>349.1</cog>
                        </extensions>
                    </trkpt>
                    <trkpt lat="54.59898166666667" lon="10.23814">
                        <ele>0</ele>
                        <time>2022-08-18T08:19:20Z</time>
                                                <extensions>
                            <sog>5.1</sog>
<cog>348.7</cog>
                        </extensions>
                    </trkpt>
                    <trkpt lat="54.60342833333333" lon="10.236333333333333">
                        <ele>0</ele>
                        <time>2022-08-18T08:22:49Z</time>
                                                <extensions>
                            <sog>4.5</sog>
<cog>344.3</cog>
                        </extensions>
                    </trkpt>
                    <trkpt lat="54.604011666666665" lon="10.236089999999999">
                        <ele>0</ele>
                        <time>2022-08-18T08:23:19Z</time>
                                                <extensions>
                            <sog>4.3</sog>
<cog>346.6</cog>
                        </extensions>
                    </trkpt>
                    <trkpt lat="54.60771666666667" lon="10.234631666666667">
                        <ele>0</ele>
                        <time>2022-08-18T08:26:22Z</time>
                                                <extensions>
                            <sog>4.3</sog>
<cog>348.9</cog>
                        </extensions>
                    </trkpt>
                    <trkpt lat="54.60828" lon="10.234381666666668">
                        <ele>0</ele>
                        <time>2022-08-18T08:26:50Z</time>
                                                <extensions>
                            <sog>4.2</sog>
<cog>344.9</cog>
                        </extensions>
                    </trkpt>
                    <trkpt lat="54.61067666666667" lon="10.2335">
                        <ele>0</ele>
                        <time>2022-08-18T08:28:50Z</time>
                                                <extensions>
                            <sog>4.7</sog>
<cog>349.3</cog>
                        </extensions>
                    </trkpt>
                    <trkpt lat="54.61503833333334" lon="10.231841666666666">
                        <ele>0</ele>
                        <time>2022-08-18T08:32:22Z</time>
                                                <extensions>
                            <sog>4.6</sog>
<cog>348.6</cog>
                        </extensions>
                    </trkpt>
                    <trkpt lat="54.61557166666667" lon="10.23164">
                        <ele>0</ele>
                        <time>2022-08-18T08:32:49Z</time>
                                                <extensions>
                            <sog>4.6</sog>
<cog>346.2</cog>
                        </extensions>
                    </trkpt>
                    <trkpt lat="54.61925833333333" lon="10.230258333333333">
                        <ele>0</ele>
                        <time>2022-08-18T08:35:49Z</time>
                                                <extensions>
                            <sog>4.4</sog>
<cog>348.7</cog>
                        </extensions>
                    </trkpt>
                    <trkpt lat="54.627035" lon="10.227319999999999">
                        <ele>0</ele>
                        <time>2022-08-18T08:42:20Z</time>
                                                <extensions>
                            <sog>4.6</sog>
<cog>347.9</cog>
                        </extensions>
                    </trkpt>
                    <trkpt lat="54.628256666666665" lon="10.226906666666668">
                        <ele>0</ele>
                        <time>2022-08-18T08:43:20Z</time>
                                                <extensions>
                            <sog>4.7</sog>
<cog>349.4</cog>
                        </extensions>
                    </trkpt>
                    </trkseg>
                </trk>
</gpx>