<?xml version="1.0" encoding="UTF-8"?>
<gpx version="1.1" creator="AIS-to-GPX Converter" xmlns="http://www.topografix.com/GPX/1/1">
                <trk>
                    <name>anon0402</name>
                    <trkseg>
                                            <trkpt lat="54.454543333333326" lon="10.237388333333334">
                        <ele>0</ele>
                        <time>2022-08-18T13:48:15Z</time>
                                                <extensions>
                            <sog>7.0</sog>
<cog>212.2</cog>
                        </extensions>
                    </trkpt>
                    <trkpt lat="54.44466666666666" lon="10.226998333333334">
                        <ele>0</ele>
                        <time>2022-08-18T13:54:14Z</time>
                                                <extensions>
                            <sog>6.9</sog>
<cog>210.5</cog>
                        </extensions>
                    </trkpt>
                    <trkpt lat="54.43980333333333" lon="10.222016666666667">
                        <ele>0</ele>
                        <time>2022-08-18T13:57:16Z</time>
                                                <extensions>
                            <sog>7.1</sog>
<cog>211.3</cog>
                        </extensions>
                    </trkpt>
                    <trkpt lat="54.438959999999994" lon="10.221116666666667">
                        <ele>0</ele>
                        <time>2022-08-18T13:57:46Z</time>
                                                <extensions>
                            <sog>7.4</sog>
<cog>211.5</cog>
                        </extensions>
                    </trkpt>
                    <trkpt lat="54.43642333333333" lon="10.218423333333334">
                        <ele>0</ele>
                        <time>2022-08-18T13:59:15Z</time>
                                                <extensions>
                            <sog>7.3</sog>
<cog>212.6</cog>
                        </extensions>
                    </trkpt>
                    <trkpt lat="54.43290833333333" lon="10.215243333333332">
                        <ele>0</ele>
                        <time>2022-08-18T14:01:14Z</time>
                                                <extensions>
                            <sog>7.3</sog>
<cog>203.5</cog>
                        </extensions>
                    </trkpt>
                    <trkpt lat="54.431105" lon="10.213876666666666">
                        <ele>0</ele>
                        <time>2022-08-18T14:02:13Z</time>
                                                <extensions>
                            <sog>7.3</sog>
<cog>203.4</cog>
                        </extensions>
                    </trkpt>
                    <trkpt lat="54.43014333333333" lon="10.213181666666665">
                        <ele>0</ele>
                        <time>2022-08-18T14:02:44Z</time>
                                                <extensions>
                            <sog>7.4</sog>
<cog>203.0</cog>
                        </extensions>
                    </trkpt>
                    <trkpt lat="54.427553333333336" lon="10.2113">
                        <ele>0</ele>
                        <time>2022-08-18T14:04:14Z</time>
                                                <extensions>
                            <sog>6.7</sog>
<cog>199.3</cog>
                        </extensions>
                    </trkpt>
                    <trkpt lat="54.42662666666667" lon="10.210759999999999">
                        <ele>0</ele>
                        <time>2022-08-18T14:04:46Z</time>
                                                <extensions>
                            <sog>6.6</sog>
<cog>200.3</cog>
                        </extensions>
                    </trkpt>
                    <trkpt lat="54.42411666666667" lon="10.209091666666666">
                        <ele>0</ele>
                        <time>2022-08-18T14:06:14Z</time>
                                                <extensions>
                            <sog>6.5</sog>
<cog>199.7</cog>
                        </extensions>
                    </trkpt>
                    <trkpt lat="54.42326666666667" lon="10.208561666666666">
                        <ele>0</ele>
                        <time>2022-08-18T14:06:44Z</time>
                                                <extensions>
                            <sog>6.5</sog>
<cog>199.1</cog>
                        </extensions>
                    </trkpt>
                    <trkpt lat="54.422415" lon="10.208083333333333">
                        <ele>0</ele>
                        <time>2022-08-18T14:07:14Z</time>
                                                <extensions>
                            <sog>6.6</sog>
<cog>194.7</cog>
                        </extensions>
                    </trkpt>
                    <trkpt lat="54.42155" lon="10.207683333333334">
                        <ele>0</ele>
                        <time>2022-08-18T14:07:44Z</time>
                                                <extensions>
                            <sog>6.4</sog>
<cog>194.2</cog>
                        </extensions>
                    </trkpt>
                    <trkpt lat="54.420575" lon="10.207258333333334">
                        <ele>0</ele>
                        <time>2022-08-18T14:08:17Z</time>
                                                <extensions>
                            <sog>6.7</sog>
<cog>193.9</cog>
                        </extensions>
                    </trkpt>
                    <trkpt lat="54.419758333333334" lon="10.206888333333334">
                        <ele>0</ele>
                        <time>2022-08-18T14:08:44Z</time>
                                                <extensions>
                            <sog>6.7</sog>
<cog>194.1</cog>
                        </extensions>
                    </trkpt>
                    <trkpt lat="54.41883666666667" lon="10.206543333333334">
                        <ele>0</ele>
                        <time>2022-08-18T14:09:14Z</time>
                                                <extensions>
                            <sog>6.8</sog>
<cog>189.9</cog>
                        </extensions>
                    </trkpt>
                    <trkpt lat="54.41701333333333" lon="10.205963333333333">
                        <ele>0</ele>
                        <time>2022-08-18T14:10:13Z</time>
                                                <extensions>
                            <sog>6.8</sog>
<cog>189.7</cog>
                        </extensions>
                    </trkpt>
                    <trkpt lat="54.416045000000004" lon="10.205705">
                        <ele>0</ele>
                        <time>2022-08-18T14:10:44Z</time>
                                                <extensions>
                            <sog>6.8</sog>
<cog>188.7</cog>
                        </extensions>
                    </trkpt>
                    <trkpt lat="54.41511833333333" lon="10.205455">
                        <ele>0</ele>
                        <time>2022-08-18T14:11:14Z</time>
                                                <extensions>
                            <sog>6.8</sog>
<cog>189.2</cog>
                        </extensions>
                    </trkpt>
                    <trkpt lat="54.414085" lon="10.2052">
                        <ele>0</ele>
                        <time>2022-08-18T14:11:47Z</time>
                                                <extensions>
                            <sog>6.9</sog>
<cog>188.6</cog>
                        </extensions>
                    </trkpt>
                    <trkpt lat="54.41316666666667" lon="10.204955">
                        <ele>0</ele>
                        <time>2022-08-18T14:12:16Z</time>
                                                <extensions>
                            <sog>6.8</sog>
<cog>188.0</cog>
                        </extensions>
                    </trkpt>
                    <trkpt lat="54.41224166666667" lon="10.204678333333334">
                        <ele>0</ele>
                        <time>2022-08-18T14:12:46Z</time>
                                                <extensions>
                            <sog>6.8</sog>
<cog>188.9</cog>
                        </extensions>
                    </trkpt>
                    <trkpt lat="54.41133166666667" lon="10.204460000000001">
                        <ele>0</ele>
                        <time>2022-08-18T14:13:15Z</time>
                                                <extensions>
                            <sog>6.9</sog>
<cog>187.4</cog>
                        </extensions>
                    </trkpt>
                    <trkpt lat="54.409465" lon="10.203998333333335">
                        <ele>0</ele>
                        <time>2022-08-18T14:14:14Z</time>
                                                <extensions>
                            <sog>7.0</sog>
<cog>187.4</cog>
                        </extensions>
                    </trkpt>
                    <trkpt lat="54.407619999999994" lon="10.204651666666667">
                        <ele>0</ele>
                        <time>2022-08-18T14:15:14Z</time>
                                                <extensions>
                            <sog>7.4</sog>
<cog>144.7</cog>
                        </extensions>
                    </trkpt>
                    <trkpt lat="54.406285000000004" lon="10.207276666666667">
                        <ele>0</ele>
                        <time>2022-08-18T14:16:14Z</time>
                                                <extensions>
                            <sog>7.2</sog>
<cog>128.0</cog>
                        </extensions>
                    </trkpt>
                    <trkpt lat="54.405051666666665" lon="10.209915">
                        <ele>0</ele>
                        <time>2022-08-18T14:17:14Z</time>
                                                <extensions>
                            <sog>7.0</sog>
<cog>128.7</cog>
                        </extensions>
                    </trkpt>
                    <trkpt lat="54.40371666666667" lon="10.212208333333333">
                        <ele>0</ele>
                        <time>2022-08-18T14:18:14Z</time>
                                                <extensions>
                            <sog>6.3</sog>
<cog>141.4</cog>
                        </extensions>
                    </trkpt>
                    <trkpt lat="54.40338" lon="10.21494">
                        <ele>0</ele>
                        <time>2022-08-18T14:59:14Z</time>
                                                <extensions>
                            <sog>3.0</sog>
<cog>280.8</cog>
                        </extensions>
                    </trkpt>
                    <trkpt lat="54.40363333333333" lon="10.213371666666665">
                        <ele>0</ele>
                        <time>2022-08-18T15:01:14Z</time>
                                                <extensions>
                            <sog>2.6</sog>
<cog>287.3</cog>
                        </extensions>
                    </trkpt>
                    <trkpt lat="54.402251666666665" lon="10.213873333333334">
                        <ele>0</ele>
                        <time>2022-08-18T15:04:16Z</time>
                                                <extensions>
                            <sog>1.9</sog>
<cog>136.9</cog>
                        </extensions>
                    </trkpt>
                    <trkpt lat="54.400875" lon="10.21284">
                        <ele>0</ele>
                        <time>2022-08-18T15:09:44Z</time>
                                                <extensions>
                            <sog>0.9</sog>
<cog>37.7</cog>
                        </extensions>
                    </trkpt>
                    <trkpt lat="54.400951666666664" lon="10.212985">
                        <ele>0</ele>
                        <time>2022-08-18T15:19:16Z</time>
                                                <extensions>
                            <sog>0.0</sog>
<cog>45.3</cog>
                        </extensions>
                    </trkpt>
                    <trkpt lat="54.40091666666667" lon="10.212981666666668">
                        <ele>0</ele>
                        <time>2022-08-18T15:37:14Z</time>
                                                <extensions>
                            <sog>0.0</sog>
<cog>45.3</cog>
                        </extensions>
                    </trkpt>
                    <trkpt lat="54.40092666666667" lon="10.212985">
                        <ele>0</ele>
                        <time>2022-08-18T15:43:15Z</time>
                                                <extensions>
                            <sog>0.0</sog>
<cog>45.3</cog>
                        </extensions>
                    </trkpt>
                    <trkpt lat="54.40092666666667" lon="10.212991666666666">
                        <ele>0</ele>
                        <time>2022-08-18T15:46:15Z</time>
                                                <extensions>
                            <sog>0.0</sog>
<cog>45.3</cog>
                        </extensions>
                    </trkpt>
                    <trkpt lat="54.400915000000005" lon="10.212985">
                        <ele>0</ele>
                        <time>2022-08-18T15:55:14Z</time>
                                                <extensions>
                            <sog>0.0</sog>
<cog>45.3</cog>
                        </extensions>
                    </trkpt>
                    <trkpt lat="54.400925" lon="10.213">
                        <ele>0</ele>
                        <time>2022-08-18T15:58:15Z</time>
                                                <extensions>
                            <sog>0.0</sog>
<cog>45.3</cog>
                        </extensions>
                    </trkpt>
                    <trkpt lat="54.40092333333334" lon="10.212978333333332">
                        <ele>0</ele>
                        <time>2022-08-18T16:10:15Z</time>
                                                <extensions>
                            <sog>0.0</sog>
<cog>45.3</cog>
                        </extensions>
                    </trkpt>
                    <trkpt lat="54.40092833333333" lon="10.212993333333333">
                        <ele>0</ele>
                        <time>2022-08-18T16:13:15Z</time>
                                                <extensions>
                            <sog>0.0</sog>
<cog>45.3</cog>
                        </extensions>
                    </trkpt>
                    <trkpt lat="54.400933333333334" lon="10.212995000000001">
                        <ele>0</ele>
                        <time>2022-08-18T16:16:14Z</time>
                                                <extensions>
                            <sog>0.0</sog>
<cog>40.0</cog>
                        </extensions>
                    </trkpt>
                    <trkpt lat="54.400925" lon="10.21301">
                        <ele>0</ele>
                        <time>2022-08-18T16:22:14Z</time>
                                                <extensions>
                            <sog>0.0</sog>
<cog>40.0</cog>
                        </extensions>
                    </trkpt>
                    <trkpt lat="54.40092666666667" lon="10.213006666666667">
                        <ele>0</ele>
                        <time>2022-08-18T16:25:14Z</time>
                                                <extensions>
                            <sog>0.0</sog>
<cog>40.0</cog>
                        </extensions>
                    </trkpt>
                    <trkpt lat="54.400935" lon="10.212995000000001">
                        <ele>0</ele>
                        <time>2022-08-18T16:37:16Z</time>
                                                <extensions>
                            <sog>0.0</sog>
<cog>40.0</cog>
                        </extensions>
                    </trkpt>
                    <trkpt lat="54.400938333333336" lon="10.212995000000001">
                        <ele>0</ele>
                        <time>2022-08-18T16:43:14Z</time>
                                                <extensions>
                            <sog>0.0</sog>
<cog>40.0</cog>
                        </extensions>
                    </trkpt>
                    <trkpt lat="54.40093" lon="10.213">
                        <ele>0</ele>
                        <time>2022-08-18T16:52:15Z</time>
                                                <extensions>
                            <sog>0.0</sog>
<cog>40.0</cog>
                        </extensions>
                    </trkpt>
                    <trkpt lat="54.40094666666666" lon="10.212995000000001">
                        <ele>0</ele>
                        <time>2022-08-18T16:58:14Z</time>
                                                <extensions>
                            <sog>0.0</sog>
<cog>40.0</cog>
                        </extensions>
                    </trkpt>
                    <trkpt lat="54.400953333333334" lon="10.212985">
                        <ele>0</ele>
                        <time>2022-08-18T17:01:14Z</time>
                                                <extensions>
                            <sog>0.0</sog>
<cog>40.0</cog>
                        </extensions>
                    </trkpt>
                    <trkpt lat="54.40094166666667" lon="10.212968333333333">
                        <ele>0</ele>
                        <time>2022-08-18T17:19:14Z</time>
                                                <extensions>
                            <sog>0.0</sog>
<cog>40.0</cog>
                        </extensions>
                    </trkpt>
                    <trkpt lat="54.400933333333334" lon="10.212941666666667">
                        <ele>0</ele>
                        <time>2022-08-18T17:34:15Z</time>
                                                <extensions>
                            <sog>0.0</sog>
<cog>75.7</cog>
                        </extensions>
                    </trkpt>
                    <trkpt lat="54.40094" lon="10.212923333333332">
                        <ele>0</ele>
                        <time>2022-08-18T17:46:16Z</time>
                                                <extensions>
                            <sog>0.0</sog>
<cog>75.7</cog>
                        </extensions>
                    </trkpt>
                    <trkpt lat="54.40093666666667" lon="10.212975">
                        <ele>0</ele>
                        <time>2022-08-18T18:04:15Z</time>
                                                <extensions>
                            <sog>0.0</sog>
<cog>75.7</cog>
                        </extensions>
                    </trkpt>
                    <trkpt lat="54.400945" lon="10.212971666666666">
                        <ele>0</ele>
                        <time>2022-08-18T19:16:16Z</time>
                                                <extensions>
                            <sog>0.0</sog>
<cog>75.7</cog>
                        </extensions>
                    </trkpt>
                    <trkpt lat="54.40094333333333" lon="10.212986666666666">
                        <ele>0</ele>
                        <time>2022-08-18T19:28:14Z</time>
                                                <extensions>
                            <sog>0.0</sog>
<cog>75.7</cog>
                        </extensions>
                    </trkpt>
                    <trkpt lat="54.40094333333333" lon="10.212981666666668">
                        <ele>0</ele>
                        <time>2022-08-18T19:34:15Z</time>
                                                <extensions>
                            <sog>0.0</sog>
<cog>75.7</cog>
                        </extensions>
                    </trkpt>
                    <trkpt lat="54.40094666666666" lon="10.212951666666667">
                        <ele>0</ele>
                        <time>2022-08-18T20:04:15Z</time>
                                                <extensions>
                            <sog>0.0</sog>
<cog>82.5</cog>
                        </extensions>
                    </trkpt>
                    <trkpt lat="54.400925" lon="10.21299">
                        <ele>0</ele>
                        <time>2022-08-18T20:40:18Z</time>
                                                <extensions>
                            <sog>0.0</sog>
<cog>87.1</cog>
                        </extensions>
                    </trkpt>
                    </trkseg>
                </trk>
</gpx>