<?xml version="1.0" encoding="UTF-8"?>
<gpx version="1.1" creator="AIS-to-GPX Converter" xmlns="http://www.topografix.com/GPX/1/1">
                <trk>
                    <name>anon0317</name>
                    <trkseg>
                                            <trkpt lat="54.32955166666667" lon="10.171796666666667">
                        <ele>0</ele>
                        <time>2022-08-18T16:43:02Z</time>
                        <extensions>
    <sog>0.2</sog>
</extensions>
                    </trkpt>
                    <trkpt lat="54.329543333333326" lon="10.171798333333333">
                        <ele>0</ele>
                        <time>2022-08-18T16:43:32Z</time>
                                                <extensions>
                            <sog>0.2</sog>
<cog>96.6</cog>
                        </extensions>
                    </trkpt>
                    <trkpt lat="54.329539999999994" lon="10.171773333333334">
                        <ele>0</ele>
                        <time>2022-08-18T16:44:01Z</time>
                                                <extensions>
                            <sog>0.3</sog>
<cog>96.6</cog>
                        </extensions>
                    </trkpt>
                    <trkpt lat="54.329541666666664" lon="10.171825">
                        <ele>0</ele>
                        <time>2022-08-18T16:44:32Z</time>
                                                <extensions>
                            <sog>0.3</sog>
<cog>96.6</cog>
                        </extensions>
                    </trkpt>
                    <trkpt lat="54.329545" lon="10.171835">
                        <ele>0</ele>
                        <time>2022-08-18T16:45:02Z</time>
                                                <extensions>
                            <sog>0.3</sog>
<cog>96.6</cog>
                        </extensions>
                    </trkpt>
                    <trkpt lat="54.32956" lon="10.17183">
                        <ele>0</ele>
                        <time>2022-08-18T16:45:32Z</time>
                                                <extensions>
                            <sog>0.2</sog>
<cog>96.6</cog>
                        </extensions>
                    </trkpt>
                    <trkpt lat="54.32956" lon="10.1718">
                        <ele>0</ele>
                        <time>2022-08-18T16:46:03Z</time>
                                                <extensions>
                            <sog>0.1</sog>
<cog>96.6</cog>
                        </extensions>
                    </trkpt>
                    <trkpt lat="54.32955333333334" lon="10.171783333333334">
                        <ele>0</ele>
                        <time>2022-08-18T16:49:37Z</time>
                                                <extensions>
                            <sog>0.1</sog>
<cog>96.6</cog>
                        </extensions>
                    </trkpt>
                    <trkpt lat="54.32951166666667" lon="10.171791666666667">
                        <ele>0</ele>
                        <time>2022-08-18T16:55:34Z</time>
                                                <extensions>
                            <sog>0.1</sog>
<cog>96.6</cog>
                        </extensions>
                    </trkpt>
                    <trkpt lat="54.329555" lon="10.171788333333334">
                        <ele>0</ele>
                        <time>2022-08-18T17:01:32Z</time>
                                                <extensions>
                            <sog>0.1</sog>
<cog>137.8</cog>
                        </extensions>
                    </trkpt>
                    </trkseg>
                </trk>
</gpx>