<?xml version="1.0" encoding="UTF-8"?>
<gpx version="1.1" creator="AIS-to-GPX Converter" xmlns="http://www.topografix.com/GPX/1/1">
                <trk>
                    <name>anon0505</name>
                    <trkseg>
                                            <trkpt lat="54.68075833333333" lon="10.781894999999999">
                        <ele>0</ele>
                        <time>2022-08-18T12:59:17Z</time>
                                                <extensions>
                            <sog>11.6</sog>
<cog>321.0</cog>
                        </extensions>
                    </trkpt>
                    <trkpt lat="54.680886666666666" lon="10.781736666666665">
                        <ele>0</ele>
                        <time>2022-08-18T12:59:20Z</time>
                                                <extensions>
                            <sog>11.6</sog>
<cog>321.0</cog>
                        </extensions>
                    </trkpt>
                    <trkpt lat="54.683303333333335" lon="10.779356666666667">
                        <ele>0</ele>
                        <time>2022-08-18T13:00:12Z</time>
                                                <extensions>
                            <sog>11.3</sog>
<cog>332.0</cog>
                        </extensions>
                    </trkpt>
                    <trkpt lat="54.683303333333335" lon="10.779356666666667">
                        <ele>0</ele>
                        <time>2022-08-18T13:00:12Z</time>
                                                <extensions>
                            <sog>11.3</sog>
<cog>332.0</cog>
                        </extensions>
                    </trkpt>
                    <trkpt lat="54.68489833333333" lon="10.778365">
                        <ele>0</ele>
                        <time>2022-08-18T13:00:46Z</time>
                                                <extensions>
                            <sog>11.1</sog>
<cog>340.0</cog>
                        </extensions>
                    </trkpt>
                    <trkpt lat="54.68489833333333" lon="10.778365">
                        <ele>0</ele>
                        <time>2022-08-18T13:00:46Z</time>
                                                <extensions>
                            <sog>11.1</sog>
<cog>340.0</cog>
                        </extensions>
                    </trkpt>
                    <trkpt lat="54.685143333333336" lon="10.778246666666666">
                        <ele>0</ele>
                        <time>2022-08-18T13:00:50Z</time>
                                                <extensions>
                            <sog>11.1</sog>
<cog>341.0</cog>
                        </extensions>
                    </trkpt>
                    <trkpt lat="54.685143333333336" lon="10.778246666666666">
                        <ele>0</ele>
                        <time>2022-08-18T13:00:50Z</time>
                                                <extensions>
                            <sog>11.1</sog>
<cog>341.0</cog>
                        </extensions>
                    </trkpt>
                    <trkpt lat="54.689105000000005" lon="10.777496666666668">
                        <ele>0</ele>
                        <time>2022-08-18T13:02:10Z</time>
                                                <extensions>
                            <sog>10.8</sog>
<cog>358.0</cog>
                        </extensions>
                    </trkpt>
                    <trkpt lat="54.70377333333333" lon="10.777298333333333">
                        <ele>0</ele>
                        <time>2022-08-18T13:06:59Z</time>
                                                <extensions>
                            <sog>11.3</sog>
<cog>359.0</cog>
                        </extensions>
                    </trkpt>
                    <trkpt lat="54.725743333333334" lon="10.778678333333334">
                        <ele>0</ele>
                        <time>2022-08-18T13:13:50Z</time>
                                                <extensions>
                            <sog>11.8</sog>
<cog>5.0</cog>
                        </extensions>
                    </trkpt>
                    <trkpt lat="54.729016666666666" lon="10.779181666666666">
                        <ele>0</ele>
                        <time>2022-08-18T13:14:50Z</time>
                                                <extensions>
                            <sog>11.9</sog>
<cog>5.0</cog>
                        </extensions>
                    </trkpt>
                    <trkpt lat="54.73061166666666" lon="10.779386666666666">
                        <ele>0</ele>
                        <time>2022-08-18T13:15:19Z</time>
                                                <extensions>
                            <sog>11.9</sog>
<cog>4.0</cog>
                        </extensions>
                    </trkpt>
                    <trkpt lat="54.73072166666667" lon="10.779403333333333">
                        <ele>0</ele>
                        <time>2022-08-18T13:15:20Z</time>
                                                <extensions>
                            <sog>11.9</sog>
<cog>4.0</cog>
                        </extensions>
                    </trkpt>
                    <trkpt lat="54.73072166666667" lon="10.779403333333333">
                        <ele>0</ele>
                        <time>2022-08-18T13:15:21Z</time>
                                                <extensions>
                            <sog>11.9</sog>
<cog>4.0</cog>
                        </extensions>
                    </trkpt>
                    <trkpt lat="54.730884999999994" lon="10.77943">
                        <ele>0</ele>
                        <time>2022-08-18T13:15:24Z</time>
                                                <extensions>
                            <sog>11.9</sog>
<cog>4.0</cog>
                        </extensions>
                    </trkpt>
                    <trkpt lat="54.731213333333336" lon="10.779488333333335">
                        <ele>0</ele>
                        <time>2022-08-18T13:15:29Z</time>
                                                <extensions>
                            <sog>11.9</sog>
<cog>5.0</cog>
                        </extensions>
                    </trkpt>
                    <trkpt lat="54.73143166666667" lon="10.779531666666665">
                        <ele>0</ele>
                        <time>2022-08-18T13:15:33Z</time>
                                                <extensions>
                            <sog>11.9</sog>
<cog>5.0</cog>
                        </extensions>
                    </trkpt>
                    <trkpt lat="54.731541666666665" lon="10.779554999999998">
                        <ele>0</ele>
                        <time>2022-08-18T13:15:36Z</time>
                                                <extensions>
                            <sog>11.9</sog>
<cog>5.0</cog>
                        </extensions>
                    </trkpt>
                    <trkpt lat="54.73332166666667" lon="10.780100000000001">
                        <ele>0</ele>
                        <time>2022-08-18T13:16:09Z</time>
                                                <extensions>
                            <sog>11.9</sog>
<cog>10.0</cog>
                        </extensions>
                    </trkpt>
                    <trkpt lat="54.733533333333334" lon="10.780194999999999">
                        <ele>0</ele>
                        <time>2022-08-18T13:16:13Z</time>
                                                <extensions>
                            <sog>11.9</sog>
<cog>11.0</cog>
                        </extensions>
                    </trkpt>
                    <trkpt lat="54.80036666666667" lon="10.830905">
                        <ele>0</ele>
                        <time>2022-08-18T13:37:50Z</time>
                                                <extensions>
                            <sog>12.4</sog>
<cog>17.0</cog>
                        </extensions>
                    </trkpt>
                    </trkseg>
                </trk>
</gpx>