<?xml version="1.0" encoding="UTF-8"?>
<gpx version="1.1" creator="AIS-to-GPX Converter" xmlns="http://www.topografix.com/GPX/1/1">
                <trk>
                    <name>anon0504</name>
                    <trkseg>
                                            <trkpt lat="54.663175" lon="10.834135">
                        <ele>0</ele>
                        <time>2022-08-18T13:19:11Z</time>
                                                <extensions>
                            <sog>12.4</sog>
<cog>296.3</cog>
                        </extensions>
                    </trkpt>
                    <trkpt lat="54.6654" lon="10.826146666666666">
                        <ele>0</ele>
                        <time>2022-08-18T13:20:41Z</time>
                                                <extensions>
                            <sog>12.4</sog>
<cog>295.3</cog>
                        </extensions>
                    </trkpt>
                    <trkpt lat="54.66691333333333" lon="10.82072">
                        <ele>0</ele>
                        <time>2022-08-18T13:21:43Z</time>
                                                <extensions>
                            <sog>12.4</sog>
<cog>295.5</cog>
                        </extensions>
                    </trkpt>
                    <trkpt lat="54.67082666666667" lon="10.806438333333334">
                        <ele>0</ele>
                        <time>2022-08-18T13:24:23Z</time>
                                                <extensions>
                            <sog>12.3</sog>
<cog>295.1</cog>
                        </extensions>
                    </trkpt>
                    <trkpt lat="54.67407166666667" lon="10.795015000000001">
                        <ele>0</ele>
                        <time>2022-08-18T13:26:33Z</time>
                                                <extensions>
                            <sog>12.2</sog>
<cog>296.9</cog>
                        </extensions>
                    </trkpt>
                    <trkpt lat="54.67500666666667" lon="10.791451666666667">
                        <ele>0</ele>
                        <time>2022-08-18T13:27:12Z</time>
                                                <extensions>
                            <sog>12.3</sog>
<cog>294.4</cog>
                        </extensions>
                    </trkpt>
                    <trkpt lat="54.675891666666665" lon="10.788995">
                        <ele>0</ele>
                        <time>2022-08-18T13:27:42Z</time>
                                                <extensions>
                            <sog>12.0</sog>
<cog>304.1</cog>
                        </extensions>
                    </trkpt>
                    <trkpt lat="54.67978333333333" lon="10.782913333333333">
                        <ele>0</ele>
                        <time>2022-08-18T13:29:21Z</time>
                                                <extensions>
                            <sog>11.6</sog>
<cog>319.2</cog>
                        </extensions>
                    </trkpt>
                    <trkpt lat="54.68028666666667" lon="10.782231666666666">
                        <ele>0</ele>
                        <time>2022-08-18T13:29:33Z</time>
                                                <extensions>
                            <sog>11.6</sog>
<cog>321.2</cog>
                        </extensions>
                    </trkpt>
                    <trkpt lat="54.681545" lon="10.780878333333334">
                        <ele>0</ele>
                        <time>2022-08-18T13:30:02Z</time>
                                                <extensions>
                            <sog>11.4</sog>
<cog>329.2</cog>
                        </extensions>
                    </trkpt>
                    <trkpt lat="54.681873333333336" lon="10.780608333333333">
                        <ele>0</ele>
                        <time>2022-08-18T13:30:09Z</time>
                                                <extensions>
                            <sog>11.3</sog>
<cog>331.8</cog>
                        </extensions>
                    </trkpt>
                    <trkpt lat="54.68206333333333" lon="10.780466666666666">
                        <ele>0</ele>
                        <time>2022-08-18T13:30:12Z</time>
                                                <extensions>
                            <sog>11.3</sog>
<cog>333.3</cog>
                        </extensions>
                    </trkpt>
                    <trkpt lat="54.682255000000005" lon="10.780333333333335">
                        <ele>0</ele>
                        <time>2022-08-18T13:30:15Z</time>
                                                <extensions>
                            <sog>11.2</sog>
<cog>334.7</cog>
                        </extensions>
                    </trkpt>
                    <trkpt lat="54.682496666666665" lon="10.78018">
                        <ele>0</ele>
                        <time>2022-08-18T13:30:21Z</time>
                                                <extensions>
                            <sog>11.2</sog>
<cog>336.5</cog>
                        </extensions>
                    </trkpt>
                    <trkpt lat="54.68396333333333" lon="10.779375">
                        <ele>0</ele>
                        <time>2022-08-18T13:30:52Z</time>
                                                <extensions>
                            <sog>11.1</sog>
<cog>343.3</cog>
                        </extensions>
                    </trkpt>
                    <trkpt lat="54.68451" lon="10.779175">
                        <ele>0</ele>
                        <time>2022-08-18T13:31:02Z</time>
                                                <extensions>
                            <sog>11.0</sog>
<cog>346.5</cog>
                        </extensions>
                    </trkpt>
                    <trkpt lat="54.68702" lon="10.778693333333333">
                        <ele>0</ele>
                        <time>2022-08-18T13:31:52Z</time>
                                                <extensions>
                            <sog>10.9</sog>
<cog>355.5</cog>
                        </extensions>
                    </trkpt>
                    <trkpt lat="54.68752333333334" lon="10.778653333333333">
                        <ele>0</ele>
                        <time>2022-08-18T13:32:01Z</time>
                                                <extensions>
                            <sog>10.9</sog>
<cog>356.6</cog>
                        </extensions>
                    </trkpt>
                    <trkpt lat="54.688028333333335" lon="10.778606666666667">
                        <ele>0</ele>
                        <time>2022-08-18T13:32:12Z</time>
                                                <extensions>
                            <sog>10.9</sog>
<cog>356.8</cog>
                        </extensions>
                    </trkpt>
                    <trkpt lat="54.68848333333334" lon="10.778585">
                        <ele>0</ele>
                        <time>2022-08-18T13:32:21Z</time>
                                                <extensions>
                            <sog>10.9</sog>
<cog>357.7</cog>
                        </extensions>
                    </trkpt>
                    <trkpt lat="54.689505000000004" lon="10.778511666666667">
                        <ele>0</ele>
                        <time>2022-08-18T13:32:41Z</time>
                                                <extensions>
                            <sog>11.0</sog>
<cog>357.8</cog>
                        </extensions>
                    </trkpt>
                    <trkpt lat="54.690015" lon="10.778478333333334">
                        <ele>0</ele>
                        <time>2022-08-18T13:32:51Z</time>
                                                <extensions>
                            <sog>11.0</sog>
<cog>357.9</cog>
                        </extensions>
                    </trkpt>
                    <trkpt lat="54.690525" lon="10.778453333333333">
                        <ele>0</ele>
                        <time>2022-08-18T13:33:01Z</time>
                                                <extensions>
                            <sog>11.1</sog>
<cog>358.3</cog>
                        </extensions>
                    </trkpt>
                    <trkpt lat="54.69108333333334" lon="10.778433333333334">
                        <ele>0</ele>
                        <time>2022-08-18T13:33:12Z</time>
                                                <extensions>
                            <sog>11.1</sog>
<cog>358.5</cog>
                        </extensions>
                    </trkpt>
                    <trkpt lat="54.69149" lon="10.778414999999999">
                        <ele>0</ele>
                        <time>2022-08-18T13:33:21Z</time>
                                                <extensions>
                            <sog>11.1</sog>
<cog>358.4</cog>
                        </extensions>
                    </trkpt>
                    <trkpt lat="54.693596666666664" lon="10.778288333333334">
                        <ele>0</ele>
                        <time>2022-08-18T13:34:01Z</time>
                                                <extensions>
                            <sog>11.2</sog>
<cog>357.8</cog>
                        </extensions>
                    </trkpt>
                    <trkpt lat="54.69416666666667" lon="10.778250000000002">
                        <ele>0</ele>
                        <time>2022-08-18T13:34:12Z</time>
                                                <extensions>
                            <sog>11.2</sog>
<cog>357.7</cog>
                        </extensions>
                    </trkpt>
                    <trkpt lat="54.694631666666666" lon="10.778226666666665">
                        <ele>0</ele>
                        <time>2022-08-18T13:34:21Z</time>
                                                <extensions>
                            <sog>11.3</sog>
<cog>357.9</cog>
                        </extensions>
                    </trkpt>
                    <trkpt lat="54.69524166666667" lon="10.778215">
                        <ele>0</ele>
                        <time>2022-08-18T13:34:33Z</time>
                                                <extensions>
                            <sog>11.3</sog>
<cog>358.3</cog>
                        </extensions>
                    </trkpt>
                    <trkpt lat="54.695656666666665" lon="10.778196666666666">
                        <ele>0</ele>
                        <time>2022-08-18T13:34:41Z</time>
                                                <extensions>
                            <sog>11.3</sog>
<cog>358.3</cog>
                        </extensions>
                    </trkpt>
                    <trkpt lat="54.69618" lon="10.778171666666667">
                        <ele>0</ele>
                        <time>2022-08-18T13:34:51Z</time>
                                                <extensions>
                            <sog>11.3</sog>
<cog>358.3</cog>
                        </extensions>
                    </trkpt>
                    <trkpt lat="54.69781" lon="10.778096666666666">
                        <ele>0</ele>
                        <time>2022-08-18T13:35:22Z</time>
                                                <extensions>
                            <sog>11.4</sog>
<cog>358.4</cog>
                        </extensions>
                    </trkpt>
                    <trkpt lat="54.69839" lon="10.778068333333332">
                        <ele>0</ele>
                        <time>2022-08-18T13:35:33Z</time>
                                                <extensions>
                            <sog>11.4</sog>
<cog>358.4</cog>
                        </extensions>
                    </trkpt>
                    <trkpt lat="54.69934333333333" lon="10.778018333333334">
                        <ele>0</ele>
                        <time>2022-08-18T13:35:51Z</time>
                                                <extensions>
                            <sog>11.4</sog>
<cog>358.3</cog>
                        </extensions>
                    </trkpt>
                    <trkpt lat="54.699873333333336" lon="10.777993333333335">
                        <ele>0</ele>
                        <time>2022-08-18T13:36:01Z</time>
                                                <extensions>
                            <sog>11.5</sog>
<cog>358.4</cog>
                        </extensions>
                    </trkpt>
                    <trkpt lat="54.70419833333334" lon="10.777841666666665">
                        <ele>0</ele>
                        <time>2022-08-18T13:37:22Z</time>
                                                <extensions>
                            <sog>11.6</sog>
<cog>358.8</cog>
                        </extensions>
                    </trkpt>
                    <trkpt lat="54.70521833333333" lon="10.777788333333332">
                        <ele>0</ele>
                        <time>2022-08-18T13:37:41Z</time>
                                                <extensions>
                            <sog>11.6</sog>
<cog>358.4</cog>
                        </extensions>
                    </trkpt>
                    <trkpt lat="54.705756666666666" lon="10.77776">
                        <ele>0</ele>
                        <time>2022-08-18T13:37:51Z</time>
                                                <extensions>
                            <sog>11.6</sog>
<cog>358.4</cog>
                        </extensions>
                    </trkpt>
                    <trkpt lat="54.70688666666667" lon="10.777716666666667">
                        <ele>0</ele>
                        <time>2022-08-18T13:38:12Z</time>
                                                <extensions>
                            <sog>11.7</sog>
<cog>358.8</cog>
                        </extensions>
                    </trkpt>
                    <trkpt lat="54.70742666666667" lon="10.777698333333332">
                        <ele>0</ele>
                        <time>2022-08-18T13:38:22Z</time>
                                                <extensions>
                            <sog>11.7</sog>
<cog>358.9</cog>
                        </extensions>
                    </trkpt>
                    <trkpt lat="54.709581666666665" lon="10.777623333333334">
                        <ele>0</ele>
                        <time>2022-08-18T13:39:02Z</time>
                                                <extensions>
                            <sog>11.7</sog>
<cog>358.7</cog>
                        </extensions>
                    </trkpt>
                    <trkpt lat="54.712835000000005" lon="10.777511666666667">
                        <ele>0</ele>
                        <time>2022-08-18T13:40:02Z</time>
                                                <extensions>
                            <sog>11.8</sog>
<cog>358.5</cog>
                        </extensions>
                    </trkpt>
                    <trkpt lat="54.71337833333334" lon="10.777486666666666">
                        <ele>0</ele>
                        <time>2022-08-18T13:40:12Z</time>
                                                <extensions>
                            <sog>11.8</sog>
<cog>358.5</cog>
                        </extensions>
                    </trkpt>
                    <trkpt lat="54.7277" lon="10.777535">
                        <ele>0</ele>
                        <time>2022-08-18T13:44:32Z</time>
                                                <extensions>
                            <sog>12.0</sog>
<cog>0.6</cog>
                        </extensions>
                    </trkpt>
                    <trkpt lat="54.72820166666667" lon="10.777584999999998">
                        <ele>0</ele>
                        <time>2022-08-18T13:44:42Z</time>
                                                <extensions>
                            <sog>12.0</sog>
<cog>2.3</cog>
                        </extensions>
                    </trkpt>
                    <trkpt lat="54.72875833333333" lon="10.77767">
                        <ele>0</ele>
                        <time>2022-08-18T13:44:52Z</time>
                                                <extensions>
                            <sog>12.0</sog>
<cog>4.0</cog>
                        </extensions>
                    </trkpt>
                    <trkpt lat="54.72936666666667" lon="10.777781666666668">
                        <ele>0</ele>
                        <time>2022-08-18T13:45:02Z</time>
                                                <extensions>
                            <sog>12.1</sog>
<cog>5.4</cog>
                        </extensions>
                    </trkpt>
                    <trkpt lat="54.73271" lon="10.77888">
                        <ele>0</ele>
                        <time>2022-08-18T13:46:03Z</time>
                                                <extensions>
                            <sog>12.0</sog>
<cog>14.9</cog>
                        </extensions>
                    </trkpt>
                    <trkpt lat="54.733183333333336" lon="10.77915">
                        <ele>0</ele>
                        <time>2022-08-18T13:46:12Z</time>
                                                <extensions>
                            <sog>12.0</sog>
<cog>16.8</cog>
                        </extensions>
                    </trkpt>
                    <trkpt lat="54.733705" lon="10.779461666666666">
                        <ele>0</ele>
                        <time>2022-08-18T13:46:22Z</time>
                                                <extensions>
                            <sog>12.0</sog>
<cog>18.2</cog>
                        </extensions>
                    </trkpt>
                    <trkpt lat="54.73422166666667" lon="10.779793333333334">
                        <ele>0</ele>
                        <time>2022-08-18T13:46:32Z</time>
                                                <extensions>
                            <sog>12.0</sog>
<cog>19.5</cog>
                        </extensions>
                    </trkpt>
                    <trkpt lat="54.73472833333334" lon="10.780155">
                        <ele>0</ele>
                        <time>2022-08-18T13:46:43Z</time>
                                                <extensions>
                            <sog>11.9</sog>
<cog>21.1</cog>
                        </extensions>
                    </trkpt>
                    <trkpt lat="54.735805" lon="10.78088">
                        <ele>0</ele>
                        <time>2022-08-18T13:47:03Z</time>
                                                <extensions>
                            <sog>11.9</sog>
<cog>21.3</cog>
                        </extensions>
                    </trkpt>
                    <trkpt lat="54.736261666666664" lon="10.781205">
                        <ele>0</ele>
                        <time>2022-08-18T13:47:12Z</time>
                                                <extensions>
                            <sog>11.9</sog>
<cog>22.0</cog>
                        </extensions>
                    </trkpt>
                    <trkpt lat="54.736765" lon="10.781578333333332">
                        <ele>0</ele>
                        <time>2022-08-18T13:47:22Z</time>
                                                <extensions>
                            <sog>11.9</sog>
<cog>22.7</cog>
                        </extensions>
                    </trkpt>
                    <trkpt lat="54.73782166666667" lon="10.782368333333332">
                        <ele>0</ele>
                        <time>2022-08-18T13:47:43Z</time>
                                                <extensions>
                            <sog>11.9</sog>
<cog>23.2</cog>
                        </extensions>
                    </trkpt>
                    <trkpt lat="54.738836666666664" lon="10.78312">
                        <ele>0</ele>
                        <time>2022-08-18T13:48:03Z</time>
                                                <extensions>
                            <sog>11.9</sog>
<cog>23.6</cog>
                        </extensions>
                    </trkpt>
                    <trkpt lat="54.73923666666667" lon="10.783431666666667">
                        <ele>0</ele>
                        <time>2022-08-18T13:48:12Z</time>
                                                <extensions>
                            <sog>11.9</sog>
<cog>23.7</cog>
                        </extensions>
                    </trkpt>
                    <trkpt lat="54.739738333333335" lon="10.783818333333333">
                        <ele>0</ele>
                        <time>2022-08-18T13:48:21Z</time>
                                                <extensions>
                            <sog>11.9</sog>
<cog>23.6</cog>
                        </extensions>
                    </trkpt>
                    <trkpt lat="54.740291666666664" lon="10.784236666666667">
                        <ele>0</ele>
                        <time>2022-08-18T13:48:32Z</time>
                                                <extensions>
                            <sog>11.9</sog>
<cog>23.4</cog>
                        </extensions>
                    </trkpt>
                    <trkpt lat="54.74084833333333" lon="10.78465">
                        <ele>0</ele>
                        <time>2022-08-18T13:48:43Z</time>
                                                <extensions>
                            <sog>11.9</sog>
<cog>23.2</cog>
                        </extensions>
                    </trkpt>
                    <trkpt lat="54.741255" lon="10.78495">
                        <ele>0</ele>
                        <time>2022-08-18T13:48:51Z</time>
                                                <extensions>
                            <sog>11.9</sog>
<cog>23.1</cog>
                        </extensions>
                    </trkpt>
                    <trkpt lat="54.741863333333335" lon="10.785393333333333">
                        <ele>0</ele>
                        <time>2022-08-18T13:49:03Z</time>
                                                <extensions>
                            <sog>11.9</sog>
<cog>22.8</cog>
                        </extensions>
                    </trkpt>
                    <trkpt lat="54.742778333333334" lon="10.786063333333335">
                        <ele>0</ele>
                        <time>2022-08-18T13:49:21Z</time>
                                                <extensions>
                            <sog>12.0</sog>
<cog>22.7</cog>
                        </extensions>
                    </trkpt>
                    <trkpt lat="54.74333333333333" lon="10.786483333333333">
                        <ele>0</ele>
                        <time>2022-08-18T13:49:32Z</time>
                                                <extensions>
                            <sog>12.0</sog>
<cog>23.1</cog>
                        </extensions>
                    </trkpt>
                    <trkpt lat="54.74384" lon="10.786868333333333">
                        <ele>0</ele>
                        <time>2022-08-18T13:49:43Z</time>
                                                <extensions>
                            <sog>12.0</sog>
<cog>23.3</cog>
                        </extensions>
                    </trkpt>
                    <trkpt lat="54.74429333333333" lon="10.78721">
                        <ele>0</ele>
                        <time>2022-08-18T13:49:51Z</time>
                                                <extensions>
                            <sog>12.0</sog>
<cog>23.3</cog>
                        </extensions>
                    </trkpt>
                    <trkpt lat="54.74485" lon="10.787628333333334">
                        <ele>0</ele>
                        <time>2022-08-18T13:50:03Z</time>
                                                <extensions>
                            <sog>12.0</sog>
<cog>23.3</cog>
                        </extensions>
                    </trkpt>
                    <trkpt lat="54.745763333333336" lon="10.788305000000001">
                        <ele>0</ele>
                        <time>2022-08-18T13:50:21Z</time>
                                                <extensions>
                            <sog>12.0</sog>
<cog>23.2</cog>
                        </extensions>
                    </trkpt>
                    <trkpt lat="54.74733166666667" lon="10.789473333333332">
                        <ele>0</ele>
                        <time>2022-08-18T13:50:51Z</time>
                                                <extensions>
                            <sog>12.0</sog>
<cog>23.1</cog>
                        </extensions>
                    </trkpt>
                    <trkpt lat="54.74793833333333" lon="10.789925">
                        <ele>0</ele>
                        <time>2022-08-18T13:51:03Z</time>
                                                <extensions>
                            <sog>12.0</sog>
<cog>23.1</cog>
                        </extensions>
                    </trkpt>
                    <trkpt lat="54.74839333333333" lon="10.79027">
                        <ele>0</ele>
                        <time>2022-08-18T13:51:12Z</time>
                                                <extensions>
                            <sog>12.0</sog>
<cog>23.3</cog>
                        </extensions>
                    </trkpt>
                    <trkpt lat="54.74884833333333" lon="10.790613333333333">
                        <ele>0</ele>
                        <time>2022-08-18T13:51:21Z</time>
                                                <extensions>
                            <sog>12.0</sog>
<cog>23.4</cog>
                        </extensions>
                    </trkpt>
                    <trkpt lat="54.750375" lon="10.791756666666666">
                        <ele>0</ele>
                        <time>2022-08-18T13:51:51Z</time>
                                                <extensions>
                            <sog>12.0</sog>
<cog>23.2</cog>
                        </extensions>
                    </trkpt>
                    <trkpt lat="54.75098833333333" lon="10.792205">
                        <ele>0</ele>
                        <time>2022-08-18T13:52:03Z</time>
                                                <extensions>
                            <sog>12.0</sog>
<cog>22.9</cog>
                        </extensions>
                    </trkpt>
                    <trkpt lat="54.75190833333333" lon="10.792878333333334">
                        <ele>0</ele>
                        <time>2022-08-18T13:52:21Z</time>
                                                <extensions>
                            <sog>12.1</sog>
<cog>22.8</cog>
                        </extensions>
                    </trkpt>
                    <trkpt lat="54.75298166666666" lon="10.793675">
                        <ele>0</ele>
                        <time>2022-08-18T13:52:42Z</time>
                                                <extensions>
                            <sog>12.1</sog>
<cog>23.1</cog>
                        </extensions>
                    </trkpt>
                    <trkpt lat="54.753955" lon="10.794395">
                        <ele>0</ele>
                        <time>2022-08-18T13:53:01Z</time>
                                                <extensions>
                            <sog>12.1</sog>
<cog>23.1</cog>
                        </extensions>
                    </trkpt>
                    <trkpt lat="54.754983333333335" lon="10.795146666666666">
                        <ele>0</ele>
                        <time>2022-08-18T13:53:21Z</time>
                                                <extensions>
                            <sog>12.1</sog>
<cog>22.8</cog>
                        </extensions>
                    </trkpt>
                    <trkpt lat="54.756009999999996" lon="10.795913333333335">
                        <ele>0</ele>
                        <time>2022-08-18T13:53:42Z</time>
                                                <extensions>
                            <sog>12.1</sog>
<cog>23.2</cog>
                        </extensions>
                    </trkpt>
                    <trkpt lat="54.75651833333333" lon="10.79631">
                        <ele>0</ele>
                        <time>2022-08-18T13:53:51Z</time>
                                                <extensions>
                            <sog>12.1</sog>
<cog>23.7</cog>
                        </extensions>
                    </trkpt>
                    <trkpt lat="54.75764166666667" lon="10.797166666666667">
                        <ele>0</ele>
                        <time>2022-08-18T13:54:13Z</time>
                                                <extensions>
                            <sog>12.1</sog>
<cog>23.7</cog>
                        </extensions>
                    </trkpt>
                    <trkpt lat="54.75910666666667" lon="10.798356666666667">
                        <ele>0</ele>
                        <time>2022-08-18T13:54:42Z</time>
                                                <extensions>
                            <sog>12.1</sog>
<cog>25.0</cog>
                        </extensions>
                    </trkpt>
                    <trkpt lat="54.76006333333333" lon="10.799143333333335">
                        <ele>0</ele>
                        <time>2022-08-18T13:55:01Z</time>
                                                <extensions>
                            <sog>12.1</sog>
<cog>25.1</cog>
                        </extensions>
                    </trkpt>
                    <trkpt lat="54.765115" lon="10.803305">
                        <ele>0</ele>
                        <time>2022-08-18T13:56:41Z</time>
                                                <extensions>
                            <sog>12.1</sog>
<cog>25.3</cog>
                        </extensions>
                    </trkpt>
                    <trkpt lat="54.765618333333336" lon="10.803723333333332">
                        <ele>0</ele>
                        <time>2022-08-18T13:56:52Z</time>
                                                <extensions>
                            <sog>12.1</sog>
<cog>25.4</cog>
                        </extensions>
                    </trkpt>
                    <trkpt lat="54.768701666666665" lon="10.806226666666667">
                        <ele>0</ele>
                        <time>2022-08-18T13:57:52Z</time>
                                                <extensions>
                            <sog>12.1</sog>
<cog>25.2</cog>
                        </extensions>
                    </trkpt>
                    <trkpt lat="54.76970666666667" lon="10.807070000000001">
                        <ele>0</ele>
                        <time>2022-08-18T13:58:12Z</time>
                                                <extensions>
                            <sog>12.1</sog>
<cog>25.6</cog>
                        </extensions>
                    </trkpt>
                    <trkpt lat="54.771116666666664" lon="10.80823">
                        <ele>0</ele>
                        <time>2022-08-18T13:58:41Z</time>
                                                <extensions>
                            <sog>12.1</sog>
<cog>25.2</cog>
                        </extensions>
                    </trkpt>
                    <trkpt lat="54.771724999999996" lon="10.808718333333333">
                        <ele>0</ele>
                        <time>2022-08-18T13:58:52Z</time>
                                                <extensions>
                            <sog>12.1</sog>
<cog>25.0</cog>
                        </extensions>
                    </trkpt>
                    <trkpt lat="54.77223166666667" lon="10.809121666666666">
                        <ele>0</ele>
                        <time>2022-08-18T13:59:02Z</time>
                                                <extensions>
                            <sog>12.1</sog>
<cog>24.8</cog>
                        </extensions>
                    </trkpt>
                    <trkpt lat="54.772738333333336" lon="10.809526666666667">
                        <ele>0</ele>
                        <time>2022-08-18T13:59:12Z</time>
                                                <extensions>
                            <sog>12.1</sog>
<cog>24.8</cog>
                        </extensions>
                    </trkpt>
                    <trkpt lat="54.77723666666667" lon="10.813189999999999">
                        <ele>0</ele>
                        <time>2022-08-18T14:00:41Z</time>
                                                <extensions>
                            <sog>12.1</sog>
<cog>25.1</cog>
                        </extensions>
                    </trkpt>
                    <trkpt lat="54.77723666666667" lon="10.813189999999999">
                        <ele>0</ele>
                        <time>2022-08-18T14:00:41Z</time>
                                                <extensions>
                            <sog>12.1</sog>
<cog>25.1</cog>
                        </extensions>
                    </trkpt>
                    <trkpt lat="54.7839" lon="10.81857">
                        <ele>0</ele>
                        <time>2022-08-18T14:02:52Z</time>
                                                <extensions>
                            <sog>12.2</sog>
<cog>24.8</cog>
                        </extensions>
                    </trkpt>
                    <trkpt lat="54.792555" lon="10.825748333333333">
                        <ele>0</ele>
                        <time>2022-08-18T14:05:42Z</time>
                                                <extensions>
                            <sog>12.3</sog>
<cog>25.6</cog>
                        </extensions>
                    </trkpt>
                    <trkpt lat="54.799675" lon="10.831106666666667">
                        <ele>0</ele>
                        <time>2022-08-18T14:08:02Z</time>
                                                <extensions>
                            <sog>11.7</sog>
<cog>14.6</cog>
                        </extensions>
                    </trkpt>
                    <trkpt lat="54.79983333333333" lon="10.831161666666667">
                        <ele>0</ele>
                        <time>2022-08-18T14:08:05Z</time>
                                                <extensions>
                            <sog>11.7</sog>
<cog>13.8</cog>
                        </extensions>
                    </trkpt>
                    </trkseg>
                </trk>
</gpx>