<?xml version="1.0" encoding="UTF-8"?>
<gpx version="1.1" creator="AIS-to-GPX Converter" xmlns="http://www.topografix.com/GPX/1/1">
                <trk>
                    <name>anon0104</name>
                    <trkseg>
                                            <trkpt lat="54.36370333333333" lon="9.811305">
                        <ele>0</ele>
                        <time>2022-08-18T05:19:27Z</time>
                                                <extensions>
                            <sog>7.2</sog>
<cog>269.1</cog>
                        </extensions>
                    </trkpt>
                    <trkpt lat="54.36283" lon="9.798403333333333">
                        <ele>0</ele>
                        <time>2022-08-18T05:23:17Z</time>
                                                <extensions>
                            <sog>7.2</sog>
<cog>254.8</cog>
                        </extensions>
                    </trkpt>
                    <trkpt lat="54.361505" lon="9.791923333333333">
                        <ele>0</ele>
                        <time>2022-08-18T05:25:17Z</time>
                                                <extensions>
                            <sog>7.2</sog>
<cog>243.6</cog>
                        </extensions>
                    </trkpt>
                    <trkpt lat="54.359339999999996" lon="9.784906666666666">
                        <ele>0</ele>
                        <time>2022-08-18T05:27:27Z</time>
                                                <extensions>
                            <sog>7.7</sog>
<cog>236.8</cog>
                        </extensions>
                    </trkpt>
                    <trkpt lat="54.358695" lon="9.783381666666665">
                        <ele>0</ele>
                        <time>2022-08-18T05:27:57Z</time>
                                                <extensions>
                            <sog>7.8</sog>
<cog>234.7</cog>
                        </extensions>
                    </trkpt>
                    <trkpt lat="54.357375000000005" lon="9.780486666666667">
                        <ele>0</ele>
                        <time>2022-08-18T05:28:57Z</time>
                                                <extensions>
                            <sog>7.8</sog>
<cog>231.2</cog>
                        </extensions>
                    </trkpt>
                    <trkpt lat="54.35687166666666" lon="9.779461666666666">
                        <ele>0</ele>
                        <time>2022-08-18T05:29:19Z</time>
                                                <extensions>
                            <sog>7.9</sog>
<cog>230.3</cog>
                        </extensions>
                    </trkpt>
                    <trkpt lat="54.35545666666667" lon="9.776551666666668">
                        <ele>0</ele>
                        <time>2022-08-18T05:30:19Z</time>
                                                <extensions>
                            <sog>7.9</sog>
<cog>231.2</cog>
                        </extensions>
                    </trkpt>
                    <trkpt lat="54.35461333333333" lon="9.774685">
                        <ele>0</ele>
                        <time>2022-08-18T05:30:57Z</time>
                                                <extensions>
                            <sog>7.9</sog>
<cog>233.4</cog>
                        </extensions>
                    </trkpt>
                    <trkpt lat="54.353876666666665" lon="9.773138333333332">
                        <ele>0</ele>
                        <time>2022-08-18T05:31:28Z</time>
                                                <extensions>
                            <sog>7.9</sog>
<cog>229.1</cog>
                        </extensions>
                    </trkpt>
                    <trkpt lat="54.351335" lon="9.767886666666667">
                        <ele>0</ele>
                        <time>2022-08-18T05:33:19Z</time>
                                                <extensions>
                            <sog>7.8</sog>
<cog>231.0</cog>
                        </extensions>
                    </trkpt>
                    <trkpt lat="54.351115" lon="9.76743">
                        <ele>0</ele>
                        <time>2022-08-18T05:33:28Z</time>
                                                <extensions>
                            <sog>7.8</sog>
<cog>229.1</cog>
                        </extensions>
                    </trkpt>
                    <trkpt lat="54.349995" lon="9.765046666666667">
                        <ele>0</ele>
                        <time>2022-08-18T05:34:19Z</time>
                                                <extensions>
                            <sog>7.8</sog>
<cog>231.0</cog>
                        </extensions>
                    </trkpt>
                    <trkpt lat="54.347245" lon="9.759473333333334">
                        <ele>0</ele>
                        <time>2022-08-18T05:36:19Z</time>
                                                <extensions>
                            <sog>7.4</sog>
<cog>228.6</cog>
                        </extensions>
                    </trkpt>
                    <trkpt lat="54.347055" lon="9.759063333333334">
                        <ele>0</ele>
                        <time>2022-08-18T05:36:28Z</time>
                                                <extensions>
                            <sog>7.5</sog>
<cog>226.5</cog>
                        </extensions>
                    </trkpt>
                    <trkpt lat="54.34565" lon="9.756400000000001">
                        <ele>0</ele>
                        <time>2022-08-18T05:37:28Z</time>
                                                <extensions>
                            <sog>7.5</sog>
<cog>228.5</cog>
                        </extensions>
                    </trkpt>
                    <trkpt lat="54.34429166666666" lon="9.753796666666666">
                        <ele>0</ele>
                        <time>2022-08-18T05:38:28Z</time>
                                                <extensions>
                            <sog>7.4</sog>
<cog>228.8</cog>
                        </extensions>
                    </trkpt>
                    <trkpt lat="54.34321833333333" lon="9.751548333333334">
                        <ele>0</ele>
                        <time>2022-08-18T05:39:17Z</time>
                                                <extensions>
                            <sog>7.4</sog>
<cog>229.2</cog>
                        </extensions>
                    </trkpt>
                    <trkpt lat="54.34296333333334" lon="9.75111">
                        <ele>0</ele>
                        <time>2022-08-18T05:39:28Z</time>
                                                <extensions>
                            <sog>7.5</sog>
<cog>224.3</cog>
                        </extensions>
                    </trkpt>
                    <trkpt lat="54.34231" lon="9.749791666666665">
                        <ele>0</ele>
                        <time>2022-08-18T05:39:57Z</time>
                                                <extensions>
                            <sog>7.5</sog>
<cog>229.6</cog>
                        </extensions>
                    </trkpt>
                    <trkpt lat="54.341825" lon="9.748970000000002">
                        <ele>0</ele>
                        <time>2022-08-18T05:40:17Z</time>
                                                <extensions>
                            <sog>7.5</sog>
<cog>228.1</cog>
                        </extensions>
                    </trkpt>
                    <trkpt lat="54.34156666666667" lon="9.748435">
                        <ele>0</ele>
                        <time>2022-08-18T05:40:28Z</time>
                                                <extensions>
                            <sog>7.5</sog>
<cog>230.3</cog>
                        </extensions>
                    </trkpt>
                    <trkpt lat="54.340915" lon="9.747119999999999">
                        <ele>0</ele>
                        <time>2022-08-18T05:40:57Z</time>
                                                <extensions>
                            <sog>7.5</sog>
<cog>230.8</cog>
                        </extensions>
                    </trkpt>
                    <trkpt lat="54.33909666666667" lon="9.743341666666668">
                        <ele>0</ele>
                        <time>2022-08-18T05:42:18Z</time>
                                                <extensions>
                            <sog>7.5</sog>
<cog>230.6</cog>
                        </extensions>
                    </trkpt>
                    <trkpt lat="54.338910000000006" lon="9.742936666666667">
                        <ele>0</ele>
                        <time>2022-08-18T05:42:28Z</time>
                                                <extensions>
                            <sog>7.5</sog>
<cog>231.5</cog>
                        </extensions>
                    </trkpt>
                    <trkpt lat="54.33827333333333" lon="9.741676666666667">
                        <ele>0</ele>
                        <time>2022-08-18T05:42:57Z</time>
                                                <extensions>
                            <sog>7.5</sog>
<cog>227.9</cog>
                        </extensions>
                    </trkpt>
                    <trkpt lat="54.33772" lon="9.740645">
                        <ele>0</ele>
                        <time>2022-08-18T05:43:18Z</time>
                                                <extensions>
                            <sog>7.5</sog>
<cog>226.9</cog>
                        </extensions>
                    </trkpt>
                    <trkpt lat="54.336906666666664" lon="9.739055">
                        <ele>0</ele>
                        <time>2022-08-18T05:43:58Z</time>
                                                <extensions>
                            <sog>6.9</sog>
<cog>227.0</cog>
                        </extensions>
                    </trkpt>
                    <trkpt lat="54.33627833333333" lon="9.73785">
                        <ele>0</ele>
                        <time>2022-08-18T05:44:28Z</time>
                                                <extensions>
                            <sog>6.8</sog>
<cog>227.8</cog>
                        </extensions>
                    </trkpt>
                    <trkpt lat="54.33438833333333" lon="9.734128333333333">
                        <ele>0</ele>
                        <time>2022-08-18T05:45:58Z</time>
                                                <extensions>
                            <sog>7.0</sog>
<cog>228.3</cog>
                        </extensions>
                    </trkpt>
                    <trkpt lat="54.332655" lon="9.730686666666665">
                        <ele>0</ele>
                        <time>2022-08-18T05:47:18Z</time>
                                                <extensions>
                            <sog>7.3</sog>
<cog>233.1</cog>
                        </extensions>
                    </trkpt>
                    <trkpt lat="54.33247166666667" lon="9.730291666666666">
                        <ele>0</ele>
                        <time>2022-08-18T05:47:28Z</time>
                                                <extensions>
                            <sog>7.4</sog>
<cog>232.3</cog>
                        </extensions>
                    </trkpt>
                    <trkpt lat="54.33116833333334" lon="9.727756666666666">
                        <ele>0</ele>
                        <time>2022-08-18T05:48:28Z</time>
                                                <extensions>
                            <sog>7.8</sog>
<cog>229.5</cog>
                        </extensions>
                    </trkpt>
                    <trkpt lat="54.328875000000004" lon="9.723526666666666">
                        <ele>0</ele>
                        <time>2022-08-18T05:49:58Z</time>
                                                <extensions>
                            <sog>8.0</sog>
<cog>228.9</cog>
                        </extensions>
                    </trkpt>
                    <trkpt lat="54.325876666666666" lon="9.717948333333334">
                        <ele>0</ele>
                        <time>2022-08-18T05:51:57Z</time>
                                                <extensions>
                            <sog>8.1</sog>
<cog>228.8</cog>
                        </extensions>
                    </trkpt>
                    <trkpt lat="54.31642" lon="9.712951666666667">
                        <ele>0</ele>
                        <time>2022-08-18T05:56:27Z</time>
                                                <extensions>
                            <sog>8.3</sog>
<cog>182.1</cog>
                        </extensions>
                    </trkpt>
                    <trkpt lat="54.30018166666667" lon="9.705303333333335">
                        <ele>0</ele>
                        <time>2022-08-18T06:05:18Z</time>
                                                <extensions>
                            <sog>6.5</sog>
<cog>222.5</cog>
                        </extensions>
                    </trkpt>
                    <trkpt lat="54.294198333333334" lon="9.685511666666667">
                        <ele>0</ele>
                        <time>2022-08-18T06:12:58Z</time>
                                                <extensions>
                            <sog>5.8</sog>
<cog>251.9</cog>
                        </extensions>
                    </trkpt>
                    <trkpt lat="54.29322333333334" lon="9.67947">
                        <ele>0</ele>
                        <time>2022-08-18T06:14:58Z</time>
                                                <extensions>
                            <sog>7.0</sog>
<cog>254.7</cog>
                        </extensions>
                    </trkpt>
                    <trkpt lat="54.293078333333334" lon="9.678466666666667">
                        <ele>0</ele>
                        <time>2022-08-18T06:15:17Z</time>
                                                <extensions>
                            <sog>7.0</sog>
<cog>256.0</cog>
                        </extensions>
                    </trkpt>
                    <trkpt lat="54.29217333333334" lon="9.669716666666666">
                        <ele>0</ele>
                        <time>2022-08-18T06:20:58Z</time>
                                                <extensions>
                            <sog>0.0</sog>
<cog>0.0</cog>
                        </extensions>
                    </trkpt>
                    <trkpt lat="54.29217833333333" lon="9.669720000000002">
                        <ele>0</ele>
                        <time>2022-08-18T06:25:58Z</time>
                                                <extensions>
                            <sog>0.0</sog>
<cog>0.0</cog>
                        </extensions>
                    </trkpt>
                    <trkpt lat="54.29217666666667" lon="9.669723333333334">
                        <ele>0</ele>
                        <time>2022-08-18T06:26:27Z</time>
                                                <extensions>
                            <sog>0.0</sog>
<cog>0.0</cog>
                        </extensions>
                    </trkpt>
                    <trkpt lat="54.29217666666667" lon="9.669723333333334">
                        <ele>0</ele>
                        <time>2022-08-18T06:26:57Z</time>
                                                <extensions>
                            <sog>0.0</sog>
<cog>0.0</cog>
                        </extensions>
                    </trkpt>
                    <trkpt lat="54.29217833333333" lon="9.669721666666668">
                        <ele>0</ele>
                        <time>2022-08-18T06:27:27Z</time>
                                                <extensions>
                            <sog>0.0</sog>
<cog>0.0</cog>
                        </extensions>
                    </trkpt>
                    <trkpt lat="54.292175" lon="9.669725">
                        <ele>0</ele>
                        <time>2022-08-18T06:28:27Z</time>
                                                <extensions>
                            <sog>0.0</sog>
<cog>0.0</cog>
                        </extensions>
                    </trkpt>
                    <trkpt lat="54.292175" lon="9.66973">
                        <ele>0</ele>
                        <time>2022-08-18T06:29:17Z</time>
                                                <extensions>
                            <sog>0.0</sog>
<cog>0.0</cog>
                        </extensions>
                    </trkpt>
                    <trkpt lat="54.292175" lon="9.66973">
                        <ele>0</ele>
                        <time>2022-08-18T06:29:27Z</time>
                                                <extensions>
                            <sog>0.0</sog>
<cog>0.0</cog>
                        </extensions>
                    </trkpt>
                    <trkpt lat="54.33197833333334" lon="9.731968333333333">
                        <ele>0</ele>
                        <time>2022-08-18T12:11:27Z</time>
                                                <extensions>
                            <sog>8.4</sog>
<cog>51.0</cog>
                        </extensions>
                    </trkpt>
                    <trkpt lat="54.340826666666665" lon="9.750086666666666">
                        <ele>0</ele>
                        <time>2022-08-18T12:17:27Z</time>
                                                <extensions>
                            <sog>8.2</sog>
<cog>49.4</cog>
                        </extensions>
                    </trkpt>
                    <trkpt lat="54.34529666666666" lon="9.758941666666667">
                        <ele>0</ele>
                        <time>2022-08-18T12:20:27Z</time>
                                                <extensions>
                            <sog>8.2</sog>
<cog>50.6</cog>
                        </extensions>
                    </trkpt>
                    <trkpt lat="54.34648" lon="9.761493333333334">
                        <ele>0</ele>
                        <time>2022-08-18T12:21:18Z</time>
                                                <extensions>
                            <sog>8.2</sog>
<cog>49.6</cog>
                        </extensions>
                    </trkpt>
                    </trkseg>
                </trk>
</gpx>