<?xml version="1.0" encoding="UTF-8"?>
<gpx version="1.1" creator="AIS-to-GPX Converter" xmlns="http://www.topografix.com/GPX/1/1">
                <trk>
                    <name>anon0032</name>
                    <trkseg>
                                            <trkpt lat="54.43004833333334" lon="10.232568333333335">
                        <ele>0</ele>
                        <time>2022-08-18T12:16:39Z</time>
                                                <extensions>
                            <sog>6.3</sog>
<cog>202.2</cog>
                        </extensions>
                    </trkpt>
                    <trkpt lat="54.41373166666666" lon="10.216353333333332">
                        <ele>0</ele>
                        <time>2022-08-18T12:27:38Z</time>
                                                <extensions>
                            <sog>6.3</sog>
<cog>205.2</cog>
                        </extensions>
                    </trkpt>
                    <trkpt lat="54.408924999999996" lon="10.214036666666667">
                        <ele>0</ele>
                        <time>2022-08-18T12:30:36Z</time>
                                                <extensions>
                            <sog>6.2</sog>
<cog>175.3</cog>
                        </extensions>
                    </trkpt>
                    <trkpt lat="54.4062" lon="10.214136666666667">
                        <ele>0</ele>
                        <time>2022-08-18T12:32:09Z</time>
                                                <extensions>
                            <sog>6.4</sog>
<cog>178.9</cog>
                        </extensions>
                    </trkpt>
                    <trkpt lat="54.40543666666667" lon="10.214184999999999">
                        <ele>0</ele>
                        <time>2022-08-18T12:32:36Z</time>
                                                <extensions>
                            <sog>6.4</sog>
<cog>178.8</cog>
                        </extensions>
                    </trkpt>
                    <trkpt lat="54.40368333333333" lon="10.214585">
                        <ele>0</ele>
                        <time>2022-08-18T12:33:36Z</time>
                                                <extensions>
                            <sog>6.3</sog>
<cog>164.7</cog>
                        </extensions>
                    </trkpt>
                    </trkseg>
                </trk>
</gpx>