<?xml version="1.0" encoding="UTF-8"?>
<gpx version="1.1" creator="AIS-to-GPX Converter" xmlns="http://www.topografix.com/GPX/1/1">
                <trk>
                    <name>anon0208</name>
                    <trkseg>
                                            <trkpt lat="54.40051166666667" lon="10.213871666666668">
                        <ele>0</ele>
                        <time>2022-08-18T00:00:49Z</time>
                                                <extensions>
                            <sog>0.0</sog>
<cog>193.1</cog>
                        </extensions>
                    </trkpt>
                    <trkpt lat="54.60892166666667" lon="10.068715">
                        <ele>0</ele>
                        <time>2022-08-18T11:17:22Z</time>
                                                <extensions>
                            <sog>5.5</sog>
<cog>166.3</cog>
                        </extensions>
                    </trkpt>
                    <trkpt lat="54.595526666666665" lon="10.076623333333334">
                        <ele>0</ele>
                        <time>2022-08-18T11:27:19Z</time>
                                                <extensions>
                            <sog>5.0</sog>
<cog>149.3</cog>
                        </extensions>
                    </trkpt>
                    <trkpt lat="54.593185" lon="10.079296666666666">
                        <ele>0</ele>
                        <time>2022-08-18T11:29:19Z</time>
                                                <extensions>
                            <sog>4.8</sog>
<cog>146.5</cog>
                        </extensions>
                    </trkpt>
                    <trkpt lat="54.591424999999994" lon="10.081275">
                        <ele>0</ele>
                        <time>2022-08-18T11:30:50Z</time>
                                                <extensions>
                            <sog>5.1</sog>
<cog>146.0</cog>
                        </extensions>
                    </trkpt>
                    <trkpt lat="54.56368" lon="10.113616666666667">
                        <ele>0</ele>
                        <time>2022-08-18T11:54:19Z</time>
                                                <extensions>
                            <sog>5.3</sog>
<cog>145.2</cog>
                        </extensions>
                    </trkpt>
                    <trkpt lat="54.54922833333333" lon="10.130535">
                        <ele>0</ele>
                        <time>2022-08-18T12:06:19Z</time>
                                                <extensions>
                            <sog>5.6</sog>
<cog>149.6</cog>
                        </extensions>
                    </trkpt>
                    <trkpt lat="54.546805" lon="10.133385">
                        <ele>0</ele>
                        <time>2022-08-18T12:08:19Z</time>
                                                <extensions>
                            <sog>5.4</sog>
<cog>145.6</cog>
                        </extensions>
                    </trkpt>
                    <trkpt lat="54.53565833333334" lon="10.146379999999999">
                        <ele>0</ele>
                        <time>2022-08-18T12:17:19Z</time>
                                                <extensions>
                            <sog>5.5</sog>
<cog>147.3</cog>
                        </extensions>
                    </trkpt>
                    <trkpt lat="54.53069166666667" lon="10.152171666666668">
                        <ele>0</ele>
                        <time>2022-08-18T12:21:19Z</time>
                                                <extensions>
                            <sog>5.3</sog>
<cog>146.9</cog>
                        </extensions>
                    </trkpt>
                    <trkpt lat="54.53004" lon="10.152921666666666">
                        <ele>0</ele>
                        <time>2022-08-18T12:21:49Z</time>
                                                <extensions>
                            <sog>5.4</sog>
<cog>146.5</cog>
                        </extensions>
                    </trkpt>
                    <trkpt lat="54.52941666666666" lon="10.153645000000001">
                        <ele>0</ele>
                        <time>2022-08-18T12:22:19Z</time>
                                                <extensions>
                            <sog>5.6</sog>
<cog>146.9</cog>
                        </extensions>
                    </trkpt>
                    <trkpt lat="54.52630666666666" lon="10.157301666666665">
                        <ele>0</ele>
                        <time>2022-08-18T12:24:49Z</time>
                                                <extensions>
                            <sog>5.5</sog>
<cog>143.9</cog>
                        </extensions>
                    </trkpt>
                    <trkpt lat="54.52568333333333" lon="10.158035">
                        <ele>0</ele>
                        <time>2022-08-18T12:25:19Z</time>
                                                <extensions>
                            <sog>5.5</sog>
<cog>144.7</cog>
                        </extensions>
                    </trkpt>
                    <trkpt lat="54.521915" lon="10.16251">
                        <ele>0</ele>
                        <time>2022-08-18T12:28:20Z</time>
                                                <extensions>
                            <sog>5.4</sog>
<cog>145.2</cog>
                        </extensions>
                    </trkpt>
                    <trkpt lat="54.52126833333333" lon="10.163283333333334">
                        <ele>0</ele>
                        <time>2022-08-18T12:28:51Z</time>
                                                <extensions>
                            <sog>5.4</sog>
<cog>143.2</cog>
                        </extensions>
                    </trkpt>
                    <trkpt lat="54.51877666666667" lon="10.166136666666667">
                        <ele>0</ele>
                        <time>2022-08-18T12:30:49Z</time>
                                                <extensions>
                            <sog>5.4</sog>
<cog>145.6</cog>
                        </extensions>
                    </trkpt>
                    <trkpt lat="54.51816833333333" lon="10.166853333333334">
                        <ele>0</ele>
                        <time>2022-08-18T12:31:19Z</time>
                                                <extensions>
                            <sog>5.6</sog>
<cog>145.5</cog>
                        </extensions>
                    </trkpt>
                    <trkpt lat="54.515631666666664" lon="10.169794999999999">
                        <ele>0</ele>
                        <time>2022-08-18T12:33:19Z</time>
                                                <extensions>
                            <sog>5.4</sog>
<cog>145.2</cog>
                        </extensions>
                    </trkpt>
                    <trkpt lat="54.51493666666667" lon="10.170615">
                        <ele>0</ele>
                        <time>2022-08-18T12:33:52Z</time>
                                                <extensions>
                            <sog>5.7</sog>
<cog>146.1</cog>
                        </extensions>
                    </trkpt>
                    <trkpt lat="54.51372833333333" lon="10.172091666666667">
                        <ele>0</ele>
                        <time>2022-08-18T12:34:49Z</time>
                                                <extensions>
                            <sog>5.6</sog>
<cog>145.7</cog>
                        </extensions>
                    </trkpt>
                    <trkpt lat="54.513095" lon="10.172855">
                        <ele>0</ele>
                        <time>2022-08-18T12:35:19Z</time>
                                                <extensions>
                            <sog>5.3</sog>
<cog>145.0</cog>
                        </extensions>
                    </trkpt>
                    <trkpt lat="54.51181166666667" lon="10.174346666666667">
                        <ele>0</ele>
                        <time>2022-08-18T12:36:19Z</time>
                                                <extensions>
                            <sog>5.6</sog>
<cog>143.0</cog>
                        </extensions>
                    </trkpt>
                    <trkpt lat="54.511165" lon="10.175076666666666">
                        <ele>0</ele>
                        <time>2022-08-18T12:36:50Z</time>
                                                <extensions>
                            <sog>5.6</sog>
<cog>146.6</cog>
                        </extensions>
                    </trkpt>
                    <trkpt lat="54.510504999999995" lon="10.175838333333333">
                        <ele>0</ele>
                        <time>2022-08-18T12:37:20Z</time>
                                                <extensions>
                            <sog>5.2</sog>
<cog>146.3</cog>
                        </extensions>
                    </trkpt>
                    <trkpt lat="54.50986666666667" lon="10.176561666666666">
                        <ele>0</ele>
                        <time>2022-08-18T12:37:50Z</time>
                                                <extensions>
                            <sog>5.4</sog>
<cog>145.5</cog>
                        </extensions>
                    </trkpt>
                    <trkpt lat="54.508615" lon="10.178036666666666">
                        <ele>0</ele>
                        <time>2022-08-18T12:38:49Z</time>
                                                <extensions>
                            <sog>5.5</sog>
<cog>145.6</cog>
                        </extensions>
                    </trkpt>
                    <trkpt lat="54.50795" lon="10.178806666666667">
                        <ele>0</ele>
                        <time>2022-08-18T12:39:20Z</time>
                                                <extensions>
                            <sog>5.5</sog>
<cog>145.3</cog>
                        </extensions>
                    </trkpt>
                    <trkpt lat="54.50604833333333" lon="10.181015">
                        <ele>0</ele>
                        <time>2022-08-18T12:40:49Z</time>
                                                <extensions>
                            <sog>5.6</sog>
<cog>145.9</cog>
                        </extensions>
                    </trkpt>
                    <trkpt lat="54.505406666666666" lon="10.181765">
                        <ele>0</ele>
                        <time>2022-08-18T12:41:20Z</time>
                                                <extensions>
                            <sog>5.7</sog>
<cog>147.3</cog>
                        </extensions>
                    </trkpt>
                    <trkpt lat="54.50476666666667" lon="10.18252">
                        <ele>0</ele>
                        <time>2022-08-18T12:41:49Z</time>
                                                <extensions>
                            <sog>5.5</sog>
<cog>146.2</cog>
                        </extensions>
                    </trkpt>
                    <trkpt lat="54.50284166666667" lon="10.18481">
                        <ele>0</ele>
                        <time>2022-08-18T12:43:20Z</time>
                                                <extensions>
                            <sog>5.7</sog>
<cog>144.8</cog>
                        </extensions>
                    </trkpt>
                    <trkpt lat="54.50153833333333" lon="10.186301666666667">
                        <ele>0</ele>
                        <time>2022-08-18T12:44:20Z</time>
                                                <extensions>
                            <sog>5.4</sog>
<cog>145.0</cog>
                        </extensions>
                    </trkpt>
                    <trkpt lat="54.500895" lon="10.187046666666667">
                        <ele>0</ele>
                        <time>2022-08-18T12:44:50Z</time>
                                                <extensions>
                            <sog>5.6</sog>
<cog>145.4</cog>
                        </extensions>
                    </trkpt>
                    <trkpt lat="54.50023" lon="10.187813333333334">
                        <ele>0</ele>
                        <time>2022-08-18T12:45:20Z</time>
                                                <extensions>
                            <sog>5.7</sog>
<cog>148.0</cog>
                        </extensions>
                    </trkpt>
                    <trkpt lat="54.499585" lon="10.188561666666667">
                        <ele>0</ele>
                        <time>2022-08-18T12:45:50Z</time>
                                                <extensions>
                            <sog>5.6</sog>
<cog>145.9</cog>
                        </extensions>
                    </trkpt>
                    <trkpt lat="54.498960000000004" lon="10.189286666666668">
                        <ele>0</ele>
                        <time>2022-08-18T12:46:19Z</time>
                                                <extensions>
                            <sog>5.8</sog>
<cog>147.6</cog>
                        </extensions>
                    </trkpt>
                    <trkpt lat="54.49767" lon="10.190776666666666">
                        <ele>0</ele>
                        <time>2022-08-18T12:47:19Z</time>
                                                <extensions>
                            <sog>5.7</sog>
<cog>146.3</cog>
                        </extensions>
                    </trkpt>
                    <trkpt lat="54.49637166666666" lon="10.192260000000001">
                        <ele>0</ele>
                        <time>2022-08-18T12:48:19Z</time>
                                                <extensions>
                            <sog>5.7</sog>
<cog>146.2</cog>
                        </extensions>
                    </trkpt>
                    <trkpt lat="54.495104999999995" lon="10.193716666666667">
                        <ele>0</ele>
                        <time>2022-08-18T12:49:19Z</time>
                                                <extensions>
                            <sog>5.5</sog>
<cog>147.2</cog>
                        </extensions>
                    </trkpt>
                    <trkpt lat="54.491211666666665" lon="10.198238333333334">
                        <ele>0</ele>
                        <time>2022-08-18T12:52:19Z</time>
                                                <extensions>
                            <sog>5.8</sog>
<cog>146.8</cog>
                        </extensions>
                    </trkpt>
                    <trkpt lat="54.48992833333333" lon="10.199756666666667">
                        <ele>0</ele>
                        <time>2022-08-18T12:53:19Z</time>
                                                <extensions>
                            <sog>5.7</sog>
<cog>146.5</cog>
                        </extensions>
                    </trkpt>
                    <trkpt lat="54.489259999999994" lon="10.200538333333332">
                        <ele>0</ele>
                        <time>2022-08-18T12:53:50Z</time>
                                                <extensions>
                            <sog>5.7</sog>
<cog>147.1</cog>
                        </extensions>
                    </trkpt>
                    <trkpt lat="54.48863666666667" lon="10.201276666666667">
                        <ele>0</ele>
                        <time>2022-08-18T12:54:20Z</time>
                                                <extensions>
                            <sog>5.7</sog>
<cog>145.4</cog>
                        </extensions>
                    </trkpt>
                    <trkpt lat="54.48606666666667" lon="10.204255">
                        <ele>0</ele>
                        <time>2022-08-18T12:56:19Z</time>
                                                <extensions>
                            <sog>5.5</sog>
<cog>147.4</cog>
                        </extensions>
                    </trkpt>
                    <trkpt lat="54.48535666666667" lon="10.205076666666667">
                        <ele>0</ele>
                        <time>2022-08-18T12:56:51Z</time>
                                                <extensions>
                            <sog>5.6</sog>
<cog>145.4</cog>
                        </extensions>
                    </trkpt>
                    <trkpt lat="54.484755" lon="10.205771666666667">
                        <ele>0</ele>
                        <time>2022-08-18T12:57:19Z</time>
                                                <extensions>
                            <sog>5.7</sog>
<cog>146.8</cog>
                        </extensions>
                    </trkpt>
                    <trkpt lat="54.48279166666667" lon="10.208018333333333">
                        <ele>0</ele>
                        <time>2022-08-18T12:58:50Z</time>
                                                <extensions>
                            <sog>5.5</sog>
<cog>146.5</cog>
                        </extensions>
                    </trkpt>
                    <trkpt lat="54.48152833333334" lon="10.209435000000001">
                        <ele>0</ele>
                        <time>2022-08-18T12:59:49Z</time>
                                                <extensions>
                            <sog>5.4</sog>
<cog>147.3</cog>
                        </extensions>
                    </trkpt>
                    <trkpt lat="54.480865" lon="10.210199999999999">
                        <ele>0</ele>
                        <time>2022-08-18T13:00:20Z</time>
                                                <extensions>
                            <sog>5.5</sog>
<cog>147.2</cog>
                        </extensions>
                    </trkpt>
                    <trkpt lat="54.480865" lon="10.210199999999999">
                        <ele>0</ele>
                        <time>2022-08-18T13:00:20Z</time>
                                                <extensions>
                            <sog>5.5</sog>
<cog>147.2</cog>
                        </extensions>
                    </trkpt>
                    <trkpt lat="54.47962333333333" lon="10.21168">
                        <ele>0</ele>
                        <time>2022-08-18T13:01:19Z</time>
                                                <extensions>
                            <sog>5.5</sog>
<cog>147.2</cog>
                        </extensions>
                    </trkpt>
                    <trkpt lat="54.47900833333333" lon="10.212388333333333">
                        <ele>0</ele>
                        <time>2022-08-18T13:01:48Z</time>
                                                <extensions>
                            <sog>5.7</sog>
<cog>145.4</cog>
                        </extensions>
                    </trkpt>
                    <trkpt lat="54.477711666666664" lon="10.213923333333334">
                        <ele>0</ele>
                        <time>2022-08-18T13:02:49Z</time>
                                                <extensions>
                            <sog>5.6</sog>
<cog>144.5</cog>
                        </extensions>
                    </trkpt>
                    <trkpt lat="54.47705" lon="10.214705">
                        <ele>0</ele>
                        <time>2022-08-18T13:03:20Z</time>
                                                <extensions>
                            <sog>5.6</sog>
<cog>145.3</cog>
                        </extensions>
                    </trkpt>
                    <trkpt lat="54.47645333333333" lon="10.215406666666667">
                        <ele>0</ele>
                        <time>2022-08-18T13:03:49Z</time>
                                                <extensions>
                            <sog>5.7</sog>
<cog>144.5</cog>
                        </extensions>
                    </trkpt>
                    <trkpt lat="54.47579666666666" lon="10.216181666666667">
                        <ele>0</ele>
                        <time>2022-08-18T13:04:19Z</time>
                                                <extensions>
                            <sog>5.5</sog>
<cog>145.6</cog>
                        </extensions>
                    </trkpt>
                    <trkpt lat="54.47452833333333" lon="10.217693333333333">
                        <ele>0</ele>
                        <time>2022-08-18T13:05:19Z</time>
                                                <extensions>
                            <sog>5.6</sog>
<cog>145.8</cog>
                        </extensions>
                    </trkpt>
                    <trkpt lat="54.47317833333333" lon="10.219283333333333">
                        <ele>0</ele>
                        <time>2022-08-18T13:06:20Z</time>
                                                <extensions>
                            <sog>5.7</sog>
<cog>145.6</cog>
                        </extensions>
                    </trkpt>
                    <trkpt lat="54.47251333333334" lon="10.220061666666668">
                        <ele>0</ele>
                        <time>2022-08-18T13:06:50Z</time>
                                                <extensions>
                            <sog>5.9</sog>
<cog>146.9</cog>
                        </extensions>
                    </trkpt>
                    <trkpt lat="54.47189" lon="10.22079">
                        <ele>0</ele>
                        <time>2022-08-18T13:07:19Z</time>
                                                <extensions>
                            <sog>6.0</sog>
<cog>145.3</cog>
                        </extensions>
                    </trkpt>
                    <trkpt lat="54.47117333333333" lon="10.221605">
                        <ele>0</ele>
                        <time>2022-08-18T13:07:50Z</time>
                                                <extensions>
                            <sog>5.7</sog>
<cog>145.6</cog>
                        </extensions>
                    </trkpt>
                    <trkpt lat="54.47054833333333" lon="10.22233">
                        <ele>0</ele>
                        <time>2022-08-18T13:08:19Z</time>
                                                <extensions>
                            <sog>5.7</sog>
<cog>146.0</cog>
                        </extensions>
                    </trkpt>
                    <trkpt lat="54.469881666666666" lon="10.223106666666666">
                        <ele>0</ele>
                        <time>2022-08-18T13:08:48Z</time>
                                                <extensions>
                            <sog>5.8</sog>
<cog>146.3</cog>
                        </extensions>
                    </trkpt>
                    <trkpt lat="54.46921666666666" lon="10.223881666666667">
                        <ele>0</ele>
                        <time>2022-08-18T13:09:19Z</time>
                                                <extensions>
                            <sog>5.8</sog>
<cog>146.6</cog>
                        </extensions>
                    </trkpt>
                    <trkpt lat="54.46854333333333" lon="10.224661666666666">
                        <ele>0</ele>
                        <time>2022-08-18T13:09:49Z</time>
                                                <extensions>
                            <sog>5.9</sog>
<cog>145.7</cog>
                        </extensions>
                    </trkpt>
                    <trkpt lat="54.46784666666667" lon="10.225458333333334">
                        <ele>0</ele>
                        <time>2022-08-18T13:10:19Z</time>
                                                <extensions>
                            <sog>5.9</sog>
<cog>147.0</cog>
                        </extensions>
                    </trkpt>
                    <trkpt lat="54.46717" lon="10.226226666666667">
                        <ele>0</ele>
                        <time>2022-08-18T13:10:49Z</time>
                                                <extensions>
                            <sog>5.8</sog>
<cog>145.1</cog>
                        </extensions>
                    </trkpt>
                    <trkpt lat="54.466496666666664" lon="10.227001666666666">
                        <ele>0</ele>
                        <time>2022-08-18T13:11:19Z</time>
                                                <extensions>
                            <sog>5.8</sog>
<cog>147.4</cog>
                        </extensions>
                    </trkpt>
                    <trkpt lat="54.465826666666665" lon="10.227773333333333">
                        <ele>0</ele>
                        <time>2022-08-18T13:11:49Z</time>
                                                <extensions>
                            <sog>5.9</sog>
<cog>146.0</cog>
                        </extensions>
                    </trkpt>
                    <trkpt lat="54.464468333333336" lon="10.229373333333333">
                        <ele>0</ele>
                        <time>2022-08-18T13:12:50Z</time>
                                                <extensions>
                            <sog>5.8</sog>
<cog>146.8</cog>
                        </extensions>
                    </trkpt>
                    <trkpt lat="54.46384" lon="10.230105">
                        <ele>0</ele>
                        <time>2022-08-18T13:13:19Z</time>
                                                <extensions>
                            <sog>5.9</sog>
<cog>146.8</cog>
                        </extensions>
                    </trkpt>
                    <trkpt lat="54.463168333333336" lon="10.230888333333333">
                        <ele>0</ele>
                        <time>2022-08-18T13:13:49Z</time>
                                                <extensions>
                            <sog>5.9</sog>
<cog>144.7</cog>
                        </extensions>
                    </trkpt>
                    <trkpt lat="54.46246" lon="10.23172">
                        <ele>0</ele>
                        <time>2022-08-18T13:14:20Z</time>
                                                <extensions>
                            <sog>5.6</sog>
<cog>146.1</cog>
                        </extensions>
                    </trkpt>
                    <trkpt lat="54.46174666666666" lon="10.232551666666666">
                        <ele>0</ele>
                        <time>2022-08-18T13:14:52Z</time>
                                                <extensions>
                            <sog>5.9</sog>
<cog>147.8</cog>
                        </extensions>
                    </trkpt>
                    <trkpt lat="54.46112166666667" lon="10.233263333333333">
                        <ele>0</ele>
                        <time>2022-08-18T13:15:20Z</time>
                                                <extensions>
                            <sog>5.6</sog>
<cog>145.7</cog>
                        </extensions>
                    </trkpt>
                    <trkpt lat="54.460453333333334" lon="10.234011666666667">
                        <ele>0</ele>
                        <time>2022-08-18T13:15:50Z</time>
                                                <extensions>
                            <sog>5.6</sog>
<cog>146.4</cog>
                        </extensions>
                    </trkpt>
                    <trkpt lat="54.459714999999996" lon="10.233996666666666">
                        <ele>0</ele>
                        <time>2022-08-18T13:16:20Z</time>
                                                <extensions>
                            <sog>5.8</sog>
<cog>196.1</cog>
                        </extensions>
                    </trkpt>
                    <trkpt lat="54.45816" lon="10.233443333333334">
                        <ele>0</ele>
                        <time>2022-08-18T13:17:19Z</time>
                                                <extensions>
                            <sog>5.9</sog>
<cog>195.7</cog>
                        </extensions>
                    </trkpt>
                    <trkpt lat="54.457375" lon="10.233055">
                        <ele>0</ele>
                        <time>2022-08-18T13:17:49Z</time>
                                                <extensions>
                            <sog>5.9</sog>
<cog>191.2</cog>
                        </extensions>
                    </trkpt>
                    <trkpt lat="54.456585000000004" lon="10.232683333333334">
                        <ele>0</ele>
                        <time>2022-08-18T13:18:19Z</time>
                                                <extensions>
                            <sog>6.1</sog>
<cog>201.4</cog>
                        </extensions>
                    </trkpt>
                    <trkpt lat="54.45583" lon="10.23231">
                        <ele>0</ele>
                        <time>2022-08-18T13:18:49Z</time>
                                                <extensions>
                            <sog>6.0</sog>
<cog>198.5</cog>
                        </extensions>
                    </trkpt>
                    <trkpt lat="54.455045000000005" lon="10.231943333333334">
                        <ele>0</ele>
                        <time>2022-08-18T13:19:19Z</time>
                                                <extensions>
                            <sog>6.0</sog>
<cog>195.8</cog>
                        </extensions>
                    </trkpt>
                    <trkpt lat="54.453448333333334" lon="10.231308333333335">
                        <ele>0</ele>
                        <time>2022-08-18T13:20:18Z</time>
                                                <extensions>
                            <sog>6.0</sog>
<cog>192.9</cog>
                        </extensions>
                    </trkpt>
                    <trkpt lat="54.45185" lon="10.230661666666666">
                        <ele>0</ele>
                        <time>2022-08-18T13:21:19Z</time>
                                                <extensions>
                            <sog>6.0</sog>
<cog>194.4</cog>
                        </extensions>
                    </trkpt>
                    <trkpt lat="54.45026333333333" lon="10.230011666666666">
                        <ele>0</ele>
                        <time>2022-08-18T13:22:19Z</time>
                                                <extensions>
                            <sog>5.9</sog>
<cog>193.2</cog>
                        </extensions>
                    </trkpt>
                    <trkpt lat="54.44866666666667" lon="10.22935">
                        <ele>0</ele>
                        <time>2022-08-18T13:23:19Z</time>
                                                <extensions>
                            <sog>6.1</sog>
<cog>193.0</cog>
                        </extensions>
                    </trkpt>
                    <trkpt lat="54.443848333333335" lon="10.227401666666667">
                        <ele>0</ele>
                        <time>2022-08-18T13:26:20Z</time>
                                                <extensions>
                            <sog>6.1</sog>
<cog>193.9</cog>
                        </extensions>
                    </trkpt>
                    <trkpt lat="54.442276666666665" lon="10.226778333333334">
                        <ele>0</ele>
                        <time>2022-08-18T13:27:20Z</time>
                                                <extensions>
                            <sog>6.0</sog>
<cog>196.8</cog>
                        </extensions>
                    </trkpt>
                    <trkpt lat="54.441426666666665" lon="10.22641">
                        <ele>0</ele>
                        <time>2022-08-18T13:27:51Z</time>
                                                <extensions>
                            <sog>5.9</sog>
<cog>193.7</cog>
                        </extensions>
                    </trkpt>
                    <trkpt lat="54.43905666666667" lon="10.225425">
                        <ele>0</ele>
                        <time>2022-08-18T13:29:19Z</time>
                                                <extensions>
                            <sog>6.1</sog>
<cog>192.1</cog>
                        </extensions>
                    </trkpt>
                    <trkpt lat="54.437395" lon="10.224731666666665">
                        <ele>0</ele>
                        <time>2022-08-18T13:30:21Z</time>
                                                <extensions>
                            <sog>6.0</sog>
<cog>194.0</cog>
                        </extensions>
                    </trkpt>
                    <trkpt lat="54.43657666666666" lon="10.224386666666668">
                        <ele>0</ele>
                        <time>2022-08-18T13:30:50Z</time>
                                                <extensions>
                            <sog>6.1</sog>
<cog>193.5</cog>
                        </extensions>
                    </trkpt>
                    <trkpt lat="54.435786666666665" lon="10.224038333333334">
                        <ele>0</ele>
                        <time>2022-08-18T13:31:19Z</time>
                                                <extensions>
                            <sog>6.2</sog>
<cog>194.8</cog>
                        </extensions>
                    </trkpt>
                    <trkpt lat="54.434975" lon="10.223683333333334">
                        <ele>0</ele>
                        <time>2022-08-18T13:31:49Z</time>
                                                <extensions>
                            <sog>6.2</sog>
<cog>195.9</cog>
                        </extensions>
                    </trkpt>
                    <trkpt lat="54.434185" lon="10.223365">
                        <ele>0</ele>
                        <time>2022-08-18T13:32:18Z</time>
                                                <extensions>
                            <sog>6.0</sog>
<cog>193.1</cog>
                        </extensions>
                    </trkpt>
                    <trkpt lat="54.432535" lon="10.222698333333334">
                        <ele>0</ele>
                        <time>2022-08-18T13:33:19Z</time>
                                                <extensions>
                            <sog>6.1</sog>
<cog>194.4</cog>
                        </extensions>
                    </trkpt>
                    <trkpt lat="54.431725" lon="10.222351666666667">
                        <ele>0</ele>
                        <time>2022-08-18T13:33:49Z</time>
                                                <extensions>
                            <sog>5.9</sog>
<cog>194.2</cog>
                        </extensions>
                    </trkpt>
                    <trkpt lat="54.42931" lon="10.221364999999999">
                        <ele>0</ele>
                        <time>2022-08-18T13:35:19Z</time>
                                                <extensions>
                            <sog>6.0</sog>
<cog>193.0</cog>
                        </extensions>
                    </trkpt>
                    <trkpt lat="54.42772333333333" lon="10.220699999999999">
                        <ele>0</ele>
                        <time>2022-08-18T13:36:19Z</time>
                                                <extensions>
                            <sog>6.0</sog>
<cog>193.3</cog>
                        </extensions>
                    </trkpt>
                    <trkpt lat="54.42692" lon="10.220393333333334">
                        <ele>0</ele>
                        <time>2022-08-18T13:36:48Z</time>
                                                <extensions>
                            <sog>6.0</sog>
<cog>193.0</cog>
                        </extensions>
                    </trkpt>
                    <trkpt lat="54.42606166666667" lon="10.220065">
                        <ele>0</ele>
                        <time>2022-08-18T13:37:20Z</time>
                                                <extensions>
                            <sog>5.8</sog>
<cog>193.2</cog>
                        </extensions>
                    </trkpt>
                    <trkpt lat="54.42530166666666" lon="10.219763333333333">
                        <ele>0</ele>
                        <time>2022-08-18T13:37:49Z</time>
                                                <extensions>
                            <sog>6.0</sog>
<cog>191.8</cog>
                        </extensions>
                    </trkpt>
                    <trkpt lat="54.42447833333333" lon="10.219446666666666">
                        <ele>0</ele>
                        <time>2022-08-18T13:38:20Z</time>
                                                <extensions>
                            <sog>5.9</sog>
<cog>193.9</cog>
                        </extensions>
                    </trkpt>
                    <trkpt lat="54.422868333333334" lon="10.218828333333333">
                        <ele>0</ele>
                        <time>2022-08-18T13:39:21Z</time>
                                                <extensions>
                            <sog>5.8</sog>
<cog>193.7</cog>
                        </extensions>
                    </trkpt>
                    <trkpt lat="54.42131166666666" lon="10.218205000000001">
                        <ele>0</ele>
                        <time>2022-08-18T13:40:21Z</time>
                                                <extensions>
                            <sog>5.6</sog>
<cog>197.2</cog>
                        </extensions>
                    </trkpt>
                    <trkpt lat="54.420595000000006" lon="10.217903333333334">
                        <ele>0</ele>
                        <time>2022-08-18T13:40:49Z</time>
                                                <extensions>
                            <sog>5.6</sog>
<cog>192.2</cog>
                        </extensions>
                    </trkpt>
                    <trkpt lat="54.41982333333333" lon="10.217603333333333">
                        <ele>0</ele>
                        <time>2022-08-18T13:41:19Z</time>
                                                <extensions>
                            <sog>5.8</sog>
<cog>195.6</cog>
                        </extensions>
                    </trkpt>
                    <trkpt lat="54.41905333333333" lon="10.217276666666667">
                        <ele>0</ele>
                        <time>2022-08-18T13:41:49Z</time>
                                                <extensions>
                            <sog>5.6</sog>
<cog>193.3</cog>
                        </extensions>
                    </trkpt>
                    <trkpt lat="54.417500000000004" lon="10.216628333333334">
                        <ele>0</ele>
                        <time>2022-08-18T13:42:49Z</time>
                                                <extensions>
                            <sog>5.6</sog>
<cog>195.3</cog>
                        </extensions>
                    </trkpt>
                    <trkpt lat="54.41678" lon="10.216325000000001">
                        <ele>0</ele>
                        <time>2022-08-18T13:43:19Z</time>
                                                <extensions>
                            <sog>5.4</sog>
<cog>193.2</cog>
                        </extensions>
                    </trkpt>
                    <trkpt lat="54.416063333333334" lon="10.216013333333333">
                        <ele>0</ele>
                        <time>2022-08-18T13:43:49Z</time>
                                                <extensions>
                            <sog>5.4</sog>
<cog>193.2</cog>
                        </extensions>
                    </trkpt>
                    <trkpt lat="54.41534166666667" lon="10.215711666666666">
                        <ele>0</ele>
                        <time>2022-08-18T13:44:19Z</time>
                                                <extensions>
                            <sog>5.4</sog>
<cog>195.1</cog>
                        </extensions>
                    </trkpt>
                    <trkpt lat="54.414631666666665" lon="10.21542">
                        <ele>0</ele>
                        <time>2022-08-18T13:44:48Z</time>
                                                <extensions>
                            <sog>5.5</sog>
<cog>190.4</cog>
                        </extensions>
                    </trkpt>
                    <trkpt lat="54.413866666666664" lon="10.215181666666666">
                        <ele>0</ele>
                        <time>2022-08-18T13:45:19Z</time>
                                                <extensions>
                            <sog>5.3</sog>
<cog>191.4</cog>
                        </extensions>
                    </trkpt>
                    <trkpt lat="54.413156666666666" lon="10.214916666666666">
                        <ele>0</ele>
                        <time>2022-08-18T13:45:48Z</time>
                                                <extensions>
                            <sog>5.4</sog>
<cog>194.1</cog>
                        </extensions>
                    </trkpt>
                    <trkpt lat="54.412415" lon="10.214621666666666">
                        <ele>0</ele>
                        <time>2022-08-18T13:46:19Z</time>
                                                <extensions>
                            <sog>5.6</sog>
<cog>194.5</cog>
                        </extensions>
                    </trkpt>
                    <trkpt lat="54.411584999999995" lon="10.214343333333334">
                        <ele>0</ele>
                        <time>2022-08-18T13:46:51Z</time>
                                                <extensions>
                            <sog>5.6</sog>
<cog>186.9</cog>
                        </extensions>
                    </trkpt>
                    <trkpt lat="54.41085833333333" lon="10.214246666666666">
                        <ele>0</ele>
                        <time>2022-08-18T13:47:19Z</time>
                                                <extensions>
                            <sog>5.6</sog>
<cog>184.8</cog>
                        </extensions>
                    </trkpt>
                    <trkpt lat="54.41008" lon="10.21419">
                        <ele>0</ele>
                        <time>2022-08-18T13:47:49Z</time>
                                                <extensions>
                            <sog>5.6</sog>
<cog>184.5</cog>
                        </extensions>
                    </trkpt>
                    <trkpt lat="54.409281666666665" lon="10.214108333333334">
                        <ele>0</ele>
                        <time>2022-08-18T13:48:20Z</time>
                                                <extensions>
                            <sog>5.5</sog>
<cog>182.7</cog>
                        </extensions>
                    </trkpt>
                    <trkpt lat="54.407795" lon="10.213993333333333">
                        <ele>0</ele>
                        <time>2022-08-18T13:49:18Z</time>
                                                <extensions>
                            <sog>5.6</sog>
<cog>186.2</cog>
                        </extensions>
                    </trkpt>
                    <trkpt lat="54.407000000000004" lon="10.213908333333334">
                        <ele>0</ele>
                        <time>2022-08-18T13:49:49Z</time>
                                                <extensions>
                            <sog>5.6</sog>
<cog>182.0</cog>
                        </extensions>
                    </trkpt>
                    <trkpt lat="54.40618666666667" lon="10.213911666666666">
                        <ele>0</ele>
                        <time>2022-08-18T13:50:20Z</time>
                                                <extensions>
                            <sog>5.7</sog>
<cog>178.3</cog>
                        </extensions>
                    </trkpt>
                    <trkpt lat="54.40540333333333" lon="10.213940000000001">
                        <ele>0</ele>
                        <time>2022-08-18T13:50:50Z</time>
                                                <extensions>
                            <sog>5.6</sog>
<cog>180.9</cog>
                        </extensions>
                    </trkpt>
                    <trkpt lat="54.404626666666665" lon="10.213925">
                        <ele>0</ele>
                        <time>2022-08-18T13:51:20Z</time>
                                                <extensions>
                            <sog>5.6</sog>
<cog>183.3</cog>
                        </extensions>
                    </trkpt>
                    <trkpt lat="54.40388" lon="10.213883333333333">
                        <ele>0</ele>
                        <time>2022-08-18T13:51:49Z</time>
                                                <extensions>
                            <sog>5.6</sog>
<cog>178.7</cog>
                        </extensions>
                    </trkpt>
                    <trkpt lat="54.403106666666666" lon="10.21391">
                        <ele>0</ele>
                        <time>2022-08-18T13:52:19Z</time>
                                                <extensions>
                            <sog>5.2</sog>
<cog>174.5</cog>
                        </extensions>
                    </trkpt>
                    <trkpt lat="54.40245" lon="10.214178333333333">
                        <ele>0</ele>
                        <time>2022-08-18T13:52:48Z</time>
                                                <extensions>
                            <sog>4.8</sog>
<cog>158.7</cog>
                        </extensions>
                    </trkpt>
                    <trkpt lat="54.40136333333333" lon="10.213476666666667">
                        <ele>0</ele>
                        <time>2022-08-18T13:54:18Z</time>
                                                <extensions>
                            <sog>2.7</sog>
<cog>236.0</cog>
                        </extensions>
                    </trkpt>
                    <trkpt lat="54.400886666666665" lon="10.213615">
                        <ele>0</ele>
                        <time>2022-08-18T13:55:19Z</time>
                                                <extensions>
                            <sog>1.9</sog>
<cog>137.1</cog>
                        </extensions>
                    </trkpt>
                    <trkpt lat="54.40050166666666" lon="10.213873333333334">
                        <ele>0</ele>
                        <time>2022-08-18T13:56:18Z</time>
                                                <extensions>
                            <sog>0.2</sog>
<cog>193.1</cog>
                        </extensions>
                    </trkpt>
                    <trkpt lat="54.400488333333335" lon="10.213861666666666">
                        <ele>0</ele>
                        <time>2022-08-18T13:56:49Z</time>
                                                <extensions>
                            <sog>0.0</sog>
<cog>193.1</cog>
                        </extensions>
                    </trkpt>
                    <trkpt lat="54.40049" lon="10.213873333333334">
                        <ele>0</ele>
                        <time>2022-08-18T13:57:19Z</time>
                                                <extensions>
                            <sog>0.1</sog>
<cog>193.1</cog>
                        </extensions>
                    </trkpt>
                    <trkpt lat="54.40049833333333" lon="10.213828333333334">
                        <ele>0</ele>
                        <time>2022-08-18T14:00:48Z</time>
                                                <extensions>
                            <sog>0.0</sog>
<cog>193.1</cog>
                        </extensions>
                    </trkpt>
                    <trkpt lat="54.40049833333333" lon="10.213828333333334">
                        <ele>0</ele>
                        <time>2022-08-18T14:00:48Z</time>
                                                <extensions>
                            <sog>0.0</sog>
<cog>193.1</cog>
                        </extensions>
                    </trkpt>
                    <trkpt lat="54.400495" lon="10.213816666666666">
                        <ele>0</ele>
                        <time>2022-08-18T14:06:51Z</time>
                                                <extensions>
                            <sog>0.0</sog>
<cog>193.1</cog>
                        </extensions>
                    </trkpt>
                    <trkpt lat="54.40049" lon="10.213873333333334">
                        <ele>0</ele>
                        <time>2022-08-18T14:09:48Z</time>
                                                <extensions>
                            <sog>0.0</sog>
<cog>193.1</cog>
                        </extensions>
                    </trkpt>
                    <trkpt lat="54.40047833333333" lon="10.213843333333333">
                        <ele>0</ele>
                        <time>2022-08-18T14:18:49Z</time>
                                                <extensions>
                            <sog>0.0</sog>
<cog>193.1</cog>
                        </extensions>
                    </trkpt>
                    <trkpt lat="54.400486666666666" lon="10.213851666666667">
                        <ele>0</ele>
                        <time>2022-08-18T14:21:49Z</time>
                                                <extensions>
                            <sog>0.1</sog>
<cog>193.1</cog>
                        </extensions>
                    </trkpt>
                    <trkpt lat="54.400495" lon="10.213826666666668">
                        <ele>0</ele>
                        <time>2022-08-18T14:24:48Z</time>
                                                <extensions>
                            <sog>0.0</sog>
<cog>193.1</cog>
                        </extensions>
                    </trkpt>
                    <trkpt lat="54.400486666666666" lon="10.213861666666666">
                        <ele>0</ele>
                        <time>2022-08-18T14:27:48Z</time>
                                                <extensions>
                            <sog>0.0</sog>
<cog>193.1</cog>
                        </extensions>
                    </trkpt>
                    <trkpt lat="54.40049833333333" lon="10.213853333333333">
                        <ele>0</ele>
                        <time>2022-08-18T14:30:49Z</time>
                                                <extensions>
                            <sog>0.0</sog>
<cog>193.1</cog>
                        </extensions>
                    </trkpt>
                    <trkpt lat="54.400470000000006" lon="10.213863333333334">
                        <ele>0</ele>
                        <time>2022-08-18T14:33:49Z</time>
                                                <extensions>
                            <sog>0.0</sog>
<cog>193.1</cog>
                        </extensions>
                    </trkpt>
                    <trkpt lat="54.40048" lon="10.213858333333333">
                        <ele>0</ele>
                        <time>2022-08-18T14:36:49Z</time>
                                                <extensions>
                            <sog>0.0</sog>
<cog>193.1</cog>
                        </extensions>
                    </trkpt>
                    <trkpt lat="54.40050333333333" lon="10.213858333333333">
                        <ele>0</ele>
                        <time>2022-08-18T14:39:49Z</time>
                                                <extensions>
                            <sog>0.0</sog>
<cog>193.1</cog>
                        </extensions>
                    </trkpt>
                    <trkpt lat="54.400470000000006" lon="10.213851666666667">
                        <ele>0</ele>
                        <time>2022-08-18T14:42:49Z</time>
                                                <extensions>
                            <sog>0.0</sog>
<cog>193.1</cog>
                        </extensions>
                    </trkpt>
                    <trkpt lat="54.40049666666666" lon="10.213871666666668">
                        <ele>0</ele>
                        <time>2022-08-18T14:45:49Z</time>
                                                <extensions>
                            <sog>0.0</sog>
<cog>193.1</cog>
                        </extensions>
                    </trkpt>
                    <trkpt lat="54.400475" lon="10.213863333333334">
                        <ele>0</ele>
                        <time>2022-08-18T14:48:50Z</time>
                                                <extensions>
                            <sog>0.0</sog>
<cog>193.1</cog>
                        </extensions>
                    </trkpt>
                    <trkpt lat="54.40050833333333" lon="10.213846666666665">
                        <ele>0</ele>
                        <time>2022-08-18T14:54:49Z</time>
                                                <extensions>
                            <sog>0.0</sog>
<cog>193.1</cog>
                        </extensions>
                    </trkpt>
                    <trkpt lat="54.400486666666666" lon="10.213865">
                        <ele>0</ele>
                        <time>2022-08-18T14:57:50Z</time>
                                                <extensions>
                            <sog>0.0</sog>
<cog>193.1</cog>
                        </extensions>
                    </trkpt>
                    <trkpt lat="54.400475" lon="10.213858333333333">
                        <ele>0</ele>
                        <time>2022-08-18T15:06:49Z</time>
                                                <extensions>
                            <sog>0.0</sog>
<cog>193.1</cog>
                        </extensions>
                    </trkpt>
                    <trkpt lat="54.40047833333333" lon="10.213861666666666">
                        <ele>0</ele>
                        <time>2022-08-18T15:09:50Z</time>
                                                <extensions>
                            <sog>0.0</sog>
<cog>193.1</cog>
                        </extensions>
                    </trkpt>
                    <trkpt lat="54.400485" lon="10.213856666666667">
                        <ele>0</ele>
                        <time>2022-08-18T15:15:49Z</time>
                                                <extensions>
                            <sog>0.0</sog>
<cog>193.1</cog>
                        </extensions>
                    </trkpt>
                    <trkpt lat="54.40049333333333" lon="10.213836666666667">
                        <ele>0</ele>
                        <time>2022-08-18T15:18:49Z</time>
                                                <extensions>
                            <sog>0.0</sog>
<cog>193.1</cog>
                        </extensions>
                    </trkpt>
                    <trkpt lat="54.4005" lon="10.213858333333333">
                        <ele>0</ele>
                        <time>2022-08-18T15:27:53Z</time>
                                                <extensions>
                            <sog>0.0</sog>
<cog>193.1</cog>
                        </extensions>
                    </trkpt>
                    <trkpt lat="54.400486666666666" lon="10.213855">
                        <ele>0</ele>
                        <time>2022-08-18T15:30:49Z</time>
                                                <extensions>
                            <sog>0.0</sog>
<cog>193.1</cog>
                        </extensions>
                    </trkpt>
                    <trkpt lat="54.400504999999995" lon="10.213855">
                        <ele>0</ele>
                        <time>2022-08-18T15:36:49Z</time>
                                                <extensions>
                            <sog>0.0</sog>
<cog>193.1</cog>
                        </extensions>
                    </trkpt>
                    <trkpt lat="54.400488333333335" lon="10.213846666666665">
                        <ele>0</ele>
                        <time>2022-08-18T15:42:49Z</time>
                                                <extensions>
                            <sog>0.0</sog>
<cog>193.1</cog>
                        </extensions>
                    </trkpt>
                    <trkpt lat="54.40051166666667" lon="10.213845">
                        <ele>0</ele>
                        <time>2022-08-18T15:45:49Z</time>
                                                <extensions>
                            <sog>0.0</sog>
<cog>193.1</cog>
                        </extensions>
                    </trkpt>
                    <trkpt lat="54.40047666666667" lon="10.213853333333333">
                        <ele>0</ele>
                        <time>2022-08-18T15:48:49Z</time>
                                                <extensions>
                            <sog>0.0</sog>
<cog>193.1</cog>
                        </extensions>
                    </trkpt>
                    <trkpt lat="54.400488333333335" lon="10.21386">
                        <ele>0</ele>
                        <time>2022-08-18T15:54:49Z</time>
                                                <extensions>
                            <sog>0.0</sog>
<cog>193.1</cog>
                        </extensions>
                    </trkpt>
                    <trkpt lat="54.40049" lon="10.213871666666668">
                        <ele>0</ele>
                        <time>2022-08-18T16:00:49Z</time>
                                                <extensions>
                            <sog>0.0</sog>
<cog>193.1</cog>
                        </extensions>
                    </trkpt>
                    <trkpt lat="54.40049" lon="10.213871666666668">
                        <ele>0</ele>
                        <time>2022-08-18T16:00:49Z</time>
                                                <extensions>
                            <sog>0.0</sog>
<cog>193.1</cog>
                        </extensions>
                    </trkpt>
                    <trkpt lat="54.400481666666664" lon="10.21385">
                        <ele>0</ele>
                        <time>2022-08-18T16:03:49Z</time>
                                                <extensions>
                            <sog>0.0</sog>
<cog>193.1</cog>
                        </extensions>
                    </trkpt>
                    <trkpt lat="54.40047166666667" lon="10.213855">
                        <ele>0</ele>
                        <time>2022-08-18T16:06:49Z</time>
                                                <extensions>
                            <sog>0.0</sog>
<cog>193.1</cog>
                        </extensions>
                    </trkpt>
                    <trkpt lat="54.400485" lon="10.213855">
                        <ele>0</ele>
                        <time>2022-08-18T16:09:51Z</time>
                                                <extensions>
                            <sog>0.0</sog>
<cog>193.1</cog>
                        </extensions>
                    </trkpt>
                    <trkpt lat="54.40049333333333" lon="10.213840000000001">
                        <ele>0</ele>
                        <time>2022-08-18T16:12:49Z</time>
                                                <extensions>
                            <sog>0.0</sog>
<cog>193.1</cog>
                        </extensions>
                    </trkpt>
                    <trkpt lat="54.400485" lon="10.213838333333333">
                        <ele>0</ele>
                        <time>2022-08-18T16:15:49Z</time>
                                                <extensions>
                            <sog>0.0</sog>
<cog>193.1</cog>
                        </extensions>
                    </trkpt>
                    <trkpt lat="54.40047166666667" lon="10.213846666666665">
                        <ele>0</ele>
                        <time>2022-08-18T16:18:49Z</time>
                                                <extensions>
                            <sog>0.0</sog>
<cog>193.1</cog>
                        </extensions>
                    </trkpt>
                    <trkpt lat="54.40049166666667" lon="10.213851666666667">
                        <ele>0</ele>
                        <time>2022-08-18T16:21:49Z</time>
                                                <extensions>
                            <sog>0.0</sog>
<cog>193.1</cog>
                        </extensions>
                    </trkpt>
                    <trkpt lat="54.400486666666666" lon="10.213836666666667">
                        <ele>0</ele>
                        <time>2022-08-18T16:30:48Z</time>
                                                <extensions>
                            <sog>0.0</sog>
<cog>193.1</cog>
                        </extensions>
                    </trkpt>
                    <trkpt lat="54.40049" lon="10.213845">
                        <ele>0</ele>
                        <time>2022-08-18T16:33:49Z</time>
                                                <extensions>
                            <sog>0.0</sog>
<cog>193.1</cog>
                        </extensions>
                    </trkpt>
                    <trkpt lat="54.400504999999995" lon="10.213869999999998">
                        <ele>0</ele>
                        <time>2022-08-18T16:39:49Z</time>
                                                <extensions>
                            <sog>0.0</sog>
<cog>193.1</cog>
                        </extensions>
                    </trkpt>
                    <trkpt lat="54.40049833333333" lon="10.213841666666667">
                        <ele>0</ele>
                        <time>2022-08-18T16:42:50Z</time>
                                                <extensions>
                            <sog>0.0</sog>
<cog>193.1</cog>
                        </extensions>
                    </trkpt>
                    <trkpt lat="54.40048" lon="10.213826666666668">
                        <ele>0</ele>
                        <time>2022-08-18T16:45:50Z</time>
                                                <extensions>
                            <sog>0.0</sog>
<cog>193.1</cog>
                        </extensions>
                    </trkpt>
                    <trkpt lat="54.4005" lon="10.213855">
                        <ele>0</ele>
                        <time>2022-08-18T16:54:50Z</time>
                                                <extensions>
                            <sog>0.0</sog>
<cog>193.1</cog>
                        </extensions>
                    </trkpt>
                    <trkpt lat="54.40049333333333" lon="10.21386">
                        <ele>0</ele>
                        <time>2022-08-18T17:00:50Z</time>
                                                <extensions>
                            <sog>0.0</sog>
<cog>193.1</cog>
                        </extensions>
                    </trkpt>
                    <trkpt lat="54.40049333333333" lon="10.21386">
                        <ele>0</ele>
                        <time>2022-08-18T17:00:50Z</time>
                                                <extensions>
                            <sog>0.0</sog>
<cog>193.1</cog>
                        </extensions>
                    </trkpt>
                    <trkpt lat="54.40050166666666" lon="10.21383">
                        <ele>0</ele>
                        <time>2022-08-18T17:06:49Z</time>
                                                <extensions>
                            <sog>0.0</sog>
<cog>193.1</cog>
                        </extensions>
                    </trkpt>
                    <trkpt lat="54.40049166666667" lon="10.213865">
                        <ele>0</ele>
                        <time>2022-08-18T17:09:51Z</time>
                                                <extensions>
                            <sog>0.0</sog>
<cog>193.1</cog>
                        </extensions>
                    </trkpt>
                    <trkpt lat="54.40047833333333" lon="10.21385">
                        <ele>0</ele>
                        <time>2022-08-18T17:21:50Z</time>
                                                <extensions>
                            <sog>0.0</sog>
<cog>193.1</cog>
                        </extensions>
                    </trkpt>
                    <trkpt lat="54.40046666666667" lon="10.213873333333334">
                        <ele>0</ele>
                        <time>2022-08-18T17:24:49Z</time>
                                                <extensions>
                            <sog>0.0</sog>
<cog>193.1</cog>
                        </extensions>
                    </trkpt>
                    <trkpt lat="54.400475" lon="10.213831666666666">
                        <ele>0</ele>
                        <time>2022-08-18T17:27:49Z</time>
                                                <extensions>
                            <sog>0.0</sog>
<cog>193.1</cog>
                        </extensions>
                    </trkpt>
                    <trkpt lat="54.40049333333333" lon="10.21385">
                        <ele>0</ele>
                        <time>2022-08-18T17:30:50Z</time>
                                                <extensions>
                            <sog>0.0</sog>
<cog>193.1</cog>
                        </extensions>
                    </trkpt>
                    <trkpt lat="54.4005" lon="10.213846666666665">
                        <ele>0</ele>
                        <time>2022-08-18T17:39:49Z</time>
                                                <extensions>
                            <sog>0.0</sog>
<cog>193.1</cog>
                        </extensions>
                    </trkpt>
                    <trkpt lat="54.40047833333333" lon="10.213828333333334">
                        <ele>0</ele>
                        <time>2022-08-18T17:45:50Z</time>
                                                <extensions>
                            <sog>0.0</sog>
<cog>193.1</cog>
                        </extensions>
                    </trkpt>
                    <trkpt lat="54.40048" lon="10.213833333333334">
                        <ele>0</ele>
                        <time>2022-08-18T17:48:49Z</time>
                                                <extensions>
                            <sog>0.0</sog>
<cog>193.1</cog>
                        </extensions>
                    </trkpt>
                    <trkpt lat="54.40047666666667" lon="10.213858333333333">
                        <ele>0</ele>
                        <time>2022-08-18T17:51:50Z</time>
                                                <extensions>
                            <sog>0.0</sog>
<cog>193.1</cog>
                        </extensions>
                    </trkpt>
                    <trkpt lat="54.400485" lon="10.213845">
                        <ele>0</ele>
                        <time>2022-08-18T17:54:49Z</time>
                                                <extensions>
                            <sog>0.0</sog>
<cog>193.1</cog>
                        </extensions>
                    </trkpt>
                    <trkpt lat="54.400495" lon="10.213840000000001">
                        <ele>0</ele>
                        <time>2022-08-18T17:57:49Z</time>
                                                <extensions>
                            <sog>0.0</sog>
<cog>193.1</cog>
                        </extensions>
                    </trkpt>
                    <trkpt lat="54.40049833333333" lon="10.21386">
                        <ele>0</ele>
                        <time>2022-08-18T18:06:49Z</time>
                                                <extensions>
                            <sog>0.0</sog>
<cog>193.1</cog>
                        </extensions>
                    </trkpt>
                    <trkpt lat="54.40049666666666" lon="10.213843333333333">
                        <ele>0</ele>
                        <time>2022-08-18T18:09:49Z</time>
                                                <extensions>
                            <sog>0.0</sog>
<cog>193.1</cog>
                        </extensions>
                    </trkpt>
                    <trkpt lat="54.40049" lon="10.213835">
                        <ele>0</ele>
                        <time>2022-08-18T18:12:51Z</time>
                                                <extensions>
                            <sog>0.0</sog>
<cog>193.1</cog>
                        </extensions>
                    </trkpt>
                    <trkpt lat="54.400488333333335" lon="10.213861666666666">
                        <ele>0</ele>
                        <time>2022-08-18T18:18:51Z</time>
                                                <extensions>
                            <sog>0.0</sog>
<cog>193.1</cog>
                        </extensions>
                    </trkpt>
                    <trkpt lat="54.400510000000004" lon="10.213843333333333">
                        <ele>0</ele>
                        <time>2022-08-18T18:24:51Z</time>
                                                <extensions>
                            <sog>0.0</sog>
<cog>193.1</cog>
                        </extensions>
                    </trkpt>
                    <trkpt lat="54.40050333333333" lon="10.213848333333335">
                        <ele>0</ele>
                        <time>2022-08-18T18:27:53Z</time>
                                                <extensions>
                            <sog>0.0</sog>
<cog>193.1</cog>
                        </extensions>
                    </trkpt>
                    <trkpt lat="54.40049" lon="10.213841666666667">
                        <ele>0</ele>
                        <time>2022-08-18T18:42:49Z</time>
                                                <extensions>
                            <sog>0.0</sog>
<cog>193.1</cog>
                        </extensions>
                    </trkpt>
                    <trkpt lat="54.40051166666667" lon="10.213845">
                        <ele>0</ele>
                        <time>2022-08-18T18:45:49Z</time>
                                                <extensions>
                            <sog>0.0</sog>
<cog>193.1</cog>
                        </extensions>
                    </trkpt>
                    <trkpt lat="54.40049333333333" lon="10.21386">
                        <ele>0</ele>
                        <time>2022-08-18T18:48:49Z</time>
                                                <extensions>
                            <sog>0.0</sog>
<cog>193.1</cog>
                        </extensions>
                    </trkpt>
                    <trkpt lat="54.40049666666666" lon="10.213873333333334">
                        <ele>0</ele>
                        <time>2022-08-18T18:54:49Z</time>
                                                <extensions>
                            <sog>0.0</sog>
<cog>193.1</cog>
                        </extensions>
                    </trkpt>
                    <trkpt lat="54.400515000000006" lon="10.213861666666666">
                        <ele>0</ele>
                        <time>2022-08-18T18:57:49Z</time>
                                                <extensions>
                            <sog>0.0</sog>
<cog>193.1</cog>
                        </extensions>
                    </trkpt>
                    <trkpt lat="54.400506666666665" lon="10.21385">
                        <ele>0</ele>
                        <time>2022-08-18T19:00:48Z</time>
                                                <extensions>
                            <sog>0.0</sog>
<cog>193.1</cog>
                        </extensions>
                    </trkpt>
                    <trkpt lat="54.400506666666665" lon="10.21385">
                        <ele>0</ele>
                        <time>2022-08-18T19:00:48Z</time>
                                                <extensions>
                            <sog>0.0</sog>
<cog>193.1</cog>
                        </extensions>
                    </trkpt>
                    <trkpt lat="54.400488333333335" lon="10.213869999999998">
                        <ele>0</ele>
                        <time>2022-08-18T19:06:48Z</time>
                                                <extensions>
                            <sog>0.0</sog>
<cog>193.1</cog>
                        </extensions>
                    </trkpt>
                    <trkpt lat="54.40050166666666" lon="10.213825000000002">
                        <ele>0</ele>
                        <time>2022-08-18T19:12:48Z</time>
                                                <extensions>
                            <sog>0.0</sog>
<cog>193.1</cog>
                        </extensions>
                    </trkpt>
                    <trkpt lat="54.40051166666667" lon="10.213816666666666">
                        <ele>0</ele>
                        <time>2022-08-18T19:18:51Z</time>
                                                <extensions>
                            <sog>0.0</sog>
<cog>193.1</cog>
                        </extensions>
                    </trkpt>
                    <trkpt lat="54.400485" lon="10.213881666666667">
                        <ele>0</ele>
                        <time>2022-08-18T19:30:50Z</time>
                                                <extensions>
                            <sog>0.0</sog>
<cog>193.1</cog>
                        </extensions>
                    </trkpt>
                    <trkpt lat="54.400481666666664" lon="10.213855">
                        <ele>0</ele>
                        <time>2022-08-18T19:36:49Z</time>
                                                <extensions>
                            <sog>0.0</sog>
<cog>193.1</cog>
                        </extensions>
                    </trkpt>
                    <trkpt lat="54.400486666666666" lon="10.213835">
                        <ele>0</ele>
                        <time>2022-08-18T19:42:49Z</time>
                                                <extensions>
                            <sog>0.0</sog>
<cog>193.1</cog>
                        </extensions>
                    </trkpt>
                    <trkpt lat="54.400483333333334" lon="10.213856666666667">
                        <ele>0</ele>
                        <time>2022-08-18T19:48:49Z</time>
                                                <extensions>
                            <sog>0.0</sog>
<cog>193.1</cog>
                        </extensions>
                    </trkpt>
                    <trkpt lat="54.40045833333333" lon="10.213868333333332">
                        <ele>0</ele>
                        <time>2022-08-18T19:54:49Z</time>
                                                <extensions>
                            <sog>0.0</sog>
<cog>193.1</cog>
                        </extensions>
                    </trkpt>
                    <trkpt lat="54.40046666666667" lon="10.213846666666665">
                        <ele>0</ele>
                        <time>2022-08-18T19:57:51Z</time>
                                                <extensions>
                            <sog>0.0</sog>
<cog>193.1</cog>
                        </extensions>
                    </trkpt>
                    <trkpt lat="54.400485" lon="10.213853333333333">
                        <ele>0</ele>
                        <time>2022-08-18T20:00:48Z</time>
                                                <extensions>
                            <sog>0.0</sog>
<cog>193.1</cog>
                        </extensions>
                    </trkpt>
                    <trkpt lat="54.400485" lon="10.213853333333333">
                        <ele>0</ele>
                        <time>2022-08-18T20:00:48Z</time>
                                                <extensions>
                            <sog>0.0</sog>
<cog>193.1</cog>
                        </extensions>
                    </trkpt>
                    <trkpt lat="54.40047166666667" lon="10.213825000000002">
                        <ele>0</ele>
                        <time>2022-08-18T20:06:49Z</time>
                                                <extensions>
                            <sog>0.0</sog>
<cog>193.1</cog>
                        </extensions>
                    </trkpt>
                    <trkpt lat="54.400465000000004" lon="10.213840000000001">
                        <ele>0</ele>
                        <time>2022-08-18T20:12:49Z</time>
                                                <extensions>
                            <sog>0.0</sog>
<cog>193.1</cog>
                        </extensions>
                    </trkpt>
                    <trkpt lat="54.40049666666666" lon="10.213840000000001">
                        <ele>0</ele>
                        <time>2022-08-18T20:18:51Z</time>
                                                <extensions>
                            <sog>0.0</sog>
<cog>193.1</cog>
                        </extensions>
                    </trkpt>
                    <trkpt lat="54.40046666666667" lon="10.213861666666666">
                        <ele>0</ele>
                        <time>2022-08-18T20:24:49Z</time>
                                                <extensions>
                            <sog>0.0</sog>
<cog>193.1</cog>
                        </extensions>
                    </trkpt>
                    <trkpt lat="54.40049833333333" lon="10.213848333333335">
                        <ele>0</ele>
                        <time>2022-08-18T20:30:49Z</time>
                                                <extensions>
                            <sog>0.0</sog>
<cog>193.1</cog>
                        </extensions>
                    </trkpt>
                    <trkpt lat="54.400488333333335" lon="10.213863333333334">
                        <ele>0</ele>
                        <time>2022-08-18T20:36:48Z</time>
                                                <extensions>
                            <sog>0.0</sog>
<cog>193.1</cog>
                        </extensions>
                    </trkpt>
                    <trkpt lat="54.400488333333335" lon="10.213833333333334">
                        <ele>0</ele>
                        <time>2022-08-18T20:42:49Z</time>
                                                <extensions>
                            <sog>0.0</sog>
<cog>193.1</cog>
                        </extensions>
                    </trkpt>
                    <trkpt lat="54.400486666666666" lon="10.213833333333334">
                        <ele>0</ele>
                        <time>2022-08-18T20:48:49Z</time>
                                                <extensions>
                            <sog>0.0</sog>
<cog>193.1</cog>
                        </extensions>
                    </trkpt>
                    <trkpt lat="54.400465000000004" lon="10.213818333333334">
                        <ele>0</ele>
                        <time>2022-08-18T20:51:50Z</time>
                                                <extensions>
                            <sog>0.0</sog>
<cog>193.1</cog>
                        </extensions>
                    </trkpt>
                    <trkpt lat="54.400481666666664" lon="10.213865">
                        <ele>0</ele>
                        <time>2022-08-18T20:57:51Z</time>
                                                <extensions>
                            <sog>0.0</sog>
<cog>193.1</cog>
                        </extensions>
                    </trkpt>
                    <trkpt lat="54.40049" lon="10.213865">
                        <ele>0</ele>
                        <time>2022-08-18T21:00:49Z</time>
                                                <extensions>
                            <sog>0.1</sog>
<cog>193.1</cog>
                        </extensions>
                    </trkpt>
                    <trkpt lat="54.40049" lon="10.213865">
                        <ele>0</ele>
                        <time>2022-08-18T21:00:49Z</time>
                                                <extensions>
                            <sog>0.1</sog>
<cog>193.1</cog>
                        </extensions>
                    </trkpt>
                    <trkpt lat="54.40051166666667" lon="10.213871666666668">
                        <ele>0</ele>
                        <time>2022-08-18T21:03:50Z</time>
                                                <extensions>
                            <sog>0.0</sog>
<cog>193.1</cog>
                        </extensions>
                    </trkpt>
                    <trkpt lat="54.40049" lon="10.213836666666667">
                        <ele>0</ele>
                        <time>2022-08-18T21:06:50Z</time>
                                                <extensions>
                            <sog>0.0</sog>
<cog>193.1</cog>
                        </extensions>
                    </trkpt>
                    <trkpt lat="54.400481666666664" lon="10.213858333333333">
                        <ele>0</ele>
                        <time>2022-08-18T21:12:49Z</time>
                                                <extensions>
                            <sog>0.0</sog>
<cog>193.1</cog>
                        </extensions>
                    </trkpt>
                    <trkpt lat="54.40050833333333" lon="10.213853333333333">
                        <ele>0</ele>
                        <time>2022-08-18T21:15:50Z</time>
                                                <extensions>
                            <sog>0.0</sog>
<cog>193.1</cog>
                        </extensions>
                    </trkpt>
                    <trkpt lat="54.4005" lon="10.213851666666667">
                        <ele>0</ele>
                        <time>2022-08-18T21:18:49Z</time>
                                                <extensions>
                            <sog>0.0</sog>
<cog>193.1</cog>
                        </extensions>
                    </trkpt>
                    <trkpt lat="54.40052333333333" lon="10.213856666666667">
                        <ele>0</ele>
                        <time>2022-08-18T21:24:49Z</time>
                                                <extensions>
                            <sog>0.0</sog>
<cog>193.1</cog>
                        </extensions>
                    </trkpt>
                    <trkpt lat="54.40050333333333" lon="10.21386">
                        <ele>0</ele>
                        <time>2022-08-18T21:30:49Z</time>
                                                <extensions>
                            <sog>0.0</sog>
<cog>193.1</cog>
                        </extensions>
                    </trkpt>
                    <trkpt lat="54.40053" lon="10.213861666666666">
                        <ele>0</ele>
                        <time>2022-08-18T21:36:49Z</time>
                                                <extensions>
                            <sog>0.0</sog>
<cog>193.1</cog>
                        </extensions>
                    </trkpt>
                    <trkpt lat="54.40050166666666" lon="10.213831666666666">
                        <ele>0</ele>
                        <time>2022-08-18T21:42:49Z</time>
                                                <extensions>
                            <sog>0.0</sog>
<cog>193.1</cog>
                        </extensions>
                    </trkpt>
                    <trkpt lat="54.40049666666666" lon="10.213858333333333">
                        <ele>0</ele>
                        <time>2022-08-18T21:48:49Z</time>
                                                <extensions>
                            <sog>0.0</sog>
<cog>193.1</cog>
                        </extensions>
                    </trkpt>
                    <trkpt lat="54.400488333333335" lon="10.213845">
                        <ele>0</ele>
                        <time>2022-08-18T21:51:49Z</time>
                                                <extensions>
                            <sog>0.0</sog>
<cog>193.1</cog>
                        </extensions>
                    </trkpt>
                    <trkpt lat="54.40049833333333" lon="10.213843333333333">
                        <ele>0</ele>
                        <time>2022-08-18T21:54:51Z</time>
                                                <extensions>
                            <sog>0.0</sog>
<cog>193.1</cog>
                        </extensions>
                    </trkpt>
                    <trkpt lat="54.40047333333334" lon="10.213875">
                        <ele>0</ele>
                        <time>2022-08-18T21:57:49Z</time>
                                                <extensions>
                            <sog>0.0</sog>
<cog>193.1</cog>
                        </extensions>
                    </trkpt>
                    <trkpt lat="54.40049" lon="10.213846666666665">
                        <ele>0</ele>
                        <time>2022-08-18T22:00:51Z</time>
                                                <extensions>
                            <sog>0.0</sog>
<cog>193.1</cog>
                        </extensions>
                    </trkpt>
                    <trkpt lat="54.40049" lon="10.213846666666665">
                        <ele>0</ele>
                        <time>2022-08-18T22:00:51Z</time>
                                                <extensions>
                            <sog>0.0</sog>
<cog>193.1</cog>
                        </extensions>
                    </trkpt>
                    <trkpt lat="54.400486666666666" lon="10.213838333333333">
                        <ele>0</ele>
                        <time>2022-08-18T22:06:49Z</time>
                                                <extensions>
                            <sog>0.0</sog>
<cog>193.1</cog>
                        </extensions>
                    </trkpt>
                    <trkpt lat="54.400486666666666" lon="10.213853333333333">
                        <ele>0</ele>
                        <time>2022-08-18T22:12:50Z</time>
                                                <extensions>
                            <sog>0.0</sog>
<cog>193.1</cog>
                        </extensions>
                    </trkpt>
                    <trkpt lat="54.400485" lon="10.213846666666665">
                        <ele>0</ele>
                        <time>2022-08-18T22:24:52Z</time>
                                                <extensions>
                            <sog>0.0</sog>
<cog>193.1</cog>
                        </extensions>
                    </trkpt>
                    <trkpt lat="54.40049666666666" lon="10.21385">
                        <ele>0</ele>
                        <time>2022-08-18T22:36:49Z</time>
                                                <extensions>
                            <sog>0.0</sog>
<cog>193.1</cog>
                        </extensions>
                    </trkpt>
                    <trkpt lat="54.40049666666666" lon="10.213846666666665">
                        <ele>0</ele>
                        <time>2022-08-18T22:39:49Z</time>
                                                <extensions>
                            <sog>0.0</sog>
<cog>193.1</cog>
                        </extensions>
                    </trkpt>
                    <trkpt lat="54.400486666666666" lon="10.213858333333333">
                        <ele>0</ele>
                        <time>2022-08-18T22:42:49Z</time>
                                                <extensions>
                            <sog>0.0</sog>
<cog>193.1</cog>
                        </extensions>
                    </trkpt>
                    <trkpt lat="54.4005" lon="10.213868333333332">
                        <ele>0</ele>
                        <time>2022-08-18T22:48:50Z</time>
                                                <extensions>
                            <sog>0.0</sog>
<cog>193.1</cog>
                        </extensions>
                    </trkpt>
                    <trkpt lat="54.400495" lon="10.213875">
                        <ele>0</ele>
                        <time>2022-08-18T22:54:51Z</time>
                                                <extensions>
                            <sog>0.0</sog>
<cog>193.1</cog>
                        </extensions>
                    </trkpt>
                    <trkpt lat="54.40049166666667" lon="10.213828333333334">
                        <ele>0</ele>
                        <time>2022-08-18T23:00:49Z</time>
                                                <extensions>
                            <sog>0.0</sog>
<cog>193.1</cog>
                        </extensions>
                    </trkpt>
                    <trkpt lat="54.40049166666667" lon="10.213828333333334">
                        <ele>0</ele>
                        <time>2022-08-18T23:00:49Z</time>
                                                <extensions>
                            <sog>0.0</sog>
<cog>193.1</cog>
                        </extensions>
                    </trkpt>
                    <trkpt lat="54.400495" lon="10.213853333333333">
                        <ele>0</ele>
                        <time>2022-08-18T23:03:49Z</time>
                                                <extensions>
                            <sog>0.0</sog>
<cog>193.1</cog>
                        </extensions>
                    </trkpt>
                    <trkpt lat="54.400470000000006" lon="10.213891666666665">
                        <ele>0</ele>
                        <time>2022-08-18T23:06:53Z</time>
                                                <extensions>
                            <sog>0.0</sog>
<cog>193.1</cog>
                        </extensions>
                    </trkpt>
                    <trkpt lat="54.400481666666664" lon="10.213888333333333">
                        <ele>0</ele>
                        <time>2022-08-18T23:12:49Z</time>
                                                <extensions>
                            <sog>0.0</sog>
<cog>193.1</cog>
                        </extensions>
                    </trkpt>
                    <trkpt lat="54.400486666666666" lon="10.213868333333332">
                        <ele>0</ele>
                        <time>2022-08-18T23:18:50Z</time>
                                                <extensions>
                            <sog>0.0</sog>
<cog>193.1</cog>
                        </extensions>
                    </trkpt>
                    <trkpt lat="54.40049166666667" lon="10.213845">
                        <ele>0</ele>
                        <time>2022-08-18T23:21:50Z</time>
                                                <extensions>
                            <sog>0.0</sog>
<cog>193.1</cog>
                        </extensions>
                    </trkpt>
                    <trkpt lat="54.40047833333333" lon="10.213863333333334">
                        <ele>0</ele>
                        <time>2022-08-18T23:27:49Z</time>
                                                <extensions>
                            <sog>0.0</sog>
<cog>193.1</cog>
                        </extensions>
                    </trkpt>
                    <trkpt lat="54.400481666666664" lon="10.21385">
                        <ele>0</ele>
                        <time>2022-08-18T23:30:49Z</time>
                                                <extensions>
                            <sog>0.0</sog>
<cog>193.1</cog>
                        </extensions>
                    </trkpt>
                    <trkpt lat="54.400475" lon="10.213853333333333">
                        <ele>0</ele>
                        <time>2022-08-18T23:36:49Z</time>
                                                <extensions>
                            <sog>0.0</sog>
<cog>193.1</cog>
                        </extensions>
                    </trkpt>
                    <trkpt lat="54.40049333333333" lon="10.213855">
                        <ele>0</ele>
                        <time>2022-08-18T23:39:50Z</time>
                                                <extensions>
                            <sog>0.0</sog>
<cog>193.1</cog>
                        </extensions>
                    </trkpt>
                    <trkpt lat="54.40049166666667" lon="10.213868333333332">
                        <ele>0</ele>
                        <time>2022-08-18T23:42:52Z</time>
                                                <extensions>
                            <sog>0.0</sog>
<cog>193.1</cog>
                        </extensions>
                    </trkpt>
                    <trkpt lat="54.400475" lon="10.213846666666665">
                        <ele>0</ele>
                        <time>2022-08-18T23:48:50Z</time>
                                                <extensions>
                            <sog>0.0</sog>
<cog>193.1</cog>
                        </extensions>
                    </trkpt>
                    <trkpt lat="54.40048" lon="10.213846666666665">
                        <ele>0</ele>
                        <time>2022-08-18T23:51:50Z</time>
                                                <extensions>
                            <sog>0.0</sog>
<cog>193.1</cog>
                        </extensions>
                    </trkpt>
                    <trkpt lat="54.400468333333336" lon="10.213883333333333">
                        <ele>0</ele>
                        <time>2022-08-18T23:54:50Z</time>
                                                <extensions>
                            <sog>0.0</sog>
<cog>193.1</cog>
                        </extensions>
                    </trkpt>
                    </trkseg>
                </trk>
</gpx>