<?xml version="1.0" encoding="UTF-8"?>
<gpx version="1.1" creator="AIS-to-GPX Converter" xmlns="http://www.topografix.com/GPX/1/1">
                <trk>
                    <name>anon0195</name>
                    <trkseg>
                                            <trkpt lat="54.435655" lon="10.170915">
                        <ele>0</ele>
                        <time>2022-08-18T00:04:19Z</time>
                        <extensions>
    <sog>0.1</sog>
</extensions>
                    </trkpt>
                    <trkpt lat="54.43572666666667" lon="10.17083">
                        <ele>0</ele>
                        <time>2022-08-18T00:13:19Z</time>
                        <extensions>
    <sog>0.0</sog>
</extensions>
                    </trkpt>
                    <trkpt lat="54.43570166666667" lon="10.170811666666667">
                        <ele>0</ele>
                        <time>2022-08-18T00:16:20Z</time>
                        <extensions>
    <sog>0.0</sog>
</extensions>
                    </trkpt>
                    <trkpt lat="54.435759999999995" lon="10.170853333333334">
                        <ele>0</ele>
                        <time>2022-08-18T00:31:22Z</time>
                        <extensions>
    <sog>0.0</sog>
</extensions>
                    </trkpt>
                    <trkpt lat="54.43576333333333" lon="10.170890000000002">
                        <ele>0</ele>
                        <time>2022-08-18T00:37:19Z</time>
                        <extensions>
    <sog>0.0</sog>
</extensions>
                    </trkpt>
                    <trkpt lat="54.435759999999995" lon="10.170881666666666">
                        <ele>0</ele>
                        <time>2022-08-18T00:43:19Z</time>
                        <extensions>
    <sog>0.0</sog>
</extensions>
                    </trkpt>
                    <trkpt lat="54.43577166666667" lon="10.170866666666665">
                        <ele>0</ele>
                        <time>2022-08-18T00:46:21Z</time>
                        <extensions>
    <sog>0.0</sog>
</extensions>
                    </trkpt>
                    <trkpt lat="54.435696666666665" lon="10.170795">
                        <ele>0</ele>
                        <time>2022-08-18T01:07:21Z</time>
                        <extensions>
    <sog>0.0</sog>
</extensions>
                    </trkpt>
                    <trkpt lat="54.435723333333335" lon="10.170811666666667">
                        <ele>0</ele>
                        <time>2022-08-18T01:16:19Z</time>
                        <extensions>
    <sog>0.0</sog>
</extensions>
                    </trkpt>
                    <trkpt lat="54.435725000000005" lon="10.170831666666666">
                        <ele>0</ele>
                        <time>2022-08-18T01:22:21Z</time>
                        <extensions>
    <sog>0.0</sog>
</extensions>
                    </trkpt>
                    <trkpt lat="54.43577166666667" lon="10.170835">
                        <ele>0</ele>
                        <time>2022-08-18T01:28:20Z</time>
                        <extensions>
    <sog>0.0</sog>
</extensions>
                    </trkpt>
                    <trkpt lat="54.43577166666667" lon="10.170831666666666">
                        <ele>0</ele>
                        <time>2022-08-18T01:31:19Z</time>
                        <extensions>
    <sog>0.0</sog>
</extensions>
                    </trkpt>
                    <trkpt lat="54.43578333333333" lon="10.170846666666668">
                        <ele>0</ele>
                        <time>2022-08-18T01:34:19Z</time>
                        <extensions>
    <sog>0.0</sog>
</extensions>
                    </trkpt>
                    <trkpt lat="54.43578" lon="10.170868333333335">
                        <ele>0</ele>
                        <time>2022-08-18T01:49:20Z</time>
                        <extensions>
    <sog>0.0</sog>
</extensions>
                    </trkpt>
                    <trkpt lat="54.43574666666667" lon="10.170890000000002">
                        <ele>0</ele>
                        <time>2022-08-18T01:52:19Z</time>
                        <extensions>
    <sog>0.1</sog>
</extensions>
                    </trkpt>
                    <trkpt lat="54.435743333333335" lon="10.17087">
                        <ele>0</ele>
                        <time>2022-08-18T02:01:21Z</time>
                        <extensions>
    <sog>0.0</sog>
</extensions>
                    </trkpt>
                    <trkpt lat="54.435770000000005" lon="10.170843333333332">
                        <ele>0</ele>
                        <time>2022-08-18T02:13:19Z</time>
                        <extensions>
    <sog>0.0</sog>
</extensions>
                    </trkpt>
                    <trkpt lat="54.43577666666667" lon="10.170833333333333">
                        <ele>0</ele>
                        <time>2022-08-18T02:19:19Z</time>
                        <extensions>
    <sog>0.1</sog>
</extensions>
                    </trkpt>
                    <trkpt lat="54.435735" lon="10.170838333333334">
                        <ele>0</ele>
                        <time>2022-08-18T02:22:19Z</time>
                        <extensions>
    <sog>0.0</sog>
</extensions>
                    </trkpt>
                    <trkpt lat="54.435768333333336" lon="10.170841666666666">
                        <ele>0</ele>
                        <time>2022-08-18T02:25:20Z</time>
                        <extensions>
    <sog>0.0</sog>
</extensions>
                    </trkpt>
                    <trkpt lat="54.435815000000005" lon="10.170843333333332">
                        <ele>0</ele>
                        <time>2022-08-18T02:28:19Z</time>
                        <extensions>
    <sog>0.0</sog>
</extensions>
                    </trkpt>
                    <trkpt lat="54.435764999999996" lon="10.170853333333334">
                        <ele>0</ele>
                        <time>2022-08-18T02:37:21Z</time>
                        <extensions>
    <sog>0.0</sog>
</extensions>
                    </trkpt>
                    <trkpt lat="54.43575666666666" lon="10.170855">
                        <ele>0</ele>
                        <time>2022-08-18T02:40:19Z</time>
                        <extensions>
    <sog>0.0</sog>
</extensions>
                    </trkpt>
                    <trkpt lat="54.435745" lon="10.170861666666667">
                        <ele>0</ele>
                        <time>2022-08-18T02:52:19Z</time>
                        <extensions>
    <sog>0.0</sog>
</extensions>
                    </trkpt>
                    <trkpt lat="54.43571333333333" lon="10.170868333333335">
                        <ele>0</ele>
                        <time>2022-08-18T02:55:19Z</time>
                        <extensions>
    <sog>0.0</sog>
</extensions>
                    </trkpt>
                    <trkpt lat="54.43574" lon="10.170843333333332">
                        <ele>0</ele>
                        <time>2022-08-18T03:01:21Z</time>
                        <extensions>
    <sog>0.0</sog>
</extensions>
                    </trkpt>
                    <trkpt lat="54.43573666666667" lon="10.17087">
                        <ele>0</ele>
                        <time>2022-08-18T03:04:20Z</time>
                        <extensions>
    <sog>0.0</sog>
</extensions>
                    </trkpt>
                    <trkpt lat="54.435714999999995" lon="10.170863333333333">
                        <ele>0</ele>
                        <time>2022-08-18T03:07:20Z</time>
                        <extensions>
    <sog>0.0</sog>
</extensions>
                    </trkpt>
                    <trkpt lat="54.435716666666664" lon="10.170798333333332">
                        <ele>0</ele>
                        <time>2022-08-18T03:13:20Z</time>
                        <extensions>
    <sog>0.0</sog>
</extensions>
                    </trkpt>
                    <trkpt lat="54.43571333333333" lon="10.170751666666666">
                        <ele>0</ele>
                        <time>2022-08-18T03:16:19Z</time>
                        <extensions>
    <sog>0.0</sog>
</extensions>
                    </trkpt>
                    <trkpt lat="54.43571166666666" lon="10.170751666666666">
                        <ele>0</ele>
                        <time>2022-08-18T03:19:22Z</time>
                        <extensions>
    <sog>0.0</sog>
</extensions>
                    </trkpt>
                    <trkpt lat="54.435685" lon="10.170819999999999">
                        <ele>0</ele>
                        <time>2022-08-18T03:31:19Z</time>
                        <extensions>
    <sog>0.0</sog>
</extensions>
                    </trkpt>
                    <trkpt lat="54.435705" lon="10.17081">
                        <ele>0</ele>
                        <time>2022-08-18T03:37:19Z</time>
                        <extensions>
    <sog>0.1</sog>
</extensions>
                    </trkpt>
                    <trkpt lat="54.43573" lon="10.170836666666666">
                        <ele>0</ele>
                        <time>2022-08-18T03:43:22Z</time>
                        <extensions>
    <sog>0.0</sog>
</extensions>
                    </trkpt>
                    <trkpt lat="54.43572833333334" lon="10.170851666666666">
                        <ele>0</ele>
                        <time>2022-08-18T03:49:19Z</time>
                        <extensions>
    <sog>0.0</sog>
</extensions>
                    </trkpt>
                    <trkpt lat="54.43572666666667" lon="10.170831666666666">
                        <ele>0</ele>
                        <time>2022-08-18T03:52:20Z</time>
                        <extensions>
    <sog>0.0</sog>
</extensions>
                    </trkpt>
                    <trkpt lat="54.43575333333333" lon="10.170831666666666">
                        <ele>0</ele>
                        <time>2022-08-18T04:01:22Z</time>
                        <extensions>
    <sog>0.0</sog>
</extensions>
                    </trkpt>
                    <trkpt lat="54.43572666666667" lon="10.170825">
                        <ele>0</ele>
                        <time>2022-08-18T04:13:23Z</time>
                        <extensions>
    <sog>0.0</sog>
</extensions>
                    </trkpt>
                    <trkpt lat="54.43571833333333" lon="10.170846666666668">
                        <ele>0</ele>
                        <time>2022-08-18T04:16:19Z</time>
                        <extensions>
    <sog>0.0</sog>
</extensions>
                    </trkpt>
                    <trkpt lat="54.43572833333334" lon="10.170826666666667">
                        <ele>0</ele>
                        <time>2022-08-18T04:28:19Z</time>
                        <extensions>
    <sog>0.0</sog>
</extensions>
                    </trkpt>
                    <trkpt lat="54.43574" lon="10.170835">
                        <ele>0</ele>
                        <time>2022-08-18T04:37:21Z</time>
                        <extensions>
    <sog>0.0</sog>
</extensions>
                    </trkpt>
                    <trkpt lat="54.435764999999996" lon="10.170848333333334">
                        <ele>0</ele>
                        <time>2022-08-18T04:49:19Z</time>
                        <extensions>
    <sog>0.1</sog>
</extensions>
                    </trkpt>
                    <trkpt lat="54.43575666666666" lon="10.17083">
                        <ele>0</ele>
                        <time>2022-08-18T04:55:20Z</time>
                        <extensions>
    <sog>0.1</sog>
</extensions>
                    </trkpt>
                    <trkpt lat="54.435745" lon="10.170828333333333">
                        <ele>0</ele>
                        <time>2022-08-18T05:07:20Z</time>
                        <extensions>
    <sog>0.0</sog>
</extensions>
                    </trkpt>
                    <trkpt lat="54.43569333333333" lon="10.170855">
                        <ele>0</ele>
                        <time>2022-08-18T05:19:20Z</time>
                        <extensions>
    <sog>0.0</sog>
</extensions>
                    </trkpt>
                    <trkpt lat="54.43572833333334" lon="10.170863333333333">
                        <ele>0</ele>
                        <time>2022-08-18T05:37:19Z</time>
                        <extensions>
    <sog>0.0</sog>
</extensions>
                    </trkpt>
                    <trkpt lat="54.435741666666665" lon="10.170848333333334">
                        <ele>0</ele>
                        <time>2022-08-18T05:43:19Z</time>
                        <extensions>
    <sog>0.0</sog>
</extensions>
                    </trkpt>
                    <trkpt lat="54.43573333333333" lon="10.170858333333333">
                        <ele>0</ele>
                        <time>2022-08-18T05:46:21Z</time>
                        <extensions>
    <sog>0.0</sog>
</extensions>
                    </trkpt>
                    <trkpt lat="54.43576666666667" lon="10.170851666666666">
                        <ele>0</ele>
                        <time>2022-08-18T05:52:19Z</time>
                        <extensions>
    <sog>0.0</sog>
</extensions>
                    </trkpt>
                    <trkpt lat="54.43575" lon="10.170848333333334">
                        <ele>0</ele>
                        <time>2022-08-18T05:58:20Z</time>
                        <extensions>
    <sog>0.0</sog>
</extensions>
                    </trkpt>
                    <trkpt lat="54.435759999999995" lon="10.170823333333335">
                        <ele>0</ele>
                        <time>2022-08-18T06:10:21Z</time>
                        <extensions>
    <sog>0.1</sog>
</extensions>
                    </trkpt>
                    <trkpt lat="54.43573833333333" lon="10.170816666666667">
                        <ele>0</ele>
                        <time>2022-08-18T06:16:20Z</time>
                        <extensions>
    <sog>0.0</sog>
</extensions>
                    </trkpt>
                    <trkpt lat="54.43574" lon="10.170868333333335">
                        <ele>0</ele>
                        <time>2022-08-18T06:25:20Z</time>
                        <extensions>
    <sog>0.0</sog>
</extensions>
                    </trkpt>
                    <trkpt lat="54.43573333333333" lon="10.170843333333332">
                        <ele>0</ele>
                        <time>2022-08-18T06:28:19Z</time>
                        <extensions>
    <sog>0.0</sog>
</extensions>
                    </trkpt>
                    <trkpt lat="54.43573666666667" lon="10.170823333333335">
                        <ele>0</ele>
                        <time>2022-08-18T06:31:21Z</time>
                        <extensions>
    <sog>0.0</sog>
</extensions>
                    </trkpt>
                    <trkpt lat="54.43574666666667" lon="10.170851666666666">
                        <ele>0</ele>
                        <time>2022-08-18T06:34:20Z</time>
                        <extensions>
    <sog>0.0</sog>
</extensions>
                    </trkpt>
                    <trkpt lat="54.435735" lon="10.170828333333333">
                        <ele>0</ele>
                        <time>2022-08-18T06:37:20Z</time>
                        <extensions>
    <sog>0.0</sog>
</extensions>
                    </trkpt>
                    <trkpt lat="54.43573833333333" lon="10.170835">
                        <ele>0</ele>
                        <time>2022-08-18T06:40:21Z</time>
                        <extensions>
    <sog>0.1</sog>
</extensions>
                    </trkpt>
                    <trkpt lat="54.43572666666667" lon="10.170871666666667">
                        <ele>0</ele>
                        <time>2022-08-18T06:43:20Z</time>
                        <extensions>
    <sog>0.0</sog>
</extensions>
                    </trkpt>
                    <trkpt lat="54.43575666666666" lon="10.170873333333333">
                        <ele>0</ele>
                        <time>2022-08-18T06:49:19Z</time>
                        <extensions>
    <sog>0.1</sog>
</extensions>
                    </trkpt>
                    <trkpt lat="54.43575333333333" lon="10.17087">
                        <ele>0</ele>
                        <time>2022-08-18T06:55:19Z</time>
                        <extensions>
    <sog>0.0</sog>
</extensions>
                    </trkpt>
                    <trkpt lat="54.435735" lon="10.170774999999999">
                        <ele>0</ele>
                        <time>2022-08-18T07:01:23Z</time>
                        <extensions>
    <sog>0.0</sog>
</extensions>
                    </trkpt>
                    <trkpt lat="54.43573" lon="10.170800000000002">
                        <ele>0</ele>
                        <time>2022-08-18T07:04:20Z</time>
                        <extensions>
    <sog>0.0</sog>
</extensions>
                    </trkpt>
                    <trkpt lat="54.43575333333333" lon="10.170848333333334">
                        <ele>0</ele>
                        <time>2022-08-18T07:10:20Z</time>
                        <extensions>
    <sog>0.0</sog>
</extensions>
                    </trkpt>
                    <trkpt lat="54.43573333333333" lon="10.170863333333333">
                        <ele>0</ele>
                        <time>2022-08-18T07:13:20Z</time>
                        <extensions>
    <sog>0.0</sog>
</extensions>
                    </trkpt>
                    <trkpt lat="54.43574" lon="10.170866666666665">
                        <ele>0</ele>
                        <time>2022-08-18T07:16:19Z</time>
                        <extensions>
    <sog>0.0</sog>
</extensions>
                    </trkpt>
                    <trkpt lat="54.435745" lon="10.170881666666666">
                        <ele>0</ele>
                        <time>2022-08-18T07:22:21Z</time>
                        <extensions>
    <sog>0.0</sog>
</extensions>
                    </trkpt>
                    <trkpt lat="54.435743333333335" lon="10.170883333333334">
                        <ele>0</ele>
                        <time>2022-08-18T07:28:19Z</time>
                        <extensions>
    <sog>0.0</sog>
</extensions>
                    </trkpt>
                    <trkpt lat="54.435759999999995" lon="10.170875">
                        <ele>0</ele>
                        <time>2022-08-18T07:34:20Z</time>
                        <extensions>
    <sog>0.0</sog>
</extensions>
                    </trkpt>
                    <trkpt lat="54.43576666666667" lon="10.170853333333334">
                        <ele>0</ele>
                        <time>2022-08-18T07:37:20Z</time>
                        <extensions>
    <sog>0.0</sog>
</extensions>
                    </trkpt>
                    <trkpt lat="54.435745" lon="10.170861666666667">
                        <ele>0</ele>
                        <time>2022-08-18T07:43:20Z</time>
                        <extensions>
    <sog>0.0</sog>
</extensions>
                    </trkpt>
                    <trkpt lat="54.43572166666667" lon="10.170808333333333">
                        <ele>0</ele>
                        <time>2022-08-18T07:52:20Z</time>
                        <extensions>
    <sog>0.0</sog>
</extensions>
                    </trkpt>
                    <trkpt lat="54.43572666666667" lon="10.170781666666667">
                        <ele>0</ele>
                        <time>2022-08-18T07:55:20Z</time>
                        <extensions>
    <sog>0.0</sog>
</extensions>
                    </trkpt>
                    <trkpt lat="54.435723333333335" lon="10.17081">
                        <ele>0</ele>
                        <time>2022-08-18T08:01:19Z</time>
                        <extensions>
    <sog>0.0</sog>
</extensions>
                    </trkpt>
                    <trkpt lat="54.43572166666667" lon="10.17079">
                        <ele>0</ele>
                        <time>2022-08-18T08:07:19Z</time>
                        <extensions>
    <sog>0.0</sog>
</extensions>
                    </trkpt>
                    <trkpt lat="54.435741666666665" lon="10.17081">
                        <ele>0</ele>
                        <time>2022-08-18T08:10:21Z</time>
                        <extensions>
    <sog>0.0</sog>
</extensions>
                    </trkpt>
                    <trkpt lat="54.43573833333333" lon="10.170833333333333">
                        <ele>0</ele>
                        <time>2022-08-18T08:13:19Z</time>
                        <extensions>
    <sog>0.0</sog>
</extensions>
                    </trkpt>
                    <trkpt lat="54.43573" lon="10.170788333333332">
                        <ele>0</ele>
                        <time>2022-08-18T08:19:19Z</time>
                        <extensions>
    <sog>0.0</sog>
</extensions>
                    </trkpt>
                    <trkpt lat="54.43569333333333" lon="10.170821666666665">
                        <ele>0</ele>
                        <time>2022-08-18T08:31:20Z</time>
                        <extensions>
    <sog>0.0</sog>
</extensions>
                    </trkpt>
                    <trkpt lat="54.43570666666667" lon="10.17083">
                        <ele>0</ele>
                        <time>2022-08-18T08:34:19Z</time>
                        <extensions>
    <sog>0.0</sog>
</extensions>
                    </trkpt>
                    <trkpt lat="54.43571333333333" lon="10.170833333333333">
                        <ele>0</ele>
                        <time>2022-08-18T08:37:19Z</time>
                        <extensions>
    <sog>0.0</sog>
</extensions>
                    </trkpt>
                    <trkpt lat="54.43569" lon="10.170825">
                        <ele>0</ele>
                        <time>2022-08-18T08:43:19Z</time>
                        <extensions>
    <sog>0.0</sog>
</extensions>
                    </trkpt>
                    <trkpt lat="54.43573" lon="10.170855">
                        <ele>0</ele>
                        <time>2022-08-18T08:52:20Z</time>
                        <extensions>
    <sog>0.0</sog>
</extensions>
                    </trkpt>
                    <trkpt lat="54.435714999999995" lon="10.170774999999999">
                        <ele>0</ele>
                        <time>2022-08-18T08:58:19Z</time>
                        <extensions>
    <sog>0.1</sog>
</extensions>
                    </trkpt>
                    <trkpt lat="54.43571333333333" lon="10.170875">
                        <ele>0</ele>
                        <time>2022-08-18T09:07:20Z</time>
                        <extensions>
    <sog>0.0</sog>
</extensions>
                    </trkpt>
                    <trkpt lat="54.43577166666667" lon="10.170925">
                        <ele>0</ele>
                        <time>2022-08-18T09:10:19Z</time>
                        <extensions>
    <sog>0.0</sog>
</extensions>
                    </trkpt>
                    <trkpt lat="54.435755" lon="10.170901666666667">
                        <ele>0</ele>
                        <time>2022-08-18T09:13:20Z</time>
                        <extensions>
    <sog>0.1</sog>
</extensions>
                    </trkpt>
                    <trkpt lat="54.43573666666667" lon="10.170893333333334">
                        <ele>0</ele>
                        <time>2022-08-18T09:16:19Z</time>
                        <extensions>
    <sog>0.0</sog>
</extensions>
                    </trkpt>
                    <trkpt lat="54.435741666666665" lon="10.170868333333335">
                        <ele>0</ele>
                        <time>2022-08-18T09:19:19Z</time>
                        <extensions>
    <sog>0.0</sog>
</extensions>
                    </trkpt>
                    <trkpt lat="54.43573833333333" lon="10.170881666666666">
                        <ele>0</ele>
                        <time>2022-08-18T09:25:19Z</time>
                        <extensions>
    <sog>0.0</sog>
</extensions>
                    </trkpt>
                    <trkpt lat="54.43575333333333" lon="10.17088">
                        <ele>0</ele>
                        <time>2022-08-18T09:37:20Z</time>
                        <extensions>
    <sog>0.0</sog>
</extensions>
                    </trkpt>
                    <trkpt lat="54.435759999999995" lon="10.17087">
                        <ele>0</ele>
                        <time>2022-08-18T09:46:19Z</time>
                        <extensions>
    <sog>0.0</sog>
</extensions>
                    </trkpt>
                    <trkpt lat="54.43575833333333" lon="10.170845000000002">
                        <ele>0</ele>
                        <time>2022-08-18T09:52:19Z</time>
                        <extensions>
    <sog>0.0</sog>
</extensions>
                    </trkpt>
                    <trkpt lat="54.43577166666667" lon="10.170873333333333">
                        <ele>0</ele>
                        <time>2022-08-18T09:55:19Z</time>
                        <extensions>
    <sog>0.0</sog>
</extensions>
                    </trkpt>
                    <trkpt lat="54.43572833333334" lon="10.170828333333333">
                        <ele>0</ele>
                        <time>2022-08-18T10:01:20Z</time>
                        <extensions>
    <sog>0.0</sog>
</extensions>
                    </trkpt>
                    <trkpt lat="54.43574" lon="10.170831666666666">
                        <ele>0</ele>
                        <time>2022-08-18T10:04:19Z</time>
                        <extensions>
    <sog>0.0</sog>
</extensions>
                    </trkpt>
                    <trkpt lat="54.43577833333333" lon="10.170886666666666">
                        <ele>0</ele>
                        <time>2022-08-18T10:07:19Z</time>
                        <extensions>
    <sog>0.0</sog>
</extensions>
                    </trkpt>
                    <trkpt lat="54.43574833333333" lon="10.170846666666668">
                        <ele>0</ele>
                        <time>2022-08-18T10:13:19Z</time>
                        <extensions>
    <sog>0.0</sog>
</extensions>
                    </trkpt>
                    <trkpt lat="54.435741666666665" lon="10.170846666666668">
                        <ele>0</ele>
                        <time>2022-08-18T10:22:20Z</time>
                        <extensions>
    <sog>0.0</sog>
</extensions>
                    </trkpt>
                    <trkpt lat="54.435741666666665" lon="10.170875">
                        <ele>0</ele>
                        <time>2022-08-18T10:31:20Z</time>
                        <extensions>
    <sog>0.0</sog>
</extensions>
                    </trkpt>
                    <trkpt lat="54.43573833333333" lon="10.17081">
                        <ele>0</ele>
                        <time>2022-08-18T10:37:20Z</time>
                        <extensions>
    <sog>0.0</sog>
</extensions>
                    </trkpt>
                    <trkpt lat="54.43575333333333" lon="10.170806666666666">
                        <ele>0</ele>
                        <time>2022-08-18T10:40:19Z</time>
                        <extensions>
    <sog>0.0</sog>
</extensions>
                    </trkpt>
                    <trkpt lat="54.435671666666664" lon="10.170819999999999">
                        <ele>0</ele>
                        <time>2022-08-18T10:55:19Z</time>
                        <extensions>
    <sog>0.1</sog>
</extensions>
                    </trkpt>
                    <trkpt lat="54.435745" lon="10.170805">
                        <ele>0</ele>
                        <time>2022-08-18T11:01:22Z</time>
                        <extensions>
    <sog>0.0</sog>
</extensions>
                    </trkpt>
                    <trkpt lat="54.43572166666667" lon="10.170871666666667">
                        <ele>0</ele>
                        <time>2022-08-18T11:13:20Z</time>
                        <extensions>
    <sog>0.0</sog>
</extensions>
                    </trkpt>
                    <trkpt lat="54.43574" lon="10.170855">
                        <ele>0</ele>
                        <time>2022-08-18T11:16:21Z</time>
                        <extensions>
    <sog>0.0</sog>
</extensions>
                    </trkpt>
                    <trkpt lat="54.4357" lon="10.170793333333334">
                        <ele>0</ele>
                        <time>2022-08-18T11:22:21Z</time>
                        <extensions>
    <sog>0.0</sog>
</extensions>
                    </trkpt>
                    <trkpt lat="54.435674999999996" lon="10.170791666666666">
                        <ele>0</ele>
                        <time>2022-08-18T11:25:19Z</time>
                        <extensions>
    <sog>0.0</sog>
</extensions>
                    </trkpt>
                    <trkpt lat="54.4357" lon="10.170795">
                        <ele>0</ele>
                        <time>2022-08-18T11:28:22Z</time>
                        <extensions>
    <sog>0.0</sog>
</extensions>
                    </trkpt>
                    <trkpt lat="54.435669999999995" lon="10.170756666666668">
                        <ele>0</ele>
                        <time>2022-08-18T11:31:21Z</time>
                        <extensions>
    <sog>0.0</sog>
</extensions>
                    </trkpt>
                    <trkpt lat="54.435685" lon="10.170743333333332">
                        <ele>0</ele>
                        <time>2022-08-18T11:34:20Z</time>
                        <extensions>
    <sog>0.1</sog>
</extensions>
                    </trkpt>
                    <trkpt lat="54.43571333333333" lon="10.170774999999999">
                        <ele>0</ele>
                        <time>2022-08-18T11:40:22Z</time>
                        <extensions>
    <sog>0.1</sog>
</extensions>
                    </trkpt>
                    <trkpt lat="54.43572833333334" lon="10.170803333333334">
                        <ele>0</ele>
                        <time>2022-08-18T11:46:19Z</time>
                        <extensions>
    <sog>0.0</sog>
</extensions>
                    </trkpt>
                    <trkpt lat="54.43572666666667" lon="10.170786666666666">
                        <ele>0</ele>
                        <time>2022-08-18T11:49:19Z</time>
                        <extensions>
    <sog>0.0</sog>
</extensions>
                    </trkpt>
                    <trkpt lat="54.43572166666667" lon="10.170770000000001">
                        <ele>0</ele>
                        <time>2022-08-18T11:52:19Z</time>
                        <extensions>
    <sog>0.0</sog>
</extensions>
                    </trkpt>
                    <trkpt lat="54.4357" lon="10.170788333333332">
                        <ele>0</ele>
                        <time>2022-08-18T11:58:21Z</time>
                        <extensions>
    <sog>0.0</sog>
</extensions>
                    </trkpt>
                    <trkpt lat="54.43572666666667" lon="10.170815000000001">
                        <ele>0</ele>
                        <time>2022-08-18T12:04:20Z</time>
                        <extensions>
    <sog>0.0</sog>
</extensions>
                    </trkpt>
                    <trkpt lat="54.43571833333333" lon="10.17083">
                        <ele>0</ele>
                        <time>2022-08-18T12:10:20Z</time>
                        <extensions>
    <sog>0.0</sog>
</extensions>
                    </trkpt>
                    <trkpt lat="54.435723333333335" lon="10.170845000000002">
                        <ele>0</ele>
                        <time>2022-08-18T12:16:21Z</time>
                        <extensions>
    <sog>0.0</sog>
</extensions>
                    </trkpt>
                    <trkpt lat="54.43573666666667" lon="10.170908333333333">
                        <ele>0</ele>
                        <time>2022-08-18T12:19:19Z</time>
                        <extensions>
    <sog>0.0</sog>
</extensions>
                    </trkpt>
                    <trkpt lat="54.43572833333334" lon="10.170898333333334">
                        <ele>0</ele>
                        <time>2022-08-18T12:22:20Z</time>
                        <extensions>
    <sog>0.0</sog>
</extensions>
                    </trkpt>
                    <trkpt lat="54.43573333333333" lon="10.170860000000001">
                        <ele>0</ele>
                        <time>2022-08-18T12:25:20Z</time>
                        <extensions>
    <sog>0.0</sog>
</extensions>
                    </trkpt>
                    <trkpt lat="54.435745" lon="10.170838333333334">
                        <ele>0</ele>
                        <time>2022-08-18T12:31:22Z</time>
                        <extensions>
    <sog>0.0</sog>
</extensions>
                    </trkpt>
                    <trkpt lat="54.43573666666667" lon="10.170860000000001">
                        <ele>0</ele>
                        <time>2022-08-18T12:34:20Z</time>
                        <extensions>
    <sog>0.0</sog>
</extensions>
                    </trkpt>
                    <trkpt lat="54.43572666666667" lon="10.170860000000001">
                        <ele>0</ele>
                        <time>2022-08-18T12:37:24Z</time>
                        <extensions>
    <sog>0.0</sog>
</extensions>
                    </trkpt>
                    <trkpt lat="54.43572666666667" lon="10.170886666666666">
                        <ele>0</ele>
                        <time>2022-08-18T12:40:20Z</time>
                        <extensions>
    <sog>0.0</sog>
</extensions>
                    </trkpt>
                    <trkpt lat="54.43572666666667" lon="10.170865">
                        <ele>0</ele>
                        <time>2022-08-18T12:43:20Z</time>
                        <extensions>
    <sog>0.0</sog>
</extensions>
                    </trkpt>
                    <trkpt lat="54.435695" lon="10.170883333333334">
                        <ele>0</ele>
                        <time>2022-08-18T12:46:19Z</time>
                        <extensions>
    <sog>0.0</sog>
</extensions>
                    </trkpt>
                    <trkpt lat="54.435698333333335" lon="10.170845000000002">
                        <ele>0</ele>
                        <time>2022-08-18T12:49:20Z</time>
                        <extensions>
    <sog>0.0</sog>
</extensions>
                    </trkpt>
                    <trkpt lat="54.43573" lon="10.170773333333333">
                        <ele>0</ele>
                        <time>2022-08-18T12:55:19Z</time>
                        <extensions>
    <sog>0.0</sog>
</extensions>
                    </trkpt>
                    <trkpt lat="54.43573166666667" lon="10.170813333333333">
                        <ele>0</ele>
                        <time>2022-08-18T13:07:19Z</time>
                        <extensions>
    <sog>0.0</sog>
</extensions>
                    </trkpt>
                    <trkpt lat="54.43571333333333" lon="10.170788333333332">
                        <ele>0</ele>
                        <time>2022-08-18T13:13:19Z</time>
                        <extensions>
    <sog>0.0</sog>
</extensions>
                    </trkpt>
                    <trkpt lat="54.43571" lon="10.170813333333333">
                        <ele>0</ele>
                        <time>2022-08-18T13:16:19Z</time>
                        <extensions>
    <sog>0.0</sog>
</extensions>
                    </trkpt>
                    <trkpt lat="54.43573666666667" lon="10.170883333333334">
                        <ele>0</ele>
                        <time>2022-08-18T13:19:21Z</time>
                        <extensions>
    <sog>0.0</sog>
</extensions>
                    </trkpt>
                    <trkpt lat="54.435723333333335" lon="10.170831666666666">
                        <ele>0</ele>
                        <time>2022-08-18T13:22:19Z</time>
                        <extensions>
    <sog>0.0</sog>
</extensions>
                    </trkpt>
                    <trkpt lat="54.435723333333335" lon="10.170873333333333">
                        <ele>0</ele>
                        <time>2022-08-18T13:34:22Z</time>
                        <extensions>
    <sog>0.0</sog>
</extensions>
                    </trkpt>
                    <trkpt lat="54.43573833333333" lon="10.170846666666668">
                        <ele>0</ele>
                        <time>2022-08-18T13:37:20Z</time>
                        <extensions>
    <sog>0.0</sog>
</extensions>
                    </trkpt>
                    <trkpt lat="54.435725000000005" lon="10.170836666666666">
                        <ele>0</ele>
                        <time>2022-08-18T13:46:19Z</time>
                        <extensions>
    <sog>0.0</sog>
</extensions>
                    </trkpt>
                    <trkpt lat="54.43570833333333" lon="10.170828333333333">
                        <ele>0</ele>
                        <time>2022-08-18T13:49:19Z</time>
                        <extensions>
    <sog>0.0</sog>
</extensions>
                    </trkpt>
                    <trkpt lat="54.43574" lon="10.170871666666667">
                        <ele>0</ele>
                        <time>2022-08-18T14:01:19Z</time>
                        <extensions>
    <sog>0.0</sog>
</extensions>
                    </trkpt>
                    <trkpt lat="54.435725000000005" lon="10.170828333333333">
                        <ele>0</ele>
                        <time>2022-08-18T14:04:19Z</time>
                        <extensions>
    <sog>0.0</sog>
</extensions>
                    </trkpt>
                    <trkpt lat="54.435745" lon="10.170861666666667">
                        <ele>0</ele>
                        <time>2022-08-18T14:07:21Z</time>
                        <extensions>
    <sog>0.0</sog>
</extensions>
                    </trkpt>
                    <trkpt lat="54.435743333333335" lon="10.170866666666665">
                        <ele>0</ele>
                        <time>2022-08-18T14:13:21Z</time>
                        <extensions>
    <sog>0.0</sog>
</extensions>
                    </trkpt>
                    <trkpt lat="54.435755" lon="10.170863333333333">
                        <ele>0</ele>
                        <time>2022-08-18T14:16:19Z</time>
                        <extensions>
    <sog>0.0</sog>
</extensions>
                    </trkpt>
                    <trkpt lat="54.435743333333335" lon="10.170768333333333">
                        <ele>0</ele>
                        <time>2022-08-18T14:19:19Z</time>
                        <extensions>
    <sog>0.0</sog>
</extensions>
                    </trkpt>
                    <trkpt lat="54.435743333333335" lon="10.17078">
                        <ele>0</ele>
                        <time>2022-08-18T14:22:19Z</time>
                        <extensions>
    <sog>0.0</sog>
</extensions>
                    </trkpt>
                    <trkpt lat="54.43572666666667" lon="10.17083">
                        <ele>0</ele>
                        <time>2022-08-18T14:25:20Z</time>
                        <extensions>
    <sog>0.0</sog>
</extensions>
                    </trkpt>
                    <trkpt lat="54.435705" lon="10.170881666666666">
                        <ele>0</ele>
                        <time>2022-08-18T14:31:20Z</time>
                        <extensions>
    <sog>0.0</sog>
</extensions>
                    </trkpt>
                    <trkpt lat="54.435714999999995" lon="10.170826666666667">
                        <ele>0</ele>
                        <time>2022-08-18T14:37:19Z</time>
                        <extensions>
    <sog>0.0</sog>
</extensions>
                    </trkpt>
                    <trkpt lat="54.435745" lon="10.17087">
                        <ele>0</ele>
                        <time>2022-08-18T14:40:19Z</time>
                        <extensions>
    <sog>0.0</sog>
</extensions>
                    </trkpt>
                    <trkpt lat="54.43571833333333" lon="10.170876666666667">
                        <ele>0</ele>
                        <time>2022-08-18T14:43:20Z</time>
                        <extensions>
    <sog>0.0</sog>
</extensions>
                    </trkpt>
                    <trkpt lat="54.43572833333334" lon="10.17085">
                        <ele>0</ele>
                        <time>2022-08-18T14:49:19Z</time>
                        <extensions>
    <sog>0.0</sog>
</extensions>
                    </trkpt>
                    <trkpt lat="54.43571333333333" lon="10.17084">
                        <ele>0</ele>
                        <time>2022-08-18T14:58:20Z</time>
                        <extensions>
    <sog>0.0</sog>
</extensions>
                    </trkpt>
                    <trkpt lat="54.43571833333333" lon="10.170823333333335">
                        <ele>0</ele>
                        <time>2022-08-18T15:04:19Z</time>
                        <extensions>
    <sog>0.0</sog>
</extensions>
                    </trkpt>
                    <trkpt lat="54.4357" lon="10.170803333333334">
                        <ele>0</ele>
                        <time>2022-08-18T15:13:20Z</time>
                        <extensions>
    <sog>0.0</sog>
</extensions>
                    </trkpt>
                    <trkpt lat="54.43570666666667" lon="10.170788333333332">
                        <ele>0</ele>
                        <time>2022-08-18T15:19:19Z</time>
                        <extensions>
    <sog>0.0</sog>
</extensions>
                    </trkpt>
                    <trkpt lat="54.43570666666667" lon="10.170785">
                        <ele>0</ele>
                        <time>2022-08-18T15:22:19Z</time>
                        <extensions>
    <sog>0.0</sog>
</extensions>
                    </trkpt>
                    <trkpt lat="54.435716666666664" lon="10.17079">
                        <ele>0</ele>
                        <time>2022-08-18T15:31:21Z</time>
                        <extensions>
    <sog>0.0</sog>
</extensions>
                    </trkpt>
                    <trkpt lat="54.435735" lon="10.170791666666666">
                        <ele>0</ele>
                        <time>2022-08-18T15:37:20Z</time>
                        <extensions>
    <sog>0.0</sog>
</extensions>
                    </trkpt>
                    <trkpt lat="54.435743333333335" lon="10.170866666666665">
                        <ele>0</ele>
                        <time>2022-08-18T15:58:19Z</time>
                        <extensions>
    <sog>0.0</sog>
</extensions>
                    </trkpt>
                    <trkpt lat="54.43573833333333" lon="10.170853333333334">
                        <ele>0</ele>
                        <time>2022-08-18T16:01:22Z</time>
                        <extensions>
    <sog>0.0</sog>
</extensions>
                    </trkpt>
                    <trkpt lat="54.43573166666667" lon="10.170853333333334">
                        <ele>0</ele>
                        <time>2022-08-18T16:04:20Z</time>
                        <extensions>
    <sog>0.0</sog>
</extensions>
                    </trkpt>
                    <trkpt lat="54.43573666666667" lon="10.17088">
                        <ele>0</ele>
                        <time>2022-08-18T16:13:19Z</time>
                        <extensions>
    <sog>0.0</sog>
</extensions>
                    </trkpt>
                    <trkpt lat="54.43573166666667" lon="10.170848333333334">
                        <ele>0</ele>
                        <time>2022-08-18T16:16:20Z</time>
                        <extensions>
    <sog>0.0</sog>
</extensions>
                    </trkpt>
                    <trkpt lat="54.43572833333334" lon="10.170836666666666">
                        <ele>0</ele>
                        <time>2022-08-18T16:19:20Z</time>
                        <extensions>
    <sog>0.0</sog>
</extensions>
                    </trkpt>
                    <trkpt lat="54.435725000000005" lon="10.17084">
                        <ele>0</ele>
                        <time>2022-08-18T16:22:20Z</time>
                        <extensions>
    <sog>0.0</sog>
</extensions>
                    </trkpt>
                    <trkpt lat="54.43571833333333" lon="10.170856666666667">
                        <ele>0</ele>
                        <time>2022-08-18T16:28:20Z</time>
                        <extensions>
    <sog>0.0</sog>
</extensions>
                    </trkpt>
                    <trkpt lat="54.435725000000005" lon="10.170863333333333">
                        <ele>0</ele>
                        <time>2022-08-18T16:31:19Z</time>
                        <extensions>
    <sog>0.0</sog>
</extensions>
                    </trkpt>
                    <trkpt lat="54.43573166666667" lon="10.170853333333334">
                        <ele>0</ele>
                        <time>2022-08-18T16:34:21Z</time>
                        <extensions>
    <sog>0.0</sog>
</extensions>
                    </trkpt>
                    <trkpt lat="54.43574" lon="10.170835">
                        <ele>0</ele>
                        <time>2022-08-18T16:37:19Z</time>
                        <extensions>
    <sog>0.0</sog>
</extensions>
                    </trkpt>
                    <trkpt lat="54.43577833333333" lon="10.170856666666667">
                        <ele>0</ele>
                        <time>2022-08-18T16:43:20Z</time>
                        <extensions>
    <sog>0.0</sog>
</extensions>
                    </trkpt>
                    <trkpt lat="54.43577333333334" lon="10.170861666666667">
                        <ele>0</ele>
                        <time>2022-08-18T16:46:20Z</time>
                        <extensions>
    <sog>0.0</sog>
</extensions>
                    </trkpt>
                    <trkpt lat="54.43575833333333" lon="10.170873333333333">
                        <ele>0</ele>
                        <time>2022-08-18T16:49:20Z</time>
                        <extensions>
    <sog>0.0</sog>
</extensions>
                    </trkpt>
                    <trkpt lat="54.435764999999996" lon="10.170871666666667">
                        <ele>0</ele>
                        <time>2022-08-18T16:52:19Z</time>
                        <extensions>
    <sog>0.0</sog>
</extensions>
                    </trkpt>
                    <trkpt lat="54.43574" lon="10.170863333333333">
                        <ele>0</ele>
                        <time>2022-08-18T16:58:19Z</time>
                        <extensions>
    <sog>0.0</sog>
</extensions>
                    </trkpt>
                    <trkpt lat="54.435725000000005" lon="10.17085">
                        <ele>0</ele>
                        <time>2022-08-18T17:01:21Z</time>
                        <extensions>
    <sog>0.0</sog>
</extensions>
                    </trkpt>
                    <trkpt lat="54.43575" lon="10.170863333333333">
                        <ele>0</ele>
                        <time>2022-08-18T17:10:21Z</time>
                        <extensions>
    <sog>0.0</sog>
</extensions>
                    </trkpt>
                    <trkpt lat="54.43577833333333" lon="10.170843333333332">
                        <ele>0</ele>
                        <time>2022-08-18T17:13:20Z</time>
                        <extensions>
    <sog>0.0</sog>
</extensions>
                    </trkpt>
                    <trkpt lat="54.435806666666664" lon="10.170865">
                        <ele>0</ele>
                        <time>2022-08-18T17:16:20Z</time>
                        <extensions>
    <sog>0.0</sog>
</extensions>
                    </trkpt>
                    <trkpt lat="54.435768333333336" lon="10.17078">
                        <ele>0</ele>
                        <time>2022-08-18T17:22:21Z</time>
                        <extensions>
    <sog>0.0</sog>
</extensions>
                    </trkpt>
                    <trkpt lat="54.43572166666667" lon="10.170856666666667">
                        <ele>0</ele>
                        <time>2022-08-18T17:28:20Z</time>
                        <extensions>
    <sog>0.0</sog>
</extensions>
                    </trkpt>
                    <trkpt lat="54.435719999999996" lon="10.170838333333334">
                        <ele>0</ele>
                        <time>2022-08-18T17:31:22Z</time>
                        <extensions>
    <sog>0.0</sog>
</extensions>
                    </trkpt>
                    <trkpt lat="54.43575" lon="10.170801666666668">
                        <ele>0</ele>
                        <time>2022-08-18T17:34:19Z</time>
                        <extensions>
    <sog>0.0</sog>
</extensions>
                    </trkpt>
                    <trkpt lat="54.43571" lon="10.170835">
                        <ele>0</ele>
                        <time>2022-08-18T17:37:19Z</time>
                        <extensions>
    <sog>0.0</sog>
</extensions>
                    </trkpt>
                    <trkpt lat="54.43575" lon="10.170805">
                        <ele>0</ele>
                        <time>2022-08-18T17:40:20Z</time>
                        <extensions>
    <sog>0.0</sog>
</extensions>
                    </trkpt>
                    <trkpt lat="54.435735" lon="10.170828333333333">
                        <ele>0</ele>
                        <time>2022-08-18T17:43:20Z</time>
                        <extensions>
    <sog>0.0</sog>
</extensions>
                    </trkpt>
                    <trkpt lat="54.435761666666664" lon="10.170836666666666">
                        <ele>0</ele>
                        <time>2022-08-18T17:49:19Z</time>
                        <extensions>
    <sog>0.0</sog>
</extensions>
                    </trkpt>
                    <trkpt lat="54.43575" lon="10.170836666666666">
                        <ele>0</ele>
                        <time>2022-08-18T17:55:20Z</time>
                        <extensions>
    <sog>0.0</sog>
</extensions>
                    </trkpt>
                    <trkpt lat="54.435741666666665" lon="10.170836666666666">
                        <ele>0</ele>
                        <time>2022-08-18T17:58:20Z</time>
                        <extensions>
    <sog>0.0</sog>
</extensions>
                    </trkpt>
                    <trkpt lat="54.43575333333333" lon="10.170825">
                        <ele>0</ele>
                        <time>2022-08-18T18:01:20Z</time>
                        <extensions>
    <sog>0.0</sog>
</extensions>
                    </trkpt>
                    <trkpt lat="54.435759999999995" lon="10.170835">
                        <ele>0</ele>
                        <time>2022-08-18T18:07:20Z</time>
                        <extensions>
    <sog>0.0</sog>
</extensions>
                    </trkpt>
                    <trkpt lat="54.43578166666667" lon="10.17084">
                        <ele>0</ele>
                        <time>2022-08-18T18:10:19Z</time>
                        <extensions>
    <sog>0.0</sog>
</extensions>
                    </trkpt>
                    <trkpt lat="54.43578333333333" lon="10.170846666666668">
                        <ele>0</ele>
                        <time>2022-08-18T18:13:20Z</time>
                        <extensions>
    <sog>0.0</sog>
</extensions>
                    </trkpt>
                    <trkpt lat="54.43575833333333" lon="10.170878333333333">
                        <ele>0</ele>
                        <time>2022-08-18T18:16:19Z</time>
                        <extensions>
    <sog>0.0</sog>
</extensions>
                    </trkpt>
                    <trkpt lat="54.43574666666667" lon="10.170885">
                        <ele>0</ele>
                        <time>2022-08-18T18:19:19Z</time>
                        <extensions>
    <sog>0.0</sog>
</extensions>
                    </trkpt>
                    <trkpt lat="54.43574666666667" lon="10.170891666666668">
                        <ele>0</ele>
                        <time>2022-08-18T18:22:20Z</time>
                        <extensions>
    <sog>0.0</sog>
</extensions>
                    </trkpt>
                    <trkpt lat="54.43573833333333" lon="10.170896666666666">
                        <ele>0</ele>
                        <time>2022-08-18T18:25:20Z</time>
                        <extensions>
    <sog>0.0</sog>
</extensions>
                    </trkpt>
                    <trkpt lat="54.435735" lon="10.170883333333334">
                        <ele>0</ele>
                        <time>2022-08-18T18:28:20Z</time>
                        <extensions>
    <sog>0.0</sog>
</extensions>
                    </trkpt>
                    <trkpt lat="54.435795" lon="10.170845000000002">
                        <ele>0</ele>
                        <time>2022-08-18T18:31:21Z</time>
                        <extensions>
    <sog>0.0</sog>
</extensions>
                    </trkpt>
                    <trkpt lat="54.435785" lon="10.170766666666667">
                        <ele>0</ele>
                        <time>2022-08-18T18:34:23Z</time>
                        <extensions>
    <sog>0.0</sog>
</extensions>
                    </trkpt>
                    <trkpt lat="54.4358" lon="10.170825">
                        <ele>0</ele>
                        <time>2022-08-18T18:37:19Z</time>
                        <extensions>
    <sog>0.0</sog>
</extensions>
                    </trkpt>
                    <trkpt lat="54.435768333333336" lon="10.170871666666667">
                        <ele>0</ele>
                        <time>2022-08-18T18:43:19Z</time>
                        <extensions>
    <sog>0.1</sog>
</extensions>
                    </trkpt>
                    <trkpt lat="54.435759999999995" lon="10.170881666666666">
                        <ele>0</ele>
                        <time>2022-08-18T18:46:19Z</time>
                        <extensions>
    <sog>0.0</sog>
</extensions>
                    </trkpt>
                    <trkpt lat="54.43575666666666" lon="10.17081">
                        <ele>0</ele>
                        <time>2022-08-18T18:52:20Z</time>
                        <extensions>
    <sog>0.0</sog>
</extensions>
                    </trkpt>
                    <trkpt lat="54.43577666666667" lon="10.170833333333333">
                        <ele>0</ele>
                        <time>2022-08-18T18:55:20Z</time>
                        <extensions>
    <sog>0.1</sog>
</extensions>
                    </trkpt>
                    <trkpt lat="54.43575166666667" lon="10.170816666666667">
                        <ele>0</ele>
                        <time>2022-08-18T19:01:21Z</time>
                        <extensions>
    <sog>0.0</sog>
</extensions>
                    </trkpt>
                    <trkpt lat="54.43571333333333" lon="10.170876666666667">
                        <ele>0</ele>
                        <time>2022-08-18T19:04:19Z</time>
                        <extensions>
    <sog>0.0</sog>
</extensions>
                    </trkpt>
                    <trkpt lat="54.435698333333335" lon="10.170843333333332">
                        <ele>0</ele>
                        <time>2022-08-18T19:07:19Z</time>
                        <extensions>
    <sog>0.0</sog>
</extensions>
                    </trkpt>
                    <trkpt lat="54.435680000000005" lon="10.170819999999999">
                        <ele>0</ele>
                        <time>2022-08-18T19:10:20Z</time>
                        <extensions>
    <sog>0.0</sog>
</extensions>
                    </trkpt>
                    <trkpt lat="54.43570666666667" lon="10.170816666666667">
                        <ele>0</ele>
                        <time>2022-08-18T19:13:19Z</time>
                        <extensions>
    <sog>0.0</sog>
</extensions>
                    </trkpt>
                    <trkpt lat="54.43571833333333" lon="10.170841666666666">
                        <ele>0</ele>
                        <time>2022-08-18T19:19:20Z</time>
                        <extensions>
    <sog>0.0</sog>
</extensions>
                    </trkpt>
                    <trkpt lat="54.435735" lon="10.170823333333335">
                        <ele>0</ele>
                        <time>2022-08-18T19:22:21Z</time>
                        <extensions>
    <sog>0.0</sog>
</extensions>
                    </trkpt>
                    <trkpt lat="54.43573666666667" lon="10.170878333333333">
                        <ele>0</ele>
                        <time>2022-08-18T19:28:21Z</time>
                        <extensions>
    <sog>0.1</sog>
</extensions>
                    </trkpt>
                    <trkpt lat="54.435770000000005" lon="10.170848333333334">
                        <ele>0</ele>
                        <time>2022-08-18T19:37:21Z</time>
                        <extensions>
    <sog>0.0</sog>
</extensions>
                    </trkpt>
                    <trkpt lat="54.43577833333333" lon="10.170819999999999">
                        <ele>0</ele>
                        <time>2022-08-18T19:43:22Z</time>
                        <extensions>
    <sog>0.0</sog>
</extensions>
                    </trkpt>
                    <trkpt lat="54.435768333333336" lon="10.170828333333333">
                        <ele>0</ele>
                        <time>2022-08-18T19:46:19Z</time>
                        <extensions>
    <sog>0.0</sog>
</extensions>
                    </trkpt>
                    <trkpt lat="54.43577833333333" lon="10.170838333333334">
                        <ele>0</ele>
                        <time>2022-08-18T19:49:20Z</time>
                        <extensions>
    <sog>0.0</sog>
</extensions>
                    </trkpt>
                    <trkpt lat="54.435764999999996" lon="10.170816666666667">
                        <ele>0</ele>
                        <time>2022-08-18T19:55:20Z</time>
                        <extensions>
    <sog>0.0</sog>
</extensions>
                    </trkpt>
                    <trkpt lat="54.43569" lon="10.170821666666665">
                        <ele>0</ele>
                        <time>2022-08-18T20:01:19Z</time>
                        <extensions>
    <sog>0.0</sog>
</extensions>
                    </trkpt>
                    <trkpt lat="54.43573666666667" lon="10.170805">
                        <ele>0</ele>
                        <time>2022-08-18T20:04:20Z</time>
                        <extensions>
    <sog>0.0</sog>
</extensions>
                    </trkpt>
                    <trkpt lat="54.435725000000005" lon="10.170835">
                        <ele>0</ele>
                        <time>2022-08-18T20:07:19Z</time>
                        <extensions>
    <sog>0.0</sog>
</extensions>
                    </trkpt>
                    <trkpt lat="54.43573333333333" lon="10.170845000000002">
                        <ele>0</ele>
                        <time>2022-08-18T20:10:19Z</time>
                        <extensions>
    <sog>0.0</sog>
</extensions>
                    </trkpt>
                    <trkpt lat="54.435735" lon="10.170826666666667">
                        <ele>0</ele>
                        <time>2022-08-18T20:13:19Z</time>
                        <extensions>
    <sog>0.0</sog>
</extensions>
                    </trkpt>
                    <trkpt lat="54.43577333333334" lon="10.170813333333333">
                        <ele>0</ele>
                        <time>2022-08-18T20:16:19Z</time>
                        <extensions>
    <sog>0.0</sog>
</extensions>
                    </trkpt>
                    <trkpt lat="54.43577666666667" lon="10.170806666666666">
                        <ele>0</ele>
                        <time>2022-08-18T20:19:20Z</time>
                        <extensions>
    <sog>0.0</sog>
</extensions>
                    </trkpt>
                    <trkpt lat="54.43575166666667" lon="10.170828333333333">
                        <ele>0</ele>
                        <time>2022-08-18T20:25:21Z</time>
                        <extensions>
    <sog>0.0</sog>
</extensions>
                    </trkpt>
                    <trkpt lat="54.435743333333335" lon="10.170825">
                        <ele>0</ele>
                        <time>2022-08-18T20:28:22Z</time>
                        <extensions>
    <sog>0.0</sog>
</extensions>
                    </trkpt>
                    <trkpt lat="54.43575833333333" lon="10.17081">
                        <ele>0</ele>
                        <time>2022-08-18T20:31:19Z</time>
                        <extensions>
    <sog>0.0</sog>
</extensions>
                    </trkpt>
                    <trkpt lat="54.43575333333333" lon="10.170831666666666">
                        <ele>0</ele>
                        <time>2022-08-18T20:34:20Z</time>
                        <extensions>
    <sog>0.0</sog>
</extensions>
                    </trkpt>
                    <trkpt lat="54.43574666666667" lon="10.17084">
                        <ele>0</ele>
                        <time>2022-08-18T20:37:20Z</time>
                        <extensions>
    <sog>0.0</sog>
</extensions>
                    </trkpt>
                    <trkpt lat="54.435759999999995" lon="10.170835">
                        <ele>0</ele>
                        <time>2022-08-18T20:40:20Z</time>
                        <extensions>
    <sog>0.0</sog>
</extensions>
                    </trkpt>
                    <trkpt lat="54.43574666666667" lon="10.170836666666666">
                        <ele>0</ele>
                        <time>2022-08-18T20:43:21Z</time>
                        <extensions>
    <sog>0.0</sog>
</extensions>
                    </trkpt>
                    <trkpt lat="54.43578" lon="10.170818333333333">
                        <ele>0</ele>
                        <time>2022-08-18T20:46:19Z</time>
                        <extensions>
    <sog>0.0</sog>
</extensions>
                    </trkpt>
                    <trkpt lat="54.435725000000005" lon="10.170815000000001">
                        <ele>0</ele>
                        <time>2022-08-18T20:58:20Z</time>
                        <extensions>
    <sog>0.0</sog>
</extensions>
                    </trkpt>
                    <trkpt lat="54.43572833333334" lon="10.170813333333333">
                        <ele>0</ele>
                        <time>2022-08-18T21:01:19Z</time>
                        <extensions>
    <sog>0.0</sog>
</extensions>
                    </trkpt>
                    <trkpt lat="54.435735" lon="10.170848333333334">
                        <ele>0</ele>
                        <time>2022-08-18T21:04:20Z</time>
                        <extensions>
    <sog>0.0</sog>
</extensions>
                    </trkpt>
                    <trkpt lat="54.43572833333334" lon="10.17085">
                        <ele>0</ele>
                        <time>2022-08-18T21:07:19Z</time>
                        <extensions>
    <sog>0.0</sog>
</extensions>
                    </trkpt>
                    <trkpt lat="54.43572166666667" lon="10.17083">
                        <ele>0</ele>
                        <time>2022-08-18T21:10:21Z</time>
                        <extensions>
    <sog>0.0</sog>
</extensions>
                    </trkpt>
                    <trkpt lat="54.43573333333333" lon="10.170796666666666">
                        <ele>0</ele>
                        <time>2022-08-18T21:13:20Z</time>
                        <extensions>
    <sog>0.0</sog>
</extensions>
                    </trkpt>
                    <trkpt lat="54.43573666666667" lon="10.170818333333333">
                        <ele>0</ele>
                        <time>2022-08-18T21:16:22Z</time>
                        <extensions>
    <sog>0.0</sog>
</extensions>
                    </trkpt>
                    <trkpt lat="54.435725000000005" lon="10.170843333333332">
                        <ele>0</ele>
                        <time>2022-08-18T21:28:21Z</time>
                        <extensions>
    <sog>0.0</sog>
</extensions>
                    </trkpt>
                    <trkpt lat="54.435745" lon="10.170811666666667">
                        <ele>0</ele>
                        <time>2022-08-18T21:31:20Z</time>
                        <extensions>
    <sog>0.0</sog>
</extensions>
                    </trkpt>
                    <trkpt lat="54.43575666666666" lon="10.170800000000002">
                        <ele>0</ele>
                        <time>2022-08-18T21:34:19Z</time>
                        <extensions>
    <sog>0.0</sog>
</extensions>
                    </trkpt>
                    <trkpt lat="54.43574666666667" lon="10.170845000000002">
                        <ele>0</ele>
                        <time>2022-08-18T21:37:19Z</time>
                        <extensions>
    <sog>0.0</sog>
</extensions>
                    </trkpt>
                    <trkpt lat="54.435764999999996" lon="10.170858333333333">
                        <ele>0</ele>
                        <time>2022-08-18T21:49:20Z</time>
                        <extensions>
    <sog>0.0</sog>
</extensions>
                    </trkpt>
                    <trkpt lat="54.43575166666667" lon="10.170860000000001">
                        <ele>0</ele>
                        <time>2022-08-18T21:52:21Z</time>
                        <extensions>
    <sog>0.0</sog>
</extensions>
                    </trkpt>
                    <trkpt lat="54.435770000000005" lon="10.170823333333335">
                        <ele>0</ele>
                        <time>2022-08-18T22:07:21Z</time>
                        <extensions>
    <sog>0.1</sog>
</extensions>
                    </trkpt>
                    <trkpt lat="54.435795" lon="10.170828333333333">
                        <ele>0</ele>
                        <time>2022-08-18T22:10:20Z</time>
                        <extensions>
    <sog>0.0</sog>
</extensions>
                    </trkpt>
                    <trkpt lat="54.43577166666667" lon="10.17079">
                        <ele>0</ele>
                        <time>2022-08-18T22:13:21Z</time>
                        <extensions>
    <sog>0.0</sog>
</extensions>
                    </trkpt>
                    <trkpt lat="54.43577666666667" lon="10.170855">
                        <ele>0</ele>
                        <time>2022-08-18T22:16:20Z</time>
                        <extensions>
    <sog>0.0</sog>
</extensions>
                    </trkpt>
                    <trkpt lat="54.43579" lon="10.170860000000001">
                        <ele>0</ele>
                        <time>2022-08-18T22:22:20Z</time>
                        <extensions>
    <sog>0.0</sog>
</extensions>
                    </trkpt>
                    <trkpt lat="54.435788333333335" lon="10.170885">
                        <ele>0</ele>
                        <time>2022-08-18T22:25:20Z</time>
                        <extensions>
    <sog>0.0</sog>
</extensions>
                    </trkpt>
                    <trkpt lat="54.435770000000005" lon="10.17085">
                        <ele>0</ele>
                        <time>2022-08-18T22:31:20Z</time>
                        <extensions>
    <sog>0.0</sog>
</extensions>
                    </trkpt>
                    <trkpt lat="54.435745" lon="10.170845000000002">
                        <ele>0</ele>
                        <time>2022-08-18T22:34:20Z</time>
                        <extensions>
    <sog>0.0</sog>
</extensions>
                    </trkpt>
                    <trkpt lat="54.435735" lon="10.170853333333334">
                        <ele>0</ele>
                        <time>2022-08-18T22:37:20Z</time>
                        <extensions>
    <sog>0.0</sog>
</extensions>
                    </trkpt>
                    <trkpt lat="54.43571833333333" lon="10.17085">
                        <ele>0</ele>
                        <time>2022-08-18T22:40:20Z</time>
                        <extensions>
    <sog>0.1</sog>
</extensions>
                    </trkpt>
                    <trkpt lat="54.43573666666667" lon="10.170853333333334">
                        <ele>0</ele>
                        <time>2022-08-18T22:43:21Z</time>
                        <extensions>
    <sog>0.0</sog>
</extensions>
                    </trkpt>
                    <trkpt lat="54.43573166666667" lon="10.170843333333332">
                        <ele>0</ele>
                        <time>2022-08-18T22:46:20Z</time>
                        <extensions>
    <sog>0.0</sog>
</extensions>
                    </trkpt>
                    <trkpt lat="54.43573833333333" lon="10.170785">
                        <ele>0</ele>
                        <time>2022-08-18T22:49:20Z</time>
                        <extensions>
    <sog>0.0</sog>
</extensions>
                    </trkpt>
                    <trkpt lat="54.43570333333333" lon="10.170758333333334">
                        <ele>0</ele>
                        <time>2022-08-18T22:55:19Z</time>
                        <extensions>
    <sog>0.0</sog>
</extensions>
                    </trkpt>
                    <trkpt lat="54.435745" lon="10.170795">
                        <ele>0</ele>
                        <time>2022-08-18T23:01:20Z</time>
                        <extensions>
    <sog>0.0</sog>
</extensions>
                    </trkpt>
                    <trkpt lat="54.43574" lon="10.170756666666668">
                        <ele>0</ele>
                        <time>2022-08-18T23:04:20Z</time>
                        <extensions>
    <sog>0.0</sog>
</extensions>
                    </trkpt>
                    <trkpt lat="54.435735" lon="10.170745">
                        <ele>0</ele>
                        <time>2022-08-18T23:07:20Z</time>
                        <extensions>
    <sog>0.0</sog>
</extensions>
                    </trkpt>
                    <trkpt lat="54.43574666666667" lon="10.170761666666667">
                        <ele>0</ele>
                        <time>2022-08-18T23:13:20Z</time>
                        <extensions>
    <sog>0.0</sog>
</extensions>
                    </trkpt>
                    <trkpt lat="54.43573666666667" lon="10.170743333333332">
                        <ele>0</ele>
                        <time>2022-08-18T23:16:20Z</time>
                        <extensions>
    <sog>0.1</sog>
</extensions>
                    </trkpt>
                    <trkpt lat="54.435761666666664" lon="10.170786666666666">
                        <ele>0</ele>
                        <time>2022-08-18T23:19:20Z</time>
                        <extensions>
    <sog>0.0</sog>
</extensions>
                    </trkpt>
                    <trkpt lat="54.435764999999996" lon="10.170815000000001">
                        <ele>0</ele>
                        <time>2022-08-18T23:25:20Z</time>
                        <extensions>
    <sog>0.0</sog>
</extensions>
                    </trkpt>
                    <trkpt lat="54.43573833333333" lon="10.170816666666667">
                        <ele>0</ele>
                        <time>2022-08-18T23:28:20Z</time>
                        <extensions>
    <sog>0.0</sog>
</extensions>
                    </trkpt>
                    <trkpt lat="54.435723333333335" lon="10.170808333333333">
                        <ele>0</ele>
                        <time>2022-08-18T23:31:20Z</time>
                        <extensions>
    <sog>0.0</sog>
</extensions>
                    </trkpt>
                    <trkpt lat="54.43570833333333" lon="10.170778333333335">
                        <ele>0</ele>
                        <time>2022-08-18T23:37:19Z</time>
                        <extensions>
    <sog>0.0</sog>
</extensions>
                    </trkpt>
                    <trkpt lat="54.435669999999995" lon="10.17083">
                        <ele>0</ele>
                        <time>2022-08-18T23:40:23Z</time>
                        <extensions>
    <sog>0.0</sog>
</extensions>
                    </trkpt>
                    <trkpt lat="54.43569166666667" lon="10.170838333333334">
                        <ele>0</ele>
                        <time>2022-08-18T23:43:21Z</time>
                        <extensions>
    <sog>0.0</sog>
</extensions>
                    </trkpt>
                    <trkpt lat="54.43563666666667" lon="10.170835">
                        <ele>0</ele>
                        <time>2022-08-18T23:46:20Z</time>
                        <extensions>
    <sog>0.0</sog>
</extensions>
                    </trkpt>
                    <trkpt lat="54.43564166666667" lon="10.170791666666666">
                        <ele>0</ele>
                        <time>2022-08-18T23:49:23Z</time>
                        <extensions>
    <sog>0.0</sog>
</extensions>
                    </trkpt>
                    <trkpt lat="54.435626666666664" lon="10.170805">
                        <ele>0</ele>
                        <time>2022-08-18T23:55:20Z</time>
                        <extensions>
    <sog>0.0</sog>
</extensions>
                    </trkpt>
                    </trkseg>
                </trk>
</gpx>