<?xml version="1.0" encoding="UTF-8"?>
<gpx version="1.1" creator="AIS-to-GPX Converter" xmlns="http://www.topografix.com/GPX/1/1">
                <trk>
                    <name>anon0367</name>
                    <trkseg>
                                            <trkpt lat="54.36893666666666" lon="10.150743333333333">
                        <ele>0</ele>
                        <time>2022-08-18T00:00:29Z</time>
                                                <extensions>
                            <sog>0.0</sog>
<cog>231.6</cog>
                        </extensions>
                    </trkpt>
                    <trkpt lat="54.368925" lon="10.150748333333333">
                        <ele>0</ele>
                        <time>2022-08-18T00:03:29Z</time>
                                                <extensions>
                            <sog>0.0</sog>
<cog>204.1</cog>
                        </extensions>
                    </trkpt>
                    <trkpt lat="54.36892833333333" lon="10.150756666666666">
                        <ele>0</ele>
                        <time>2022-08-18T00:06:29Z</time>
                                                <extensions>
                            <sog>0.1</sog>
<cog>204.1</cog>
                        </extensions>
                    </trkpt>
                    <trkpt lat="54.368923333333335" lon="10.150745">
                        <ele>0</ele>
                        <time>2022-08-18T00:09:30Z</time>
                                                <extensions>
                            <sog>0.0</sog>
<cog>204.1</cog>
                        </extensions>
                    </trkpt>
                    <trkpt lat="54.368945000000004" lon="10.15076">
                        <ele>0</ele>
                        <time>2022-08-18T00:12:29Z</time>
                                                <extensions>
                            <sog>0.0</sog>
<cog>204.1</cog>
                        </extensions>
                    </trkpt>
                    <trkpt lat="54.368923333333335" lon="10.150704999999999">
                        <ele>0</ele>
                        <time>2022-08-18T00:18:31Z</time>
                                                <extensions>
                            <sog>0.0</sog>
<cog>204.1</cog>
                        </extensions>
                    </trkpt>
                    <trkpt lat="54.36890666666667" lon="10.150713333333334">
                        <ele>0</ele>
                        <time>2022-08-18T00:21:29Z</time>
                                                <extensions>
                            <sog>0.0</sog>
<cog>204.1</cog>
                        </extensions>
                    </trkpt>
                    <trkpt lat="54.368905000000005" lon="10.150728333333332">
                        <ele>0</ele>
                        <time>2022-08-18T00:24:30Z</time>
                                                <extensions>
                            <sog>0.1</sog>
<cog>204.1</cog>
                        </extensions>
                    </trkpt>
                    <trkpt lat="54.368878333333335" lon="10.150728333333332">
                        <ele>0</ele>
                        <time>2022-08-18T00:27:29Z</time>
                                                <extensions>
                            <sog>0.0</sog>
<cog>204.1</cog>
                        </extensions>
                    </trkpt>
                    <trkpt lat="54.36891166666667" lon="10.15076">
                        <ele>0</ele>
                        <time>2022-08-18T00:30:30Z</time>
                                                <extensions>
                            <sog>0.0</sog>
<cog>204.1</cog>
                        </extensions>
                    </trkpt>
                    <trkpt lat="54.36890833333334" lon="10.15074">
                        <ele>0</ele>
                        <time>2022-08-18T00:33:29Z</time>
                                                <extensions>
                            <sog>0.0</sog>
<cog>204.1</cog>
                        </extensions>
                    </trkpt>
                    <trkpt lat="54.36891333333333" lon="10.15076">
                        <ele>0</ele>
                        <time>2022-08-18T00:36:30Z</time>
                                                <extensions>
                            <sog>0.0</sog>
<cog>204.1</cog>
                        </extensions>
                    </trkpt>
                    <trkpt lat="54.36890833333334" lon="10.150728333333332">
                        <ele>0</ele>
                        <time>2022-08-18T00:42:30Z</time>
                                                <extensions>
                            <sog>0.0</sog>
<cog>204.1</cog>
                        </extensions>
                    </trkpt>
                    <trkpt lat="54.368903333333336" lon="10.150695">
                        <ele>0</ele>
                        <time>2022-08-18T00:45:29Z</time>
                                                <extensions>
                            <sog>0.1</sog>
<cog>204.1</cog>
                        </extensions>
                    </trkpt>
                    <trkpt lat="54.36894333333333" lon="10.150761666666666">
                        <ele>0</ele>
                        <time>2022-08-18T00:51:30Z</time>
                                                <extensions>
                            <sog>0.0</sog>
<cog>204.1</cog>
                        </extensions>
                    </trkpt>
                    <trkpt lat="54.36891166666667" lon="10.150726666666666">
                        <ele>0</ele>
                        <time>2022-08-18T00:54:29Z</time>
                                                <extensions>
                            <sog>0.0</sog>
<cog>204.1</cog>
                        </extensions>
                    </trkpt>
                    <trkpt lat="54.36889166666666" lon="10.150749999999999">
                        <ele>0</ele>
                        <time>2022-08-18T00:57:30Z</time>
                                                <extensions>
                            <sog>0.0</sog>
<cog>204.1</cog>
                        </extensions>
                    </trkpt>
                    <trkpt lat="54.36893166666667" lon="10.150751666666668">
                        <ele>0</ele>
                        <time>2022-08-18T01:00:29Z</time>
                                                <extensions>
                            <sog>0.0</sog>
<cog>204.1</cog>
                        </extensions>
                    </trkpt>
                    <trkpt lat="54.36893166666667" lon="10.150751666666668">
                        <ele>0</ele>
                        <time>2022-08-18T01:00:29Z</time>
                                                <extensions>
                            <sog>0.0</sog>
<cog>204.1</cog>
                        </extensions>
                    </trkpt>
                    <trkpt lat="54.36892833333333" lon="10.150741666666667">
                        <ele>0</ele>
                        <time>2022-08-18T01:06:29Z</time>
                                                <extensions>
                            <sog>0.0</sog>
<cog>204.1</cog>
                        </extensions>
                    </trkpt>
                    <trkpt lat="54.36892666666667" lon="10.150758333333332">
                        <ele>0</ele>
                        <time>2022-08-18T01:09:31Z</time>
                                                <extensions>
                            <sog>0.0</sog>
<cog>204.1</cog>
                        </extensions>
                    </trkpt>
                    <trkpt lat="54.36893666666666" lon="10.150763333333334">
                        <ele>0</ele>
                        <time>2022-08-18T01:12:29Z</time>
                                                <extensions>
                            <sog>0.0</sog>
<cog>204.1</cog>
                        </extensions>
                    </trkpt>
                    <trkpt lat="54.36893166666667" lon="10.150751666666668">
                        <ele>0</ele>
                        <time>2022-08-18T01:15:29Z</time>
                                                <extensions>
                            <sog>0.0</sog>
<cog>204.1</cog>
                        </extensions>
                    </trkpt>
                    <trkpt lat="54.36893166666667" lon="10.150771666666666">
                        <ele>0</ele>
                        <time>2022-08-18T01:18:29Z</time>
                                                <extensions>
                            <sog>0.0</sog>
<cog>204.1</cog>
                        </extensions>
                    </trkpt>
                    <trkpt lat="54.368923333333335" lon="10.150756666666666">
                        <ele>0</ele>
                        <time>2022-08-18T01:21:29Z</time>
                                                <extensions>
                            <sog>0.0</sog>
<cog>204.1</cog>
                        </extensions>
                    </trkpt>
                    <trkpt lat="54.36892" lon="10.150753333333334">
                        <ele>0</ele>
                        <time>2022-08-18T01:24:29Z</time>
                                                <extensions>
                            <sog>0.0</sog>
<cog>204.1</cog>
                        </extensions>
                    </trkpt>
                    <trkpt lat="54.368923333333335" lon="10.15076">
                        <ele>0</ele>
                        <time>2022-08-18T01:30:29Z</time>
                                                <extensions>
                            <sog>0.0</sog>
<cog>204.1</cog>
                        </extensions>
                    </trkpt>
                    <trkpt lat="54.36893" lon="10.150765">
                        <ele>0</ele>
                        <time>2022-08-18T01:36:29Z</time>
                                                <extensions>
                            <sog>0.1</sog>
<cog>204.1</cog>
                        </extensions>
                    </trkpt>
                    <trkpt lat="54.368925" lon="10.150756666666666">
                        <ele>0</ele>
                        <time>2022-08-18T01:39:30Z</time>
                                                <extensions>
                            <sog>0.0</sog>
<cog>204.1</cog>
                        </extensions>
                    </trkpt>
                    <trkpt lat="54.36892" lon="10.150743333333333">
                        <ele>0</ele>
                        <time>2022-08-18T01:45:30Z</time>
                                                <extensions>
                            <sog>0.0</sog>
<cog>204.1</cog>
                        </extensions>
                    </trkpt>
                    <trkpt lat="54.36893833333333" lon="10.150755">
                        <ele>0</ele>
                        <time>2022-08-18T01:48:31Z</time>
                                                <extensions>
                            <sog>0.0</sog>
<cog>204.1</cog>
                        </extensions>
                    </trkpt>
                    <trkpt lat="54.368921666666665" lon="10.150775000000001">
                        <ele>0</ele>
                        <time>2022-08-18T01:51:29Z</time>
                                                <extensions>
                            <sog>0.0</sog>
<cog>204.1</cog>
                        </extensions>
                    </trkpt>
                    <trkpt lat="54.36895333333334" lon="10.15074">
                        <ele>0</ele>
                        <time>2022-08-18T01:54:30Z</time>
                                                <extensions>
                            <sog>0.0</sog>
<cog>204.1</cog>
                        </extensions>
                    </trkpt>
                    <trkpt lat="54.36896" lon="10.150718333333334">
                        <ele>0</ele>
                        <time>2022-08-18T01:57:29Z</time>
                                                <extensions>
                            <sog>0.0</sog>
<cog>204.1</cog>
                        </extensions>
                    </trkpt>
                    <trkpt lat="54.36893833333333" lon="10.15077">
                        <ele>0</ele>
                        <time>2022-08-18T02:00:31Z</time>
                                                <extensions>
                            <sog>0.0</sog>
<cog>204.1</cog>
                        </extensions>
                    </trkpt>
                    <trkpt lat="54.36893833333333" lon="10.15077">
                        <ele>0</ele>
                        <time>2022-08-18T02:00:31Z</time>
                                                <extensions>
                            <sog>0.0</sog>
<cog>204.1</cog>
                        </extensions>
                    </trkpt>
                    <trkpt lat="54.36892833333333" lon="10.150758333333332">
                        <ele>0</ele>
                        <time>2022-08-18T02:03:30Z</time>
                                                <extensions>
                            <sog>0.0</sog>
<cog>204.1</cog>
                        </extensions>
                    </trkpt>
                    <trkpt lat="54.36893166666667" lon="10.150738333333333">
                        <ele>0</ele>
                        <time>2022-08-18T02:06:30Z</time>
                                                <extensions>
                            <sog>0.0</sog>
<cog>204.1</cog>
                        </extensions>
                    </trkpt>
                    <trkpt lat="54.368939999999995" lon="10.150786666666667">
                        <ele>0</ele>
                        <time>2022-08-18T02:12:29Z</time>
                                                <extensions>
                            <sog>0.0</sog>
<cog>204.1</cog>
                        </extensions>
                    </trkpt>
                    <trkpt lat="54.368915" lon="10.15074">
                        <ele>0</ele>
                        <time>2022-08-18T02:15:29Z</time>
                                                <extensions>
                            <sog>0.0</sog>
<cog>204.1</cog>
                        </extensions>
                    </trkpt>
                    <trkpt lat="54.368896666666664" lon="10.150753333333334">
                        <ele>0</ele>
                        <time>2022-08-18T02:18:29Z</time>
                                                <extensions>
                            <sog>0.0</sog>
<cog>204.1</cog>
                        </extensions>
                    </trkpt>
                    <trkpt lat="54.368903333333336" lon="10.15078">
                        <ele>0</ele>
                        <time>2022-08-18T02:21:30Z</time>
                                                <extensions>
                            <sog>0.0</sog>
<cog>204.1</cog>
                        </extensions>
                    </trkpt>
                    <trkpt lat="54.36889" lon="10.150743333333333">
                        <ele>0</ele>
                        <time>2022-08-18T02:24:29Z</time>
                                                <extensions>
                            <sog>0.0</sog>
<cog>204.1</cog>
                        </extensions>
                    </trkpt>
                    <trkpt lat="54.36891333333333" lon="10.150765">
                        <ele>0</ele>
                        <time>2022-08-18T02:30:29Z</time>
                                                <extensions>
                            <sog>0.0</sog>
<cog>204.1</cog>
                        </extensions>
                    </trkpt>
                    <trkpt lat="54.368905000000005" lon="10.150748333333333">
                        <ele>0</ele>
                        <time>2022-08-18T02:33:29Z</time>
                                                <extensions>
                            <sog>0.0</sog>
<cog>204.1</cog>
                        </extensions>
                    </trkpt>
                    <trkpt lat="54.36891" lon="10.150756666666666">
                        <ele>0</ele>
                        <time>2022-08-18T02:36:29Z</time>
                                                <extensions>
                            <sog>0.0</sog>
<cog>204.1</cog>
                        </extensions>
                    </trkpt>
                    <trkpt lat="54.368923333333335" lon="10.150738333333333">
                        <ele>0</ele>
                        <time>2022-08-18T02:42:29Z</time>
                                                <extensions>
                            <sog>0.0</sog>
<cog>171.8</cog>
                        </extensions>
                    </trkpt>
                    <trkpt lat="54.36892666666667" lon="10.150758333333332">
                        <ele>0</ele>
                        <time>2022-08-18T02:48:30Z</time>
                                                <extensions>
                            <sog>0.0</sog>
<cog>171.8</cog>
                        </extensions>
                    </trkpt>
                    <trkpt lat="54.36891666666667" lon="10.150751666666668">
                        <ele>0</ele>
                        <time>2022-08-18T02:54:32Z</time>
                                                <extensions>
                            <sog>0.0</sog>
<cog>171.8</cog>
                        </extensions>
                    </trkpt>
                    <trkpt lat="54.36892666666667" lon="10.150718333333334">
                        <ele>0</ele>
                        <time>2022-08-18T02:57:29Z</time>
                                                <extensions>
                            <sog>0.1</sog>
<cog>171.8</cog>
                        </extensions>
                    </trkpt>
                    <trkpt lat="54.368939999999995" lon="10.150718333333334">
                        <ele>0</ele>
                        <time>2022-08-18T03:00:30Z</time>
                                                <extensions>
                            <sog>0.0</sog>
<cog>171.8</cog>
                        </extensions>
                    </trkpt>
                    <trkpt lat="54.368939999999995" lon="10.150718333333334">
                        <ele>0</ele>
                        <time>2022-08-18T03:00:30Z</time>
                                                <extensions>
                            <sog>0.0</sog>
<cog>171.8</cog>
                        </extensions>
                    </trkpt>
                    <trkpt lat="54.368905000000005" lon="10.150718333333334">
                        <ele>0</ele>
                        <time>2022-08-18T03:03:29Z</time>
                                                <extensions>
                            <sog>0.0</sog>
<cog>171.8</cog>
                        </extensions>
                    </trkpt>
                    <trkpt lat="54.36892833333333" lon="10.150735">
                        <ele>0</ele>
                        <time>2022-08-18T03:06:30Z</time>
                                                <extensions>
                            <sog>0.0</sog>
<cog>171.8</cog>
                        </extensions>
                    </trkpt>
                    <trkpt lat="54.368948333333336" lon="10.150758333333332">
                        <ele>0</ele>
                        <time>2022-08-18T03:12:30Z</time>
                                                <extensions>
                            <sog>0.0</sog>
<cog>171.8</cog>
                        </extensions>
                    </trkpt>
                    <trkpt lat="54.368939999999995" lon="10.150711666666666">
                        <ele>0</ele>
                        <time>2022-08-18T03:15:30Z</time>
                                                <extensions>
                            <sog>0.0</sog>
<cog>171.8</cog>
                        </extensions>
                    </trkpt>
                    <trkpt lat="54.36893" lon="10.150721666666668">
                        <ele>0</ele>
                        <time>2022-08-18T03:18:30Z</time>
                                                <extensions>
                            <sog>0.0</sog>
<cog>171.8</cog>
                        </extensions>
                    </trkpt>
                    <trkpt lat="54.368939999999995" lon="10.150733333333333">
                        <ele>0</ele>
                        <time>2022-08-18T03:21:29Z</time>
                                                <extensions>
                            <sog>0.0</sog>
<cog>171.8</cog>
                        </extensions>
                    </trkpt>
                    <trkpt lat="54.368925" lon="10.150713333333334">
                        <ele>0</ele>
                        <time>2022-08-18T03:30:29Z</time>
                                                <extensions>
                            <sog>0.0</sog>
<cog>171.8</cog>
                        </extensions>
                    </trkpt>
                    <trkpt lat="54.36891666666667" lon="10.15072">
                        <ele>0</ele>
                        <time>2022-08-18T03:33:30Z</time>
                                                <extensions>
                            <sog>0.0</sog>
<cog>171.8</cog>
                        </extensions>
                    </trkpt>
                    <trkpt lat="54.36888166666667" lon="10.150695">
                        <ele>0</ele>
                        <time>2022-08-18T03:36:29Z</time>
                                                <extensions>
                            <sog>0.0</sog>
<cog>171.8</cog>
                        </extensions>
                    </trkpt>
                    <trkpt lat="54.368905000000005" lon="10.150718333333334">
                        <ele>0</ele>
                        <time>2022-08-18T03:42:29Z</time>
                                                <extensions>
                            <sog>0.0</sog>
<cog>171.8</cog>
                        </extensions>
                    </trkpt>
                    <trkpt lat="54.36885333333333" lon="10.150736666666667">
                        <ele>0</ele>
                        <time>2022-08-18T03:45:30Z</time>
                                                <extensions>
                            <sog>0.0</sog>
<cog>171.8</cog>
                        </extensions>
                    </trkpt>
                    <trkpt lat="54.36886666666667" lon="10.150765">
                        <ele>0</ele>
                        <time>2022-08-18T03:48:30Z</time>
                                                <extensions>
                            <sog>0.1</sog>
<cog>171.8</cog>
                        </extensions>
                    </trkpt>
                    <trkpt lat="54.368925" lon="10.150749999999999">
                        <ele>0</ele>
                        <time>2022-08-18T03:54:30Z</time>
                                                <extensions>
                            <sog>0.0</sog>
<cog>171.8</cog>
                        </extensions>
                    </trkpt>
                    <trkpt lat="54.368939999999995" lon="10.150743333333333">
                        <ele>0</ele>
                        <time>2022-08-18T03:57:31Z</time>
                                                <extensions>
                            <sog>0.1</sog>
<cog>171.8</cog>
                        </extensions>
                    </trkpt>
                    <trkpt lat="54.36893833333333" lon="10.150736666666667">
                        <ele>0</ele>
                        <time>2022-08-18T04:00:29Z</time>
                                                <extensions>
                            <sog>0.0</sog>
<cog>171.8</cog>
                        </extensions>
                    </trkpt>
                    <trkpt lat="54.36893833333333" lon="10.150736666666667">
                        <ele>0</ele>
                        <time>2022-08-18T04:00:29Z</time>
                                                <extensions>
                            <sog>0.0</sog>
<cog>171.8</cog>
                        </extensions>
                    </trkpt>
                    <trkpt lat="54.368925" lon="10.150771666666666">
                        <ele>0</ele>
                        <time>2022-08-18T04:09:31Z</time>
                                                <extensions>
                            <sog>0.0</sog>
<cog>127.6</cog>
                        </extensions>
                    </trkpt>
                    <trkpt lat="54.36891333333333" lon="10.150776666666667">
                        <ele>0</ele>
                        <time>2022-08-18T04:12:30Z</time>
                                                <extensions>
                            <sog>0.0</sog>
<cog>127.6</cog>
                        </extensions>
                    </trkpt>
                    <trkpt lat="54.36894666666667" lon="10.150776666666667">
                        <ele>0</ele>
                        <time>2022-08-18T04:15:30Z</time>
                                                <extensions>
                            <sog>0.0</sog>
<cog>127.6</cog>
                        </extensions>
                    </trkpt>
                    <trkpt lat="54.36890833333334" lon="10.150728333333332">
                        <ele>0</ele>
                        <time>2022-08-18T04:21:30Z</time>
                                                <extensions>
                            <sog>0.1</sog>
<cog>127.6</cog>
                        </extensions>
                    </trkpt>
                    <trkpt lat="54.368633333333335" lon="10.150203333333334">
                        <ele>0</ele>
                        <time>2022-08-18T04:23:57Z</time>
                                                <extensions>
                            <sog>2.1</sog>
<cog>162.7</cog>
                        </extensions>
                    </trkpt>
                    <trkpt lat="54.36850666666667" lon="10.150616666666668">
                        <ele>0</ele>
                        <time>2022-08-18T04:24:25Z</time>
                                                <extensions>
                            <sog>2.3</sog>
<cog>101.6</cog>
                        </extensions>
                    </trkpt>
                    <trkpt lat="54.36843833333333" lon="10.151135">
                        <ele>0</ele>
                        <time>2022-08-18T04:24:56Z</time>
                                                <extensions>
                            <sog>1.8</sog>
<cog>115.7</cog>
                        </extensions>
                    </trkpt>
                    <trkpt lat="54.368114999999996" lon="10.151071666666667">
                        <ele>0</ele>
                        <time>2022-08-18T04:25:57Z</time>
                                                <extensions>
                            <sog>0.9</sog>
<cog>196.5</cog>
                        </extensions>
                    </trkpt>
                    <trkpt lat="54.368050000000004" lon="10.151041666666666">
                        <ele>0</ele>
                        <time>2022-08-18T04:26:26Z</time>
                                                <extensions>
                            <sog>0.1</sog>
<cog>188.2</cog>
                        </extensions>
                    </trkpt>
                    <trkpt lat="54.368096666666666" lon="10.151019999999999">
                        <ele>0</ele>
                        <time>2022-08-18T04:26:55Z</time>
                                                <extensions>
                            <sog>0.5</sog>
<cog>346.0</cog>
                        </extensions>
                    </trkpt>
                    <trkpt lat="54.368203333333334" lon="10.150929999999999">
                        <ele>0</ele>
                        <time>2022-08-18T04:27:56Z</time>
                                                <extensions>
                            <sog>0.4</sog>
<cog>343.9</cog>
                        </extensions>
                    </trkpt>
                    <trkpt lat="54.36826166666666" lon="10.150841666666668">
                        <ele>0</ele>
                        <time>2022-08-18T04:36:55Z</time>
                                                <extensions>
                            <sog>0.3</sog>
<cog>32.5</cog>
                        </extensions>
                    </trkpt>
                    <trkpt lat="54.36812666666666" lon="10.150948333333334">
                        <ele>0</ele>
                        <time>2022-08-18T04:39:55Z</time>
                                                <extensions>
                            <sog>0.3</sog>
<cog>165.2</cog>
                        </extensions>
                    </trkpt>
                    <trkpt lat="54.368003333333334" lon="10.150931666666667">
                        <ele>0</ele>
                        <time>2022-08-18T04:42:55Z</time>
                                                <extensions>
                            <sog>0.1</sog>
<cog>165.2</cog>
                        </extensions>
                    </trkpt>
                    <trkpt lat="54.367805" lon="10.151005">
                        <ele>0</ele>
                        <time>2022-08-18T04:45:56Z</time>
                                                <extensions>
                            <sog>0.2</sog>
<cog>175.1</cog>
                        </extensions>
                    </trkpt>
                    <trkpt lat="54.36761" lon="10.150948333333334">
                        <ele>0</ele>
                        <time>2022-08-18T04:48:55Z</time>
                                                <extensions>
                            <sog>0.3</sog>
<cog>175.1</cog>
                        </extensions>
                    </trkpt>
                    <trkpt lat="54.367415" lon="10.150718333333334">
                        <ele>0</ele>
                        <time>2022-08-18T04:51:56Z</time>
                                                <extensions>
                            <sog>0.5</sog>
<cog>175.1</cog>
                        </extensions>
                    </trkpt>
                    <trkpt lat="54.366231666666664" lon="10.15025">
                        <ele>0</ele>
                        <time>2022-08-18T04:54:21Z</time>
                                                <extensions>
                            <sog>4.1</sog>
<cog>192.4</cog>
                        </extensions>
                    </trkpt>
                    <trkpt lat="54.365665" lon="10.149873333333334">
                        <ele>0</ele>
                        <time>2022-08-18T04:54:52Z</time>
                                                <extensions>
                            <sog>4.2</sog>
<cog>212.1</cog>
                        </extensions>
                    </trkpt>
                    <trkpt lat="54.36528166666667" lon="10.14914">
                        <ele>0</ele>
                        <time>2022-08-18T04:55:22Z</time>
                                                <extensions>
                            <sog>3.3</sog>
<cog>241.8</cog>
                        </extensions>
                    </trkpt>
                    <trkpt lat="54.365015" lon="10.148165">
                        <ele>0</ele>
                        <time>2022-08-18T04:55:53Z</time>
                                                <extensions>
                            <sog>4.3</sog>
<cog>251.8</cog>
                        </extensions>
                    </trkpt>
                    <trkpt lat="54.36503666666667" lon="10.146253333333334">
                        <ele>0</ele>
                        <time>2022-08-18T04:56:51Z</time>
                                                <extensions>
                            <sog>4.2</sog>
<cog>286.0</cog>
                        </extensions>
                    </trkpt>
                    <trkpt lat="54.365185" lon="10.145283333333333">
                        <ele>0</ele>
                        <time>2022-08-18T04:57:21Z</time>
                                                <extensions>
                            <sog>4.0</sog>
<cog>281.9</cog>
                        </extensions>
                    </trkpt>
                    <trkpt lat="54.365429999999996" lon="10.143438333333334">
                        <ele>0</ele>
                        <time>2022-08-18T04:58:24Z</time>
                                                <extensions>
                            <sog>3.3</sog>
<cog>296.0</cog>
                        </extensions>
                    </trkpt>
                    <trkpt lat="54.365541666666665" lon="10.14286">
                        <ele>0</ele>
                        <time>2022-08-18T04:58:51Z</time>
                                                <extensions>
                            <sog>2.1</sog>
<cog>284.4</cog>
                        </extensions>
                    </trkpt>
                    <trkpt lat="54.365561666666665" lon="10.142606666666667">
                        <ele>0</ele>
                        <time>2022-08-18T04:59:25Z</time>
                                                <extensions>
                            <sog>0.3</sog>
<cog>276.3</cog>
                        </extensions>
                    </trkpt>
                    <trkpt lat="54.365561666666665" lon="10.142601666666668">
                        <ele>0</ele>
                        <time>2022-08-18T04:59:52Z</time>
                                                <extensions>
                            <sog>0.1</sog>
<cog>276.3</cog>
                        </extensions>
                    </trkpt>
                    <trkpt lat="54.365565" lon="10.142561666666667">
                        <ele>0</ele>
                        <time>2022-08-18T05:00:22Z</time>
                                                <extensions>
                            <sog>0.1</sog>
<cog>276.3</cog>
                        </extensions>
                    </trkpt>
                    <trkpt lat="54.365565" lon="10.142561666666667">
                        <ele>0</ele>
                        <time>2022-08-18T05:00:22Z</time>
                                                <extensions>
                            <sog>0.1</sog>
<cog>276.3</cog>
                        </extensions>
                    </trkpt>
                    <trkpt lat="54.36559833333333" lon="10.142546666666668">
                        <ele>0</ele>
                        <time>2022-08-18T05:00:52Z</time>
                                                <extensions>
                            <sog>0.1</sog>
<cog>276.3</cog>
                        </extensions>
                    </trkpt>
                    <trkpt lat="54.36559833333333" lon="10.142546666666668">
                        <ele>0</ele>
                        <time>2022-08-18T05:00:52Z</time>
                                                <extensions>
                            <sog>0.1</sog>
<cog>276.3</cog>
                        </extensions>
                    </trkpt>
                    <trkpt lat="54.3656" lon="10.142521666666665">
                        <ele>0</ele>
                        <time>2022-08-18T05:01:22Z</time>
                                                <extensions>
                            <sog>0.2</sog>
<cog>276.3</cog>
                        </extensions>
                    </trkpt>
                    <trkpt lat="54.36559833333333" lon="10.142506666666666">
                        <ele>0</ele>
                        <time>2022-08-18T05:01:53Z</time>
                                                <extensions>
                            <sog>0.0</sog>
<cog>276.3</cog>
                        </extensions>
                    </trkpt>
                    <trkpt lat="54.36564333333333" lon="10.14247">
                        <ele>0</ele>
                        <time>2022-08-18T05:02:21Z</time>
                                                <extensions>
                            <sog>0.0</sog>
<cog>276.3</cog>
                        </extensions>
                    </trkpt>
                    <trkpt lat="54.365606666666665" lon="10.142461666666666">
                        <ele>0</ele>
                        <time>2022-08-18T05:05:22Z</time>
                                                <extensions>
                            <sog>0.0</sog>
<cog>276.3</cog>
                        </extensions>
                    </trkpt>
                    <trkpt lat="54.36558333333333" lon="10.142491666666666">
                        <ele>0</ele>
                        <time>2022-08-18T05:08:24Z</time>
                                                <extensions>
                            <sog>0.0</sog>
<cog>276.3</cog>
                        </extensions>
                    </trkpt>
                    <trkpt lat="54.36558166666667" lon="10.14248">
                        <ele>0</ele>
                        <time>2022-08-18T05:11:21Z</time>
                                                <extensions>
                            <sog>0.3</sog>
<cog>276.3</cog>
                        </extensions>
                    </trkpt>
                    <trkpt lat="54.365613333333336" lon="10.142446666666666">
                        <ele>0</ele>
                        <time>2022-08-18T05:14:22Z</time>
                                                <extensions>
                            <sog>0.0</sog>
<cog>208.8</cog>
                        </extensions>
                    </trkpt>
                    <trkpt lat="54.36570666666667" lon="10.140783333333333">
                        <ele>0</ele>
                        <time>2022-08-18T05:17:48Z</time>
                                                <extensions>
                            <sog>5.2</sog>
<cog>281.6</cog>
                        </extensions>
                    </trkpt>
                    <trkpt lat="54.36608833333333" lon="10.138198333333333">
                        <ele>0</ele>
                        <time>2022-08-18T05:18:50Z</time>
                                                <extensions>
                            <sog>6.3</sog>
<cog>281.0</cog>
                        </extensions>
                    </trkpt>
                    <trkpt lat="54.36638833333333" lon="10.136816666666666">
                        <ele>0</ele>
                        <time>2022-08-18T05:19:20Z</time>
                                                <extensions>
                            <sog>5.5</sog>
<cog>307.7</cog>
                        </extensions>
                    </trkpt>
                    <trkpt lat="54.36689333333334" lon="10.135995000000001">
                        <ele>0</ele>
                        <time>2022-08-18T05:19:48Z</time>
                                                <extensions>
                            <sog>5.3</sog>
<cog>315.8</cog>
                        </extensions>
                    </trkpt>
                    <trkpt lat="54.36735833333333" lon="10.135208333333333">
                        <ele>0</ele>
                        <time>2022-08-18T05:20:19Z</time>
                                                <extensions>
                            <sog>3.4</sog>
<cog>312.8</cog>
                        </extensions>
                    </trkpt>
                    <trkpt lat="54.36759666666667" lon="10.134803333333334">
                        <ele>0</ele>
                        <time>2022-08-18T05:20:48Z</time>
                                                <extensions>
                            <sog>2.6</sog>
<cog>316.7</cog>
                        </extensions>
                    </trkpt>
                    <trkpt lat="54.368005000000004" lon="10.132668333333333">
                        <ele>0</ele>
                        <time>2022-08-18T05:21:52Z</time>
                                                <extensions>
                            <sog>5.9</sog>
<cog>281.4</cog>
                        </extensions>
                    </trkpt>
                    <trkpt lat="54.36825833333333" lon="10.129403333333332">
                        <ele>0</ele>
                        <time>2022-08-18T05:22:48Z</time>
                                                <extensions>
                            <sog>7.6</sog>
<cog>274.4</cog>
                        </extensions>
                    </trkpt>
                    <trkpt lat="54.36861666666667" lon="10.125861666666667">
                        <ele>0</ele>
                        <time>2022-08-18T05:23:48Z</time>
                                                <extensions>
                            <sog>7.7</sog>
<cog>287.4</cog>
                        </extensions>
                    </trkpt>
                    <trkpt lat="54.36889" lon="10.1241">
                        <ele>0</ele>
                        <time>2022-08-18T05:24:18Z</time>
                                                <extensions>
                            <sog>7.6</sog>
<cog>280.9</cog>
                        </extensions>
                    </trkpt>
                    <trkpt lat="54.36915666666666" lon="10.122343333333333">
                        <ele>0</ele>
                        <time>2022-08-18T05:24:48Z</time>
                                                <extensions>
                            <sog>7.5</sog>
<cog>281.9</cog>
                        </extensions>
                    </trkpt>
                    <trkpt lat="54.36969166666667" lon="10.118758333333334">
                        <ele>0</ele>
                        <time>2022-08-18T05:25:48Z</time>
                                                <extensions>
                            <sog>7.8</sog>
<cog>288.1</cog>
                        </extensions>
                    </trkpt>
                    <trkpt lat="54.370763333333336" lon="10.11157">
                        <ele>0</ele>
                        <time>2022-08-18T05:27:49Z</time>
                                                <extensions>
                            <sog>7.8</sog>
<cog>284.8</cog>
                        </extensions>
                    </trkpt>
                    <trkpt lat="54.371340000000004" lon="10.10779">
                        <ele>0</ele>
                        <time>2022-08-18T05:28:51Z</time>
                                                <extensions>
                            <sog>7.8</sog>
<cog>283.3</cog>
                        </extensions>
                    </trkpt>
                    <trkpt lat="54.37155333333333" lon="10.10616">
                        <ele>0</ele>
                        <time>2022-08-18T05:29:18Z</time>
                                                <extensions>
                            <sog>7.8</sog>
<cog>282.2</cog>
                        </extensions>
                    </trkpt>
                    <trkpt lat="54.37176833333333" lon="10.104353333333334">
                        <ele>0</ele>
                        <time>2022-08-18T05:29:49Z</time>
                                                <extensions>
                            <sog>7.8</sog>
<cog>283.5</cog>
                        </extensions>
                    </trkpt>
                    <trkpt lat="54.37242166666667" lon="10.098751666666667">
                        <ele>0</ele>
                        <time>2022-08-18T05:31:20Z</time>
                                                <extensions>
                            <sog>8.0</sog>
<cog>278.5</cog>
                        </extensions>
                    </trkpt>
                    <trkpt lat="54.37244666666666" lon="10.096941666666668">
                        <ele>0</ele>
                        <time>2022-08-18T05:31:48Z</time>
                                                <extensions>
                            <sog>7.8</sog>
<cog>270.6</cog>
                        </extensions>
                    </trkpt>
                    <trkpt lat="54.37239666666667" lon="10.093228333333334">
                        <ele>0</ele>
                        <time>2022-08-18T05:32:48Z</time>
                                                <extensions>
                            <sog>7.8</sog>
<cog>262.8</cog>
                        </extensions>
                    </trkpt>
                    <trkpt lat="54.36013166666667" lon="10.050983333333333">
                        <ele>0</ele>
                        <time>2022-08-18T05:45:48Z</time>
                                                <extensions>
                            <sog>7.9</sog>
<cog>266.0</cog>
                        </extensions>
                    </trkpt>
                    <trkpt lat="54.36080333333334" lon="10.039861666666667">
                        <ele>0</ele>
                        <time>2022-08-18T05:48:49Z</time>
                                                <extensions>
                            <sog>7.8</sog>
<cog>281.0</cog>
                        </extensions>
                    </trkpt>
                    <trkpt lat="54.36107833333333" lon="10.036245000000001">
                        <ele>0</ele>
                        <time>2022-08-18T05:49:48Z</time>
                                                <extensions>
                            <sog>7.9</sog>
<cog>275.0</cog>
                        </extensions>
                    </trkpt>
                    <trkpt lat="54.36095833333333" lon="10.026975">
                        <ele>0</ele>
                        <time>2022-08-18T05:52:18Z</time>
                                                <extensions>
                            <sog>7.8</sog>
<cog>262.7</cog>
                        </extensions>
                    </trkpt>
                    <trkpt lat="54.36074" lon="10.025065000000001">
                        <ele>0</ele>
                        <time>2022-08-18T05:52:49Z</time>
                                                <extensions>
                            <sog>7.7</sog>
<cog>258.5</cog>
                        </extensions>
                    </trkpt>
                    <trkpt lat="54.346848333333334" lon="9.98906">
                        <ele>0</ele>
                        <time>2022-08-18T06:04:49Z</time>
                                                <extensions>
                            <sog>7.1</sog>
<cog>238.0</cog>
                        </extensions>
                    </trkpt>
                    <trkpt lat="54.34153333333334" lon="9.949298333333333">
                        <ele>0</ele>
                        <time>2022-08-18T06:15:50Z</time>
                                                <extensions>
                            <sog>7.7</sog>
<cog>261.1</cog>
                        </extensions>
                    </trkpt>
                    <trkpt lat="54.34120333333333" lon="9.945761666666668">
                        <ele>0</ele>
                        <time>2022-08-18T06:16:48Z</time>
                                                <extensions>
                            <sog>7.8</sog>
<cog>260.3</cog>
                        </extensions>
                    </trkpt>
                    <trkpt lat="54.34117166666667" lon="9.938436666666666">
                        <ele>0</ele>
                        <time>2022-08-18T06:18:48Z</time>
                                                <extensions>
                            <sog>7.9</sog>
<cog>272.2</cog>
                        </extensions>
                    </trkpt>
                    <trkpt lat="54.34132" lon="9.934711666666667">
                        <ele>0</ele>
                        <time>2022-08-18T06:19:48Z</time>
                                                <extensions>
                            <sog>7.8</sog>
<cog>277.4</cog>
                        </extensions>
                    </trkpt>
                    </trkseg>
                </trk>
</gpx>