<?xml version="1.0" encoding="UTF-8"?>
<gpx version="1.1" creator="AIS-to-GPX Converter" xmlns="http://www.topografix.com/GPX/1/1">
                <trk>
                    <name>anon0173</name>
                    <trkseg>
                                            <trkpt lat="54.57640333333333" lon="10.2074">
                        <ele>0</ele>
                        <time>2022-08-18T13:27:27Z</time>
                                                <extensions>
                            <sog>7.1</sog>
<cog>177.9</cog>
                        </extensions>
                    </trkpt>
                    <trkpt lat="54.57247666666667" lon="10.207423333333333">
                        <ele>0</ele>
                        <time>2022-08-18T13:29:25Z</time>
                                                <extensions>
                            <sog>7.1</sog>
<cog>178.6</cog>
                        </extensions>
                    </trkpt>
                    <trkpt lat="54.570479999999996" lon="10.207448333333334">
                        <ele>0</ele>
                        <time>2022-08-18T13:30:25Z</time>
                                                <extensions>
                            <sog>7.0</sog>
<cog>178.1</cog>
                        </extensions>
                    </trkpt>
                    <trkpt lat="54.56962333333333" lon="10.207453333333332">
                        <ele>0</ele>
                        <time>2022-08-18T13:30:55Z</time>
                                                <extensions>
                            <sog>4.4</sog>
<cog>179.1</cog>
                        </extensions>
                    </trkpt>
                    <trkpt lat="54.56798833333333" lon="10.207293333333332">
                        <ele>0</ele>
                        <time>2022-08-18T13:33:55Z</time>
                                                <extensions>
                            <sog>1.2</sog>
<cog>182.3</cog>
                        </extensions>
                    </trkpt>
                    <trkpt lat="54.564640000000004" lon="10.207223333333333">
                        <ele>0</ele>
                        <time>2022-08-18T13:36:55Z</time>
                                                <extensions>
                            <sog>7.0</sog>
<cog>179.5</cog>
                        </extensions>
                    </trkpt>
                    <trkpt lat="54.54379333333333" lon="10.207573333333332">
                        <ele>0</ele>
                        <time>2022-08-18T13:47:25Z</time>
                                                <extensions>
                            <sog>7.2</sog>
<cog>179.6</cog>
                        </extensions>
                    </trkpt>
                    <trkpt lat="54.542835" lon="10.207603333333333">
                        <ele>0</ele>
                        <time>2022-08-18T13:47:54Z</time>
                                                <extensions>
                            <sog>7.1</sog>
<cog>177.3</cog>
                        </extensions>
                    </trkpt>
                    <trkpt lat="54.53983" lon="10.207691666666667">
                        <ele>0</ele>
                        <time>2022-08-18T13:49:25Z</time>
                                                <extensions>
                            <sog>7.1</sog>
<cog>180.7</cog>
                        </extensions>
                    </trkpt>
                    <trkpt lat="54.538835" lon="10.207728333333334">
                        <ele>0</ele>
                        <time>2022-08-18T13:49:55Z</time>
                                                <extensions>
                            <sog>7.2</sog>
<cog>179.1</cog>
                        </extensions>
                    </trkpt>
                    <trkpt lat="54.537845" lon="10.207756666666667">
                        <ele>0</ele>
                        <time>2022-08-18T13:50:25Z</time>
                                                <extensions>
                            <sog>7.2</sog>
<cog>178.5</cog>
                        </extensions>
                    </trkpt>
                    <trkpt lat="54.533874999999995" lon="10.207901666666666">
                        <ele>0</ele>
                        <time>2022-08-18T13:52:25Z</time>
                                                <extensions>
                            <sog>7.1</sog>
<cog>175.8</cog>
                        </extensions>
                    </trkpt>
                    <trkpt lat="54.53288" lon="10.207948333333333">
                        <ele>0</ele>
                        <time>2022-08-18T13:52:55Z</time>
                                                <extensions>
                            <sog>7.2</sog>
<cog>177.9</cog>
                        </extensions>
                    </trkpt>
                    <trkpt lat="54.53192" lon="10.208008333333334">
                        <ele>0</ele>
                        <time>2022-08-18T13:53:25Z</time>
                                                <extensions>
                            <sog>7.1</sog>
<cog>176.4</cog>
                        </extensions>
                    </trkpt>
                    <trkpt lat="54.527953333333336" lon="10.208218333333333">
                        <ele>0</ele>
                        <time>2022-08-18T13:55:24Z</time>
                                                <extensions>
                            <sog>7.1</sog>
<cog>177.8</cog>
                        </extensions>
                    </trkpt>
                    <trkpt lat="54.525953333333334" lon="10.208336666666666">
                        <ele>0</ele>
                        <time>2022-08-18T13:56:25Z</time>
                                                <extensions>
                            <sog>7.0</sog>
<cog>178.2</cog>
                        </extensions>
                    </trkpt>
                    <trkpt lat="54.523988333333335" lon="10.20845">
                        <ele>0</ele>
                        <time>2022-08-18T13:57:25Z</time>
                                                <extensions>
                            <sog>7.2</sog>
<cog>178.2</cog>
                        </extensions>
                    </trkpt>
                    <trkpt lat="54.522976666666665" lon="10.208506666666667">
                        <ele>0</ele>
                        <time>2022-08-18T13:57:56Z</time>
                                                <extensions>
                            <sog>7.1</sog>
<cog>178.2</cog>
                        </extensions>
                    </trkpt>
                    <trkpt lat="54.521965" lon="10.208554999999999">
                        <ele>0</ele>
                        <time>2022-08-18T13:58:27Z</time>
                                                <extensions>
                            <sog>7.1</sog>
<cog>178.4</cog>
                        </extensions>
                    </trkpt>
                    <trkpt lat="54.521013333333336" lon="10.208606666666666">
                        <ele>0</ele>
                        <time>2022-08-18T13:58:56Z</time>
                                                <extensions>
                            <sog>7.1</sog>
<cog>179.1</cog>
                        </extensions>
                    </trkpt>
                    <trkpt lat="54.520091666666666" lon="10.208653333333332">
                        <ele>0</ele>
                        <time>2022-08-18T13:59:24Z</time>
                                                <extensions>
                            <sog>7.2</sog>
<cog>178.5</cog>
                        </extensions>
                    </trkpt>
                    <trkpt lat="54.51907666666667" lon="10.208698333333333">
                        <ele>0</ele>
                        <time>2022-08-18T13:59:55Z</time>
                                                <extensions>
                            <sog>7.2</sog>
<cog>177.9</cog>
                        </extensions>
                    </trkpt>
                    <trkpt lat="54.5181" lon="10.208731666666667">
                        <ele>0</ele>
                        <time>2022-08-18T14:00:25Z</time>
                                                <extensions>
                            <sog>7.1</sog>
<cog>179.6</cog>
                        </extensions>
                    </trkpt>
                    <trkpt lat="54.5181" lon="10.208731666666667">
                        <ele>0</ele>
                        <time>2022-08-18T14:00:25Z</time>
                                                <extensions>
                            <sog>7.1</sog>
<cog>179.6</cog>
                        </extensions>
                    </trkpt>
                    <trkpt lat="54.51712" lon="10.208771666666667">
                        <ele>0</ele>
                        <time>2022-08-18T14:00:55Z</time>
                                                <extensions>
                            <sog>7.0</sog>
<cog>179.6</cog>
                        </extensions>
                    </trkpt>
                    <trkpt lat="54.51712" lon="10.208771666666667">
                        <ele>0</ele>
                        <time>2022-08-18T14:00:55Z</time>
                                                <extensions>
                            <sog>7.0</sog>
<cog>179.6</cog>
                        </extensions>
                    </trkpt>
                    <trkpt lat="54.516173333333334" lon="10.20881">
                        <ele>0</ele>
                        <time>2022-08-18T14:01:24Z</time>
                                                <extensions>
                            <sog>7.1</sog>
<cog>178.4</cog>
                        </extensions>
                    </trkpt>
                    <trkpt lat="54.512235000000004" lon="10.208931666666667">
                        <ele>0</ele>
                        <time>2022-08-18T14:03:25Z</time>
                                                <extensions>
                            <sog>6.9</sog>
<cog>179.8</cog>
                        </extensions>
                    </trkpt>
                    <trkpt lat="54.50929166666666" lon="10.209045">
                        <ele>0</ele>
                        <time>2022-08-18T14:04:56Z</time>
                                                <extensions>
                            <sog>7.0</sog>
<cog>178.3</cog>
                        </extensions>
                    </trkpt>
                    <trkpt lat="54.50644" lon="10.209143333333333">
                        <ele>0</ele>
                        <time>2022-08-18T14:06:25Z</time>
                                                <extensions>
                            <sog>6.9</sog>
<cog>178.2</cog>
                        </extensions>
                    </trkpt>
                    <trkpt lat="54.505485" lon="10.20917">
                        <ele>0</ele>
                        <time>2022-08-18T14:06:55Z</time>
                                                <extensions>
                            <sog>6.9</sog>
<cog>180.2</cog>
                        </extensions>
                    </trkpt>
                    <trkpt lat="54.50259333333334" lon="10.209251666666667">
                        <ele>0</ele>
                        <time>2022-08-18T14:08:25Z</time>
                                                <extensions>
                            <sog>6.8</sog>
<cog>177.4</cog>
                        </extensions>
                    </trkpt>
                    <trkpt lat="54.50167333333333" lon="10.209281666666667">
                        <ele>0</ele>
                        <time>2022-08-18T14:08:55Z</time>
                                                <extensions>
                            <sog>6.8</sog>
<cog>179.0</cog>
                        </extensions>
                    </trkpt>
                    <trkpt lat="54.49977666666667" lon="10.20933">
                        <ele>0</ele>
                        <time>2022-08-18T14:09:55Z</time>
                                                <extensions>
                            <sog>6.8</sog>
<cog>181.1</cog>
                        </extensions>
                    </trkpt>
                    <trkpt lat="54.49886166666667" lon="10.209346666666667">
                        <ele>0</ele>
                        <time>2022-08-18T14:10:24Z</time>
                                                <extensions>
                            <sog>6.8</sog>
<cog>179.6</cog>
                        </extensions>
                    </trkpt>
                    <trkpt lat="54.497854999999994" lon="10.20937">
                        <ele>0</ele>
                        <time>2022-08-18T14:10:56Z</time>
                                                <extensions>
                            <sog>6.9</sog>
<cog>180.3</cog>
                        </extensions>
                    </trkpt>
                    <trkpt lat="54.49697833333333" lon="10.20939">
                        <ele>0</ele>
                        <time>2022-08-18T14:11:24Z</time>
                                                <extensions>
                            <sog>6.8</sog>
<cog>178.4</cog>
                        </extensions>
                    </trkpt>
                    <trkpt lat="54.49601333333333" lon="10.209413333333334">
                        <ele>0</ele>
                        <time>2022-08-18T14:11:55Z</time>
                                                <extensions>
                            <sog>6.8</sog>
<cog>179.6</cog>
                        </extensions>
                    </trkpt>
                    <trkpt lat="54.49507166666667" lon="10.20944">
                        <ele>0</ele>
                        <time>2022-08-18T14:12:25Z</time>
                                                <extensions>
                            <sog>6.8</sog>
<cog>177.7</cog>
                        </extensions>
                    </trkpt>
                    <trkpt lat="54.493159999999996" lon="10.209486666666667">
                        <ele>0</ele>
                        <time>2022-08-18T14:13:26Z</time>
                                                <extensions>
                            <sog>6.8</sog>
<cog>178.2</cog>
                        </extensions>
                    </trkpt>
                    <trkpt lat="54.49225166666667" lon="10.209515000000001">
                        <ele>0</ele>
                        <time>2022-08-18T14:13:55Z</time>
                                                <extensions>
                            <sog>6.8</sog>
<cog>178.9</cog>
                        </extensions>
                    </trkpt>
                    <trkpt lat="54.49134" lon="10.209548333333334">
                        <ele>0</ele>
                        <time>2022-08-18T14:14:24Z</time>
                                                <extensions>
                            <sog>6.8</sog>
<cog>180.0</cog>
                        </extensions>
                    </trkpt>
                    <trkpt lat="54.489398333333334" lon="10.209615000000001">
                        <ele>0</ele>
                        <time>2022-08-18T14:15:26Z</time>
                                                <extensions>
                            <sog>6.8</sog>
<cog>179.2</cog>
                        </extensions>
                    </trkpt>
                    <trkpt lat="54.488526666666665" lon="10.209643333333334">
                        <ele>0</ele>
                        <time>2022-08-18T14:15:54Z</time>
                                                <extensions>
                            <sog>6.6</sog>
<cog>179.3</cog>
                        </extensions>
                    </trkpt>
                    <trkpt lat="54.48759666666667" lon="10.209676666666667">
                        <ele>0</ele>
                        <time>2022-08-18T14:16:24Z</time>
                                                <extensions>
                            <sog>6.7</sog>
<cog>178.9</cog>
                        </extensions>
                    </trkpt>
                    <trkpt lat="54.48663833333333" lon="10.209698333333334">
                        <ele>0</ele>
                        <time>2022-08-18T14:16:55Z</time>
                                                <extensions>
                            <sog>6.7</sog>
<cog>180.0</cog>
                        </extensions>
                    </trkpt>
                    <trkpt lat="54.485710000000005" lon="10.209716666666667">
                        <ele>0</ele>
                        <time>2022-08-18T14:17:25Z</time>
                                                <extensions>
                            <sog>6.7</sog>
<cog>178.5</cog>
                        </extensions>
                    </trkpt>
                    <trkpt lat="54.48386" lon="10.209766666666667">
                        <ele>0</ele>
                        <time>2022-08-18T14:18:25Z</time>
                                                <extensions>
                            <sog>6.6</sog>
<cog>177.4</cog>
                        </extensions>
                    </trkpt>
                    <trkpt lat="54.48288166666667" lon="10.209801666666667">
                        <ele>0</ele>
                        <time>2022-08-18T14:18:57Z</time>
                                                <extensions>
                            <sog>6.6</sog>
<cog>179.7</cog>
                        </extensions>
                    </trkpt>
                    <trkpt lat="54.48205333333333" lon="10.209840000000002">
                        <ele>0</ele>
                        <time>2022-08-18T14:19:24Z</time>
                                                <extensions>
                            <sog>6.6</sog>
<cog>177.8</cog>
                        </extensions>
                    </trkpt>
                    <trkpt lat="54.481105" lon="10.20988">
                        <ele>0</ele>
                        <time>2022-08-18T14:19:54Z</time>
                                                <extensions>
                            <sog>6.6</sog>
<cog>177.1</cog>
                        </extensions>
                    </trkpt>
                    <trkpt lat="54.4801" lon="10.209930000000002">
                        <ele>0</ele>
                        <time>2022-08-18T14:20:28Z</time>
                                                <extensions>
                            <sog>6.6</sog>
<cog>177.3</cog>
                        </extensions>
                    </trkpt>
                    <trkpt lat="54.47835833333333" lon="10.210001666666667">
                        <ele>0</ele>
                        <time>2022-08-18T14:21:25Z</time>
                                                <extensions>
                            <sog>6.6</sog>
<cog>178.3</cog>
                        </extensions>
                    </trkpt>
                    <trkpt lat="54.47652666666667" lon="10.210081666666667">
                        <ele>0</ele>
                        <time>2022-08-18T14:22:25Z</time>
                                                <extensions>
                            <sog>6.7</sog>
<cog>178.2</cog>
                        </extensions>
                    </trkpt>
                    <trkpt lat="54.47564166666667" lon="10.210109999999998">
                        <ele>0</ele>
                        <time>2022-08-18T14:22:54Z</time>
                                                <extensions>
                            <sog>6.6</sog>
<cog>178.8</cog>
                        </extensions>
                    </trkpt>
                    <trkpt lat="54.473780000000005" lon="10.21019">
                        <ele>0</ele>
                        <time>2022-08-18T14:23:55Z</time>
                                                <extensions>
                            <sog>6.7</sog>
<cog>180.2</cog>
                        </extensions>
                    </trkpt>
                    <trkpt lat="54.472865" lon="10.210231666666665">
                        <ele>0</ele>
                        <time>2022-08-18T14:24:24Z</time>
                                                <extensions>
                            <sog>6.6</sog>
<cog>178.5</cog>
                        </extensions>
                    </trkpt>
                    <trkpt lat="54.47197666666667" lon="10.210273333333333">
                        <ele>0</ele>
                        <time>2022-08-18T14:24:54Z</time>
                                                <extensions>
                            <sog>6.7</sog>
<cog>178.2</cog>
                        </extensions>
                    </trkpt>
                    <trkpt lat="54.47102666666667" lon="10.21033">
                        <ele>0</ele>
                        <time>2022-08-18T14:25:25Z</time>
                                                <extensions>
                            <sog>6.6</sog>
<cog>180.4</cog>
                        </extensions>
                    </trkpt>
                    <trkpt lat="54.47013333333334" lon="10.210374999999999">
                        <ele>0</ele>
                        <time>2022-08-18T14:25:54Z</time>
                                                <extensions>
                            <sog>6.7</sog>
<cog>178.5</cog>
                        </extensions>
                    </trkpt>
                    <trkpt lat="54.466413333333335" lon="10.210503333333332">
                        <ele>0</ele>
                        <time>2022-08-18T14:27:55Z</time>
                                                <extensions>
                            <sog>6.7</sog>
<cog>179.8</cog>
                        </extensions>
                    </trkpt>
                    <trkpt lat="54.465525" lon="10.210531666666666">
                        <ele>0</ele>
                        <time>2022-08-18T14:28:24Z</time>
                                                <extensions>
                            <sog>6.6</sog>
<cog>178.5</cog>
                        </extensions>
                    </trkpt>
                    <trkpt lat="54.46189666666667" lon="10.210703333333333">
                        <ele>0</ele>
                        <time>2022-08-18T14:30:24Z</time>
                                                <extensions>
                            <sog>6.3</sog>
<cog>178.0</cog>
                        </extensions>
                    </trkpt>
                    <trkpt lat="54.460935" lon="10.210761666666667">
                        <ele>0</ele>
                        <time>2022-08-18T14:30:56Z</time>
                                                <extensions>
                            <sog>6.6</sog>
<cog>179.4</cog>
                        </extensions>
                    </trkpt>
                    <trkpt lat="54.460071666666664" lon="10.210735">
                        <ele>0</ele>
                        <time>2022-08-18T14:31:25Z</time>
                                                <extensions>
                            <sog>6.5</sog>
<cog>189.0</cog>
                        </extensions>
                    </trkpt>
                    <trkpt lat="54.45832166666666" lon="10.21082">
                        <ele>0</ele>
                        <time>2022-08-18T14:32:25Z</time>
                                                <extensions>
                            <sog>6.5</sog>
<cog>164.7</cog>
                        </extensions>
                    </trkpt>
                    <trkpt lat="54.45744666666667" lon="10.210890000000001">
                        <ele>0</ele>
                        <time>2022-08-18T14:32:54Z</time>
                                                <extensions>
                            <sog>6.6</sog>
<cog>182.8</cog>
                        </extensions>
                    </trkpt>
                    <trkpt lat="54.45556333333333" lon="10.210785">
                        <ele>0</ele>
                        <time>2022-08-18T14:33:56Z</time>
                                                <extensions>
                            <sog>6.6</sog>
<cog>183.0</cog>
                        </extensions>
                    </trkpt>
                    <trkpt lat="54.45467166666666" lon="10.210765">
                        <ele>0</ele>
                        <time>2022-08-18T14:34:24Z</time>
                                                <extensions>
                            <sog>6.6</sog>
<cog>178.9</cog>
                        </extensions>
                    </trkpt>
                    <trkpt lat="54.45375333333333" lon="10.210753333333335">
                        <ele>0</ele>
                        <time>2022-08-18T14:34:55Z</time>
                                                <extensions>
                            <sog>6.6</sog>
<cog>180.2</cog>
                        </extensions>
                    </trkpt>
                    <trkpt lat="54.45281" lon="10.210738333333333">
                        <ele>0</ele>
                        <time>2022-08-18T14:35:26Z</time>
                                                <extensions>
                            <sog>6.6</sog>
<cog>178.7</cog>
                        </extensions>
                    </trkpt>
                    <trkpt lat="54.45192" lon="10.210723333333334">
                        <ele>0</ele>
                        <time>2022-08-18T14:35:55Z</time>
                                                <extensions>
                            <sog>6.5</sog>
<cog>178.2</cog>
                        </extensions>
                    </trkpt>
                    <trkpt lat="54.450095000000005" lon="10.210704999999999">
                        <ele>0</ele>
                        <time>2022-08-18T14:36:55Z</time>
                                                <extensions>
                            <sog>6.5</sog>
<cog>179.7</cog>
                        </extensions>
                    </trkpt>
                    <trkpt lat="54.44918333333333" lon="10.210711666666667">
                        <ele>0</ele>
                        <time>2022-08-18T14:37:25Z</time>
                                                <extensions>
                            <sog>6.5</sog>
<cog>178.0</cog>
                        </extensions>
                    </trkpt>
                    <trkpt lat="54.44735333333333" lon="10.210755">
                        <ele>0</ele>
                        <time>2022-08-18T14:38:25Z</time>
                                                <extensions>
                            <sog>6.6</sog>
<cog>181.1</cog>
                        </extensions>
                    </trkpt>
                    <trkpt lat="54.44552833333333" lon="10.210776666666668">
                        <ele>0</ele>
                        <time>2022-08-18T14:39:25Z</time>
                                                <extensions>
                            <sog>6.7</sog>
<cog>179.7</cog>
                        </extensions>
                    </trkpt>
                    <trkpt lat="54.44372166666667" lon="10.210569999999999">
                        <ele>0</ele>
                        <time>2022-08-18T14:40:25Z</time>
                                                <extensions>
                            <sog>6.7</sog>
<cog>189.4</cog>
                        </extensions>
                    </trkpt>
                    <trkpt lat="54.442816666666666" lon="10.210318333333333">
                        <ele>0</ele>
                        <time>2022-08-18T14:40:55Z</time>
                                                <extensions>
                            <sog>6.6</sog>
<cog>190.5</cog>
                        </extensions>
                    </trkpt>
                    <trkpt lat="54.44190666666667" lon="10.21006">
                        <ele>0</ele>
                        <time>2022-08-18T14:41:25Z</time>
                                                <extensions>
                            <sog>6.6</sog>
<cog>187.7</cog>
                        </extensions>
                    </trkpt>
                    <trkpt lat="54.44090666666667" lon="10.209791666666666">
                        <ele>0</ele>
                        <time>2022-08-18T14:41:58Z</time>
                                                <extensions>
                            <sog>6.7</sog>
<cog>186.1</cog>
                        </extensions>
                    </trkpt>
                    <trkpt lat="54.43914333333333" lon="10.209478333333333">
                        <ele>0</ele>
                        <time>2022-08-18T14:42:55Z</time>
                                                <extensions>
                            <sog>6.6</sog>
<cog>185.9</cog>
                        </extensions>
                    </trkpt>
                    <trkpt lat="54.43827" lon="10.209275">
                        <ele>0</ele>
                        <time>2022-08-18T14:43:25Z</time>
                                                <extensions>
                            <sog>6.5</sog>
<cog>187.8</cog>
                        </extensions>
                    </trkpt>
                    <trkpt lat="54.43732833333333" lon="10.209055000000001">
                        <ele>0</ele>
                        <time>2022-08-18T14:43:55Z</time>
                                                <extensions>
                            <sog>6.6</sog>
<cog>188.2</cog>
                        </extensions>
                    </trkpt>
                    <trkpt lat="54.436418333333336" lon="10.208833333333333">
                        <ele>0</ele>
                        <time>2022-08-18T14:44:26Z</time>
                                                <extensions>
                            <sog>6.7</sog>
<cog>190.2</cog>
                        </extensions>
                    </trkpt>
                    <trkpt lat="54.43551166666667" lon="10.208595">
                        <ele>0</ele>
                        <time>2022-08-18T14:44:55Z</time>
                                                <extensions>
                            <sog>6.5</sog>
<cog>188.9</cog>
                        </extensions>
                    </trkpt>
                    <trkpt lat="54.434515000000005" lon="10.208345000000001">
                        <ele>0</ele>
                        <time>2022-08-18T14:45:28Z</time>
                                                <extensions>
                            <sog>6.6</sog>
<cog>187.8</cog>
                        </extensions>
                    </trkpt>
                    <trkpt lat="54.433634999999995" lon="10.208113333333333">
                        <ele>0</ele>
                        <time>2022-08-18T14:45:57Z</time>
                                                <extensions>
                            <sog>6.7</sog>
<cog>190.1</cog>
                        </extensions>
                    </trkpt>
                    <trkpt lat="54.43278833333333" lon="10.207871666666668">
                        <ele>0</ele>
                        <time>2022-08-18T14:46:25Z</time>
                                                <extensions>
                            <sog>6.8</sog>
<cog>191.6</cog>
                        </extensions>
                    </trkpt>
                    <trkpt lat="54.431871666666666" lon="10.207625">
                        <ele>0</ele>
                        <time>2022-08-18T14:46:55Z</time>
                                                <extensions>
                            <sog>6.7</sog>
<cog>190.3</cog>
                        </extensions>
                    </trkpt>
                    <trkpt lat="54.430989999999994" lon="10.207356666666668">
                        <ele>0</ele>
                        <time>2022-08-18T14:47:25Z</time>
                                                <extensions>
                            <sog>6.6</sog>
<cog>191.7</cog>
                        </extensions>
                    </trkpt>
                    <trkpt lat="54.43004666666666" lon="10.207071666666668">
                        <ele>0</ele>
                        <time>2022-08-18T14:47:56Z</time>
                                                <extensions>
                            <sog>6.8</sog>
<cog>188.9</cog>
                        </extensions>
                    </trkpt>
                    <trkpt lat="54.429096666666666" lon="10.206798333333333">
                        <ele>0</ele>
                        <time>2022-08-18T14:48:26Z</time>
                                                <extensions>
                            <sog>6.6</sog>
<cog>190.2</cog>
                        </extensions>
                    </trkpt>
                    <trkpt lat="54.42818333333333" lon="10.206518333333333">
                        <ele>0</ele>
                        <time>2022-08-18T14:48:56Z</time>
                                                <extensions>
                            <sog>6.8</sog>
<cog>189.2</cog>
                        </extensions>
                    </trkpt>
                    <trkpt lat="54.42730166666667" lon="10.206253333333333">
                        <ele>0</ele>
                        <time>2022-08-18T14:49:25Z</time>
                                                <extensions>
                            <sog>6.6</sog>
<cog>188.5</cog>
                        </extensions>
                    </trkpt>
                    <trkpt lat="54.42550166666667" lon="10.205748333333334">
                        <ele>0</ele>
                        <time>2022-08-18T14:50:25Z</time>
                                                <extensions>
                            <sog>6.8</sog>
<cog>190.9</cog>
                        </extensions>
                    </trkpt>
                    <trkpt lat="54.424510000000005" lon="10.205495">
                        <ele>0</ele>
                        <time>2022-08-18T14:50:57Z</time>
                                                <extensions>
                            <sog>6.4</sog>
<cog>188.0</cog>
                        </extensions>
                    </trkpt>
                    <trkpt lat="54.42276666666667" lon="10.205066666666665">
                        <ele>0</ele>
                        <time>2022-08-18T14:51:55Z</time>
                                                <extensions>
                            <sog>6.5</sog>
<cog>188.4</cog>
                        </extensions>
                    </trkpt>
                    <trkpt lat="54.42189666666666" lon="10.204853333333334">
                        <ele>0</ele>
                        <time>2022-08-18T14:52:25Z</time>
                                                <extensions>
                            <sog>6.7</sog>
<cog>189.5</cog>
                        </extensions>
                    </trkpt>
                    <trkpt lat="54.420968333333334" lon="10.204626666666666">
                        <ele>0</ele>
                        <time>2022-08-18T14:52:55Z</time>
                                                <extensions>
                            <sog>6.7</sog>
<cog>188.1</cog>
                        </extensions>
                    </trkpt>
                    <trkpt lat="54.42005833333334" lon="10.204433333333332">
                        <ele>0</ele>
                        <time>2022-08-18T14:53:25Z</time>
                                                <extensions>
                            <sog>6.6</sog>
<cog>188.3</cog>
                        </extensions>
                    </trkpt>
                    <trkpt lat="54.419158333333336" lon="10.204266666666665">
                        <ele>0</ele>
                        <time>2022-08-18T14:53:55Z</time>
                                                <extensions>
                            <sog>6.4</sog>
<cog>181.0</cog>
                        </extensions>
                    </trkpt>
                    <trkpt lat="54.4182" lon="10.20419">
                        <ele>0</ele>
                        <time>2022-08-18T14:54:27Z</time>
                                                <extensions>
                            <sog>6.6</sog>
<cog>182.3</cog>
                        </extensions>
                    </trkpt>
                    <trkpt lat="54.417355" lon="10.204031666666667">
                        <ele>0</ele>
                        <time>2022-08-18T14:54:55Z</time>
                                                <extensions>
                            <sog>6.6</sog>
<cog>188.9</cog>
                        </extensions>
                    </trkpt>
                    <trkpt lat="54.41648333333333" lon="10.203776666666666">
                        <ele>0</ele>
                        <time>2022-08-18T14:55:25Z</time>
                                                <extensions>
                            <sog>6.5</sog>
<cog>190.1</cog>
                        </extensions>
                    </trkpt>
                    <trkpt lat="54.41553" lon="10.203468333333332">
                        <ele>0</ele>
                        <time>2022-08-18T14:55:56Z</time>
                                                <extensions>
                            <sog>6.7</sog>
<cog>189.2</cog>
                        </extensions>
                    </trkpt>
                    <trkpt lat="54.41463" lon="10.203278333333333">
                        <ele>0</ele>
                        <time>2022-08-18T14:56:27Z</time>
                                                <extensions>
                            <sog>6.5</sog>
<cog>186.2</cog>
                        </extensions>
                    </trkpt>
                    <trkpt lat="54.412823333333336" lon="10.20298">
                        <ele>0</ele>
                        <time>2022-08-18T14:57:26Z</time>
                                                <extensions>
                            <sog>6.7</sog>
<cog>181.8</cog>
                        </extensions>
                    </trkpt>
                    <trkpt lat="54.41102166666667" lon="10.20296">
                        <ele>0</ele>
                        <time>2022-08-18T14:58:26Z</time>
                                                <extensions>
                            <sog>6.7</sog>
<cog>180.8</cog>
                        </extensions>
                    </trkpt>
                    <trkpt lat="54.41013833333333" lon="10.202941666666668">
                        <ele>0</ele>
                        <time>2022-08-18T14:58:55Z</time>
                                                <extensions>
                            <sog>6.8</sog>
<cog>180.3</cog>
                        </extensions>
                    </trkpt>
                    <trkpt lat="54.409195" lon="10.202923333333333">
                        <ele>0</ele>
                        <time>2022-08-18T14:59:25Z</time>
                                                <extensions>
                            <sog>6.6</sog>
<cog>180.8</cog>
                        </extensions>
                    </trkpt>
                    <trkpt lat="54.408278333333335" lon="10.202906666666667">
                        <ele>0</ele>
                        <time>2022-08-18T14:59:55Z</time>
                                                <extensions>
                            <sog>6.6</sog>
<cog>180.8</cog>
                        </extensions>
                    </trkpt>
                    <trkpt lat="54.407363333333336" lon="10.202881666666666">
                        <ele>0</ele>
                        <time>2022-08-18T15:00:25Z</time>
                                                <extensions>
                            <sog>6.5</sog>
<cog>181.5</cog>
                        </extensions>
                    </trkpt>
                    <trkpt lat="54.407363333333336" lon="10.202881666666666">
                        <ele>0</ele>
                        <time>2022-08-18T15:00:25Z</time>
                                                <extensions>
                            <sog>6.5</sog>
<cog>181.5</cog>
                        </extensions>
                    </trkpt>
                    <trkpt lat="54.40644333333333" lon="10.202850000000002">
                        <ele>0</ele>
                        <time>2022-08-18T15:00:55Z</time>
                                                <extensions>
                            <sog>6.6</sog>
<cog>180.8</cog>
                        </extensions>
                    </trkpt>
                    <trkpt lat="54.40644333333333" lon="10.202850000000002">
                        <ele>0</ele>
                        <time>2022-08-18T15:00:55Z</time>
                                                <extensions>
                            <sog>6.6</sog>
<cog>180.8</cog>
                        </extensions>
                    </trkpt>
                    <trkpt lat="54.40549166666666" lon="10.202815">
                        <ele>0</ele>
                        <time>2022-08-18T15:01:26Z</time>
                                                <extensions>
                            <sog>6.5</sog>
<cog>181.2</cog>
                        </extensions>
                    </trkpt>
                    <trkpt lat="54.40454166666667" lon="10.20272">
                        <ele>0</ele>
                        <time>2022-08-18T15:01:58Z</time>
                                                <extensions>
                            <sog>6.7</sog>
<cog>185.9</cog>
                        </extensions>
                    </trkpt>
                    <trkpt lat="54.40367833333333" lon="10.20257">
                        <ele>0</ele>
                        <time>2022-08-18T15:02:25Z</time>
                                                <extensions>
                            <sog>6.7</sog>
<cog>186.0</cog>
                        </extensions>
                    </trkpt>
                    <trkpt lat="54.40275666666666" lon="10.202403333333333">
                        <ele>0</ele>
                        <time>2022-08-18T15:02:55Z</time>
                                                <extensions>
                            <sog>6.7</sog>
<cog>185.7</cog>
                        </extensions>
                    </trkpt>
                    <trkpt lat="54.401835" lon="10.202248333333333">
                        <ele>0</ele>
                        <time>2022-08-18T15:03:25Z</time>
                                                <extensions>
                            <sog>6.7</sog>
<cog>185.9</cog>
                        </extensions>
                    </trkpt>
                    <trkpt lat="54.40000166666667" lon="10.201926666666667">
                        <ele>0</ele>
                        <time>2022-08-18T15:04:26Z</time>
                                                <extensions>
                            <sog>6.6</sog>
<cog>186.1</cog>
                        </extensions>
                    </trkpt>
                    <trkpt lat="54.39808" lon="10.201445">
                        <ele>0</ele>
                        <time>2022-08-18T15:05:29Z</time>
                                                <extensions>
                            <sog>6.7</sog>
<cog>189.8</cog>
                        </extensions>
                    </trkpt>
                    <trkpt lat="54.39726333333333" lon="10.2012">
                        <ele>0</ele>
                        <time>2022-08-18T15:05:55Z</time>
                                                <extensions>
                            <sog>6.7</sog>
<cog>190.1</cog>
                        </extensions>
                    </trkpt>
                    <trkpt lat="54.39637666666667" lon="10.200936666666667">
                        <ele>0</ele>
                        <time>2022-08-18T15:06:25Z</time>
                                                <extensions>
                            <sog>6.6</sog>
<cog>189.6</cog>
                        </extensions>
                    </trkpt>
                    <trkpt lat="54.395495" lon="10.20069">
                        <ele>0</ele>
                        <time>2022-08-18T15:06:55Z</time>
                                                <extensions>
                            <sog>6.4</sog>
<cog>189.6</cog>
                        </extensions>
                    </trkpt>
                    <trkpt lat="54.394625" lon="10.200448333333332">
                        <ele>0</ele>
                        <time>2022-08-18T15:07:25Z</time>
                                                <extensions>
                            <sog>6.3</sog>
<cog>189.3</cog>
                        </extensions>
                    </trkpt>
                    <trkpt lat="54.391148333333334" lon="10.19952">
                        <ele>0</ele>
                        <time>2022-08-18T15:09:25Z</time>
                                                <extensions>
                            <sog>6.4</sog>
<cog>189.0</cog>
                        </extensions>
                    </trkpt>
                    <trkpt lat="54.39031166666667" lon="10.19927">
                        <ele>0</ele>
                        <time>2022-08-18T15:09:55Z</time>
                                                <extensions>
                            <sog>6.4</sog>
<cog>194.1</cog>
                        </extensions>
                    </trkpt>
                    <trkpt lat="54.389426666666665" lon="10.198868333333333">
                        <ele>0</ele>
                        <time>2022-08-18T15:10:25Z</time>
                                                <extensions>
                            <sog>6.5</sog>
<cog>195.7</cog>
                        </extensions>
                    </trkpt>
                    <trkpt lat="54.388571666666664" lon="10.198463333333333">
                        <ele>0</ele>
                        <time>2022-08-18T15:10:55Z</time>
                                                <extensions>
                            <sog>6.4</sog>
<cog>195.6</cog>
                        </extensions>
                    </trkpt>
                    <trkpt lat="54.387735" lon="10.198021666666667">
                        <ele>0</ele>
                        <time>2022-08-18T15:11:25Z</time>
                                                <extensions>
                            <sog>6.2</sog>
<cog>198.7</cog>
                        </extensions>
                    </trkpt>
                    <trkpt lat="54.38688166666667" lon="10.197534999999998">
                        <ele>0</ele>
                        <time>2022-08-18T15:11:56Z</time>
                                                <extensions>
                            <sog>6.4</sog>
<cog>198.5</cog>
                        </extensions>
                    </trkpt>
                    <trkpt lat="54.386086666666664" lon="10.197081666666666">
                        <ele>0</ele>
                        <time>2022-08-18T15:12:25Z</time>
                                                <extensions>
                            <sog>6.3</sog>
<cog>199.0</cog>
                        </extensions>
                    </trkpt>
                    <trkpt lat="54.38526" lon="10.196589999999999">
                        <ele>0</ele>
                        <time>2022-08-18T15:12:55Z</time>
                                                <extensions>
                            <sog>6.4</sog>
<cog>200.6</cog>
                        </extensions>
                    </trkpt>
                    <trkpt lat="54.38440166666667" lon="10.196083333333332">
                        <ele>0</ele>
                        <time>2022-08-18T15:13:26Z</time>
                                                <extensions>
                            <sog>6.3</sog>
<cog>199.2</cog>
                        </extensions>
                    </trkpt>
                    <trkpt lat="54.383628333333334" lon="10.195635000000001">
                        <ele>0</ele>
                        <time>2022-08-18T15:13:55Z</time>
                                                <extensions>
                            <sog>6.3</sog>
<cog>197.8</cog>
                        </extensions>
                    </trkpt>
                    <trkpt lat="54.38274666666667" lon="10.195128333333335">
                        <ele>0</ele>
                        <time>2022-08-18T15:14:26Z</time>
                                                <extensions>
                            <sog>6.3</sog>
<cog>198.8</cog>
                        </extensions>
                    </trkpt>
                    <trkpt lat="54.38195666666666" lon="10.194661666666667">
                        <ele>0</ele>
                        <time>2022-08-18T15:14:55Z</time>
                                                <extensions>
                            <sog>6.2</sog>
<cog>197.8</cog>
                        </extensions>
                    </trkpt>
                    <trkpt lat="54.38111" lon="10.194171666666668">
                        <ele>0</ele>
                        <time>2022-08-18T15:15:26Z</time>
                                                <extensions>
                            <sog>6.2</sog>
<cog>198.2</cog>
                        </extensions>
                    </trkpt>
                    <trkpt lat="54.37952833333333" lon="10.19323">
                        <ele>0</ele>
                        <time>2022-08-18T15:16:25Z</time>
                                                <extensions>
                            <sog>5.9</sog>
<cog>204.1</cog>
                        </extensions>
                    </trkpt>
                    <trkpt lat="54.378005" lon="10.193295">
                        <ele>0</ele>
                        <time>2022-08-18T15:17:27Z</time>
                                                <extensions>
                            <sog>5.3</sog>
<cog>176.4</cog>
                        </extensions>
                    </trkpt>
                    <trkpt lat="54.37651833333334" lon="10.193415">
                        <ele>0</ele>
                        <time>2022-08-18T15:18:26Z</time>
                                                <extensions>
                            <sog>4.8</sog>
<cog>176.1</cog>
                        </extensions>
                    </trkpt>
                    <trkpt lat="54.375515" lon="10.194265">
                        <ele>0</ele>
                        <time>2022-08-18T15:19:26Z</time>
                                                <extensions>
                            <sog>3.3</sog>
<cog>127.3</cog>
                        </extensions>
                    </trkpt>
                    <trkpt lat="54.37526666666667" lon="10.194921666666666">
                        <ele>0</ele>
                        <time>2022-08-18T15:19:55Z</time>
                                                <extensions>
                            <sog>3.4</sog>
<cog>91.1</cog>
                        </extensions>
                    </trkpt>
                    <trkpt lat="54.37561" lon="10.195338333333332">
                        <ele>0</ele>
                        <time>2022-08-18T15:20:26Z</time>
                                                <extensions>
                            <sog>2.7</sog>
<cog>9.4</cog>
                        </extensions>
                    </trkpt>
                    <trkpt lat="54.375919999999994" lon="10.195433333333334">
                        <ele>0</ele>
                        <time>2022-08-18T15:20:55Z</time>
                                                <extensions>
                            <sog>2.1</sog>
<cog>17.9</cog>
                        </extensions>
                    </trkpt>
                    <trkpt lat="54.37609666666666" lon="10.195306666666665">
                        <ele>0</ele>
                        <time>2022-08-18T15:21:25Z</time>
                                                <extensions>
                            <sog>1.8</sog>
<cog>262.7</cog>
                        </extensions>
                    </trkpt>
                    <trkpt lat="54.37607666666667" lon="10.19507">
                        <ele>0</ele>
                        <time>2022-08-18T15:21:55Z</time>
                                                <extensions>
                            <sog>0.6</sog>
<cog>287.2</cog>
                        </extensions>
                    </trkpt>
                    <trkpt lat="54.376075" lon="10.195068333333333">
                        <ele>0</ele>
                        <time>2022-08-18T15:22:25Z</time>
                                                <extensions>
                            <sog>0.1</sog>
<cog>287.2</cog>
                        </extensions>
                    </trkpt>
                    <trkpt lat="54.37607666666667" lon="10.195066666666666">
                        <ele>0</ele>
                        <time>2022-08-18T15:22:55Z</time>
                                                <extensions>
                            <sog>0.0</sog>
<cog>287.2</cog>
                        </extensions>
                    </trkpt>
                    <trkpt lat="54.37607333333334" lon="10.19507">
                        <ele>0</ele>
                        <time>2022-08-18T15:23:25Z</time>
                                                <extensions>
                            <sog>0.0</sog>
<cog>287.2</cog>
                        </extensions>
                    </trkpt>
                    <trkpt lat="54.376081666666664" lon="10.195055">
                        <ele>0</ele>
                        <time>2022-08-18T15:24:25Z</time>
                                                <extensions>
                            <sog>0.0</sog>
<cog>287.2</cog>
                        </extensions>
                    </trkpt>
                    <trkpt lat="54.37607166666667" lon="10.195045">
                        <ele>0</ele>
                        <time>2022-08-18T15:27:25Z</time>
                                                <extensions>
                            <sog>0.0</sog>
<cog>247.0</cog>
                        </extensions>
                    </trkpt>
                    <trkpt lat="54.376068333333336" lon="10.195055">
                        <ele>0</ele>
                        <time>2022-08-18T15:30:25Z</time>
                                                <extensions>
                            <sog>0.0</sog>
<cog>247.0</cog>
                        </extensions>
                    </trkpt>
                    <trkpt lat="54.37608" lon="10.195036666666665">
                        <ele>0</ele>
                        <time>2022-08-18T15:33:25Z</time>
                                                <extensions>
                            <sog>0.0</sog>
<cog>247.0</cog>
                        </extensions>
                    </trkpt>
                    <trkpt lat="54.376068333333336" lon="10.19504">
                        <ele>0</ele>
                        <time>2022-08-18T15:39:25Z</time>
                                                <extensions>
                            <sog>0.0</sog>
<cog>247.0</cog>
                        </extensions>
                    </trkpt>
                    <trkpt lat="54.37607333333334" lon="10.195034999999999">
                        <ele>0</ele>
                        <time>2022-08-18T15:42:25Z</time>
                                                <extensions>
                            <sog>0.0</sog>
<cog>247.0</cog>
                        </extensions>
                    </trkpt>
                    <trkpt lat="54.376068333333336" lon="10.19504">
                        <ele>0</ele>
                        <time>2022-08-18T15:45:25Z</time>
                                                <extensions>
                            <sog>0.1</sog>
<cog>247.0</cog>
                        </extensions>
                    </trkpt>
                    <trkpt lat="54.376068333333336" lon="10.195048333333334">
                        <ele>0</ele>
                        <time>2022-08-18T15:48:26Z</time>
                                                <extensions>
                            <sog>0.0</sog>
<cog>247.0</cog>
                        </extensions>
                    </trkpt>
                    <trkpt lat="54.37606666666667" lon="10.195045">
                        <ele>0</ele>
                        <time>2022-08-18T15:51:27Z</time>
                                                <extensions>
                            <sog>0.0</sog>
<cog>247.0</cog>
                        </extensions>
                    </trkpt>
                    <trkpt lat="54.37607666666667" lon="10.19504">
                        <ele>0</ele>
                        <time>2022-08-18T15:54:25Z</time>
                                                <extensions>
                            <sog>0.0</sog>
<cog>247.0</cog>
                        </extensions>
                    </trkpt>
                    <trkpt lat="54.37607333333334" lon="10.19505">
                        <ele>0</ele>
                        <time>2022-08-18T16:00:25Z</time>
                                                <extensions>
                            <sog>0.0</sog>
<cog>247.0</cog>
                        </extensions>
                    </trkpt>
                    <trkpt lat="54.37607333333334" lon="10.19505">
                        <ele>0</ele>
                        <time>2022-08-18T16:00:25Z</time>
                                                <extensions>
                            <sog>0.0</sog>
<cog>247.0</cog>
                        </extensions>
                    </trkpt>
                    <trkpt lat="54.376075" lon="10.19504">
                        <ele>0</ele>
                        <time>2022-08-18T16:06:25Z</time>
                                                <extensions>
                            <sog>0.1</sog>
<cog>247.0</cog>
                        </extensions>
                    </trkpt>
                    <trkpt lat="54.37607166666667" lon="10.19504">
                        <ele>0</ele>
                        <time>2022-08-18T16:09:25Z</time>
                                                <extensions>
                            <sog>0.0</sog>
<cog>247.0</cog>
                        </extensions>
                    </trkpt>
                    <trkpt lat="54.376065000000004" lon="10.195038333333335">
                        <ele>0</ele>
                        <time>2022-08-18T16:15:25Z</time>
                                                <extensions>
                            <sog>0.0</sog>
<cog>247.0</cog>
                        </extensions>
                    </trkpt>
                    <trkpt lat="54.376068333333336" lon="10.195048333333334">
                        <ele>0</ele>
                        <time>2022-08-18T16:18:25Z</time>
                                                <extensions>
                            <sog>0.1</sog>
<cog>247.0</cog>
                        </extensions>
                    </trkpt>
                    </trkseg>
                </trk>
</gpx>