<?xml version="1.0" encoding="UTF-8"?>
<gpx version="1.1" creator="AIS-to-GPX Converter" xmlns="http://www.topografix.com/GPX/1/1">
                <trk>
                    <name>anon0371</name>
                    <trkseg>
                                            <trkpt lat="54.4204" lon="10.2217">
                        <ele>0</ele>
                        <time>2022-08-18T12:11:18Z</time>
                                                <extensions>
                            <sog>5.1</sog>
<cog>213.7</cog>
                        </extensions>
                    </trkpt>
                    <trkpt lat="54.419133333333335" lon="10.220433333333334">
                        <ele>0</ele>
                        <time>2022-08-18T12:12:18Z</time>
                                                <extensions>
                            <sog>5.1</sog>
<cog>206.3</cog>
                        </extensions>
                    </trkpt>
                    <trkpt lat="54.416516666666666" lon="10.2182">
                        <ele>0</ele>
                        <time>2022-08-18T12:14:20Z</time>
                                                <extensions>
                            <sog>5.3</sog>
<cog>204.3</cog>
                        </extensions>
                    </trkpt>
                    <trkpt lat="54.41525" lon="10.216833333333334">
                        <ele>0</ele>
                        <time>2022-08-18T12:15:21Z</time>
                                                <extensions>
                            <sog>5.5</sog>
<cog>207.2</cog>
                        </extensions>
                    </trkpt>
                    <trkpt lat="54.41458333333333" lon="10.21615">
                        <ele>0</ele>
                        <time>2022-08-18T12:15:52Z</time>
                                                <extensions>
                            <sog>5.4</sog>
<cog>221.4</cog>
                        </extensions>
                    </trkpt>
                    <trkpt lat="54.41361666666667" lon="10.2142">
                        <ele>0</ele>
                        <time>2022-08-18T12:16:55Z</time>
                                                <extensions>
                            <sog>5.3</sog>
<cog>252.9</cog>
                        </extensions>
                    </trkpt>
                    <trkpt lat="54.41341666666666" lon="10.2117">
                        <ele>0</ele>
                        <time>2022-08-18T12:17:53Z</time>
                                                <extensions>
                            <sog>5.4</sog>
<cog>273.3</cog>
                        </extensions>
                    </trkpt>
                    <trkpt lat="54.41353333333333" lon="10.210416666666667">
                        <ele>0</ele>
                        <time>2022-08-18T12:18:24Z</time>
                                                <extensions>
                            <sog>5.4</sog>
<cog>278.0</cog>
                        </extensions>
                    </trkpt>
                    <trkpt lat="54.413183333333336" lon="10.208033333333333">
                        <ele>0</ele>
                        <time>2022-08-18T12:19:25Z</time>
                                                <extensions>
                            <sog>5.4</sog>
<cog>233.0</cog>
                        </extensions>
                    </trkpt>
                    <trkpt lat="54.4127" lon="10.207133333333333">
                        <ele>0</ele>
                        <time>2022-08-18T12:19:54Z</time>
                                                <extensions>
                            <sog>5.3</sog>
<cog>233.1</cog>
                        </extensions>
                    </trkpt>
                    <trkpt lat="54.41226666666667" lon="10.206150000000001">
                        <ele>0</ele>
                        <time>2022-08-18T12:20:25Z</time>
                                                <extensions>
                            <sog>5.3</sog>
<cog>234.8</cog>
                        </extensions>
                    </trkpt>
                    <trkpt lat="54.4118" lon="10.205116666666667">
                        <ele>0</ele>
                        <time>2022-08-18T12:20:55Z</time>
                                                <extensions>
                            <sog>5.5</sog>
<cog>226.5</cog>
                        </extensions>
                    </trkpt>
                    <trkpt lat="54.4099" lon="10.203466666666666">
                        <ele>0</ele>
                        <time>2022-08-18T12:22:26Z</time>
                                                <extensions>
                            <sog>5.2</sog>
<cog>200.5</cog>
                        </extensions>
                    </trkpt>
                    <trkpt lat="54.40846666666666" lon="10.202599999999999">
                        <ele>0</ele>
                        <time>2022-08-18T12:23:29Z</time>
                                                <extensions>
                            <sog>5.3</sog>
<cog>199.6</cog>
                        </extensions>
                    </trkpt>
                    <trkpt lat="54.407783333333334" lon="10.202166666666667">
                        <ele>0</ele>
                        <time>2022-08-18T12:23:59Z</time>
                                                <extensions>
                            <sog>5.4</sog>
<cog>199.4</cog>
                        </extensions>
                    </trkpt>
                    <trkpt lat="54.40488333333334" lon="10.200666666666667">
                        <ele>0</ele>
                        <time>2022-08-18T12:26:01Z</time>
                                                <extensions>
                            <sog>5.4</sog>
<cog>197.1</cog>
                        </extensions>
                    </trkpt>
                    <trkpt lat="54.404133333333334" lon="10.200316666666668">
                        <ele>0</ele>
                        <time>2022-08-18T12:26:31Z</time>
                                                <extensions>
                            <sog>5.3</sog>
<cog>191.8</cog>
                        </extensions>
                    </trkpt>
                    <trkpt lat="54.40338333333333" lon="10.200033333333332">
                        <ele>0</ele>
                        <time>2022-08-18T12:27:03Z</time>
                                                <extensions>
                            <sog>5.4</sog>
<cog>193.8</cog>
                        </extensions>
                    </trkpt>
                    <trkpt lat="54.40265" lon="10.1997">
                        <ele>0</ele>
                        <time>2022-08-18T12:27:33Z</time>
                                                <extensions>
                            <sog>5.4</sog>
<cog>193.0</cog>
                        </extensions>
                    </trkpt>
                    <trkpt lat="54.40111666666667" lon="10.1991">
                        <ele>0</ele>
                        <time>2022-08-18T12:28:36Z</time>
                                                <extensions>
                            <sog>5.5</sog>
<cog>194.0</cog>
                        </extensions>
                    </trkpt>
                    <trkpt lat="54.40045" lon="10.1988">
                        <ele>0</ele>
                        <time>2022-08-18T12:29:03Z</time>
                                                <extensions>
                            <sog>5.5</sog>
<cog>194.9</cog>
                        </extensions>
                    </trkpt>
                    <trkpt lat="54.39895" lon="10.198333333333332">
                        <ele>0</ele>
                        <time>2022-08-18T12:30:05Z</time>
                                                <extensions>
                            <sog>5.0</sog>
<cog>193.3</cog>
                        </extensions>
                    </trkpt>
                    <trkpt lat="54.39823333333333" lon="10.19805">
                        <ele>0</ele>
                        <time>2022-08-18T12:30:36Z</time>
                                                <extensions>
                            <sog>5.1</sog>
<cog>191.7</cog>
                        </extensions>
                    </trkpt>
                    <trkpt lat="54.396883333333335" lon="10.197483333333334">
                        <ele>0</ele>
                        <time>2022-08-18T12:31:36Z</time>
                                                <extensions>
                            <sog>5.0</sog>
<cog>191.1</cog>
                        </extensions>
                    </trkpt>
                    <trkpt lat="54.39618333333333" lon="10.1972">
                        <ele>0</ele>
                        <time>2022-08-18T12:32:08Z</time>
                                                <extensions>
                            <sog>5.1</sog>
<cog>193.1</cog>
                        </extensions>
                    </trkpt>
                    <trkpt lat="54.39548333333333" lon="10.196933333333334">
                        <ele>0</ele>
                        <time>2022-08-18T12:32:38Z</time>
                                                <extensions>
                            <sog>5.0</sog>
<cog>195.1</cog>
                        </extensions>
                    </trkpt>
                    <trkpt lat="54.394800000000004" lon="10.196733333333333">
                        <ele>0</ele>
                        <time>2022-08-18T12:33:09Z</time>
                                                <extensions>
                            <sog>4.9</sog>
<cog>189.5</cog>
                        </extensions>
                    </trkpt>
                    <trkpt lat="54.39411666666667" lon="10.196499999999999">
                        <ele>0</ele>
                        <time>2022-08-18T12:33:40Z</time>
                                                <extensions>
                            <sog>4.9</sog>
<cog>190.7</cog>
                        </extensions>
                    </trkpt>
                    <trkpt lat="54.39341666666667" lon="10.196233333333334">
                        <ele>0</ele>
                        <time>2022-08-18T12:34:12Z</time>
                                                <extensions>
                            <sog>5.1</sog>
<cog>195.7</cog>
                        </extensions>
                    </trkpt>
                    <trkpt lat="54.39273333333333" lon="10.195966666666667">
                        <ele>0</ele>
                        <time>2022-08-18T12:34:41Z</time>
                                                <extensions>
                            <sog>5.3</sog>
<cog>190.2</cog>
                        </extensions>
                    </trkpt>
                    <trkpt lat="54.392" lon="10.195699999999999">
                        <ele>0</ele>
                        <time>2022-08-18T12:35:10Z</time>
                                                <extensions>
                            <sog>5.4</sog>
<cog>194.3</cog>
                        </extensions>
                    </trkpt>
                    <trkpt lat="54.39125" lon="10.195416666666667">
                        <ele>0</ele>
                        <time>2022-08-18T12:35:41Z</time>
                                                <extensions>
                            <sog>5.2</sog>
<cog>195.7</cog>
                        </extensions>
                    </trkpt>
                    <trkpt lat="54.390499999999996" lon="10.195016666666668">
                        <ele>0</ele>
                        <time>2022-08-18T12:36:14Z</time>
                                                <extensions>
                            <sog>5.5</sog>
<cog>202.5</cog>
                        </extensions>
                    </trkpt>
                    <trkpt lat="54.38986666666666" lon="10.19445">
                        <ele>0</ele>
                        <time>2022-08-18T12:36:41Z</time>
                                                <extensions>
                            <sog>5.5</sog>
<cog>207.3</cog>
                        </extensions>
                    </trkpt>
                    <trkpt lat="54.38921666666667" lon="10.193766666666667">
                        <ele>0</ele>
                        <time>2022-08-18T12:37:11Z</time>
                                                <extensions>
                            <sog>5.3</sog>
<cog>217.5</cog>
                        </extensions>
                    </trkpt>
                    <trkpt lat="54.38866666666667" lon="10.192933333333334">
                        <ele>0</ele>
                        <time>2022-08-18T12:37:42Z</time>
                                                <extensions>
                            <sog>5.3</sog>
<cog>224.8</cog>
                        </extensions>
                    </trkpt>
                    <trkpt lat="54.38751666666667" lon="10.191316666666667">
                        <ele>0</ele>
                        <time>2022-08-18T12:38:44Z</time>
                                                <extensions>
                            <sog>5.3</sog>
<cog>218.6</cog>
                        </extensions>
                    </trkpt>
                    <trkpt lat="54.38698333333333" lon="10.190499999999998">
                        <ele>0</ele>
                        <time>2022-08-18T12:39:14Z</time>
                                                <extensions>
                            <sog>5.2</sog>
<cog>220.8</cog>
                        </extensions>
                    </trkpt>
                    <trkpt lat="54.38576666666667" lon="10.188866666666666">
                        <ele>0</ele>
                        <time>2022-08-18T12:40:18Z</time>
                                                <extensions>
                            <sog>5.3</sog>
<cog>223.0</cog>
                        </extensions>
                    </trkpt>
                    <trkpt lat="54.385283333333334" lon="10.187883333333334">
                        <ele>0</ele>
                        <time>2022-08-18T12:40:49Z</time>
                                                <extensions>
                            <sog>5.3</sog>
<cog>229.9</cog>
                        </extensions>
                    </trkpt>
                    <trkpt lat="54.38428333333333" lon="10.186183333333334">
                        <ele>0</ele>
                        <time>2022-08-18T12:41:47Z</time>
                                                <extensions>
                            <sog>5.0</sog>
<cog>228.4</cog>
                        </extensions>
                    </trkpt>
                    <trkpt lat="54.38381666666667" lon="10.185283333333333">
                        <ele>0</ele>
                        <time>2022-08-18T12:42:18Z</time>
                                                <extensions>
                            <sog>5.1</sog>
<cog>221.6</cog>
                        </extensions>
                    </trkpt>
                    <trkpt lat="54.38325" lon="10.184433333333335">
                        <ele>0</ele>
                        <time>2022-08-18T12:42:49Z</time>
                                                <extensions>
                            <sog>5.4</sog>
<cog>223.3</cog>
                        </extensions>
                    </trkpt>
                    <trkpt lat="54.382666666666665" lon="10.183616666666667">
                        <ele>0</ele>
                        <time>2022-08-18T12:43:19Z</time>
                                                <extensions>
                            <sog>5.3</sog>
<cog>219.2</cog>
                        </extensions>
                    </trkpt>
                    <trkpt lat="54.38225" lon="10.182616666666666">
                        <ele>0</ele>
                        <time>2022-08-18T12:43:49Z</time>
                                                <extensions>
                            <sog>5.2</sog>
<cog>235.4</cog>
                        </extensions>
                    </trkpt>
                    <trkpt lat="54.38178333333334" lon="10.181583333333332">
                        <ele>0</ele>
                        <time>2022-08-18T12:44:21Z</time>
                                                <extensions>
                            <sog>5.2</sog>
<cog>228.7</cog>
                        </extensions>
                    </trkpt>
                    <trkpt lat="54.38005" lon="10.179316666666667">
                        <ele>0</ele>
                        <time>2022-08-18T12:45:53Z</time>
                                                <extensions>
                            <sog>4.9</sog>
<cog>214.8</cog>
                        </extensions>
                    </trkpt>
                    <trkpt lat="54.37948333333333" lon="10.178666666666667">
                        <ele>0</ele>
                        <time>2022-08-18T12:46:23Z</time>
                                                <extensions>
                            <sog>4.8</sog>
<cog>212.1</cog>
                        </extensions>
                    </trkpt>
                    <trkpt lat="54.37886666666667" lon="10.178183333333333">
                        <ele>0</ele>
                        <time>2022-08-18T12:46:53Z</time>
                                                <extensions>
                            <sog>5.4</sog>
<cog>200.2</cog>
                        </extensions>
                    </trkpt>
                    <trkpt lat="54.37813333333334" lon="10.17775">
                        <ele>0</ele>
                        <time>2022-08-18T12:47:24Z</time>
                                                <extensions>
                            <sog>5.6</sog>
<cog>199.5</cog>
                        </extensions>
                    </trkpt>
                    <trkpt lat="54.37728333333334" lon="10.1772">
                        <ele>0</ele>
                        <time>2022-08-18T12:47:59Z</time>
                                                <extensions>
                            <sog>5.4</sog>
<cog>201.0</cog>
                        </extensions>
                    </trkpt>
                    <trkpt lat="54.37668333333333" lon="10.176766666666667">
                        <ele>0</ele>
                        <time>2022-08-18T12:48:25Z</time>
                                                <extensions>
                            <sog>5.5</sog>
<cog>203.5</cog>
                        </extensions>
                    </trkpt>
                    <trkpt lat="54.375933333333336" lon="10.1763">
                        <ele>0</ele>
                        <time>2022-08-18T12:48:57Z</time>
                                                <extensions>
                            <sog>5.5</sog>
<cog>198.7</cog>
                        </extensions>
                    </trkpt>
                    <trkpt lat="54.37443333333333" lon="10.175433333333332">
                        <ele>0</ele>
                        <time>2022-08-18T12:49:58Z</time>
                                                <extensions>
                            <sog>5.5</sog>
<cog>196.9</cog>
                        </extensions>
                    </trkpt>
                    <trkpt lat="54.37376666666667" lon="10.174966666666668">
                        <ele>0</ele>
                        <time>2022-08-18T12:50:27Z</time>
                                                <extensions>
                            <sog>5.5</sog>
<cog>204.8</cog>
                        </extensions>
                    </trkpt>
                    <trkpt lat="54.37303333333333" lon="10.174416666666668">
                        <ele>0</ele>
                        <time>2022-08-18T12:50:59Z</time>
                                                <extensions>
                            <sog>5.5</sog>
<cog>202.3</cog>
                        </extensions>
                    </trkpt>
                    <trkpt lat="54.37235" lon="10.173833333333333">
                        <ele>0</ele>
                        <time>2022-08-18T12:51:29Z</time>
                                                <extensions>
                            <sog>5.6</sog>
<cog>205.7</cog>
                        </extensions>
                    </trkpt>
                    <trkpt lat="54.370916666666666" lon="10.172716666666668">
                        <ele>0</ele>
                        <time>2022-08-18T12:52:29Z</time>
                                                <extensions>
                            <sog>5.7</sog>
<cog>205.6</cog>
                        </extensions>
                    </trkpt>
                    <trkpt lat="54.37016666666667" lon="10.172166666666667">
                        <ele>0</ele>
                        <time>2022-08-18T12:53:00Z</time>
                                                <extensions>
                            <sog>5.7</sog>
<cog>203.6</cog>
                        </extensions>
                    </trkpt>
                    <trkpt lat="54.36943333333333" lon="10.171583333333333">
                        <ele>0</ele>
                        <time>2022-08-18T12:53:31Z</time>
                                                <extensions>
                            <sog>5.7</sog>
<cog>200.0</cog>
                        </extensions>
                    </trkpt>
                    <trkpt lat="54.3687" lon="10.171033333333332">
                        <ele>0</ele>
                        <time>2022-08-18T12:54:02Z</time>
                                                <extensions>
                            <sog>5.7</sog>
<cog>205.5</cog>
                        </extensions>
                    </trkpt>
                    <trkpt lat="54.36801666666667" lon="10.170449999999999">
                        <ele>0</ele>
                        <time>2022-08-18T12:54:32Z</time>
                                                <extensions>
                            <sog>5.8</sog>
<cog>207.6</cog>
                        </extensions>
                    </trkpt>
                    <trkpt lat="54.367333333333335" lon="10.169883333333333">
                        <ele>0</ele>
                        <time>2022-08-18T12:55:00Z</time>
                                                <extensions>
                            <sog>5.6</sog>
<cog>207.2</cog>
                        </extensions>
                    </trkpt>
                    <trkpt lat="54.36663333333333" lon="10.169233333333333">
                        <ele>0</ele>
                        <time>2022-08-18T12:55:32Z</time>
                                                <extensions>
                            <sog>5.6</sog>
<cog>207.7</cog>
                        </extensions>
                    </trkpt>
                    <trkpt lat="54.36595" lon="10.168666666666667">
                        <ele>0</ele>
                        <time>2022-08-18T12:56:03Z</time>
                                                <extensions>
                            <sog>5.5</sog>
<cog>208.5</cog>
                        </extensions>
                    </trkpt>
                    <trkpt lat="54.3646" lon="10.16745">
                        <ele>0</ele>
                        <time>2022-08-18T12:57:04Z</time>
                                                <extensions>
                            <sog>5.4</sog>
<cog>206.6</cog>
                        </extensions>
                    </trkpt>
                    <trkpt lat="54.36325" lon="10.166266666666667">
                        <ele>0</ele>
                        <time>2022-08-18T12:58:06Z</time>
                                                <extensions>
                            <sog>5.1</sog>
<cog>209.1</cog>
                        </extensions>
                    </trkpt>
                    <trkpt lat="54.36266666666667" lon="10.165783333333334">
                        <ele>0</ele>
                        <time>2022-08-18T12:58:33Z</time>
                                                <extensions>
                            <sog>5.1</sog>
<cog>206.4</cog>
                        </extensions>
                    </trkpt>
                    <trkpt lat="54.361999999999995" lon="10.165216666666668">
                        <ele>0</ele>
                        <time>2022-08-18T12:59:06Z</time>
                                                <extensions>
                            <sog>4.8</sog>
<cog>206.3</cog>
                        </extensions>
                    </trkpt>
                    <trkpt lat="54.36075" lon="10.164150000000001">
                        <ele>0</ele>
                        <time>2022-08-18T13:00:07Z</time>
                                                <extensions>
                            <sog>5.0</sog>
<cog>206.6</cog>
                        </extensions>
                    </trkpt>
                    <trkpt lat="54.36075" lon="10.164150000000001">
                        <ele>0</ele>
                        <time>2022-08-18T13:00:07Z</time>
                                                <extensions>
                            <sog>5.0</sog>
<cog>206.6</cog>
                        </extensions>
                    </trkpt>
                    <trkpt lat="54.36013333333334" lon="10.163683333333333">
                        <ele>0</ele>
                        <time>2022-08-18T13:00:36Z</time>
                                                <extensions>
                            <sog>5.0</sog>
<cog>203.1</cog>
                        </extensions>
                    </trkpt>
                    <trkpt lat="54.36013333333334" lon="10.163683333333333">
                        <ele>0</ele>
                        <time>2022-08-18T13:00:36Z</time>
                                                <extensions>
                            <sog>5.0</sog>
<cog>203.1</cog>
                        </extensions>
                    </trkpt>
                    <trkpt lat="54.35886666666667" lon="10.162683333333332">
                        <ele>0</ele>
                        <time>2022-08-18T13:01:38Z</time>
                                                <extensions>
                            <sog>5.1</sog>
<cog>205.8</cog>
                        </extensions>
                    </trkpt>
                    <trkpt lat="54.357" lon="10.161166666666666">
                        <ele>0</ele>
                        <time>2022-08-18T13:03:10Z</time>
                                                <extensions>
                            <sog>4.8</sog>
<cog>206.0</cog>
                        </extensions>
                    </trkpt>
                    <trkpt lat="54.356433333333335" lon="10.1607">
                        <ele>0</ele>
                        <time>2022-08-18T13:03:39Z</time>
                                                <extensions>
                            <sog>4.8</sog>
<cog>203.8</cog>
                        </extensions>
                    </trkpt>
                    <trkpt lat="54.355783333333335" lon="10.160216666666667">
                        <ele>0</ele>
                        <time>2022-08-18T13:04:10Z</time>
                                                <extensions>
                            <sog>4.8</sog>
<cog>205.1</cog>
                        </extensions>
                    </trkpt>
                    <trkpt lat="54.355199999999996" lon="10.159733333333332">
                        <ele>0</ele>
                        <time>2022-08-18T13:04:40Z</time>
                                                <extensions>
                            <sog>4.8</sog>
<cog>204.5</cog>
                        </extensions>
                    </trkpt>
                    <trkpt lat="54.35458333333334" lon="10.159249999999998">
                        <ele>0</ele>
                        <time>2022-08-18T13:05:10Z</time>
                                                <extensions>
                            <sog>4.8</sog>
<cog>203.7</cog>
                        </extensions>
                    </trkpt>
                    <trkpt lat="54.354016666666666" lon="10.158616666666667">
                        <ele>0</ele>
                        <time>2022-08-18T13:05:41Z</time>
                                                <extensions>
                            <sog>4.6</sog>
<cog>222.1</cog>
                        </extensions>
                    </trkpt>
                    <trkpt lat="54.353566666666666" lon="10.157916666666667">
                        <ele>0</ele>
                        <time>2022-08-18T13:06:11Z</time>
                                                <extensions>
                            <sog>4.3</sog>
<cog>222.8</cog>
                        </extensions>
                    </trkpt>
                    <trkpt lat="54.35316666666667" lon="10.1572">
                        <ele>0</ele>
                        <time>2022-08-18T13:06:42Z</time>
                                                <extensions>
                            <sog>4.3</sog>
<cog>224.3</cog>
                        </extensions>
                    </trkpt>
                    <trkpt lat="54.3527" lon="10.156466666666667">
                        <ele>0</ele>
                        <time>2022-08-18T13:07:13Z</time>
                                                <extensions>
                            <sog>4.3</sog>
<cog>226.3</cog>
                        </extensions>
                    </trkpt>
                    <trkpt lat="54.35203333333333" lon="10.1547">
                        <ele>0</ele>
                        <time>2022-08-18T13:08:16Z</time>
                                                <extensions>
                            <sog>4.3</sog>
<cog>246.4</cog>
                        </extensions>
                    </trkpt>
                    <trkpt lat="54.35158333333333" lon="10.152716666666667">
                        <ele>0</ele>
                        <time>2022-08-18T13:09:15Z</time>
                                                <extensions>
                            <sog>4.5</sog>
<cog>250.8</cog>
                        </extensions>
                    </trkpt>
                    <trkpt lat="54.351416666666665" lon="10.151666666666667">
                        <ele>0</ele>
                        <time>2022-08-18T13:09:45Z</time>
                                                <extensions>
                            <sog>4.4</sog>
<cog>259.0</cog>
                        </extensions>
                    </trkpt>
                    <trkpt lat="54.35125" lon="10.150483333333334">
                        <ele>0</ele>
                        <time>2022-08-18T13:10:21Z</time>
                                                <extensions>
                            <sog>4.3</sog>
<cog>263.5</cog>
                        </extensions>
                    </trkpt>
                    <trkpt lat="54.351216666666666" lon="10.149583333333334">
                        <ele>0</ele>
                        <time>2022-08-18T13:10:47Z</time>
                                                <extensions>
                            <sog>4.0</sog>
<cog>266.1</cog>
                        </extensions>
                    </trkpt>
                    <trkpt lat="54.35126666666667" lon="10.148666666666665">
                        <ele>0</ele>
                        <time>2022-08-18T13:11:17Z</time>
                                                <extensions>
                            <sog>3.9</sog>
<cog>279.0</cog>
                        </extensions>
                    </trkpt>
                    <trkpt lat="54.35133333333333" lon="10.147916666666667">
                        <ele>0</ele>
                        <time>2022-08-18T13:11:48Z</time>
                                                <extensions>
                            <sog>2.7</sog>
<cog>268.9</cog>
                        </extensions>
                    </trkpt>
                    <trkpt lat="54.35131666666667" lon="10.147266666666667">
                        <ele>0</ele>
                        <time>2022-08-18T13:12:19Z</time>
                                                <extensions>
                            <sog>2.8</sog>
<cog>268.0</cog>
                        </extensions>
                    </trkpt>
                    <trkpt lat="54.35131666666667" lon="10.146683333333334">
                        <ele>0</ele>
                        <time>2022-08-18T13:12:49Z</time>
                                                <extensions>
                            <sog>2.0</sog>
<cog>269.7</cog>
                        </extensions>
                    </trkpt>
                    <trkpt lat="54.351216666666666" lon="10.1454">
                        <ele>0</ele>
                        <time>2022-08-18T13:18:49Z</time>
                                                <extensions>
                            <sog>0.1</sog>
<cog>0.0</cog>
                        </extensions>
                    </trkpt>
                    <trkpt lat="54.351216666666666" lon="10.1454">
                        <ele>0</ele>
                        <time>2022-08-18T13:21:51Z</time>
                                                <extensions>
                            <sog>0.0</sog>
<cog>0.0</cog>
                        </extensions>
                    </trkpt>
                    <trkpt lat="54.351216666666666" lon="10.145383333333333">
                        <ele>0</ele>
                        <time>2022-08-18T13:24:51Z</time>
                                                <extensions>
                            <sog>0.1</sog>
<cog>0.0</cog>
                        </extensions>
                    </trkpt>
                    <trkpt lat="54.351549999999996" lon="10.145266666666666">
                        <ele>0</ele>
                        <time>2022-08-18T13:27:51Z</time>
                                                <extensions>
                            <sog>1.4</sog>
<cog>322.3</cog>
                        </extensions>
                    </trkpt>
                    <trkpt lat="54.351683333333334" lon="10.1447">
                        <ele>0</ele>
                        <time>2022-08-18T13:30:51Z</time>
                                                <extensions>
                            <sog>0.2</sog>
<cog>0.0</cog>
                        </extensions>
                    </trkpt>
                    <trkpt lat="54.35126666666667" lon="10.145999999999999">
                        <ele>0</ele>
                        <time>2022-08-18T13:32:49Z</time>
                                                <extensions>
                            <sog>3.5</sog>
<cog>74.8</cog>
                        </extensions>
                    </trkpt>
                    <trkpt lat="54.35163333333333" lon="10.146383333333334">
                        <ele>0</ele>
                        <time>2022-08-18T13:33:21Z</time>
                                                <extensions>
                            <sog>3.1</sog>
<cog>351.7</cog>
                        </extensions>
                    </trkpt>
                    <trkpt lat="54.35191666666666" lon="10.145933333333334">
                        <ele>0</ele>
                        <time>2022-08-18T13:33:50Z</time>
                                                <extensions>
                            <sog>2.8</sog>
<cog>305.3</cog>
                        </extensions>
                    </trkpt>
                    <trkpt lat="54.35211666666667" lon="10.145383333333333">
                        <ele>0</ele>
                        <time>2022-08-18T13:34:21Z</time>
                                                <extensions>
                            <sog>2.5</sog>
<cog>299.0</cog>
                        </extensions>
                    </trkpt>
                    <trkpt lat="54.352333333333334" lon="10.14485">
                        <ele>0</ele>
                        <time>2022-08-18T13:34:53Z</time>
                                                <extensions>
                            <sog>2.3</sog>
<cog>310.8</cog>
                        </extensions>
                    </trkpt>
                    <trkpt lat="54.35248333333333" lon="10.14445">
                        <ele>0</ele>
                        <time>2022-08-18T13:35:23Z</time>
                                                <extensions>
                            <sog>2.3</sog>
<cog>294.6</cog>
                        </extensions>
                    </trkpt>
                    <trkpt lat="54.352516666666666" lon="10.144">
                        <ele>0</ele>
                        <time>2022-08-18T13:35:52Z</time>
                                                <extensions>
                            <sog>1.6</sog>
<cog>256.9</cog>
                        </extensions>
                    </trkpt>
                    <trkpt lat="54.35241666666666" lon="10.143833333333333">
                        <ele>0</ele>
                        <time>2022-08-18T13:38:55Z</time>
                                                <extensions>
                            <sog>1.0</sog>
<cog>136.9</cog>
                        </extensions>
                    </trkpt>
                    <trkpt lat="54.3523" lon="10.14405">
                        <ele>0</ele>
                        <time>2022-08-18T13:41:54Z</time>
                                                <extensions>
                            <sog>0.1</sog>
<cog>0.0</cog>
                        </extensions>
                    </trkpt>
                    <trkpt lat="54.35228333333334" lon="10.144066666666667">
                        <ele>0</ele>
                        <time>2022-08-18T13:44:54Z</time>
                                                <extensions>
                            <sog>0.0</sog>
<cog>0.0</cog>
                        </extensions>
                    </trkpt>
                    <trkpt lat="54.352266666666665" lon="10.1441">
                        <ele>0</ele>
                        <time>2022-08-18T13:47:54Z</time>
                                                <extensions>
                            <sog>0.0</sog>
<cog>0.0</cog>
                        </extensions>
                    </trkpt>
                    <trkpt lat="54.352266666666665" lon="10.1441">
                        <ele>0</ele>
                        <time>2022-08-18T13:50:54Z</time>
                                                <extensions>
                            <sog>0.1</sog>
<cog>0.0</cog>
                        </extensions>
                    </trkpt>
                    <trkpt lat="54.352250000000005" lon="10.144116666666667">
                        <ele>0</ele>
                        <time>2022-08-18T13:53:54Z</time>
                                                <extensions>
                            <sog>0.0</sog>
<cog>0.0</cog>
                        </extensions>
                    </trkpt>
                    <trkpt lat="54.352266666666665" lon="10.144133333333334">
                        <ele>0</ele>
                        <time>2022-08-18T13:56:59Z</time>
                                                <extensions>
                            <sog>0.0</sog>
<cog>0.0</cog>
                        </extensions>
                    </trkpt>
                    <trkpt lat="54.352266666666665" lon="10.144133333333334">
                        <ele>0</ele>
                        <time>2022-08-18T14:05:56Z</time>
                                                <extensions>
                            <sog>0.0</sog>
<cog>0.0</cog>
                        </extensions>
                    </trkpt>
                    <trkpt lat="54.352266666666665" lon="10.144133333333334">
                        <ele>0</ele>
                        <time>2022-08-18T14:09:00Z</time>
                                                <extensions>
                            <sog>0.1</sog>
<cog>0.0</cog>
                        </extensions>
                    </trkpt>
                    <trkpt lat="54.352266666666665" lon="10.144133333333334">
                        <ele>0</ele>
                        <time>2022-08-18T14:14:58Z</time>
                                                <extensions>
                            <sog>0.0</sog>
<cog>0.0</cog>
                        </extensions>
                    </trkpt>
                    <trkpt lat="54.352266666666665" lon="10.144133333333334">
                        <ele>0</ele>
                        <time>2022-08-18T14:17:57Z</time>
                                                <extensions>
                            <sog>0.0</sog>
<cog>0.0</cog>
                        </extensions>
                    </trkpt>
                    <trkpt lat="54.352266666666665" lon="10.144133333333334">
                        <ele>0</ele>
                        <time>2022-08-18T14:20:57Z</time>
                                                <extensions>
                            <sog>0.0</sog>
<cog>0.0</cog>
                        </extensions>
                    </trkpt>
                    <trkpt lat="54.352266666666665" lon="10.144133333333334">
                        <ele>0</ele>
                        <time>2022-08-18T14:23:59Z</time>
                                                <extensions>
                            <sog>0.0</sog>
<cog>0.0</cog>
                        </extensions>
                    </trkpt>
                    <trkpt lat="54.352250000000005" lon="10.14415">
                        <ele>0</ele>
                        <time>2022-08-18T14:26:59Z</time>
                                                <extensions>
                            <sog>0.0</sog>
<cog>0.0</cog>
                        </extensions>
                    </trkpt>
                    <trkpt lat="54.352266666666665" lon="10.144133333333334">
                        <ele>0</ele>
                        <time>2022-08-18T14:33:01Z</time>
                                                <extensions>
                            <sog>0.0</sog>
<cog>0.0</cog>
                        </extensions>
                    </trkpt>
                    <trkpt lat="54.352250000000005" lon="10.144116666666667">
                        <ele>0</ele>
                        <time>2022-08-18T14:36:01Z</time>
                                                <extensions>
                            <sog>0.0</sog>
<cog>0.0</cog>
                        </extensions>
                    </trkpt>
                    <trkpt lat="54.352250000000005" lon="10.144116666666667">
                        <ele>0</ele>
                        <time>2022-08-18T14:39:02Z</time>
                                                <extensions>
                            <sog>0.0</sog>
<cog>0.0</cog>
                        </extensions>
                    </trkpt>
                    <trkpt lat="54.352250000000005" lon="10.144116666666667">
                        <ele>0</ele>
                        <time>2022-08-18T14:42:02Z</time>
                                                <extensions>
                            <sog>0.0</sog>
<cog>0.0</cog>
                        </extensions>
                    </trkpt>
                    <trkpt lat="54.352250000000005" lon="10.144116666666667">
                        <ele>0</ele>
                        <time>2022-08-18T14:45:01Z</time>
                                                <extensions>
                            <sog>0.0</sog>
<cog>0.0</cog>
                        </extensions>
                    </trkpt>
                    <trkpt lat="54.352250000000005" lon="10.144116666666667">
                        <ele>0</ele>
                        <time>2022-08-18T14:48:00Z</time>
                                                <extensions>
                            <sog>0.0</sog>
<cog>0.0</cog>
                        </extensions>
                    </trkpt>
                    <trkpt lat="54.352250000000005" lon="10.1441">
                        <ele>0</ele>
                        <time>2022-08-18T14:51:01Z</time>
                                                <extensions>
                            <sog>0.1</sog>
<cog>0.0</cog>
                        </extensions>
                    </trkpt>
                    <trkpt lat="54.352250000000005" lon="10.1441">
                        <ele>0</ele>
                        <time>2022-08-18T14:57:02Z</time>
                                                <extensions>
                            <sog>0.0</sog>
<cog>0.0</cog>
                        </extensions>
                    </trkpt>
                    <trkpt lat="54.352250000000005" lon="10.1441">
                        <ele>0</ele>
                        <time>2022-08-18T15:00:04Z</time>
                                                <extensions>
                            <sog>0.1</sog>
<cog>0.0</cog>
                        </extensions>
                    </trkpt>
                    <trkpt lat="54.352250000000005" lon="10.1441">
                        <ele>0</ele>
                        <time>2022-08-18T15:00:04Z</time>
                                                <extensions>
                            <sog>0.1</sog>
<cog>0.0</cog>
                        </extensions>
                    </trkpt>
                    <trkpt lat="54.352250000000005" lon="10.144116666666667">
                        <ele>0</ele>
                        <time>2022-08-18T15:09:06Z</time>
                                                <extensions>
                            <sog>0.1</sog>
<cog>0.0</cog>
                        </extensions>
                    </trkpt>
                    <trkpt lat="54.352250000000005" lon="10.144116666666667">
                        <ele>0</ele>
                        <time>2022-08-18T15:12:03Z</time>
                                                <extensions>
                            <sog>0.0</sog>
<cog>0.0</cog>
                        </extensions>
                    </trkpt>
                    <trkpt lat="54.352266666666665" lon="10.144133333333334">
                        <ele>0</ele>
                        <time>2022-08-18T15:15:04Z</time>
                                                <extensions>
                            <sog>0.1</sog>
<cog>0.0</cog>
                        </extensions>
                    </trkpt>
                    <trkpt lat="54.352266666666665" lon="10.144133333333334">
                        <ele>0</ele>
                        <time>2022-08-18T15:18:04Z</time>
                                                <extensions>
                            <sog>0.0</sog>
<cog>0.0</cog>
                        </extensions>
                    </trkpt>
                    <trkpt lat="54.352266666666665" lon="10.144133333333334">
                        <ele>0</ele>
                        <time>2022-08-18T15:21:04Z</time>
                                                <extensions>
                            <sog>0.1</sog>
<cog>0.0</cog>
                        </extensions>
                    </trkpt>
                    <trkpt lat="54.352266666666665" lon="10.144133333333334">
                        <ele>0</ele>
                        <time>2022-08-18T15:24:05Z</time>
                                                <extensions>
                            <sog>0.0</sog>
<cog>0.0</cog>
                        </extensions>
                    </trkpt>
                    <trkpt lat="54.352266666666665" lon="10.144133333333334">
                        <ele>0</ele>
                        <time>2022-08-18T15:27:05Z</time>
                                                <extensions>
                            <sog>0.1</sog>
<cog>0.0</cog>
                        </extensions>
                    </trkpt>
                    <trkpt lat="54.352266666666665" lon="10.144133333333334">
                        <ele>0</ele>
                        <time>2022-08-18T15:30:07Z</time>
                                                <extensions>
                            <sog>0.0</sog>
<cog>0.0</cog>
                        </extensions>
                    </trkpt>
                    <trkpt lat="54.352266666666665" lon="10.144133333333334">
                        <ele>0</ele>
                        <time>2022-08-18T15:33:07Z</time>
                                                <extensions>
                            <sog>0.0</sog>
<cog>0.0</cog>
                        </extensions>
                    </trkpt>
                    <trkpt lat="54.352266666666665" lon="10.144133333333334">
                        <ele>0</ele>
                        <time>2022-08-18T15:36:08Z</time>
                                                <extensions>
                            <sog>0.0</sog>
<cog>0.0</cog>
                        </extensions>
                    </trkpt>
                    <trkpt lat="54.352266666666665" lon="10.144133333333334">
                        <ele>0</ele>
                        <time>2022-08-18T15:39:07Z</time>
                                                <extensions>
                            <sog>0.1</sog>
<cog>0.0</cog>
                        </extensions>
                    </trkpt>
                    <trkpt lat="54.352266666666665" lon="10.144133333333334">
                        <ele>0</ele>
                        <time>2022-08-18T15:42:06Z</time>
                                                <extensions>
                            <sog>0.0</sog>
<cog>0.0</cog>
                        </extensions>
                    </trkpt>
                    <trkpt lat="54.352266666666665" lon="10.144133333333334">
                        <ele>0</ele>
                        <time>2022-08-18T15:45:06Z</time>
                                                <extensions>
                            <sog>0.0</sog>
<cog>0.0</cog>
                        </extensions>
                    </trkpt>
                    <trkpt lat="54.352266666666665" lon="10.144116666666667">
                        <ele>0</ele>
                        <time>2022-08-18T15:48:07Z</time>
                                                <extensions>
                            <sog>0.0</sog>
<cog>0.0</cog>
                        </extensions>
                    </trkpt>
                    <trkpt lat="54.352266666666665" lon="10.144133333333334">
                        <ele>0</ele>
                        <time>2022-08-18T15:51:09Z</time>
                                                <extensions>
                            <sog>0.0</sog>
<cog>0.0</cog>
                        </extensions>
                    </trkpt>
                    <trkpt lat="54.352266666666665" lon="10.144133333333334">
                        <ele>0</ele>
                        <time>2022-08-18T15:54:09Z</time>
                                                <extensions>
                            <sog>0.0</sog>
<cog>0.0</cog>
                        </extensions>
                    </trkpt>
                    <trkpt lat="54.352266666666665" lon="10.144116666666667">
                        <ele>0</ele>
                        <time>2022-08-18T15:57:10Z</time>
                                                <extensions>
                            <sog>0.0</sog>
<cog>0.0</cog>
                        </extensions>
                    </trkpt>
                    <trkpt lat="54.352266666666665" lon="10.144116666666667">
                        <ele>0</ele>
                        <time>2022-08-18T16:00:08Z</time>
                                                <extensions>
                            <sog>0.0</sog>
<cog>0.0</cog>
                        </extensions>
                    </trkpt>
                    <trkpt lat="54.352266666666665" lon="10.144116666666667">
                        <ele>0</ele>
                        <time>2022-08-18T16:00:08Z</time>
                                                <extensions>
                            <sog>0.0</sog>
<cog>0.0</cog>
                        </extensions>
                    </trkpt>
                    <trkpt lat="54.352266666666665" lon="10.144116666666667">
                        <ele>0</ele>
                        <time>2022-08-18T16:09:11Z</time>
                                                <extensions>
                            <sog>0.0</sog>
<cog>0.0</cog>
                        </extensions>
                    </trkpt>
                    <trkpt lat="54.352266666666665" lon="10.144116666666667">
                        <ele>0</ele>
                        <time>2022-08-18T16:12:12Z</time>
                                                <extensions>
                            <sog>0.0</sog>
<cog>0.0</cog>
                        </extensions>
                    </trkpt>
                    <trkpt lat="54.352266666666665" lon="10.144116666666667">
                        <ele>0</ele>
                        <time>2022-08-18T16:15:12Z</time>
                                                <extensions>
                            <sog>0.0</sog>
<cog>0.0</cog>
                        </extensions>
                    </trkpt>
                    <trkpt lat="54.352266666666665" lon="10.144116666666667">
                        <ele>0</ele>
                        <time>2022-08-18T16:18:14Z</time>
                                                <extensions>
                            <sog>0.1</sog>
<cog>0.0</cog>
                        </extensions>
                    </trkpt>
                    <trkpt lat="54.352266666666665" lon="10.144133333333334">
                        <ele>0</ele>
                        <time>2022-08-18T16:21:13Z</time>
                                                <extensions>
                            <sog>0.0</sog>
<cog>0.0</cog>
                        </extensions>
                    </trkpt>
                    <trkpt lat="54.352250000000005" lon="10.144116666666667">
                        <ele>0</ele>
                        <time>2022-08-18T16:27:15Z</time>
                                                <extensions>
                            <sog>0.0</sog>
<cog>0.0</cog>
                        </extensions>
                    </trkpt>
                    <trkpt lat="54.352266666666665" lon="10.144133333333334">
                        <ele>0</ele>
                        <time>2022-08-18T16:33:15Z</time>
                                                <extensions>
                            <sog>0.1</sog>
<cog>0.0</cog>
                        </extensions>
                    </trkpt>
                    <trkpt lat="54.352266666666665" lon="10.144133333333334">
                        <ele>0</ele>
                        <time>2022-08-18T16:36:16Z</time>
                                                <extensions>
                            <sog>0.0</sog>
<cog>0.0</cog>
                        </extensions>
                    </trkpt>
                    <trkpt lat="54.352266666666665" lon="10.144116666666667">
                        <ele>0</ele>
                        <time>2022-08-18T16:45:19Z</time>
                                                <extensions>
                            <sog>0.0</sog>
<cog>0.0</cog>
                        </extensions>
                    </trkpt>
                    <trkpt lat="54.352266666666665" lon="10.144116666666667">
                        <ele>0</ele>
                        <time>2022-08-18T16:51:21Z</time>
                                                <extensions>
                            <sog>0.0</sog>
<cog>0.0</cog>
                        </extensions>
                    </trkpt>
                    <trkpt lat="54.35228333333334" lon="10.144116666666667">
                        <ele>0</ele>
                        <time>2022-08-18T16:57:20Z</time>
                                                <extensions>
                            <sog>0.0</sog>
<cog>0.0</cog>
                        </extensions>
                    </trkpt>
                    <trkpt lat="54.35228333333334" lon="10.1441">
                        <ele>0</ele>
                        <time>2022-08-18T17:03:20Z</time>
                                                <extensions>
                            <sog>0.0</sog>
<cog>0.0</cog>
                        </extensions>
                    </trkpt>
                    <trkpt lat="54.35228333333334" lon="10.144116666666667">
                        <ele>0</ele>
                        <time>2022-08-18T17:06:21Z</time>
                                                <extensions>
                            <sog>0.0</sog>
<cog>0.0</cog>
                        </extensions>
                    </trkpt>
                    <trkpt lat="54.35228333333334" lon="10.144116666666667">
                        <ele>0</ele>
                        <time>2022-08-18T17:09:24Z</time>
                                                <extensions>
                            <sog>0.1</sog>
<cog>0.0</cog>
                        </extensions>
                    </trkpt>
                    <trkpt lat="54.3523" lon="10.144116666666667">
                        <ele>0</ele>
                        <time>2022-08-18T17:12:23Z</time>
                                                <extensions>
                            <sog>0.1</sog>
<cog>0.0</cog>
                        </extensions>
                    </trkpt>
                    <trkpt lat="54.3523" lon="10.1441">
                        <ele>0</ele>
                        <time>2022-08-18T17:15:25Z</time>
                                                <extensions>
                            <sog>0.1</sog>
<cog>0.0</cog>
                        </extensions>
                    </trkpt>
                    <trkpt lat="54.3523" lon="10.1441">
                        <ele>0</ele>
                        <time>2022-08-18T17:18:24Z</time>
                                                <extensions>
                            <sog>0.1</sog>
<cog>0.0</cog>
                        </extensions>
                    </trkpt>
                    <trkpt lat="54.3523" lon="10.144116666666667">
                        <ele>0</ele>
                        <time>2022-08-18T17:21:25Z</time>
                                                <extensions>
                            <sog>0.0</sog>
<cog>0.0</cog>
                        </extensions>
                    </trkpt>
                    <trkpt lat="54.3523" lon="10.1441">
                        <ele>0</ele>
                        <time>2022-08-18T17:24:26Z</time>
                                                <extensions>
                            <sog>0.0</sog>
<cog>0.0</cog>
                        </extensions>
                    </trkpt>
                    <trkpt lat="54.35231666666667" lon="10.144116666666667">
                        <ele>0</ele>
                        <time>2022-08-18T17:30:28Z</time>
                                                <extensions>
                            <sog>0.1</sog>
<cog>0.0</cog>
                        </extensions>
                    </trkpt>
                    <trkpt lat="54.35231666666667" lon="10.144133333333334">
                        <ele>0</ele>
                        <time>2022-08-18T17:36:29Z</time>
                                                <extensions>
                            <sog>0.0</sog>
<cog>0.0</cog>
                        </extensions>
                    </trkpt>
                    <trkpt lat="54.35231666666667" lon="10.14415">
                        <ele>0</ele>
                        <time>2022-08-18T17:39:27Z</time>
                                                <extensions>
                            <sog>0.1</sog>
<cog>0.0</cog>
                        </extensions>
                    </trkpt>
                    <trkpt lat="54.35231666666667" lon="10.14415">
                        <ele>0</ele>
                        <time>2022-08-18T17:42:28Z</time>
                                                <extensions>
                            <sog>0.0</sog>
<cog>0.0</cog>
                        </extensions>
                    </trkpt>
                    <trkpt lat="54.3523" lon="10.14415">
                        <ele>0</ele>
                        <time>2022-08-18T17:45:30Z</time>
                                                <extensions>
                            <sog>0.0</sog>
<cog>0.0</cog>
                        </extensions>
                    </trkpt>
                    <trkpt lat="54.3523" lon="10.14415">
                        <ele>0</ele>
                        <time>2022-08-18T17:48:30Z</time>
                                                <extensions>
                            <sog>0.1</sog>
<cog>0.0</cog>
                        </extensions>
                    </trkpt>
                    <trkpt lat="54.3523" lon="10.144133333333334">
                        <ele>0</ele>
                        <time>2022-08-18T17:51:30Z</time>
                                                <extensions>
                            <sog>0.0</sog>
<cog>0.0</cog>
                        </extensions>
                    </trkpt>
                    <trkpt lat="54.3523" lon="10.14415">
                        <ele>0</ele>
                        <time>2022-08-18T17:57:29Z</time>
                                                <extensions>
                            <sog>0.0</sog>
<cog>0.0</cog>
                        </extensions>
                    </trkpt>
                    <trkpt lat="54.35231666666667" lon="10.14415">
                        <ele>0</ele>
                        <time>2022-08-18T18:00:32Z</time>
                                                <extensions>
                            <sog>0.0</sog>
<cog>0.0</cog>
                        </extensions>
                    </trkpt>
                    <trkpt lat="54.35231666666667" lon="10.14415">
                        <ele>0</ele>
                        <time>2022-08-18T18:00:32Z</time>
                                                <extensions>
                            <sog>0.0</sog>
<cog>0.0</cog>
                        </extensions>
                    </trkpt>
                    <trkpt lat="54.35231666666667" lon="10.14415">
                        <ele>0</ele>
                        <time>2022-08-18T18:03:31Z</time>
                                                <extensions>
                            <sog>0.0</sog>
<cog>0.0</cog>
                        </extensions>
                    </trkpt>
                    <trkpt lat="54.35231666666667" lon="10.14415">
                        <ele>0</ele>
                        <time>2022-08-18T18:06:30Z</time>
                                                <extensions>
                            <sog>0.0</sog>
<cog>0.0</cog>
                        </extensions>
                    </trkpt>
                    <trkpt lat="54.35231666666667" lon="10.14415">
                        <ele>0</ele>
                        <time>2022-08-18T18:09:32Z</time>
                                                <extensions>
                            <sog>0.0</sog>
<cog>0.0</cog>
                        </extensions>
                    </trkpt>
                    <trkpt lat="54.35231666666667" lon="10.14415">
                        <ele>0</ele>
                        <time>2022-08-18T18:15:34Z</time>
                                                <extensions>
                            <sog>0.0</sog>
<cog>0.0</cog>
                        </extensions>
                    </trkpt>
                    <trkpt lat="54.35231666666667" lon="10.14415">
                        <ele>0</ele>
                        <time>2022-08-18T18:18:33Z</time>
                                                <extensions>
                            <sog>0.0</sog>
<cog>0.0</cog>
                        </extensions>
                    </trkpt>
                    <trkpt lat="54.35231666666667" lon="10.144133333333334">
                        <ele>0</ele>
                        <time>2022-08-18T18:24:34Z</time>
                                                <extensions>
                            <sog>0.0</sog>
<cog>0.0</cog>
                        </extensions>
                    </trkpt>
                    <trkpt lat="54.3523" lon="10.144133333333334">
                        <ele>0</ele>
                        <time>2022-08-18T18:30:35Z</time>
                                                <extensions>
                            <sog>0.1</sog>
<cog>0.0</cog>
                        </extensions>
                    </trkpt>
                    <trkpt lat="54.3523" lon="10.144133333333334">
                        <ele>0</ele>
                        <time>2022-08-18T18:33:36Z</time>
                                                <extensions>
                            <sog>0.0</sog>
<cog>0.0</cog>
                        </extensions>
                    </trkpt>
                    <trkpt lat="54.35228333333334" lon="10.144133333333334">
                        <ele>0</ele>
                        <time>2022-08-18T18:36:37Z</time>
                                                <extensions>
                            <sog>0.0</sog>
<cog>0.0</cog>
                        </extensions>
                    </trkpt>
                    <trkpt lat="54.35228333333334" lon="10.144116666666667">
                        <ele>0</ele>
                        <time>2022-08-18T18:39:37Z</time>
                                                <extensions>
                            <sog>0.0</sog>
<cog>0.0</cog>
                        </extensions>
                    </trkpt>
                    <trkpt lat="54.35228333333334" lon="10.144116666666667">
                        <ele>0</ele>
                        <time>2022-08-18T18:45:37Z</time>
                                                <extensions>
                            <sog>0.0</sog>
<cog>0.0</cog>
                        </extensions>
                    </trkpt>
                    <trkpt lat="54.35228333333334" lon="10.144116666666667">
                        <ele>0</ele>
                        <time>2022-08-18T18:48:38Z</time>
                                                <extensions>
                            <sog>0.1</sog>
<cog>0.0</cog>
                        </extensions>
                    </trkpt>
                    <trkpt lat="54.35228333333334" lon="10.144116666666667">
                        <ele>0</ele>
                        <time>2022-08-18T18:51:37Z</time>
                                                <extensions>
                            <sog>0.0</sog>
<cog>0.0</cog>
                        </extensions>
                    </trkpt>
                    </trkseg>
                </trk>
</gpx>