<?xml version="1.0" encoding="UTF-8"?>
<gpx version="1.1" creator="AIS-to-GPX Converter" xmlns="http://www.topografix.com/GPX/1/1">
                <trk>
                    <name>anon0237</name>
                    <trkseg>
                                            <trkpt lat="54.339198333333336" lon="10.158376666666667">
                        <ele>0</ele>
                        <time>2022-08-18T10:42:20Z</time>
                                                <extensions>
                            <sog>0.0</sog>
<cog>24.8</cog>
                        </extensions>
                    </trkpt>
                    <trkpt lat="54.339198333333336" lon="10.158376666666667">
                        <ele>0</ele>
                        <time>2022-08-18T10:42:52Z</time>
                                                <extensions>
                            <sog>0.0</sog>
<cog>24.8</cog>
                        </extensions>
                    </trkpt>
                    <trkpt lat="54.339198333333336" lon="10.158376666666667">
                        <ele>0</ele>
                        <time>2022-08-18T10:43:21Z</time>
                                                <extensions>
                            <sog>0.0</sog>
<cog>24.8</cog>
                        </extensions>
                    </trkpt>
                    <trkpt lat="54.339198333333336" lon="10.158376666666667">
                        <ele>0</ele>
                        <time>2022-08-18T10:43:51Z</time>
                                                <extensions>
                            <sog>0.0</sog>
<cog>24.8</cog>
                        </extensions>
                    </trkpt>
                    <trkpt lat="54.339198333333336" lon="10.158378333333333">
                        <ele>0</ele>
                        <time>2022-08-18T10:44:22Z</time>
                                                <extensions>
                            <sog>0.0</sog>
<cog>24.8</cog>
                        </extensions>
                    </trkpt>
                    <trkpt lat="54.339196666666666" lon="10.158376666666667">
                        <ele>0</ele>
                        <time>2022-08-18T10:47:21Z</time>
                                                <extensions>
                            <sog>0.0</sog>
<cog>24.8</cog>
                        </extensions>
                    </trkpt>
                    <trkpt lat="54.339196666666666" lon="10.158376666666667">
                        <ele>0</ele>
                        <time>2022-08-18T10:50:25Z</time>
                                                <extensions>
                            <sog>0.0</sog>
<cog>24.8</cog>
                        </extensions>
                    </trkpt>
                    <trkpt lat="54.339196666666666" lon="10.158376666666667">
                        <ele>0</ele>
                        <time>2022-08-18T10:53:22Z</time>
                                                <extensions>
                            <sog>0.0</sog>
<cog>24.8</cog>
                        </extensions>
                    </trkpt>
                    <trkpt lat="54.339196666666666" lon="10.158376666666667">
                        <ele>0</ele>
                        <time>2022-08-18T10:56:22Z</time>
                                                <extensions>
                            <sog>0.0</sog>
<cog>24.8</cog>
                        </extensions>
                    </trkpt>
                    <trkpt lat="54.339195000000004" lon="10.158376666666667">
                        <ele>0</ele>
                        <time>2022-08-18T10:59:23Z</time>
                                                <extensions>
                            <sog>0.0</sog>
<cog>24.8</cog>
                        </extensions>
                    </trkpt>
                    <trkpt lat="54.339195000000004" lon="10.158381666666665">
                        <ele>0</ele>
                        <time>2022-08-18T11:02:24Z</time>
                                                <extensions>
                            <sog>0.0</sog>
<cog>24.8</cog>
                        </extensions>
                    </trkpt>
                    <trkpt lat="54.339195000000004" lon="10.15838">
                        <ele>0</ele>
                        <time>2022-08-18T11:05:23Z</time>
                                                <extensions>
                            <sog>0.0</sog>
<cog>24.8</cog>
                        </extensions>
                    </trkpt>
                    <trkpt lat="54.339195000000004" lon="10.158378333333333">
                        <ele>0</ele>
                        <time>2022-08-18T11:08:25Z</time>
                                                <extensions>
                            <sog>0.0</sog>
<cog>24.8</cog>
                        </extensions>
                    </trkpt>
                    <trkpt lat="54.33886666666667" lon="10.15817">
                        <ele>0</ele>
                        <time>2022-08-18T11:10:54Z</time>
                                                <extensions>
                            <sog>2.7</sog>
<cog>165.1</cog>
                        </extensions>
                    </trkpt>
                    <trkpt lat="54.33878666666667" lon="10.158725">
                        <ele>0</ele>
                        <time>2022-08-18T11:11:24Z</time>
                                                <extensions>
                            <sog>2.7</sog>
<cog>66.1</cog>
                        </extensions>
                    </trkpt>
                    <trkpt lat="54.33916" lon="10.15895">
                        <ele>0</ele>
                        <time>2022-08-18T11:11:54Z</time>
                                                <extensions>
                            <sog>3.5</sog>
<cog>359.7</cog>
                        </extensions>
                    </trkpt>
                    <trkpt lat="54.34026666666667" lon="10.158936666666667">
                        <ele>0</ele>
                        <time>2022-08-18T11:12:56Z</time>
                                                <extensions>
                            <sog>4.0</sog>
<cog>1.0</cog>
                        </extensions>
                    </trkpt>
                    <trkpt lat="54.34078" lon="10.158911666666667">
                        <ele>0</ele>
                        <time>2022-08-18T11:13:24Z</time>
                                                <extensions>
                            <sog>3.9</sog>
<cog>357.9</cog>
                        </extensions>
                    </trkpt>
                    <trkpt lat="54.34136" lon="10.158836666666668">
                        <ele>0</ele>
                        <time>2022-08-18T11:13:57Z</time>
                                                <extensions>
                            <sog>3.9</sog>
<cog>354.4</cog>
                        </extensions>
                    </trkpt>
                    <trkpt lat="54.341879999999996" lon="10.158691666666666">
                        <ele>0</ele>
                        <time>2022-08-18T11:14:26Z</time>
                                                <extensions>
                            <sog>3.8</sog>
<cog>348.9</cog>
                        </extensions>
                    </trkpt>
                    <trkpt lat="54.34238666666667" lon="10.158478333333333">
                        <ele>0</ele>
                        <time>2022-08-18T11:14:55Z</time>
                                                <extensions>
                            <sog>3.8</sog>
<cog>353.0</cog>
                        </extensions>
                    </trkpt>
                    <trkpt lat="54.34360166666667" lon="10.158461666666666">
                        <ele>0</ele>
                        <time>2022-08-18T11:15:55Z</time>
                                                <extensions>
                            <sog>5.0</sog>
<cog>352.5</cog>
                        </extensions>
                    </trkpt>
                    <trkpt lat="54.34506833333333" lon="10.158353333333334">
                        <ele>0</ele>
                        <time>2022-08-18T11:16:57Z</time>
                                                <extensions>
                            <sog>5.1</sog>
<cog>2.9</cog>
                        </extensions>
                    </trkpt>
                    <trkpt lat="54.34575666666667" lon="10.158235">
                        <ele>0</ele>
                        <time>2022-08-18T11:17:26Z</time>
                                                <extensions>
                            <sog>5.1</sog>
<cog>350.7</cog>
                        </extensions>
                    </trkpt>
                    <trkpt lat="54.34648333333334" lon="10.158019999999999">
                        <ele>0</ele>
                        <time>2022-08-18T11:17:57Z</time>
                                                <extensions>
                            <sog>5.1</sog>
<cog>349.7</cog>
                        </extensions>
                    </trkpt>
                    <trkpt lat="54.34713166666667" lon="10.157795">
                        <ele>0</ele>
                        <time>2022-08-18T11:18:25Z</time>
                                                <extensions>
                            <sog>5.0</sog>
<cog>350.8</cog>
                        </extensions>
                    </trkpt>
                    <trkpt lat="54.34786833333333" lon="10.157678333333333">
                        <ele>0</ele>
                        <time>2022-08-18T11:18:56Z</time>
                                                <extensions>
                            <sog>5.0</sog>
<cog>357.0</cog>
                        </extensions>
                    </trkpt>
                    <trkpt lat="54.34852166666667" lon="10.157616666666666">
                        <ele>0</ele>
                        <time>2022-08-18T11:19:25Z</time>
                                                <extensions>
                            <sog>5.1</sog>
<cog>357.3</cog>
                        </extensions>
                    </trkpt>
                    <trkpt lat="54.349248333333335" lon="10.157543333333333">
                        <ele>0</ele>
                        <time>2022-08-18T11:19:55Z</time>
                                                <extensions>
                            <sog>5.0</sog>
<cog>356.5</cog>
                        </extensions>
                    </trkpt>
                    <trkpt lat="54.35066" lon="10.157298333333333">
                        <ele>0</ele>
                        <time>2022-08-18T11:20:56Z</time>
                                                <extensions>
                            <sog>5.0</sog>
<cog>352.2</cog>
                        </extensions>
                    </trkpt>
                    <trkpt lat="54.35132333333333" lon="10.157101666666668">
                        <ele>0</ele>
                        <time>2022-08-18T11:21:26Z</time>
                                                <extensions>
                            <sog>5.0</sog>
<cog>350.5</cog>
                        </extensions>
                    </trkpt>
                    <trkpt lat="54.352015" lon="10.156916666666666">
                        <ele>0</ele>
                        <time>2022-08-18T11:21:55Z</time>
                                                <extensions>
                            <sog>5.0</sog>
<cog>350.0</cog>
                        </extensions>
                    </trkpt>
                    <trkpt lat="54.35268666666666" lon="10.156928333333333">
                        <ele>0</ele>
                        <time>2022-08-18T11:22:25Z</time>
                                                <extensions>
                            <sog>4.9</sog>
<cog>16.2</cog>
                        </extensions>
                    </trkpt>
                    <trkpt lat="54.353770000000004" lon="10.157608333333334">
                        <ele>0</ele>
                        <time>2022-08-18T11:23:26Z</time>
                                                <extensions>
                            <sog>3.9</sog>
<cog>19.1</cog>
                        </extensions>
                    </trkpt>
                    <trkpt lat="54.35425" lon="10.15789">
                        <ele>0</ele>
                        <time>2022-08-18T11:23:56Z</time>
                                                <extensions>
                            <sog>3.7</sog>
<cog>17.5</cog>
                        </extensions>
                    </trkpt>
                    <trkpt lat="54.35475333333333" lon="10.158006666666667">
                        <ele>0</ele>
                        <time>2022-08-18T11:24:26Z</time>
                                                <extensions>
                            <sog>3.2</sog>
<cog>2.4</cog>
                        </extensions>
                    </trkpt>
                    <trkpt lat="54.35517166666667" lon="10.158035">
                        <ele>0</ele>
                        <time>2022-08-18T11:24:56Z</time>
                                                <extensions>
                            <sog>2.7</sog>
<cog>5.5</cog>
                        </extensions>
                    </trkpt>
                    <trkpt lat="54.355538333333335" lon="10.158131666666666">
                        <ele>0</ele>
                        <time>2022-08-18T11:25:27Z</time>
                                                <extensions>
                            <sog>2.5</sog>
<cog>16.9</cog>
                        </extensions>
                    </trkpt>
                    <trkpt lat="54.355853333333336" lon="10.158355">
                        <ele>0</ele>
                        <time>2022-08-18T11:25:57Z</time>
                                                <extensions>
                            <sog>2.6</sog>
<cog>24.2</cog>
                        </extensions>
                    </trkpt>
                    <trkpt lat="54.35655666666666" lon="10.15856">
                        <ele>0</ele>
                        <time>2022-08-18T11:26:57Z</time>
                                                <extensions>
                            <sog>2.5</sog>
<cog>14.1</cog>
                        </extensions>
                    </trkpt>
                    <trkpt lat="54.35687" lon="10.158801666666667">
                        <ele>0</ele>
                        <time>2022-08-18T11:27:27Z</time>
                                                <extensions>
                            <sog>2.5</sog>
<cog>24.7</cog>
                        </extensions>
                    </trkpt>
                    <trkpt lat="54.35725333333333" lon="10.158896666666667">
                        <ele>0</ele>
                        <time>2022-08-18T11:27:58Z</time>
                                                <extensions>
                            <sog>2.8</sog>
<cog>359.1</cog>
                        </extensions>
                    </trkpt>
                    <trkpt lat="54.35764666666667" lon="10.158875">
                        <ele>0</ele>
                        <time>2022-08-18T11:28:27Z</time>
                                                <extensions>
                            <sog>3.2</sog>
<cog>1.1</cog>
                        </extensions>
                    </trkpt>
                    <trkpt lat="54.358126666666664" lon="10.158876666666666">
                        <ele>0</ele>
                        <time>2022-08-18T11:28:59Z</time>
                                                <extensions>
                            <sog>3.3</sog>
<cog>2.1</cog>
                        </extensions>
                    </trkpt>
                    <trkpt lat="54.35855" lon="10.158921666666666">
                        <ele>0</ele>
                        <time>2022-08-18T11:29:27Z</time>
                                                <extensions>
                            <sog>3.3</sog>
<cog>6.1</cog>
                        </extensions>
                    </trkpt>
                    <trkpt lat="54.359045" lon="10.159023333333332">
                        <ele>0</ele>
                        <time>2022-08-18T11:29:59Z</time>
                                                <extensions>
                            <sog>3.9</sog>
<cog>4.5</cog>
                        </extensions>
                    </trkpt>
                    <trkpt lat="54.36022333333334" lon="10.158791666666668">
                        <ele>0</ele>
                        <time>2022-08-18T11:30:58Z</time>
                                                <extensions>
                            <sog>4.5</sog>
<cog>348.1</cog>
                        </extensions>
                    </trkpt>
                    <trkpt lat="54.361641666666664" lon="10.158033333333332">
                        <ele>0</ele>
                        <time>2022-08-18T11:31:57Z</time>
                                                <extensions>
                            <sog>6.0</sog>
<cog>339.0</cog>
                        </extensions>
                    </trkpt>
                    <trkpt lat="54.362431666666666" lon="10.157451666666667">
                        <ele>0</ele>
                        <time>2022-08-18T11:32:27Z</time>
                                                <extensions>
                            <sog>6.6</sog>
<cog>336.4</cog>
                        </extensions>
                    </trkpt>
                    <trkpt lat="54.36318000000001" lon="10.156841666666667">
                        <ele>0</ele>
                        <time>2022-08-18T11:32:57Z</time>
                                                <extensions>
                            <sog>5.4</sog>
<cog>332.1</cog>
                        </extensions>
                    </trkpt>
                    <trkpt lat="54.36384333333333" lon="10.156158333333334">
                        <ele>0</ele>
                        <time>2022-08-18T11:33:27Z</time>
                                                <extensions>
                            <sog>5.4</sog>
<cog>327.3</cog>
                        </extensions>
                    </trkpt>
                    <trkpt lat="54.364495000000005" lon="10.155363333333334">
                        <ele>0</ele>
                        <time>2022-08-18T11:33:59Z</time>
                                                <extensions>
                            <sog>5.2</sog>
<cog>320.6</cog>
                        </extensions>
                    </trkpt>
                    <trkpt lat="54.36522333333333" lon="10.154205">
                        <ele>0</ele>
                        <time>2022-08-18T11:34:57Z</time>
                                                <extensions>
                            <sog>3.0</sog>
<cog>314.2</cog>
                        </extensions>
                    </trkpt>
                    <trkpt lat="54.36552833333334" lon="10.153688333333333">
                        <ele>0</ele>
                        <time>2022-08-18T11:35:28Z</time>
                                                <extensions>
                            <sog>2.8</sog>
<cog>323.8</cog>
                        </extensions>
                    </trkpt>
                    <trkpt lat="54.365858333333335" lon="10.153341666666668">
                        <ele>0</ele>
                        <time>2022-08-18T11:35:57Z</time>
                                                <extensions>
                            <sog>2.8</sog>
<cog>328.5</cog>
                        </extensions>
                    </trkpt>
                    <trkpt lat="54.36649666666666" lon="10.15248">
                        <ele>0</ele>
                        <time>2022-08-18T11:36:58Z</time>
                                                <extensions>
                            <sog>2.9</sog>
<cog>323.1</cog>
                        </extensions>
                    </trkpt>
                    <trkpt lat="54.3671" lon="10.151503333333332">
                        <ele>0</ele>
                        <time>2022-08-18T11:37:58Z</time>
                                                <extensions>
                            <sog>2.9</sog>
<cog>325.7</cog>
                        </extensions>
                    </trkpt>
                    <trkpt lat="54.367225" lon="10.150996666666666">
                        <ele>0</ele>
                        <time>2022-08-18T11:38:58Z</time>
                                                <extensions>
                            <sog>2.1</sog>
<cog>114.9</cog>
                        </extensions>
                    </trkpt>
                    <trkpt lat="54.36727333333333" lon="10.151583333333333">
                        <ele>0</ele>
                        <time>2022-08-18T11:39:59Z</time>
                                                <extensions>
                            <sog>0.8</sog>
<cog>66.1</cog>
                        </extensions>
                    </trkpt>
                    <trkpt lat="54.36743" lon="10.151456666666666">
                        <ele>0</ele>
                        <time>2022-08-18T11:40:58Z</time>
                                                <extensions>
                            <sog>0.6</sog>
<cog>66.1</cog>
                        </extensions>
                    </trkpt>
                    <trkpt lat="54.367515000000004" lon="10.151029999999999">
                        <ele>0</ele>
                        <time>2022-08-18T11:42:28Z</time>
                                                <extensions>
                            <sog>0.4</sog>
<cog>66.1</cog>
                        </extensions>
                    </trkpt>
                    <trkpt lat="54.36765333333334" lon="10.150313333333335">
                        <ele>0</ele>
                        <time>2022-08-18T11:45:28Z</time>
                                                <extensions>
                            <sog>1.4</sog>
<cog>346.2</cog>
                        </extensions>
                    </trkpt>
                    <trkpt lat="54.36687333333334" lon="10.150008333333334">
                        <ele>0</ele>
                        <time>2022-08-18T11:51:30Z</time>
                                                <extensions>
                            <sog>0.5</sog>
<cog>13.8</cog>
                        </extensions>
                    </trkpt>
                    <trkpt lat="54.36758" lon="10.150593333333335">
                        <ele>0</ele>
                        <time>2022-08-18T11:54:30Z</time>
                                                <extensions>
                            <sog>1.1</sog>
<cog>33.8</cog>
                        </extensions>
                    </trkpt>
                    <trkpt lat="54.367650000000005" lon="10.150243333333332">
                        <ele>0</ele>
                        <time>2022-08-18T11:57:30Z</time>
                                                <extensions>
                            <sog>0.5</sog>
<cog>33.8</cog>
                        </extensions>
                    </trkpt>
                    <trkpt lat="54.36756833333333" lon="10.150145">
                        <ele>0</ele>
                        <time>2022-08-18T12:00:31Z</time>
                                                <extensions>
                            <sog>1.5</sog>
<cog>106.8</cog>
                        </extensions>
                    </trkpt>
                    <trkpt lat="54.36756833333333" lon="10.150145">
                        <ele>0</ele>
                        <time>2022-08-18T12:00:31Z</time>
                                                <extensions>
                            <sog>1.5</sog>
<cog>106.8</cog>
                        </extensions>
                    </trkpt>
                    <trkpt lat="54.36667666666666" lon="10.150461666666667">
                        <ele>0</ele>
                        <time>2022-08-18T12:09:32Z</time>
                                                <extensions>
                            <sog>0.3</sog>
<cog>106.3</cog>
                        </extensions>
                    </trkpt>
                    <trkpt lat="54.36669833333334" lon="10.1503">
                        <ele>0</ele>
                        <time>2022-08-18T12:12:33Z</time>
                                                <extensions>
                            <sog>0.0</sog>
<cog>29.9</cog>
                        </extensions>
                    </trkpt>
                    <trkpt lat="54.36696666666667" lon="10.15098">
                        <ele>0</ele>
                        <time>2022-08-18T12:15:34Z</time>
                                                <extensions>
                            <sog>1.3</sog>
<cog>60.2</cog>
                        </extensions>
                    </trkpt>
                    <trkpt lat="54.366994999999996" lon="10.151193333333334">
                        <ele>0</ele>
                        <time>2022-08-18T12:18:35Z</time>
                                                <extensions>
                            <sog>0.9</sog>
<cog>62.4</cog>
                        </extensions>
                    </trkpt>
                    <trkpt lat="54.36690333333333" lon="10.150929999999999">
                        <ele>0</ele>
                        <time>2022-08-18T12:21:35Z</time>
                                                <extensions>
                            <sog>1.0</sog>
<cog>62.4</cog>
                        </extensions>
                    </trkpt>
                    <trkpt lat="54.36606833333334" lon="10.150776666666667">
                        <ele>0</ele>
                        <time>2022-08-18T12:27:35Z</time>
                                                <extensions>
                            <sog>2.2</sog>
<cog>30.6</cog>
                        </extensions>
                    </trkpt>
                    <trkpt lat="54.366305000000004" lon="10.150958333333334">
                        <ele>0</ele>
                        <time>2022-08-18T12:28:04Z</time>
                                                <extensions>
                            <sog>1.4</sog>
<cog>25.7</cog>
                        </extensions>
                    </trkpt>
                    <trkpt lat="54.36644833333333" lon="10.151083333333334">
                        <ele>0</ele>
                        <time>2022-08-18T12:28:34Z</time>
                                                <extensions>
                            <sog>0.8</sog>
<cog>25.8</cog>
                        </extensions>
                    </trkpt>
                    <trkpt lat="54.366544999999995" lon="10.15114">
                        <ele>0</ele>
                        <time>2022-08-18T12:29:04Z</time>
                                                <extensions>
                            <sog>0.5</sog>
<cog>25.8</cog>
                        </extensions>
                    </trkpt>
                    <trkpt lat="54.36667833333333" lon="10.150948333333334">
                        <ele>0</ele>
                        <time>2022-08-18T12:30:37Z</time>
                                                <extensions>
                            <sog>0.5</sog>
<cog>25.8</cog>
                        </extensions>
                    </trkpt>
                    <trkpt lat="54.36667666666666" lon="10.150818333333332">
                        <ele>0</ele>
                        <time>2022-08-18T12:31:05Z</time>
                                                <extensions>
                            <sog>0.5</sog>
<cog>25.8</cog>
                        </extensions>
                    </trkpt>
                    <trkpt lat="54.367125" lon="10.150478333333332">
                        <ele>0</ele>
                        <time>2022-08-18T12:34:04Z</time>
                                                <extensions>
                            <sog>1.7</sog>
<cog>50.7</cog>
                        </extensions>
                    </trkpt>
                    <trkpt lat="54.36666" lon="10.151">
                        <ele>0</ele>
                        <time>2022-08-18T12:37:04Z</time>
                                                <extensions>
                            <sog>0.4</sog>
<cog>171.8</cog>
                        </extensions>
                    </trkpt>
                    <trkpt lat="54.366616666666665" lon="10.150681666666665">
                        <ele>0</ele>
                        <time>2022-08-18T12:40:03Z</time>
                                                <extensions>
                            <sog>0.0</sog>
<cog>171.8</cog>
                        </extensions>
                    </trkpt>
                    <trkpt lat="54.366618333333335" lon="10.15038">
                        <ele>0</ele>
                        <time>2022-08-18T12:43:04Z</time>
                                                <extensions>
                            <sog>0.0</sog>
<cog>171.8</cog>
                        </extensions>
                    </trkpt>
                    <trkpt lat="54.366661666666666" lon="10.150271666666667">
                        <ele>0</ele>
                        <time>2022-08-18T12:46:04Z</time>
                                                <extensions>
                            <sog>1.3</sog>
<cog>136.8</cog>
                        </extensions>
                    </trkpt>
                    <trkpt lat="54.36632" lon="10.150558333333333">
                        <ele>0</ele>
                        <time>2022-08-18T12:49:03Z</time>
                                                <extensions>
                            <sog>0.3</sog>
<cog>108.6</cog>
                        </extensions>
                    </trkpt>
                    <trkpt lat="54.366258333333334" lon="10.150785">
                        <ele>0</ele>
                        <time>2022-08-18T12:52:04Z</time>
                                                <extensions>
                            <sog>0.0</sog>
<cog>108.6</cog>
                        </extensions>
                    </trkpt>
                    <trkpt lat="54.366236666666666" lon="10.151136666666668">
                        <ele>0</ele>
                        <time>2022-08-18T12:55:04Z</time>
                                                <extensions>
                            <sog>0.4</sog>
<cog>108.6</cog>
                        </extensions>
                    </trkpt>
                    <trkpt lat="54.36633666666667" lon="10.151553333333334">
                        <ele>0</ele>
                        <time>2022-08-18T12:58:04Z</time>
                                                <extensions>
                            <sog>0.0</sog>
<cog>108.6</cog>
                        </extensions>
                    </trkpt>
                    <trkpt lat="54.36639666666667" lon="10.150591666666665">
                        <ele>0</ele>
                        <time>2022-08-18T13:04:04Z</time>
                                                <extensions>
                            <sog>0.6</sog>
<cog>155.5</cog>
                        </extensions>
                    </trkpt>
                    <trkpt lat="54.366395000000004" lon="10.149938333333333">
                        <ele>0</ele>
                        <time>2022-08-18T13:07:04Z</time>
                                                <extensions>
                            <sog>0.3</sog>
<cog>227.8</cog>
                        </extensions>
                    </trkpt>
                    <trkpt lat="54.366411666666664" lon="10.150315">
                        <ele>0</ele>
                        <time>2022-08-18T13:10:06Z</time>
                                                <extensions>
                            <sog>0.4</sog>
<cog>227.8</cog>
                        </extensions>
                    </trkpt>
                    <trkpt lat="54.36607166666667" lon="10.150373333333333">
                        <ele>0</ele>
                        <time>2022-08-18T13:13:34Z</time>
                                                <extensions>
                            <sog>2.5</sog>
<cog>224.1</cog>
                        </extensions>
                    </trkpt>
                    <trkpt lat="54.36553" lon="10.149118333333332">
                        <ele>0</ele>
                        <time>2022-08-18T13:14:34Z</time>
                                                <extensions>
                            <sog>3.5</sog>
<cog>241.8</cog>
                        </extensions>
                    </trkpt>
                    <trkpt lat="54.36499166666667" lon="10.147183333333334">
                        <ele>0</ele>
                        <time>2022-08-18T13:16:05Z</time>
                                                <extensions>
                            <sog>2.7</sog>
<cog>273.5</cog>
                        </extensions>
                    </trkpt>
                    <trkpt lat="54.365325" lon="10.14423">
                        <ele>0</ele>
                        <time>2022-08-18T13:18:34Z</time>
                                                <extensions>
                            <sog>2.8</sog>
<cog>274.6</cog>
                        </extensions>
                    </trkpt>
                    <trkpt lat="54.36540166666667" lon="10.143286666666667">
                        <ele>0</ele>
                        <time>2022-08-18T13:19:34Z</time>
                                                <extensions>
                            <sog>0.8</sog>
<cog>284.1</cog>
                        </extensions>
                    </trkpt>
                    <trkpt lat="54.365361666666665" lon="10.143235">
                        <ele>0</ele>
                        <time>2022-08-18T13:20:04Z</time>
                                                <extensions>
                            <sog>0.1</sog>
<cog>284.1</cog>
                        </extensions>
                    </trkpt>
                    <trkpt lat="54.36534166666667" lon="10.143205">
                        <ele>0</ele>
                        <time>2022-08-18T13:21:36Z</time>
                                                <extensions>
                            <sog>0.0</sog>
<cog>284.1</cog>
                        </extensions>
                    </trkpt>
                    <trkpt lat="54.365338333333334" lon="10.14321">
                        <ele>0</ele>
                        <time>2022-08-18T13:22:04Z</time>
                                                <extensions>
                            <sog>0.0</sog>
<cog>284.1</cog>
                        </extensions>
                    </trkpt>
                    <trkpt lat="54.36533" lon="10.143223333333333">
                        <ele>0</ele>
                        <time>2022-08-18T13:25:33Z</time>
                                                <extensions>
                            <sog>0.0</sog>
<cog>284.1</cog>
                        </extensions>
                    </trkpt>
                    <trkpt lat="54.36536666666667" lon="10.14329">
                        <ele>0</ele>
                        <time>2022-08-18T13:31:33Z</time>
                                                <extensions>
                            <sog>0.0</sog>
<cog>76.5</cog>
                        </extensions>
                    </trkpt>
                    <trkpt lat="54.36534166666667" lon="10.143296666666666">
                        <ele>0</ele>
                        <time>2022-08-18T13:34:34Z</time>
                                                <extensions>
                            <sog>0.0</sog>
<cog>76.5</cog>
                        </extensions>
                    </trkpt>
                    <trkpt lat="54.36535333333334" lon="10.143251666666666">
                        <ele>0</ele>
                        <time>2022-08-18T13:37:34Z</time>
                                                <extensions>
                            <sog>0.0</sog>
<cog>328.5</cog>
                        </extensions>
                    </trkpt>
                    <trkpt lat="54.365355" lon="10.143163333333332">
                        <ele>0</ele>
                        <time>2022-08-18T13:40:34Z</time>
                                                <extensions>
                            <sog>0.0</sog>
<cog>288.3</cog>
                        </extensions>
                    </trkpt>
                    <trkpt lat="54.36556333333333" lon="10.14171">
                        <ele>0</ele>
                        <time>2022-08-18T13:46:34Z</time>
                                                <extensions>
                            <sog>4.6</sog>
<cog>284.9</cog>
                        </extensions>
                    </trkpt>
                    <trkpt lat="54.365750000000006" lon="10.140821666666666">
                        <ele>0</ele>
                        <time>2022-08-18T13:47:05Z</time>
                                                <extensions>
                            <sog>3.3</sog>
<cog>252.5</cog>
                        </extensions>
                    </trkpt>
                    <trkpt lat="54.366456666666664" lon="10.136658333333333">
                        <ele>0</ele>
                        <time>2022-08-18T13:49:03Z</time>
                                                <extensions>
                            <sog>6.4</sog>
<cog>311.9</cog>
                        </extensions>
                    </trkpt>
                    <trkpt lat="54.36778666666667" lon="10.13425">
                        <ele>0</ele>
                        <time>2022-08-18T13:50:04Z</time>
                                                <extensions>
                            <sog>6.2</sog>
<cog>308.4</cog>
                        </extensions>
                    </trkpt>
                    <trkpt lat="54.36841666666667" lon="10.131793333333333">
                        <ele>0</ele>
                        <time>2022-08-18T13:51:35Z</time>
                                                <extensions>
                            <sog>1.1</sog>
<cog>286.8</cog>
                        </extensions>
                    </trkpt>
                    <trkpt lat="54.36840666666667" lon="10.1317">
                        <ele>0</ele>
                        <time>2022-08-18T13:52:34Z</time>
                                                <extensions>
                            <sog>0.2</sog>
<cog>320.6</cog>
                        </extensions>
                    </trkpt>
                    <trkpt lat="54.36837" lon="10.131820000000001">
                        <ele>0</ele>
                        <time>2022-08-18T13:53:04Z</time>
                                                <extensions>
                            <sog>1.6</sog>
<cog>147.5</cog>
                        </extensions>
                    </trkpt>
                    <trkpt lat="54.36833" lon="10.13127">
                        <ele>0</ele>
                        <time>2022-08-18T13:54:06Z</time>
                                                <extensions>
                            <sog>0.6</sog>
<cog>305.6</cog>
                        </extensions>
                    </trkpt>
                    <trkpt lat="54.368318333333335" lon="10.131300000000001">
                        <ele>0</ele>
                        <time>2022-08-18T13:55:04Z</time>
                                                <extensions>
                            <sog>0.6</sog>
<cog>287.1</cog>
                        </extensions>
                    </trkpt>
                    <trkpt lat="54.36837333333334" lon="10.131746666666666">
                        <ele>0</ele>
                        <time>2022-08-18T13:56:04Z</time>
                                                <extensions>
                            <sog>0.0</sog>
<cog>78.4</cog>
                        </extensions>
                    </trkpt>
                    <trkpt lat="54.36837666666667" lon="10.131748333333332">
                        <ele>0</ele>
                        <time>2022-08-18T13:56:34Z</time>
                                                <extensions>
                            <sog>0.0</sog>
<cog>78.4</cog>
                        </extensions>
                    </trkpt>
                    <trkpt lat="54.368399999999994" lon="10.131743333333333">
                        <ele>0</ele>
                        <time>2022-08-18T14:03:05Z</time>
                                                <extensions>
                            <sog>0.0</sog>
<cog>78.4</cog>
                        </extensions>
                    </trkpt>
                    <trkpt lat="54.368386666666666" lon="10.131741666666667">
                        <ele>0</ele>
                        <time>2022-08-18T14:06:04Z</time>
                                                <extensions>
                            <sog>0.0</sog>
<cog>78.4</cog>
                        </extensions>
                    </trkpt>
                    <trkpt lat="54.368384999999996" lon="10.13175">
                        <ele>0</ele>
                        <time>2022-08-18T14:09:04Z</time>
                                                <extensions>
                            <sog>0.0</sog>
<cog>78.4</cog>
                        </extensions>
                    </trkpt>
                    <trkpt lat="54.36823833333334" lon="10.129998333333333">
                        <ele>0</ele>
                        <time>2022-08-18T14:13:04Z</time>
                                                <extensions>
                            <sog>5.7</sog>
<cog>273.7</cog>
                        </extensions>
                    </trkpt>
                    <trkpt lat="54.368309999999994" lon="10.128639999999999">
                        <ele>0</ele>
                        <time>2022-08-18T14:13:35Z</time>
                                                <extensions>
                            <sog>5.6</sog>
<cog>276.6</cog>
                        </extensions>
                    </trkpt>
                    <trkpt lat="54.36841666666667" lon="10.127275">
                        <ele>0</ele>
                        <time>2022-08-18T14:14:04Z</time>
                                                <extensions>
                            <sog>5.7</sog>
<cog>276.7</cog>
                        </extensions>
                    </trkpt>
                    <trkpt lat="54.368425" lon="10.125901666666666">
                        <ele>0</ele>
                        <time>2022-08-18T14:14:36Z</time>
                                                <extensions>
                            <sog>5.0</sog>
<cog>244.4</cog>
                        </extensions>
                    </trkpt>
                    <trkpt lat="54.368590000000005" lon="10.124765">
                        <ele>0</ele>
                        <time>2022-08-18T14:15:06Z</time>
                                                <extensions>
                            <sog>3.5</sog>
<cog>285.2</cog>
                        </extensions>
                    </trkpt>
                    <trkpt lat="54.36873333333333" lon="10.124088333333333">
                        <ele>0</ele>
                        <time>2022-08-18T14:15:34Z</time>
                                                <extensions>
                            <sog>3.0</sog>
<cog>290.7</cog>
                        </extensions>
                    </trkpt>
                    <trkpt lat="54.36896" lon="10.122819999999999">
                        <ele>0</ele>
                        <time>2022-08-18T14:16:35Z</time>
                                                <extensions>
                            <sog>2.8</sog>
<cog>288.3</cog>
                        </extensions>
                    </trkpt>
                    <trkpt lat="54.369173333333336" lon="10.121591666666665">
                        <ele>0</ele>
                        <time>2022-08-18T14:17:34Z</time>
                                                <extensions>
                            <sog>2.6</sog>
<cog>288.5</cog>
                        </extensions>
                    </trkpt>
                    <trkpt lat="54.36908833333334" lon="10.120460000000001">
                        <ele>0</ele>
                        <time>2022-08-18T14:18:36Z</time>
                                                <extensions>
                            <sog>4.4</sog>
<cog>264.0</cog>
                        </extensions>
                    </trkpt>
                    <trkpt lat="54.369883333333334" lon="10.116906666666667">
                        <ele>0</ele>
                        <time>2022-08-18T14:19:34Z</time>
                                                <extensions>
                            <sog>5.0</sog>
<cog>284.7</cog>
                        </extensions>
                    </trkpt>
                    <trkpt lat="54.37029333333333" lon="10.115503333333333">
                        <ele>0</ele>
                        <time>2022-08-18T14:20:04Z</time>
                                                <extensions>
                            <sog>5.4</sog>
<cog>283.7</cog>
                        </extensions>
                    </trkpt>
                    <trkpt lat="54.359005" lon="10.01647">
                        <ele>0</ele>
                        <time>2022-08-18T14:59:42Z</time>
                                                <extensions>
                            <sog>5.4</sog>
<cog>246.1</cog>
                        </extensions>
                    </trkpt>
                    <trkpt lat="54.358354999999996" lon="10.014115">
                        <ele>0</ele>
                        <time>2022-08-18T15:00:41Z</time>
                                                <extensions>
                            <sog>5.2</sog>
<cog>238.3</cog>
                        </extensions>
                    </trkpt>
                    <trkpt lat="54.358354999999996" lon="10.014115">
                        <ele>0</ele>
                        <time>2022-08-18T15:00:41Z</time>
                                                <extensions>
                            <sog>5.2</sog>
<cog>238.3</cog>
                        </extensions>
                    </trkpt>
                    <trkpt lat="54.357645000000005" lon="10.011706666666667">
                        <ele>0</ele>
                        <time>2022-08-18T15:01:41Z</time>
                                                <extensions>
                            <sog>4.5</sog>
<cog>237.8</cog>
                        </extensions>
                    </trkpt>
                    <trkpt lat="54.35724833333334" lon="10.010686666666667">
                        <ele>0</ele>
                        <time>2022-08-18T15:02:11Z</time>
                                                <extensions>
                            <sog>5.3</sog>
<cog>235.7</cog>
                        </extensions>
                    </trkpt>
                    <trkpt lat="54.35592166666667" lon="10.00759">
                        <ele>0</ele>
                        <time>2022-08-18T15:03:41Z</time>
                                                <extensions>
                            <sog>5.1</sog>
<cog>229.3</cog>
                        </extensions>
                    </trkpt>
                    <trkpt lat="54.350680000000004" lon="9.997758333333334">
                        <ele>0</ele>
                        <time>2022-08-18T15:08:41Z</time>
                                                <extensions>
                            <sog>5.2</sog>
<cog>223.9</cog>
                        </extensions>
                    </trkpt>
                    <trkpt lat="54.347925000000004" lon="9.991881666666666">
                        <ele>0</ele>
                        <time>2022-08-18T15:11:40Z</time>
                                                <extensions>
                            <sog>5.3</sog>
<cog>237.4</cog>
                        </extensions>
                    </trkpt>
                    <trkpt lat="54.346246666666666" lon="9.987378333333334">
                        <ele>0</ele>
                        <time>2022-08-18T15:13:41Z</time>
                                                <extensions>
                            <sog>5.2</sog>
<cog>239.8</cog>
                        </extensions>
                    </trkpt>
                    <trkpt lat="54.34479833333333" lon="9.98162">
                        <ele>0</ele>
                        <time>2022-08-18T15:16:11Z</time>
                                                <extensions>
                            <sog>5.2</sog>
<cog>251.4</cog>
                        </extensions>
                    </trkpt>
                    <trkpt lat="54.34386166666666" lon="9.975249999999999">
                        <ele>0</ele>
                        <time>2022-08-18T15:18:40Z</time>
                                                <extensions>
                            <sog>5.4</sog>
<cog>259.6</cog>
                        </extensions>
                    </trkpt>
                    <trkpt lat="54.34359166666666" lon="9.972633333333333">
                        <ele>0</ele>
                        <time>2022-08-18T15:19:41Z</time>
                                                <extensions>
                            <sog>5.2</sog>
<cog>260.9</cog>
                        </extensions>
                    </trkpt>
                    <trkpt lat="54.343235" lon="9.968876666666667">
                        <ele>0</ele>
                        <time>2022-08-18T15:21:11Z</time>
                                                <extensions>
                            <sog>5.4</sog>
<cog>262.2</cog>
                        </extensions>
                    </trkpt>
                    <trkpt lat="54.34311666666667" lon="9.967501666666667">
                        <ele>0</ele>
                        <time>2022-08-18T15:21:42Z</time>
                                                <extensions>
                            <sog>5.4</sog>
<cog>260.0</cog>
                        </extensions>
                    </trkpt>
                    <trkpt lat="54.34295833333333" lon="9.966196666666667">
                        <ele>0</ele>
                        <time>2022-08-18T15:22:11Z</time>
                                                <extensions>
                            <sog>5.4</sog>
<cog>260.1</cog>
                        </extensions>
                    </trkpt>
                    <trkpt lat="54.342841666666665" lon="9.96493">
                        <ele>0</ele>
                        <time>2022-08-18T15:22:40Z</time>
                                                <extensions>
                            <sog>5.5</sog>
<cog>261.3</cog>
                        </extensions>
                    </trkpt>
                    <trkpt lat="54.342655" lon="9.962248333333333">
                        <ele>0</ele>
                        <time>2022-08-18T15:23:41Z</time>
                                                <extensions>
                            <sog>5.6</sog>
<cog>273.3</cog>
                        </extensions>
                    </trkpt>
                    <trkpt lat="54.342573333333334" lon="9.96083">
                        <ele>0</ele>
                        <time>2022-08-18T15:24:12Z</time>
                                                <extensions>
                            <sog>5.4</sog>
<cog>263.8</cog>
                        </extensions>
                    </trkpt>
                    <trkpt lat="54.342481666666664" lon="9.959615000000001">
                        <ele>0</ele>
                        <time>2022-08-18T15:24:41Z</time>
                                                <extensions>
                            <sog>5.4</sog>
<cog>262.1</cog>
                        </extensions>
                    </trkpt>
                    <trkpt lat="54.34227" lon="9.956973333333334">
                        <ele>0</ele>
                        <time>2022-08-18T15:25:40Z</time>
                                                <extensions>
                            <sog>5.6</sog>
<cog>266.6</cog>
                        </extensions>
                    </trkpt>
                    <trkpt lat="54.34221" lon="9.955571666666666">
                        <ele>0</ele>
                        <time>2022-08-18T15:26:12Z</time>
                                                <extensions>
                            <sog>5.3</sog>
<cog>264.6</cog>
                        </extensions>
                    </trkpt>
                    <trkpt lat="54.34208666666667" lon="9.954311666666666">
                        <ele>0</ele>
                        <time>2022-08-18T15:26:41Z</time>
                                                <extensions>
                            <sog>5.4</sog>
<cog>262.2</cog>
                        </extensions>
                    </trkpt>
                    <trkpt lat="54.341993333333335" lon="9.952969999999999">
                        <ele>0</ele>
                        <time>2022-08-18T15:27:12Z</time>
                                                <extensions>
                            <sog>5.5</sog>
<cog>261.9</cog>
                        </extensions>
                    </trkpt>
                    <trkpt lat="54.34189666666667" lon="9.951688333333333">
                        <ele>0</ele>
                        <time>2022-08-18T15:27:41Z</time>
                                                <extensions>
                            <sog>5.4</sog>
<cog>262.8</cog>
                        </extensions>
                    </trkpt>
                    <trkpt lat="54.34162833333333" lon="9.949081666666666">
                        <ele>0</ele>
                        <time>2022-08-18T15:28:40Z</time>
                                                <extensions>
                            <sog>5.5</sog>
<cog>260.5</cog>
                        </extensions>
                    </trkpt>
                    <trkpt lat="54.341496666666664" lon="9.947748333333333">
                        <ele>0</ele>
                        <time>2022-08-18T15:29:10Z</time>
                                                <extensions>
                            <sog>5.5</sog>
<cog>262.6</cog>
                        </extensions>
                    </trkpt>
                    <trkpt lat="54.34139166666667" lon="9.946428333333333">
                        <ele>0</ele>
                        <time>2022-08-18T15:29:40Z</time>
                                                <extensions>
                            <sog>5.5</sog>
<cog>263.2</cog>
                        </extensions>
                    </trkpt>
                    <trkpt lat="54.341294999999995" lon="9.945006666666666">
                        <ele>0</ele>
                        <time>2022-08-18T15:30:13Z</time>
                                                <extensions>
                            <sog>5.4</sog>
<cog>265.2</cog>
                        </extensions>
                    </trkpt>
                    <trkpt lat="54.341155" lon="9.938493333333334">
                        <ele>0</ele>
                        <time>2022-08-18T15:32:42Z</time>
                                                <extensions>
                            <sog>5.3</sog>
<cog>274.9</cog>
                        </extensions>
                    </trkpt>
                    <trkpt lat="54.341235" lon="9.937248333333335">
                        <ele>0</ele>
                        <time>2022-08-18T15:33:11Z</time>
                                                <extensions>
                            <sog>5.4</sog>
<cog>278.2</cog>
                        </extensions>
                    </trkpt>
                    <trkpt lat="54.34133166666666" lon="9.93591">
                        <ele>0</ele>
                        <time>2022-08-18T15:33:41Z</time>
                                                <extensions>
                            <sog>5.4</sog>
<cog>279.5</cog>
                        </extensions>
                    </trkpt>
                    <trkpt lat="54.341568333333335" lon="9.933358333333333">
                        <ele>0</ele>
                        <time>2022-08-18T15:34:41Z</time>
                                                <extensions>
                            <sog>5.4</sog>
<cog>282.0</cog>
                        </extensions>
                    </trkpt>
                    <trkpt lat="54.342" lon="9.930739999999998">
                        <ele>0</ele>
                        <time>2022-08-18T15:35:43Z</time>
                                                <extensions>
                            <sog>5.5</sog>
<cog>287.3</cog>
                        </extensions>
                    </trkpt>
                    <trkpt lat="54.34243166666667" lon="9.928318333333333">
                        <ele>0</ele>
                        <time>2022-08-18T15:36:41Z</time>
                                                <extensions>
                            <sog>5.4</sog>
<cog>288.3</cog>
                        </extensions>
                    </trkpt>
                    <trkpt lat="54.34296500000001" lon="9.92581">
                        <ele>0</ele>
                        <time>2022-08-18T15:37:43Z</time>
                                                <extensions>
                            <sog>5.5</sog>
<cog>291.6</cog>
                        </extensions>
                    </trkpt>
                    <trkpt lat="54.34353333333333" lon="9.923461666666666">
                        <ele>0</ele>
                        <time>2022-08-18T15:38:41Z</time>
                                                <extensions>
                            <sog>5.6</sog>
<cog>295.3</cog>
                        </extensions>
                    </trkpt>
                    <trkpt lat="54.34941666666667" lon="9.904795">
                        <ele>0</ele>
                        <time>2022-08-18T15:46:42Z</time>
                                                <extensions>
                            <sog>5.6</sog>
<cog>299.5</cog>
                        </extensions>
                    </trkpt>
                    <trkpt lat="54.35013333333333" lon="9.902436666666667">
                        <ele>0</ele>
                        <time>2022-08-18T15:47:40Z</time>
                                                <extensions>
                            <sog>6.2</sog>
<cog>290.9</cog>
                        </extensions>
                    </trkpt>
                    <trkpt lat="54.352713333333334" lon="9.894305000000001">
                        <ele>0</ele>
                        <time>2022-08-18T15:51:12Z</time>
                                                <extensions>
                            <sog>5.4</sog>
<cog>299.7</cog>
                        </extensions>
                    </trkpt>
                    <trkpt lat="54.353071666666665" lon="9.893191666666667">
                        <ele>0</ele>
                        <time>2022-08-18T15:51:41Z</time>
                                                <extensions>
                            <sog>5.4</sog>
<cog>298.9</cog>
                        </extensions>
                    </trkpt>
                    <trkpt lat="54.36310666666667" lon="9.856601666666668">
                        <ele>0</ele>
                        <time>2022-08-18T16:07:11Z</time>
                                                <extensions>
                            <sog>5.3</sog>
<cog>281.8</cog>
                        </extensions>
                    </trkpt>
                    <trkpt lat="54.36369166666667" lon="9.846468333333332">
                        <ele>0</ele>
                        <time>2022-08-18T16:11:11Z</time>
                                                <extensions>
                            <sog>5.3</sog>
<cog>273.1</cog>
                        </extensions>
                    </trkpt>
                    <trkpt lat="54.36378333333334" lon="9.84392">
                        <ele>0</ele>
                        <time>2022-08-18T16:12:11Z</time>
                                                <extensions>
                            <sog>5.3</sog>
<cog>273.9</cog>
                        </extensions>
                    </trkpt>
                    <trkpt lat="54.36389166666667" lon="9.841344999999999">
                        <ele>0</ele>
                        <time>2022-08-18T16:13:11Z</time>
                                                <extensions>
                            <sog>5.3</sog>
<cog>275.5</cog>
                        </extensions>
                    </trkpt>
                    <trkpt lat="54.363958333333336" lon="9.840110000000001">
                        <ele>0</ele>
                        <time>2022-08-18T16:13:40Z</time>
                                                <extensions>
                            <sog>5.5</sog>
<cog>274.6</cog>
                        </extensions>
                    </trkpt>
                    <trkpt lat="54.364175" lon="9.829725">
                        <ele>0</ele>
                        <time>2022-08-18T16:17:40Z</time>
                                                <extensions>
                            <sog>5.4</sog>
<cog>270.8</cog>
                        </extensions>
                    </trkpt>
                    <trkpt lat="54.35964" lon="9.784911666666666">
                        <ele>0</ele>
                        <time>2022-08-18T16:35:44Z</time>
                                                <extensions>
                            <sog>5.2</sog>
<cog>235.2</cog>
                        </extensions>
                    </trkpt>
                    <trkpt lat="54.34603166666667" lon="9.757209999999999">
                        <ele>0</ele>
                        <time>2022-08-18T16:50:11Z</time>
                                                <extensions>
                            <sog>5.2</sog>
<cog>230.0</cog>
                        </extensions>
                    </trkpt>
                    </trkseg>
                </trk>
</gpx>