<?xml version="1.0" encoding="UTF-8"?>
<gpx version="1.1" creator="AIS-to-GPX Converter" xmlns="http://www.topografix.com/GPX/1/1">
                <trk>
                    <name>anon0113</name>
                    <trkseg>
                                            <trkpt lat="54.80622666666667" lon="10.249598333333333">
                        <ele>0</ele>
                        <time>2022-08-18T23:37:47Z</time>
                                                <extensions>
                            <sog>3.5</sog>
<cog>155.0</cog>
                        </extensions>
                    </trkpt>
                    <trkpt lat="54.792943333333334" lon="10.259739999999999">
                        <ele>0</ele>
                        <time>2022-08-18T23:52:27Z</time>
                                                <extensions>
                            <sog>3.3</sog>
<cog>154.9</cog>
                        </extensions>
                    </trkpt>
                    <trkpt lat="54.787670000000006" lon="10.263876666666667">
                        <ele>0</ele>
                        <time>2022-08-18T23:58:47Z</time>
                                                <extensions>
                            <sog>3.1</sog>
<cog>157.7</cog>
                        </extensions>
                    </trkpt>
                    </trkseg>
                </trk>
</gpx>