<?xml version="1.0" encoding="UTF-8"?>
<gpx version="1.1" creator="AIS-to-GPX Converter" xmlns="http://www.topografix.com/GPX/1/1">
                <trk>
                    <name>anon0248</name>
                    <trkseg>
                                            <trkpt lat="54.400864999999996" lon="10.213773333333334">
                        <ele>0</ele>
                        <time>2022-08-18T06:39:11Z</time>
                        <extensions>
    <sog>0.0</sog>
</extensions>
                    </trkpt>
                    <trkpt lat="54.40087166666667" lon="10.213793333333333">
                        <ele>0</ele>
                        <time>2022-08-18T06:43:11Z</time>
                        <extensions>
    <sog>0.0</sog>
</extensions>
                    </trkpt>
                    <trkpt lat="54.40087166666667" lon="10.213775">
                        <ele>0</ele>
                        <time>2022-08-18T06:49:14Z</time>
                        <extensions>
    <sog>0.0</sog>
</extensions>
                    </trkpt>
                    <trkpt lat="54.400863333333334" lon="10.213771666666666">
                        <ele>0</ele>
                        <time>2022-08-18T06:55:13Z</time>
                        <extensions>
    <sog>0.0</sog>
</extensions>
                    </trkpt>
                    <trkpt lat="54.401513333333334" lon="10.214283333333332">
                        <ele>0</ele>
                        <time>2022-08-18T06:59:39Z</time>
                                                <extensions>
                            <sog>4.3</sog>
<cog>58.7</cog>
                        </extensions>
                    </trkpt>
                    <trkpt lat="54.40198" lon="10.214551666666667">
                        <ele>0</ele>
                        <time>2022-08-18T07:00:10Z</time>
                                                <extensions>
                            <sog>3.7</sog>
<cog>329.5</cog>
                        </extensions>
                    </trkpt>
                    <trkpt lat="54.40198" lon="10.214551666666667">
                        <ele>0</ele>
                        <time>2022-08-18T07:00:10Z</time>
                                                <extensions>
                            <sog>3.7</sog>
<cog>329.5</cog>
                        </extensions>
                    </trkpt>
                    <trkpt lat="54.402455" lon="10.214113333333334">
                        <ele>0</ele>
                        <time>2022-08-18T07:00:39Z</time>
                                                <extensions>
                            <sog>4.0</sog>
<cog>335.1</cog>
                        </extensions>
                    </trkpt>
                    <trkpt lat="54.402455" lon="10.214113333333334">
                        <ele>0</ele>
                        <time>2022-08-18T07:00:39Z</time>
                                                <extensions>
                            <sog>4.0</sog>
<cog>335.1</cog>
                        </extensions>
                    </trkpt>
                    <trkpt lat="54.40369" lon="10.213869999999998">
                        <ele>0</ele>
                        <time>2022-08-18T07:01:39Z</time>
                                                <extensions>
                            <sog>4.9</sog>
<cog>0.1</cog>
                        </extensions>
                    </trkpt>
                    <trkpt lat="54.404365" lon="10.213858333333333">
                        <ele>0</ele>
                        <time>2022-08-18T07:02:09Z</time>
                                                <extensions>
                            <sog>4.7</sog>
<cog>358.0</cog>
                        </extensions>
                    </trkpt>
                    <trkpt lat="54.405045" lon="10.213840000000001">
                        <ele>0</ele>
                        <time>2022-08-18T07:02:38Z</time>
                                                <extensions>
                            <sog>5.0</sog>
<cog>0.3</cog>
                        </extensions>
                    </trkpt>
                    <trkpt lat="54.40578166666667" lon="10.213866666666666">
                        <ele>0</ele>
                        <time>2022-08-18T07:03:10Z</time>
                                                <extensions>
                            <sog>5.0</sog>
<cog>2.3</cog>
                        </extensions>
                    </trkpt>
                    <trkpt lat="54.406436666666664" lon="10.21385">
                        <ele>0</ele>
                        <time>2022-08-18T07:03:39Z</time>
                                                <extensions>
                            <sog>5.1</sog>
<cog>358.5</cog>
                        </extensions>
                    </trkpt>
                    <trkpt lat="54.40712166666666" lon="10.213815">
                        <ele>0</ele>
                        <time>2022-08-18T07:04:09Z</time>
                                                <extensions>
                            <sog>5.1</sog>
<cog>358.4</cog>
                        </extensions>
                    </trkpt>
                    <trkpt lat="54.40779333333333" lon="10.213805">
                        <ele>0</ele>
                        <time>2022-08-18T07:04:38Z</time>
                                                <extensions>
                            <sog>5.1</sog>
<cog>0.8</cog>
                        </extensions>
                    </trkpt>
                    <trkpt lat="54.40924666666667" lon="10.213943333333333">
                        <ele>0</ele>
                        <time>2022-08-18T07:05:41Z</time>
                                                <extensions>
                            <sog>5.0</sog>
<cog>1.3</cog>
                        </extensions>
                    </trkpt>
                    <trkpt lat="54.4099" lon="10.213968333333334">
                        <ele>0</ele>
                        <time>2022-08-18T07:06:09Z</time>
                                                <extensions>
                            <sog>4.9</sog>
<cog>1.6</cog>
                        </extensions>
                    </trkpt>
                    <trkpt lat="54.410579999999996" lon="10.213968333333334">
                        <ele>0</ele>
                        <time>2022-08-18T07:06:38Z</time>
                                                <extensions>
                            <sog>4.9</sog>
<cog>3.6</cog>
                        </extensions>
                    </trkpt>
                    <trkpt lat="54.411296666666665" lon="10.21411">
                        <ele>0</ele>
                        <time>2022-08-18T07:07:09Z</time>
                                                <extensions>
                            <sog>5.1</sog>
<cog>12.5</cog>
                        </extensions>
                    </trkpt>
                    <trkpt lat="54.41197666666667" lon="10.214461666666667">
                        <ele>0</ele>
                        <time>2022-08-18T07:07:39Z</time>
                                                <extensions>
                            <sog>6.0</sog>
<cog>16.6</cog>
                        </extensions>
                    </trkpt>
                    <trkpt lat="54.41276333333334" lon="10.214866666666667">
                        <ele>0</ele>
                        <time>2022-08-18T07:08:09Z</time>
                                                <extensions>
                            <sog>5.8</sog>
<cog>14.3</cog>
                        </extensions>
                    </trkpt>
                    <trkpt lat="54.41352166666666" lon="10.21525">
                        <ele>0</ele>
                        <time>2022-08-18T07:08:39Z</time>
                                                <extensions>
                            <sog>6.1</sog>
<cog>33.7</cog>
                        </extensions>
                    </trkpt>
                    <trkpt lat="54.41408" lon="10.21623">
                        <ele>0</ele>
                        <time>2022-08-18T07:09:09Z</time>
                                                <extensions>
                            <sog>6.0</sog>
<cog>49.2</cog>
                        </extensions>
                    </trkpt>
                    <trkpt lat="54.41463666666667" lon="10.217203333333334">
                        <ele>0</ele>
                        <time>2022-08-18T07:09:39Z</time>
                                                <extensions>
                            <sog>6.0</sog>
<cog>38.7</cog>
                        </extensions>
                    </trkpt>
                    <trkpt lat="54.41533166666667" lon="10.218205000000001">
                        <ele>0</ele>
                        <time>2022-08-18T07:10:11Z</time>
                                                <extensions>
                            <sog>6.2</sog>
<cog>39.8</cog>
                        </extensions>
                    </trkpt>
                    <trkpt lat="54.41593" lon="10.218935">
                        <ele>0</ele>
                        <time>2022-08-18T07:10:38Z</time>
                                                <extensions>
                            <sog>5.9</sog>
<cog>32.4</cog>
                        </extensions>
                    </trkpt>
                    <trkpt lat="54.416579999999996" lon="10.219795">
                        <ele>0</ele>
                        <time>2022-08-18T07:11:08Z</time>
                                                <extensions>
                            <sog>6.0</sog>
<cog>41.5</cog>
                        </extensions>
                    </trkpt>
                    <trkpt lat="54.417608333333334" lon="10.222013333333333">
                        <ele>0</ele>
                        <time>2022-08-18T07:12:09Z</time>
                                                <extensions>
                            <sog>5.8</sog>
<cog>52.2</cog>
                        </extensions>
                    </trkpt>
                    <trkpt lat="54.41809333333333" lon="10.223135000000001">
                        <ele>0</ele>
                        <time>2022-08-18T07:12:39Z</time>
                                                <extensions>
                            <sog>5.8</sog>
<cog>53.8</cog>
                        </extensions>
                    </trkpt>
                    <trkpt lat="54.419043333333335" lon="10.225368333333334">
                        <ele>0</ele>
                        <time>2022-08-18T07:13:38Z</time>
                                                <extensions>
                            <sog>5.8</sog>
<cog>52.7</cog>
                        </extensions>
                    </trkpt>
                    <trkpt lat="54.419520000000006" lon="10.226485">
                        <ele>0</ele>
                        <time>2022-08-18T07:14:08Z</time>
                                                <extensions>
                            <sog>5.7</sog>
<cog>51.6</cog>
                        </extensions>
                    </trkpt>
                    <trkpt lat="54.421928333333334" lon="10.232198333333335">
                        <ele>0</ele>
                        <time>2022-08-18T07:16:41Z</time>
                                                <extensions>
                            <sog>5.4</sog>
<cog>47.7</cog>
                        </extensions>
                    </trkpt>
                    <trkpt lat="54.427225" lon="10.242213333333332">
                        <ele>0</ele>
                        <time>2022-08-18T07:21:39Z</time>
                                                <extensions>
                            <sog>5.9</sog>
<cog>45.9</cog>
                        </extensions>
                    </trkpt>
                    <trkpt lat="54.43020833333333" lon="10.248351666666668">
                        <ele>0</ele>
                        <time>2022-08-18T07:24:39Z</time>
                                                <extensions>
                            <sog>5.5</sog>
<cog>50.2</cog>
                        </extensions>
                    </trkpt>
                    <trkpt lat="54.432715" lon="10.253553333333334">
                        <ele>0</ele>
                        <time>2022-08-18T07:27:10Z</time>
                                                <extensions>
                            <sog>5.5</sog>
<cog>50.5</cog>
                        </extensions>
                    </trkpt>
                    <trkpt lat="54.436614999999996" lon="10.261691666666668">
                        <ele>0</ele>
                        <time>2022-08-18T07:31:08Z</time>
                                                <extensions>
                            <sog>5.5</sog>
<cog>52.4</cog>
                        </extensions>
                    </trkpt>
                    <trkpt lat="54.437108333333335" lon="10.262746666666667">
                        <ele>0</ele>
                        <time>2022-08-18T07:31:39Z</time>
                                                <extensions>
                            <sog>5.8</sog>
<cog>51.4</cog>
                        </extensions>
                    </trkpt>
                    <trkpt lat="54.43903" lon="10.266955">
                        <ele>0</ele>
                        <time>2022-08-18T07:33:39Z</time>
                                                <extensions>
                            <sog>5.4</sog>
<cog>52.0</cog>
                        </extensions>
                    </trkpt>
                    <trkpt lat="54.44173333333333" lon="10.273176666666666">
                        <ele>0</ele>
                        <time>2022-08-18T07:36:39Z</time>
                                                <extensions>
                            <sog>5.3</sog>
<cog>52.6</cog>
                        </extensions>
                    </trkpt>
                    <trkpt lat="54.44222166666667" lon="10.2743">
                        <ele>0</ele>
                        <time>2022-08-18T07:37:11Z</time>
                                                <extensions>
                            <sog>5.5</sog>
<cog>52.5</cog>
                        </extensions>
                    </trkpt>
                    <trkpt lat="54.44357333333333" lon="10.277365">
                        <ele>0</ele>
                        <time>2022-08-18T07:38:38Z</time>
                                                <extensions>
                            <sog>5.2</sog>
<cog>51.5</cog>
                        </extensions>
                    </trkpt>
                    <trkpt lat="54.444496666666666" lon="10.27944">
                        <ele>0</ele>
                        <time>2022-08-18T07:39:39Z</time>
                                                <extensions>
                            <sog>5.0</sog>
<cog>51.7</cog>
                        </extensions>
                    </trkpt>
                    <trkpt lat="54.44719" lon="10.285321666666666">
                        <ele>0</ele>
                        <time>2022-08-18T07:42:40Z</time>
                                                <extensions>
                            <sog>4.8</sog>
<cog>52.6</cog>
                        </extensions>
                    </trkpt>
                    <trkpt lat="54.44764333333333" lon="10.28628">
                        <ele>0</ele>
                        <time>2022-08-18T07:43:09Z</time>
                                                <extensions>
                            <sog>5.6</sog>
<cog>50.7</cog>
                        </extensions>
                    </trkpt>
                    <trkpt lat="54.45130666666667" lon="10.294065">
                        <ele>0</ele>
                        <time>2022-08-18T07:47:09Z</time>
                                                <extensions>
                            <sog>5.4</sog>
<cog>50.5</cog>
                        </extensions>
                    </trkpt>
                    <trkpt lat="54.45360166666667" lon="10.298841666666668">
                        <ele>0</ele>
                        <time>2022-08-18T07:49:38Z</time>
                                                <extensions>
                            <sog>5.8</sog>
<cog>49.1</cog>
                        </extensions>
                    </trkpt>
                    <trkpt lat="54.454521666666665" lon="10.30064">
                        <ele>0</ele>
                        <time>2022-08-18T07:50:38Z</time>
                                                <extensions>
                            <sog>5.2</sog>
<cog>49.5</cog>
                        </extensions>
                    </trkpt>
                    <trkpt lat="54.457184999999996" lon="10.306358333333332">
                        <ele>0</ele>
                        <time>2022-08-18T07:53:39Z</time>
                                                <extensions>
                            <sog>5.3</sog>
<cog>50.6</cog>
                        </extensions>
                    </trkpt>
                    <trkpt lat="54.458778333333335" lon="10.310486666666666">
                        <ele>0</ele>
                        <time>2022-08-18T07:55:39Z</time>
                                                <extensions>
                            <sog>5.5</sog>
<cog>57.4</cog>
                        </extensions>
                    </trkpt>
                    <trkpt lat="54.46290833333333" lon="10.32108">
                        <ele>0</ele>
                        <time>2022-08-18T08:00:39Z</time>
                                                <extensions>
                            <sog>5.8</sog>
<cog>62.3</cog>
                        </extensions>
                    </trkpt>
                    <trkpt lat="54.46290833333333" lon="10.32108">
                        <ele>0</ele>
                        <time>2022-08-18T08:00:39Z</time>
                                                <extensions>
                            <sog>5.8</sog>
<cog>62.3</cog>
                        </extensions>
                    </trkpt>
                    <trkpt lat="54.47504" lon="10.369188333333334">
                        <ele>0</ele>
                        <time>2022-08-18T08:20:09Z</time>
                                                <extensions>
                            <sog>5.6</sog>
<cog>71.3</cog>
                        </extensions>
                    </trkpt>
                    </trkseg>
                </trk>
</gpx>