<?xml version="1.0" encoding="UTF-8"?>
<gpx version="1.1" creator="AIS-to-GPX Converter" xmlns="http://www.topografix.com/GPX/1/1">
                <trk>
                    <name>anon0451</name>
                    <trkseg>
                                            <trkpt lat="53.575500000000005" lon="9.638499999999999">
                        <ele>0</ele>
                        <time>2022-08-18T01:15:31Z</time>
                                                <extensions>
                            <sog>13.4</sog>
<cog>299.0</cog>
                        </extensions>
                    </trkpt>
                    <trkpt lat="53.5775" lon="9.633166666666666">
                        <ele>0</ele>
                        <time>2022-08-18T01:16:31Z</time>
                                                <extensions>
                            <sog>13.3</sog>
<cog>304.0</cog>
                        </extensions>
                    </trkpt>
                    <trkpt lat="53.6305" lon="9.533833333333332">
                        <ele>0</ele>
                        <time>2022-08-18T01:37:01Z</time>
                                                <extensions>
                            <sog>13.8</sog>
<cog>330.0</cog>
                        </extensions>
                    </trkpt>
                    <trkpt lat="53.64783333333333" lon="9.520333333333333">
                        <ele>0</ele>
                        <time>2022-08-18T01:42:01Z</time>
                                                <extensions>
                            <sog>13.7</sog>
<cog>340.0</cog>
                        </extensions>
                    </trkpt>
                    <trkpt lat="53.65016666666667" lon="9.518833333333333">
                        <ele>0</ele>
                        <time>2022-08-18T01:42:42Z</time>
                                                <extensions>
                            <sog>13.6</sog>
<cog>341.0</cog>
                        </extensions>
                    </trkpt>
                    <trkpt lat="53.65083333333334" lon="9.518666666666666">
                        <ele>0</ele>
                        <time>2022-08-18T01:42:52Z</time>
                                                <extensions>
                            <sog>13.6</sog>
<cog>343.0</cog>
                        </extensions>
                    </trkpt>
                    <trkpt lat="53.65266666666666" lon="9.517833333333334">
                        <ele>0</ele>
                        <time>2022-08-18T01:43:21Z</time>
                                                <extensions>
                            <sog>13.5</sog>
<cog>345.0</cog>
                        </extensions>
                    </trkpt>
                    <trkpt lat="53.656166666666664" lon="9.516166666666667">
                        <ele>0</ele>
                        <time>2022-08-18T01:44:21Z</time>
                                                <extensions>
                            <sog>13.4</sog>
<cog>345.0</cog>
                        </extensions>
                    </trkpt>
                    </trkseg>
                </trk>
</gpx>