<?xml version="1.0" encoding="UTF-8"?>
<gpx version="1.1" creator="AIS-to-GPX Converter" xmlns="http://www.topografix.com/GPX/1/1">
                <trk>
                    <name>anon0250</name>
                    <trkseg>
                                            <trkpt lat="54.42400833333333" lon="10.270578333333333">
                        <ele>0</ele>
                        <time>2022-08-18T13:54:52Z</time>
                                                <extensions>
                            <sog>1.3</sog>
<cog>308.9</cog>
                        </extensions>
                    </trkpt>
                    <trkpt lat="54.42645166666667" lon="10.266826666666667">
                        <ele>0</ele>
                        <time>2022-08-18T14:02:29Z</time>
                                                <extensions>
                            <sog>1.6</sog>
<cog>319.4</cog>
                        </extensions>
                    </trkpt>
                    <trkpt lat="54.427863333333335" lon="10.277221666666666">
                        <ele>0</ele>
                        <time>2022-08-18T16:02:35Z</time>
                        <extensions>
    <sog>0.0</sog>
</extensions>
                    </trkpt>
                    <trkpt lat="54.427395000000004" lon="10.275015">
                        <ele>0</ele>
                        <time>2022-08-18T16:26:35Z</time>
                                                <extensions>
                            <sog>5.6</sog>
<cog>245.2</cog>
                        </extensions>
                    </trkpt>
                    <trkpt lat="54.420748333333336" lon="10.283048333333333">
                        <ele>0</ele>
                        <time>2022-08-18T16:36:08Z</time>
                                                <extensions>
                            <sog>3.7</sog>
<cog>56.6</cog>
                        </extensions>
                    </trkpt>
                    <trkpt lat="54.420190000000005" lon="10.28412">
                        <ele>0</ele>
                        <time>2022-08-18T16:38:07Z</time>
                                                <extensions>
                            <sog>0.3</sog>
<cog>112.6</cog>
                        </extensions>
                    </trkpt>
                    </trkseg>
                </trk>
</gpx>