<?xml version="1.0" encoding="UTF-8"?>
<gpx version="1.1" creator="AIS-to-GPX Converter" xmlns="http://www.topografix.com/GPX/1/1">
                <trk>
                    <name>anon0440</name>
                    <trkseg>
                                            <trkpt lat="53.89924333333333" lon="9.15618">
                        <ele>0</ele>
                        <time>2022-08-18T00:15:20Z</time>
                                                <extensions>
                            <sog>3.3</sog>
<cog>227.5</cog>
                        </extensions>
                    </trkpt>
                    <trkpt lat="53.89904333333333" lon="9.155818333333334">
                        <ele>0</ele>
                        <time>2022-08-18T00:15:39Z</time>
                                                <extensions>
                            <sog>3.3</sog>
<cog>226.7</cog>
                        </extensions>
                    </trkpt>
                    <trkpt lat="53.89862333333333" lon="9.155028333333332">
                        <ele>0</ele>
                        <time>2022-08-18T00:16:20Z</time>
                                                <extensions>
                            <sog>3.3</sog>
<cog>228.5</cog>
                        </extensions>
                    </trkpt>
                    <trkpt lat="53.89842833333333" lon="9.154663333333334">
                        <ele>0</ele>
                        <time>2022-08-18T00:16:39Z</time>
                                                <extensions>
                            <sog>3.3</sog>
<cog>227.5</cog>
                        </extensions>
                    </trkpt>
                    <trkpt lat="53.897513333333336" lon="9.15296">
                        <ele>0</ele>
                        <time>2022-08-18T00:18:10Z</time>
                                                <extensions>
                            <sog>3.1</sog>
<cog>228.2</cog>
                        </extensions>
                    </trkpt>
                    <trkpt lat="53.8958" lon="9.149828333333334">
                        <ele>0</ele>
                        <time>2022-08-18T00:21:39Z</time>
                                                <extensions>
                            <sog>2.1</sog>
<cog>223.0</cog>
                        </extensions>
                    </trkpt>
                    <trkpt lat="53.89534333333334" lon="9.149031666666668">
                        <ele>0</ele>
                        <time>2022-08-18T00:22:49Z</time>
                                                <extensions>
                            <sog>2.0</sog>
<cog>230.0</cog>
                        </extensions>
                    </trkpt>
                    <trkpt lat="53.895226666666666" lon="9.148781666666668">
                        <ele>0</ele>
                        <time>2022-08-18T00:23:10Z</time>
                                                <extensions>
                            <sog>1.9</sog>
<cog>231.4</cog>
                        </extensions>
                    </trkpt>
                    <trkpt lat="53.89427166666667" lon="9.146938333333333">
                        <ele>0</ele>
                        <time>2022-08-18T00:43:30Z</time>
                                                <extensions>
                            <sog>0.0</sog>
<cog>247.6</cog>
                        </extensions>
                    </trkpt>
                    <trkpt lat="53.855935" lon="9.0051">
                        <ele>0</ele>
                        <time>2022-08-18T02:05:39Z</time>
                                                <extensions>
                            <sog>7.5</sog>
<cog>254.4</cog>
                        </extensions>
                    </trkpt>
                    <trkpt lat="53.854465" lon="8.996718333333332">
                        <ele>0</ele>
                        <time>2022-08-18T02:08:08Z</time>
                                                <extensions>
                            <sog>7.4</sog>
<cog>253.1</cog>
                        </extensions>
                    </trkpt>
                    <trkpt lat="53.85436166666667" lon="8.996163333333334">
                        <ele>0</ele>
                        <time>2022-08-18T02:08:18Z</time>
                                                <extensions>
                            <sog>7.4</sog>
<cog>252.4</cog>
                        </extensions>
                    </trkpt>
                    <trkpt lat="53.854040000000005" lon="8.99445">
                        <ele>0</ele>
                        <time>2022-08-18T02:08:49Z</time>
                                                <extensions>
                            <sog>7.4</sog>
<cog>253.1</cog>
                        </extensions>
                    </trkpt>
                    <trkpt lat="53.853946666666666" lon="8.993895">
                        <ele>0</ele>
                        <time>2022-08-18T02:08:59Z</time>
                                                <extensions>
                            <sog>7.4</sog>
<cog>253.8</cog>
                        </extensions>
                    </trkpt>
                    <trkpt lat="53.85317" lon="8.989551666666667">
                        <ele>0</ele>
                        <time>2022-08-18T02:10:18Z</time>
                                                <extensions>
                            <sog>7.3</sog>
<cog>252.9</cog>
                        </extensions>
                    </trkpt>
                    <trkpt lat="53.852655" lon="8.98677">
                        <ele>0</ele>
                        <time>2022-08-18T02:11:09Z</time>
                                                <extensions>
                            <sog>7.3</sog>
<cog>252.3</cog>
                        </extensions>
                    </trkpt>
                    <trkpt lat="53.85192166666666" lon="8.979616666666667">
                        <ele>0</ele>
                        <time>2022-08-18T02:13:18Z</time>
                                                <extensions>
                            <sog>7.1</sog>
<cog>261.6</cog>
                        </extensions>
                    </trkpt>
                    <trkpt lat="53.85181333333333" lon="8.978508333333334">
                        <ele>0</ele>
                        <time>2022-08-18T02:13:39Z</time>
                                                <extensions>
                            <sog>7.1</sog>
<cog>260.2</cog>
                        </extensions>
                    </trkpt>
                    <trkpt lat="53.85174666666667" lon="8.977901666666666">
                        <ele>0</ele>
                        <time>2022-08-18T02:13:49Z</time>
                                                <extensions>
                            <sog>7.1</sog>
<cog>259.7</cog>
                        </extensions>
                    </trkpt>
                    <trkpt lat="53.85137833333333" lon="8.974086666666667">
                        <ele>0</ele>
                        <time>2022-08-18T02:14:58Z</time>
                                                <extensions>
                            <sog>7.1</sog>
<cog>260.2</cog>
                        </extensions>
                    </trkpt>
                    <trkpt lat="53.85095166666667" lon="8.96968">
                        <ele>0</ele>
                        <time>2022-08-18T02:16:18Z</time>
                                                <extensions>
                            <sog>7.1</sog>
<cog>260.6</cog>
                        </extensions>
                    </trkpt>
                    </trkseg>
                </trk>
</gpx>