<?xml version="1.0" encoding="UTF-8"?>
<gpx version="1.1" creator="AIS-to-GPX Converter" xmlns="http://www.topografix.com/GPX/1/1">
                <trk>
                    <name>anon0279</name>
                    <trkseg>
                                            <trkpt lat="54.47788166666667" lon="9.913010000000002">
                        <ele>0</ele>
                        <time>2022-08-18T07:26:55Z</time>
                                                <extensions>
                            <sog>17.1</sog>
<cog>77.5</cog>
                        </extensions>
                    </trkpt>
                    <trkpt lat="54.488571666666665" lon="9.972946666666667">
                        <ele>0</ele>
                        <time>2022-08-18T07:34:40Z</time>
                                                <extensions>
                            <sog>13.6</sog>
<cog>70.5</cog>
                        </extensions>
                    </trkpt>
                    <trkpt lat="54.489421666666665" lon="9.978103333333333">
                        <ele>0</ele>
                        <time>2022-08-18T07:35:26Z</time>
                                                <extensions>
                            <sog>15.1</sog>
<cog>73.7</cog>
                        </extensions>
                    </trkpt>
                    <trkpt lat="54.49009" lon="9.983605">
                        <ele>0</ele>
                        <time>2022-08-18T07:36:10Z</time>
                                                <extensions>
                            <sog>15.7</sog>
<cog>74.5</cog>
                        </extensions>
                    </trkpt>
                    <trkpt lat="54.49116" lon="9.990791666666667">
                        <ele>0</ele>
                        <time>2022-08-18T07:37:10Z</time>
                                                <extensions>
                            <sog>15.5</sog>
<cog>74.2</cog>
                        </extensions>
                    </trkpt>
                    <trkpt lat="54.491505" lon="9.992521666666667">
                        <ele>0</ele>
                        <time>2022-08-18T07:37:26Z</time>
                                                <extensions>
                            <sog>15.7</sog>
<cog>69.8</cog>
                        </extensions>
                    </trkpt>
                    <trkpt lat="54.494218333333336" lon="10.016471666666666">
                        <ele>0</ele>
                        <time>2022-08-18T07:41:26Z</time>
                                                <extensions>
                            <sog>8.5</sog>
<cog>78.3</cog>
                        </extensions>
                    </trkpt>
                    <trkpt lat="54.49440333333334" lon="10.017473333333333">
                        <ele>0</ele>
                        <time>2022-08-18T07:41:41Z</time>
                                                <extensions>
                            <sog>9.2</sog>
<cog>69.0</cog>
                        </extensions>
                    </trkpt>
                    <trkpt lat="54.49955833333333" lon="10.071483333333333">
                        <ele>0</ele>
                        <time>2022-08-18T07:55:42Z</time>
                                                <extensions>
                            <sog>11.9</sog>
<cog>103.6</cog>
                        </extensions>
                    </trkpt>
                    <trkpt lat="54.49070666666667" lon="10.124408333333333">
                        <ele>0</ele>
                        <time>2022-08-18T08:04:09Z</time>
                                                <extensions>
                            <sog>15.4</sog>
<cog>105.2</cog>
                        </extensions>
                    </trkpt>
                    <trkpt lat="54.48744166666667" lon="10.138336666666667">
                        <ele>0</ele>
                        <time>2022-08-18T08:06:12Z</time>
                                                <extensions>
                            <sog>15.7</sog>
<cog>121.3</cog>
                        </extensions>
                    </trkpt>
                    <trkpt lat="54.47701666666667" lon="10.171438333333333">
                        <ele>0</ele>
                        <time>2022-08-18T08:11:12Z</time>
                                                <extensions>
                            <sog>15.8</sog>
<cog>124.1</cog>
                        </extensions>
                    </trkpt>
                    <trkpt lat="54.47415" lon="10.17779">
                        <ele>0</ele>
                        <time>2022-08-18T08:12:12Z</time>
                                                <extensions>
                            <sog>18.0</sog>
<cog>129.3</cog>
                        </extensions>
                    </trkpt>
                    <trkpt lat="54.471043333333334" lon="10.184328333333333">
                        <ele>0</ele>
                        <time>2022-08-18T08:13:12Z</time>
                                                <extensions>
                            <sog>17.6</sog>
<cog>128.8</cog>
                        </extensions>
                    </trkpt>
                    <trkpt lat="54.469388333333335" lon="10.187653333333333">
                        <ele>0</ele>
                        <time>2022-08-18T08:13:42Z</time>
                                                <extensions>
                            <sog>17.6</sog>
<cog>132.2</cog>
                        </extensions>
                    </trkpt>
                    <trkpt lat="54.467815" lon="10.190716666666667">
                        <ele>0</ele>
                        <time>2022-08-18T08:14:12Z</time>
                                                <extensions>
                            <sog>17.6</sog>
<cog>136.2</cog>
                        </extensions>
                    </trkpt>
                    <trkpt lat="54.462288333333326" lon="10.199175">
                        <ele>0</ele>
                        <time>2022-08-18T08:15:41Z</time>
                                                <extensions>
                            <sog>19.3</sog>
<cog>146.3</cog>
                        </extensions>
                    </trkpt>
                    <trkpt lat="54.45991" lon="10.201543333333332">
                        <ele>0</ele>
                        <time>2022-08-18T08:16:12Z</time>
                                                <extensions>
                            <sog>19.4</sog>
<cog>155.2</cog>
                        </extensions>
                    </trkpt>
                    <trkpt lat="54.45751833333334" lon="10.203193333333333">
                        <ele>0</ele>
                        <time>2022-08-18T08:16:41Z</time>
                                                <extensions>
                            <sog>19.3</sog>
<cog>155.3</cog>
                        </extensions>
                    </trkpt>
                    <trkpt lat="54.456403333333334" lon="10.204148333333334">
                        <ele>0</ele>
                        <time>2022-08-18T08:16:54Z</time>
                                                <extensions>
                            <sog>18.8</sog>
<cog>157.0</cog>
                        </extensions>
                    </trkpt>
                    <trkpt lat="54.455055" lon="10.204713333333332">
                        <ele>0</ele>
                        <time>2022-08-18T08:17:11Z</time>
                                                <extensions>
                            <sog>19.1</sog>
<cog>182.1</cog>
                        </extensions>
                    </trkpt>
                    <trkpt lat="54.452395" lon="10.20362">
                        <ele>0</ele>
                        <time>2022-08-18T08:17:41Z</time>
                                                <extensions>
                            <sog>19.4</sog>
<cog>198.5</cog>
                        </extensions>
                    </trkpt>
                    <trkpt lat="54.451315" lon="10.202996666666667">
                        <ele>0</ele>
                        <time>2022-08-18T08:17:54Z</time>
                                                <extensions>
                            <sog>18.0</sog>
<cog>201.0</cog>
                        </extensions>
                    </trkpt>
                    <trkpt lat="54.449985" lon="10.201898333333332">
                        <ele>0</ele>
                        <time>2022-08-18T08:18:11Z</time>
                                                <extensions>
                            <sog>18.7</sog>
<cog>212.0</cog>
                        </extensions>
                    </trkpt>
                    <trkpt lat="54.449055" lon="10.20076">
                        <ele>0</ele>
                        <time>2022-08-18T08:18:24Z</time>
                                                <extensions>
                            <sog>19.7</sog>
<cog>220.1</cog>
                        </extensions>
                    </trkpt>
                    <trkpt lat="54.447993333333336" lon="10.19936">
                        <ele>0</ele>
                        <time>2022-08-18T08:18:41Z</time>
                                                <extensions>
                            <sog>16.2</sog>
<cog>213.0</cog>
                        </extensions>
                    </trkpt>
                    <trkpt lat="54.446760000000005" lon="10.197804999999999">
                        <ele>0</ele>
                        <time>2022-08-18T08:19:11Z</time>
                                                <extensions>
                            <sog>8.9</sog>
<cog>219.7</cog>
                        </extensions>
                    </trkpt>
                    <trkpt lat="54.446286666666666" lon="10.197223333333334">
                        <ele>0</ele>
                        <time>2022-08-18T08:19:24Z</time>
                                                <extensions>
                            <sog>8.5</sog>
<cog>220.4</cog>
                        </extensions>
                    </trkpt>
                    <trkpt lat="54.44580166666666" lon="10.196573333333333">
                        <ele>0</ele>
                        <time>2022-08-18T08:19:41Z</time>
                                                <extensions>
                            <sog>7.7</sog>
<cog>222.5</cog>
                        </extensions>
                    </trkpt>
                    <trkpt lat="54.445503333333335" lon="10.196016666666667">
                        <ele>0</ele>
                        <time>2022-08-18T08:19:54Z</time>
                                                <extensions>
                            <sog>7.3</sog>
<cog>228.4</cog>
                        </extensions>
                    </trkpt>
                    <trkpt lat="54.44486833333334" lon="10.19514">
                        <ele>0</ele>
                        <time>2022-08-18T08:20:24Z</time>
                                                <extensions>
                            <sog>6.0</sog>
<cog>244.3</cog>
                        </extensions>
                    </trkpt>
                    <trkpt lat="54.444635" lon="10.194439999999998">
                        <ele>0</ele>
                        <time>2022-08-18T08:20:40Z</time>
                                                <extensions>
                            <sog>6.2</sog>
<cog>228.3</cog>
                        </extensions>
                    </trkpt>
                    <trkpt lat="54.443275" lon="10.191951666666666">
                        <ele>0</ele>
                        <time>2022-08-18T08:21:40Z</time>
                                                <extensions>
                            <sog>7.9</sog>
<cog>225.5</cog>
                        </extensions>
                    </trkpt>
                    <trkpt lat="54.442865" lon="10.191306666666666">
                        <ele>0</ele>
                        <time>2022-08-18T08:21:55Z</time>
                                                <extensions>
                            <sog>7.4</sog>
<cog>226.8</cog>
                        </extensions>
                    </trkpt>
                    <trkpt lat="54.44246833333333" lon="10.190613333333333">
                        <ele>0</ele>
                        <time>2022-08-18T08:22:11Z</time>
                                                <extensions>
                            <sog>8.6</sog>
<cog>225.9</cog>
                        </extensions>
                    </trkpt>
                    <trkpt lat="54.44161666666666" lon="10.189288333333334">
                        <ele>0</ele>
                        <time>2022-08-18T08:22:40Z</time>
                                                <extensions>
                            <sog>8.7</sog>
<cog>212.4</cog>
                        </extensions>
                    </trkpt>
                    <trkpt lat="54.44059333333333" lon="10.188171666666667">
                        <ele>0</ele>
                        <time>2022-08-18T08:23:11Z</time>
                                                <extensions>
                            <sog>9.3</sog>
<cog>209.2</cog>
                        </extensions>
                    </trkpt>
                    <trkpt lat="54.439555000000006" lon="10.186933333333334">
                        <ele>0</ele>
                        <time>2022-08-18T08:23:40Z</time>
                                                <extensions>
                            <sog>9.7</sog>
<cog>217.5</cog>
                        </extensions>
                    </trkpt>
                    <trkpt lat="54.439555000000006" lon="10.186933333333334">
                        <ele>0</ele>
                        <time>2022-08-18T08:23:40Z</time>
                                                <extensions>
                            <sog>9.7</sog>
<cog>217.5</cog>
                        </extensions>
                    </trkpt>
                    <trkpt lat="54.439058333333335" lon="10.18627">
                        <ele>0</ele>
                        <time>2022-08-18T08:23:55Z</time>
                                                <extensions>
                            <sog>8.8</sog>
<cog>223.1</cog>
                        </extensions>
                    </trkpt>
                    <trkpt lat="54.437823333333334" lon="10.183928333333334">
                        <ele>0</ele>
                        <time>2022-08-18T08:24:40Z</time>
                                                <extensions>
                            <sog>8.7</sog>
<cog>236.8</cog>
                        </extensions>
                    </trkpt>
                    <trkpt lat="54.436703333333334" lon="10.180358333333334">
                        <ele>0</ele>
                        <time>2022-08-18T08:25:40Z</time>
                                                <extensions>
                            <sog>8.9</sog>
<cog>245.0</cog>
                        </extensions>
                    </trkpt>
                    <trkpt lat="54.43606" lon="10.178671666666666">
                        <ele>0</ele>
                        <time>2022-08-18T08:26:13Z</time>
                                                <extensions>
                            <sog>7.9</sog>
<cog>239.7</cog>
                        </extensions>
                    </trkpt>
                    <trkpt lat="54.435478333333336" lon="10.177343333333333">
                        <ele>0</ele>
                        <time>2022-08-18T08:26:40Z</time>
                                                <extensions>
                            <sog>7.8</sog>
<cog>228.6</cog>
                        </extensions>
                    </trkpt>
                    <trkpt lat="54.434909999999995" lon="10.175486666666666">
                        <ele>0</ele>
                        <time>2022-08-18T08:27:13Z</time>
                                                <extensions>
                            <sog>7.7</sog>
<cog>251.2</cog>
                        </extensions>
                    </trkpt>
                    <trkpt lat="54.43460166666667" lon="10.173916666666665">
                        <ele>0</ele>
                        <time>2022-08-18T08:27:40Z</time>
                                                <extensions>
                            <sog>6.7</sog>
<cog>259.7</cog>
                        </extensions>
                    </trkpt>
                    <trkpt lat="54.43513" lon="10.172555">
                        <ele>0</ele>
                        <time>2022-08-18T08:28:41Z</time>
                                                <extensions>
                            <sog>2.8</sog>
<cog>10.0</cog>
                        </extensions>
                    </trkpt>
                    <trkpt lat="54.43539" lon="10.172658333333334">
                        <ele>0</ele>
                        <time>2022-08-18T08:29:41Z</time>
                                                <extensions>
                            <sog>0.2</sog>
<cog>349.5</cog>
                        </extensions>
                    </trkpt>
                    <trkpt lat="54.43545833333334" lon="10.172641666666667">
                        <ele>0</ele>
                        <time>2022-08-18T08:30:13Z</time>
                                                <extensions>
                            <sog>0.4</sog>
<cog>19.4</cog>
                        </extensions>
                    </trkpt>
                    <trkpt lat="54.435478333333336" lon="10.172761666666666">
                        <ele>0</ele>
                        <time>2022-08-18T08:31:09Z</time>
                        <extensions>
    <sog>0.2</sog>
</extensions>
                    </trkpt>
                    <trkpt lat="54.43548833333333" lon="10.172801666666667">
                        <ele>0</ele>
                        <time>2022-08-18T08:31:41Z</time>
                                                <extensions>
                            <sog>0.4</sog>
<cog>37.5</cog>
                        </extensions>
                    </trkpt>
                    <trkpt lat="54.43553166666666" lon="10.1728">
                        <ele>0</ele>
                        <time>2022-08-18T08:32:41Z</time>
                                                <extensions>
                            <sog>0.4</sog>
<cog>319.3</cog>
                        </extensions>
                    </trkpt>
                    <trkpt lat="54.43545166666667" lon="10.172695000000001">
                        <ele>0</ele>
                        <time>2022-08-18T08:35:08Z</time>
                        <extensions>
    <sog>0.2</sog>
</extensions>
                    </trkpt>
                    <trkpt lat="54.43575666666666" lon="10.172583333333334">
                        <ele>0</ele>
                        <time>2022-08-18T08:44:11Z</time>
                        <extensions>
    <sog>0.1</sog>
</extensions>
                    </trkpt>
                    <trkpt lat="54.43570833333333" lon="10.172333333333334">
                        <ele>0</ele>
                        <time>2022-08-18T08:48:36Z</time>
                                                <extensions>
                            <sog>1.7</sog>
<cog>215.7</cog>
                        </extensions>
                    </trkpt>
                    <trkpt lat="54.4353" lon="10.172501666666667">
                        <ele>0</ele>
                        <time>2022-08-18T08:49:06Z</time>
                                                <extensions>
                            <sog>3.8</sog>
<cog>179.4</cog>
                        </extensions>
                    </trkpt>
                    <trkpt lat="54.434311666666666" lon="10.174063333333333">
                        <ele>0</ele>
                        <time>2022-08-18T08:50:36Z</time>
                                                <extensions>
                            <sog>3.6</sog>
<cog>95.7</cog>
                        </extensions>
                    </trkpt>
                    <trkpt lat="54.434245000000004" lon="10.174928333333334">
                        <ele>0</ele>
                        <time>2022-08-18T08:51:06Z</time>
                                                <extensions>
                            <sog>3.6</sog>
<cog>101.6</cog>
                        </extensions>
                    </trkpt>
                    <trkpt lat="54.434043333333335" lon="10.175671666666666">
                        <ele>0</ele>
                        <time>2022-08-18T08:51:36Z</time>
                                                <extensions>
                            <sog>3.9</sog>
<cog>117.1</cog>
                        </extensions>
                    </trkpt>
                    <trkpt lat="54.433715" lon="10.176331666666666">
                        <ele>0</ele>
                        <time>2022-08-18T08:52:06Z</time>
                                                <extensions>
                            <sog>3.6</sog>
<cog>136.7</cog>
                        </extensions>
                    </trkpt>
                    <trkpt lat="54.433353333333336" lon="10.176934999999999">
                        <ele>0</ele>
                        <time>2022-08-18T08:52:36Z</time>
                                                <extensions>
                            <sog>4.1</sog>
<cog>135.7</cog>
                        </extensions>
                    </trkpt>
                    <trkpt lat="54.432898333333334" lon="10.177851666666667">
                        <ele>0</ele>
                        <time>2022-08-18T08:53:06Z</time>
                                                <extensions>
                            <sog>5.2</sog>
<cog>122.1</cog>
                        </extensions>
                    </trkpt>
                    <trkpt lat="54.432585" lon="10.1789">
                        <ele>0</ele>
                        <time>2022-08-18T08:53:36Z</time>
                                                <extensions>
                            <sog>3.9</sog>
<cog>111.7</cog>
                        </extensions>
                    </trkpt>
                    <trkpt lat="54.432475" lon="10.179689999999999">
                        <ele>0</ele>
                        <time>2022-08-18T08:54:06Z</time>
                                                <extensions>
                            <sog>3.6</sog>
<cog>108.8</cog>
                        </extensions>
                    </trkpt>
                    <trkpt lat="54.432003333333334" lon="10.180803333333333">
                        <ele>0</ele>
                        <time>2022-08-18T08:55:06Z</time>
                                                <extensions>
                            <sog>3.2</sog>
<cog>132.4</cog>
                        </extensions>
                    </trkpt>
                    <trkpt lat="54.43185666666667" lon="10.181578333333333">
                        <ele>0</ele>
                        <time>2022-08-18T08:55:37Z</time>
                                                <extensions>
                            <sog>3.2</sog>
<cog>97.5</cog>
                        </extensions>
                    </trkpt>
                    <trkpt lat="54.431835" lon="10.182305000000001">
                        <ele>0</ele>
                        <time>2022-08-18T08:56:06Z</time>
                                                <extensions>
                            <sog>2.1</sog>
<cog>88.5</cog>
                        </extensions>
                    </trkpt>
                    <trkpt lat="54.431835" lon="10.182991666666668">
                        <ele>0</ele>
                        <time>2022-08-18T08:57:06Z</time>
                                                <extensions>
                            <sog>1.7</sog>
<cog>69.5</cog>
                        </extensions>
                    </trkpt>
                    <trkpt lat="54.431601666666666" lon="10.184183333333333">
                        <ele>0</ele>
                        <time>2022-08-18T08:58:06Z</time>
                                                <extensions>
                            <sog>3.6</sog>
<cog>109.0</cog>
                        </extensions>
                    </trkpt>
                    <trkpt lat="54.43125666666666" lon="10.18563">
                        <ele>0</ele>
                        <time>2022-08-18T08:59:06Z</time>
                                                <extensions>
                            <sog>3.6</sog>
<cog>116.8</cog>
                        </extensions>
                    </trkpt>
                    <trkpt lat="54.431016666666665" lon="10.18639">
                        <ele>0</ele>
                        <time>2022-08-18T08:59:37Z</time>
                                                <extensions>
                            <sog>3.6</sog>
<cog>115.2</cog>
                        </extensions>
                    </trkpt>
                    <trkpt lat="54.430751666666666" lon="10.187041666666666">
                        <ele>0</ele>
                        <time>2022-08-18T09:00:05Z</time>
                                                <extensions>
                            <sog>3.5</sog>
<cog>128.9</cog>
                        </extensions>
                    </trkpt>
                    <trkpt lat="54.430751666666666" lon="10.187041666666666">
                        <ele>0</ele>
                        <time>2022-08-18T09:00:05Z</time>
                                                <extensions>
                            <sog>3.5</sog>
<cog>128.9</cog>
                        </extensions>
                    </trkpt>
                    <trkpt lat="54.43044166666667" lon="10.187781666666666">
                        <ele>0</ele>
                        <time>2022-08-18T09:00:38Z</time>
                                                <extensions>
                            <sog>2.7</sog>
<cog>133.5</cog>
                        </extensions>
                    </trkpt>
                    <trkpt lat="54.43044166666667" lon="10.187781666666666">
                        <ele>0</ele>
                        <time>2022-08-18T09:00:38Z</time>
                                                <extensions>
                            <sog>2.7</sog>
<cog>133.5</cog>
                        </extensions>
                    </trkpt>
                    <trkpt lat="54.43022833333334" lon="10.188201666666666">
                        <ele>0</ele>
                        <time>2022-08-18T09:01:06Z</time>
                                                <extensions>
                            <sog>3.4</sog>
<cog>124.2</cog>
                        </extensions>
                    </trkpt>
                    <trkpt lat="54.43009333333334" lon="10.189036666666668">
                        <ele>0</ele>
                        <time>2022-08-18T09:01:38Z</time>
                                                <extensions>
                            <sog>3.5</sog>
<cog>83.7</cog>
                        </extensions>
                    </trkpt>
                    <trkpt lat="54.43005333333333" lon="10.190156666666667">
                        <ele>0</ele>
                        <time>2022-08-18T09:02:38Z</time>
                                                <extensions>
                            <sog>1.7</sog>
<cog>94.8</cog>
                        </extensions>
                    </trkpt>
                    <trkpt lat="54.42993333333333" lon="10.19089">
                        <ele>0</ele>
                        <time>2022-08-18T09:04:06Z</time>
                                                <extensions>
                            <sog>0.8</sog>
<cog>346.4</cog>
                        </extensions>
                    </trkpt>
                    <trkpt lat="54.42995333333333" lon="10.190745">
                        <ele>0</ele>
                        <time>2022-08-18T09:04:38Z</time>
                                                <extensions>
                            <sog>0.5</sog>
<cog>253.4</cog>
                        </extensions>
                    </trkpt>
                    <trkpt lat="54.42993833333333" lon="10.1906">
                        <ele>0</ele>
                        <time>2022-08-18T09:05:06Z</time>
                                                <extensions>
                            <sog>0.6</sog>
<cog>253.5</cog>
                        </extensions>
                    </trkpt>
                    <trkpt lat="54.42995666666666" lon="10.190405">
                        <ele>0</ele>
                        <time>2022-08-18T09:05:38Z</time>
                                                <extensions>
                            <sog>2.6</sog>
<cog>327.3</cog>
                        </extensions>
                    </trkpt>
                    <trkpt lat="54.43035" lon="10.190095000000001">
                        <ele>0</ele>
                        <time>2022-08-18T09:06:06Z</time>
                                                <extensions>
                            <sog>3.4</sog>
<cog>350.3</cog>
                        </extensions>
                    </trkpt>
                    <trkpt lat="54.429955" lon="10.191891666666667">
                        <ele>0</ele>
                        <time>2022-08-18T09:07:40Z</time>
                                                <extensions>
                            <sog>3.7</sog>
<cog>132.0</cog>
                        </extensions>
                    </trkpt>
                    <trkpt lat="54.429608333333334" lon="10.192436666666667">
                        <ele>0</ele>
                        <time>2022-08-18T09:08:06Z</time>
                                                <extensions>
                            <sog>3.6</sog>
<cog>143.5</cog>
                        </extensions>
                    </trkpt>
                    <trkpt lat="54.429071666666665" lon="10.193118333333333">
                        <ele>0</ele>
                        <time>2022-08-18T09:08:40Z</time>
                                                <extensions>
                            <sog>5.2</sog>
<cog>148.4</cog>
                        </extensions>
                    </trkpt>
                    <trkpt lat="54.42830166666667" lon="10.194473333333333">
                        <ele>0</ele>
                        <time>2022-08-18T09:09:06Z</time>
                                                <extensions>
                            <sog>12.9</sog>
<cog>138.8</cog>
                        </extensions>
                    </trkpt>
                    <trkpt lat="54.427398333333336" lon="10.195251666666667">
                        <ele>0</ele>
                        <time>2022-08-18T09:09:23Z</time>
                                                <extensions>
                            <sog>13.9</sog>
<cog>158.7</cog>
                        </extensions>
                    </trkpt>
                    <trkpt lat="54.42654666666667" lon="10.195938333333334">
                        <ele>0</ele>
                        <time>2022-08-18T09:09:40Z</time>
                                                <extensions>
                            <sog>13.6</sog>
<cog>159.6</cog>
                        </extensions>
                    </trkpt>
                    <trkpt lat="54.42552666666666" lon="10.196679999999999">
                        <ele>0</ele>
                        <time>2022-08-18T09:09:56Z</time>
                                                <extensions>
                            <sog>15.1</sog>
<cog>161.3</cog>
                        </extensions>
                    </trkpt>
                    <trkpt lat="54.424785" lon="10.197133333333333">
                        <ele>0</ele>
                        <time>2022-08-18T09:10:06Z</time>
                                                <extensions>
                            <sog>15.7</sog>
<cog>159.2</cog>
                        </extensions>
                    </trkpt>
                    <trkpt lat="54.42362" lon="10.198026666666667">
                        <ele>0</ele>
                        <time>2022-08-18T09:10:23Z</time>
                                                <extensions>
                            <sog>17.6</sog>
<cog>154.4</cog>
                        </extensions>
                    </trkpt>
                    <trkpt lat="54.422536666666666" lon="10.19889">
                        <ele>0</ele>
                        <time>2022-08-18T09:10:40Z</time>
                                                <extensions>
                            <sog>17.0</sog>
<cog>157.6</cog>
                        </extensions>
                    </trkpt>
                    <trkpt lat="54.42129" lon="10.199723333333333">
                        <ele>0</ele>
                        <time>2022-08-18T09:10:56Z</time>
                                                <extensions>
                            <sog>17.4</sog>
<cog>160.0</cog>
                        </extensions>
                    </trkpt>
                    <trkpt lat="54.420253333333335" lon="10.200491666666666">
                        <ele>0</ele>
                        <time>2022-08-18T09:11:09Z</time>
                                                <extensions>
                            <sog>17.2</sog>
<cog>157.2</cog>
                        </extensions>
                    </trkpt>
                    <trkpt lat="54.419306666666664" lon="10.201271666666665">
                        <ele>0</ele>
                        <time>2022-08-18T09:11:23Z</time>
                                                <extensions>
                            <sog>13.3</sog>
<cog>149.7</cog>
                        </extensions>
                    </trkpt>
                    <trkpt lat="54.41856333333333" lon="10.202048333333332">
                        <ele>0</ele>
                        <time>2022-08-18T09:11:40Z</time>
                                                <extensions>
                            <sog>12.2</sog>
<cog>152.7</cog>
                        </extensions>
                    </trkpt>
                    <trkpt lat="54.417785" lon="10.202806666666667">
                        <ele>0</ele>
                        <time>2022-08-18T09:11:56Z</time>
                                                <extensions>
                            <sog>12.2</sog>
<cog>148.0</cog>
                        </extensions>
                    </trkpt>
                    <trkpt lat="54.417055" lon="10.203429999999999">
                        <ele>0</ele>
                        <time>2022-08-18T09:12:09Z</time>
                                                <extensions>
                            <sog>14.2</sog>
<cog>156.8</cog>
                        </extensions>
                    </trkpt>
                    <trkpt lat="54.41616" lon="10.204166666666667">
                        <ele>0</ele>
                        <time>2022-08-18T09:12:23Z</time>
                                                <extensions>
                            <sog>14.3</sog>
<cog>155.5</cog>
                        </extensions>
                    </trkpt>
                    <trkpt lat="54.41523666666667" lon="10.204883333333333">
                        <ele>0</ele>
                        <time>2022-08-18T09:12:40Z</time>
                                                <extensions>
                            <sog>12.4</sog>
<cog>158.5</cog>
                        </extensions>
                    </trkpt>
                    <trkpt lat="54.413668333333334" lon="10.206171666666668">
                        <ele>0</ele>
                        <time>2022-08-18T09:13:09Z</time>
                                                <extensions>
                            <sog>13.9</sog>
<cog>156.7</cog>
                        </extensions>
                    </trkpt>
                    <trkpt lat="54.41184166666667" lon="10.207311666666667">
                        <ele>0</ele>
                        <time>2022-08-18T09:13:40Z</time>
                                                <extensions>
                            <sog>14.7</sog>
<cog>162.6</cog>
                        </extensions>
                    </trkpt>
                    <trkpt lat="54.410735" lon="10.208233333333334">
                        <ele>0</ele>
                        <time>2022-08-18T09:13:56Z</time>
                                                <extensions>
                            <sog>15.2</sog>
<cog>148.4</cog>
                        </extensions>
                    </trkpt>
                    <trkpt lat="54.410185" lon="10.208808333333334">
                        <ele>0</ele>
                        <time>2022-08-18T09:14:09Z</time>
                                                <extensions>
                            <sog>8.6</sog>
<cog>149.0</cog>
                        </extensions>
                    </trkpt>
                    <trkpt lat="54.409135" lon="10.209796666666668">
                        <ele>0</ele>
                        <time>2022-08-18T09:14:41Z</time>
                                                <extensions>
                            <sog>7.4</sog>
<cog>153.9</cog>
                        </extensions>
                    </trkpt>
                    <trkpt lat="54.40776833333334" lon="10.210323333333333">
                        <ele>0</ele>
                        <time>2022-08-18T09:15:23Z</time>
                                                <extensions>
                            <sog>7.0</sog>
<cog>173.6</cog>
                        </extensions>
                    </trkpt>
                    <trkpt lat="54.40636333333334" lon="10.211141666666666">
                        <ele>0</ele>
                        <time>2022-08-18T09:16:08Z</time>
                                                <extensions>
                            <sog>7.5</sog>
<cog>161.6</cog>
                        </extensions>
                    </trkpt>
                    <trkpt lat="54.40588" lon="10.211396666666667">
                        <ele>0</ele>
                        <time>2022-08-18T09:16:23Z</time>
                                                <extensions>
                            <sog>7.1</sog>
<cog>160.6</cog>
                        </extensions>
                    </trkpt>
                    <trkpt lat="54.405316666666664" lon="10.211808333333332">
                        <ele>0</ele>
                        <time>2022-08-18T09:16:41Z</time>
                                                <extensions>
                            <sog>7.5</sog>
<cog>162.4</cog>
                        </extensions>
                    </trkpt>
                    <trkpt lat="54.40483" lon="10.212041666666666">
                        <ele>0</ele>
                        <time>2022-08-18T09:16:55Z</time>
                                                <extensions>
                            <sog>7.4</sog>
<cog>164.5</cog>
                        </extensions>
                    </trkpt>
                    <trkpt lat="54.4044" lon="10.212255">
                        <ele>0</ele>
                        <time>2022-08-18T09:17:08Z</time>
                                                <extensions>
                            <sog>7.4</sog>
<cog>164.3</cog>
                        </extensions>
                    </trkpt>
                    <trkpt lat="54.40399166666667" lon="10.212475000000001">
                        <ele>0</ele>
                        <time>2022-08-18T09:17:23Z</time>
                                                <extensions>
                            <sog>6.5</sog>
<cog>159.4</cog>
                        </extensions>
                    </trkpt>
                    <trkpt lat="54.403576666666666" lon="10.212745">
                        <ele>0</ele>
                        <time>2022-08-18T09:17:38Z</time>
                                                <extensions>
                            <sog>6.5</sog>
<cog>158.1</cog>
                        </extensions>
                    </trkpt>
                    <trkpt lat="54.403495" lon="10.212805">
                        <ele>0</ele>
                        <time>2022-08-18T09:17:41Z</time>
                                                <extensions>
                            <sog>6.3</sog>
<cog>156.6</cog>
                        </extensions>
                    </trkpt>
                    <trkpt lat="54.40188" lon="10.214505">
                        <ele>0</ele>
                        <time>2022-08-18T09:19:08Z</time>
                                                <extensions>
                            <sog>4.1</sog>
<cog>166.6</cog>
                        </extensions>
                    </trkpt>
                    <trkpt lat="54.40148833333333" lon="10.214003333333332">
                        <ele>0</ele>
                        <time>2022-08-18T09:19:38Z</time>
                                                <extensions>
                            <sog>3.7</sog>
<cog>234.6</cog>
                        </extensions>
                    </trkpt>
                    <trkpt lat="54.401305" lon="10.213398333333334">
                        <ele>0</ele>
                        <time>2022-08-18T09:20:08Z</time>
                                                <extensions>
                            <sog>2.0</sog>
<cog>247.3</cog>
                        </extensions>
                    </trkpt>
                    <trkpt lat="54.40121" lon="10.212883333333334">
                        <ele>0</ele>
                        <time>2022-08-18T09:20:38Z</time>
                                                <extensions>
                            <sog>3.5</sog>
<cog>250.6</cog>
                        </extensions>
                    </trkpt>
                    <trkpt lat="54.40081833333333" lon="10.212218333333334">
                        <ele>0</ele>
                        <time>2022-08-18T09:21:38Z</time>
                                                <extensions>
                            <sog>1.1</sog>
<cog>292.0</cog>
                        </extensions>
                    </trkpt>
                    <trkpt lat="54.400533333333335" lon="10.211720000000001">
                        <ele>0</ele>
                        <time>2022-08-18T09:22:38Z</time>
                                                <extensions>
                            <sog>1.0</sog>
<cog>46.7</cog>
                        </extensions>
                    </trkpt>
                    <trkpt lat="54.400575" lon="10.211831666666665">
                        <ele>0</ele>
                        <time>2022-08-18T09:23:07Z</time>
                                                <extensions>
                            <sog>0.3</sog>
<cog>79.1</cog>
                        </extensions>
                    </trkpt>
                    <trkpt lat="54.40059333333333" lon="10.21189">
                        <ele>0</ele>
                        <time>2022-08-18T09:23:38Z</time>
                        <extensions>
    <sog>0.2</sog>
</extensions>
                    </trkpt>
                    <trkpt lat="54.400591666666664" lon="10.211896666666666">
                        <ele>0</ele>
                        <time>2022-08-18T09:24:07Z</time>
                        <extensions>
    <sog>0.1</sog>
</extensions>
                    </trkpt>
                    <trkpt lat="54.400594999999996" lon="10.211901666666668">
                        <ele>0</ele>
                        <time>2022-08-18T09:24:38Z</time>
                        <extensions>
    <sog>0.1</sog>
</extensions>
                    </trkpt>
                    <trkpt lat="54.400596666666665" lon="10.211906666666666">
                        <ele>0</ele>
                        <time>2022-08-18T09:25:07Z</time>
                        <extensions>
    <sog>0.0</sog>
</extensions>
                    </trkpt>
                    <trkpt lat="54.40058666666666" lon="10.211906666666666">
                        <ele>0</ele>
                        <time>2022-08-18T09:25:38Z</time>
                        <extensions>
    <sog>0.0</sog>
</extensions>
                    </trkpt>
                    <trkpt lat="54.40058833333333" lon="10.211921666666665">
                        <ele>0</ele>
                        <time>2022-08-18T09:28:39Z</time>
                        <extensions>
    <sog>0.0</sog>
</extensions>
                    </trkpt>
                    <trkpt lat="54.40058333333333" lon="10.211923333333335">
                        <ele>0</ele>
                        <time>2022-08-18T09:37:38Z</time>
                        <extensions>
    <sog>0.1</sog>
</extensions>
                    </trkpt>
                    <trkpt lat="54.40058166666667" lon="10.211916666666667">
                        <ele>0</ele>
                        <time>2022-08-18T09:40:40Z</time>
                        <extensions>
    <sog>0.0</sog>
</extensions>
                    </trkpt>
                    <trkpt lat="54.40058666666666" lon="10.211911666666667">
                        <ele>0</ele>
                        <time>2022-08-18T09:46:40Z</time>
                        <extensions>
    <sog>0.0</sog>
</extensions>
                    </trkpt>
                    <trkpt lat="54.40058" lon="10.211916666666667">
                        <ele>0</ele>
                        <time>2022-08-18T09:55:38Z</time>
                        <extensions>
    <sog>0.0</sog>
</extensions>
                    </trkpt>
                    <trkpt lat="54.40058" lon="10.211905">
                        <ele>0</ele>
                        <time>2022-08-18T09:58:40Z</time>
                        <extensions>
    <sog>0.0</sog>
</extensions>
                    </trkpt>
                    <trkpt lat="54.400591666666664" lon="10.211915">
                        <ele>0</ele>
                        <time>2022-08-18T10:01:38Z</time>
                        <extensions>
    <sog>0.0</sog>
</extensions>
                    </trkpt>
                    <trkpt lat="54.40059333333333" lon="10.211916666666667">
                        <ele>0</ele>
                        <time>2022-08-18T10:04:38Z</time>
                        <extensions>
    <sog>0.0</sog>
</extensions>
                    </trkpt>
                    <trkpt lat="54.400594999999996" lon="10.21191">
                        <ele>0</ele>
                        <time>2022-08-18T10:07:38Z</time>
                        <extensions>
    <sog>0.0</sog>
</extensions>
                    </trkpt>
                    <trkpt lat="54.40057" lon="10.211905">
                        <ele>0</ele>
                        <time>2022-08-18T10:10:38Z</time>
                        <extensions>
    <sog>0.0</sog>
</extensions>
                    </trkpt>
                    <trkpt lat="54.40058" lon="10.21191">
                        <ele>0</ele>
                        <time>2022-08-18T10:13:39Z</time>
                        <extensions>
    <sog>0.0</sog>
</extensions>
                    </trkpt>
                    <trkpt lat="54.40058333333333" lon="10.211916666666667">
                        <ele>0</ele>
                        <time>2022-08-18T10:16:37Z</time>
                        <extensions>
    <sog>0.0</sog>
</extensions>
                    </trkpt>
                    <trkpt lat="54.40058" lon="10.211915">
                        <ele>0</ele>
                        <time>2022-08-18T10:19:39Z</time>
                        <extensions>
    <sog>0.0</sog>
</extensions>
                    </trkpt>
                    <trkpt lat="54.400571666666664" lon="10.211901666666668">
                        <ele>0</ele>
                        <time>2022-08-18T10:22:37Z</time>
                        <extensions>
    <sog>0.0</sog>
</extensions>
                    </trkpt>
                    <trkpt lat="54.400558333333336" lon="10.211906666666666">
                        <ele>0</ele>
                        <time>2022-08-18T10:25:37Z</time>
                        <extensions>
    <sog>0.0</sog>
</extensions>
                    </trkpt>
                    <trkpt lat="54.40056666666667" lon="10.211895">
                        <ele>0</ele>
                        <time>2022-08-18T10:28:40Z</time>
                        <extensions>
    <sog>0.0</sog>
</extensions>
                    </trkpt>
                    <trkpt lat="54.40060166666667" lon="10.211903333333334">
                        <ele>0</ele>
                        <time>2022-08-18T10:31:40Z</time>
                        <extensions>
    <sog>0.0</sog>
</extensions>
                    </trkpt>
                    <trkpt lat="54.40059" lon="10.211916666666667">
                        <ele>0</ele>
                        <time>2022-08-18T10:40:36Z</time>
                        <extensions>
    <sog>0.0</sog>
</extensions>
                    </trkpt>
                    <trkpt lat="54.40059833333333" lon="10.211901666666668">
                        <ele>0</ele>
                        <time>2022-08-18T10:46:37Z</time>
                        <extensions>
    <sog>0.1</sog>
</extensions>
                    </trkpt>
                    <trkpt lat="54.400591666666664" lon="10.211898333333332">
                        <ele>0</ele>
                        <time>2022-08-18T10:49:37Z</time>
                        <extensions>
    <sog>0.0</sog>
</extensions>
                    </trkpt>
                    <trkpt lat="54.400571666666664" lon="10.211915">
                        <ele>0</ele>
                        <time>2022-08-18T10:58:38Z</time>
                        <extensions>
    <sog>0.0</sog>
</extensions>
                    </trkpt>
                    <trkpt lat="54.40058166666667" lon="10.211918333333333">
                        <ele>0</ele>
                        <time>2022-08-18T11:01:38Z</time>
                        <extensions>
    <sog>0.0</sog>
</extensions>
                    </trkpt>
                    <trkpt lat="54.40056166666667" lon="10.211913333333333">
                        <ele>0</ele>
                        <time>2022-08-18T11:04:38Z</time>
                        <extensions>
    <sog>0.0</sog>
</extensions>
                    </trkpt>
                    <trkpt lat="54.40057" lon="10.211915">
                        <ele>0</ele>
                        <time>2022-08-18T11:07:40Z</time>
                        <extensions>
    <sog>0.0</sog>
</extensions>
                    </trkpt>
                    <trkpt lat="54.40055333333333" lon="10.211923333333335">
                        <ele>0</ele>
                        <time>2022-08-18T11:19:38Z</time>
                        <extensions>
    <sog>0.0</sog>
</extensions>
                    </trkpt>
                    <trkpt lat="54.40054166666666" lon="10.21191">
                        <ele>0</ele>
                        <time>2022-08-18T11:25:38Z</time>
                        <extensions>
    <sog>0.1</sog>
</extensions>
                    </trkpt>
                    <trkpt lat="54.400545" lon="10.211901666666668">
                        <ele>0</ele>
                        <time>2022-08-18T11:28:39Z</time>
                        <extensions>
    <sog>0.0</sog>
</extensions>
                    </trkpt>
                    <trkpt lat="54.400526666666664" lon="10.211898333333332">
                        <ele>0</ele>
                        <time>2022-08-18T11:34:40Z</time>
                        <extensions>
    <sog>0.0</sog>
</extensions>
                    </trkpt>
                    <trkpt lat="54.400528333333334" lon="10.211901666666668">
                        <ele>0</ele>
                        <time>2022-08-18T11:37:38Z</time>
                        <extensions>
    <sog>0.0</sog>
</extensions>
                    </trkpt>
                    <trkpt lat="54.40052166666667" lon="10.211905">
                        <ele>0</ele>
                        <time>2022-08-18T11:43:37Z</time>
                        <extensions>
    <sog>0.0</sog>
</extensions>
                    </trkpt>
                    <trkpt lat="54.400513333333336" lon="10.211913333333333">
                        <ele>0</ele>
                        <time>2022-08-18T11:46:36Z</time>
                        <extensions>
    <sog>0.0</sog>
</extensions>
                    </trkpt>
                    <trkpt lat="54.40052166666667" lon="10.211901666666668">
                        <ele>0</ele>
                        <time>2022-08-18T11:49:36Z</time>
                        <extensions>
    <sog>0.0</sog>
</extensions>
                    </trkpt>
                    <trkpt lat="54.400486666666666" lon="10.211901666666668">
                        <ele>0</ele>
                        <time>2022-08-18T11:52:36Z</time>
                        <extensions>
    <sog>0.0</sog>
</extensions>
                    </trkpt>
                    <trkpt lat="54.400485" lon="10.211870000000001">
                        <ele>0</ele>
                        <time>2022-08-18T11:55:39Z</time>
                        <extensions>
    <sog>0.0</sog>
</extensions>
                    </trkpt>
                    <trkpt lat="54.400504999999995" lon="10.211870000000001">
                        <ele>0</ele>
                        <time>2022-08-18T11:58:40Z</time>
                        <extensions>
    <sog>0.0</sog>
</extensions>
                    </trkpt>
                    <trkpt lat="54.400485" lon="10.211853333333332">
                        <ele>0</ele>
                        <time>2022-08-18T12:04:38Z</time>
                        <extensions>
    <sog>0.1</sog>
</extensions>
                    </trkpt>
                    <trkpt lat="54.40049833333333" lon="10.211871666666667">
                        <ele>0</ele>
                        <time>2022-08-18T12:10:38Z</time>
                        <extensions>
    <sog>0.0</sog>
</extensions>
                    </trkpt>
                    <trkpt lat="54.40052" lon="10.211886666666667">
                        <ele>0</ele>
                        <time>2022-08-18T12:22:38Z</time>
                        <extensions>
    <sog>0.0</sog>
</extensions>
                    </trkpt>
                    <trkpt lat="54.400531666666666" lon="10.21188">
                        <ele>0</ele>
                        <time>2022-08-18T12:25:37Z</time>
                        <extensions>
    <sog>0.0</sog>
</extensions>
                    </trkpt>
                    <trkpt lat="54.40053833333333" lon="10.211891666666666">
                        <ele>0</ele>
                        <time>2022-08-18T12:28:39Z</time>
                        <extensions>
    <sog>0.1</sog>
</extensions>
                    </trkpt>
                    <trkpt lat="54.40051833333334" lon="10.211908333333334">
                        <ele>0</ele>
                        <time>2022-08-18T12:31:37Z</time>
                        <extensions>
    <sog>0.0</sog>
</extensions>
                    </trkpt>
                    <trkpt lat="54.40053666666667" lon="10.211921666666665">
                        <ele>0</ele>
                        <time>2022-08-18T12:40:39Z</time>
                        <extensions>
    <sog>0.0</sog>
</extensions>
                    </trkpt>
                    <trkpt lat="54.40054333333333" lon="10.211918333333333">
                        <ele>0</ele>
                        <time>2022-08-18T12:49:38Z</time>
                        <extensions>
    <sog>0.0</sog>
</extensions>
                    </trkpt>
                    <trkpt lat="54.400535" lon="10.211915">
                        <ele>0</ele>
                        <time>2022-08-18T12:52:36Z</time>
                        <extensions>
    <sog>0.0</sog>
</extensions>
                    </trkpt>
                    <trkpt lat="54.40053" lon="10.21192">
                        <ele>0</ele>
                        <time>2022-08-18T12:55:37Z</time>
                        <extensions>
    <sog>0.0</sog>
</extensions>
                    </trkpt>
                    <trkpt lat="54.400545" lon="10.211900000000002">
                        <ele>0</ele>
                        <time>2022-08-18T13:01:37Z</time>
                        <extensions>
    <sog>0.0</sog>
</extensions>
                    </trkpt>
                    <trkpt lat="54.400560000000006" lon="10.211898333333332">
                        <ele>0</ele>
                        <time>2022-08-18T13:07:39Z</time>
                        <extensions>
    <sog>0.0</sog>
</extensions>
                    </trkpt>
                    <trkpt lat="54.40055333333333" lon="10.211903333333334">
                        <ele>0</ele>
                        <time>2022-08-18T13:13:37Z</time>
                        <extensions>
    <sog>0.0</sog>
</extensions>
                    </trkpt>
                    <trkpt lat="54.40054666666666" lon="10.211931666666667">
                        <ele>0</ele>
                        <time>2022-08-18T13:22:39Z</time>
                        <extensions>
    <sog>0.0</sog>
</extensions>
                    </trkpt>
                    <trkpt lat="54.40054666666666" lon="10.211916666666667">
                        <ele>0</ele>
                        <time>2022-08-18T13:25:38Z</time>
                        <extensions>
    <sog>0.0</sog>
</extensions>
                    </trkpt>
                    <trkpt lat="54.400555000000004" lon="10.211906666666666">
                        <ele>0</ele>
                        <time>2022-08-18T13:28:38Z</time>
                        <extensions>
    <sog>0.0</sog>
</extensions>
                    </trkpt>
                    <trkpt lat="54.400545" lon="10.211921666666665">
                        <ele>0</ele>
                        <time>2022-08-18T13:34:37Z</time>
                        <extensions>
    <sog>0.0</sog>
</extensions>
                    </trkpt>
                    <trkpt lat="54.400555000000004" lon="10.211923333333335">
                        <ele>0</ele>
                        <time>2022-08-18T13:37:36Z</time>
                        <extensions>
    <sog>0.0</sog>
</extensions>
                    </trkpt>
                    <trkpt lat="54.400558333333336" lon="10.211935">
                        <ele>0</ele>
                        <time>2022-08-18T13:43:40Z</time>
                        <extensions>
    <sog>0.0</sog>
</extensions>
                    </trkpt>
                    <trkpt lat="54.40055666666667" lon="10.211946666666668">
                        <ele>0</ele>
                        <time>2022-08-18T13:46:38Z</time>
                        <extensions>
    <sog>0.0</sog>
</extensions>
                    </trkpt>
                    <trkpt lat="54.40055666666667" lon="10.211931666666667">
                        <ele>0</ele>
                        <time>2022-08-18T13:52:37Z</time>
                        <extensions>
    <sog>0.0</sog>
</extensions>
                    </trkpt>
                    <trkpt lat="54.400571666666664" lon="10.211926666666667">
                        <ele>0</ele>
                        <time>2022-08-18T13:55:38Z</time>
                        <extensions>
    <sog>0.0</sog>
</extensions>
                    </trkpt>
                    <trkpt lat="54.40056333333334" lon="10.211923333333335">
                        <ele>0</ele>
                        <time>2022-08-18T14:01:36Z</time>
                        <extensions>
    <sog>0.0</sog>
</extensions>
                    </trkpt>
                    <trkpt lat="54.40055666666667" lon="10.211926666666667">
                        <ele>0</ele>
                        <time>2022-08-18T14:04:37Z</time>
                        <extensions>
    <sog>0.0</sog>
</extensions>
                    </trkpt>
                    <trkpt lat="54.40056166666667" lon="10.211926666666667">
                        <ele>0</ele>
                        <time>2022-08-18T14:13:38Z</time>
                        <extensions>
    <sog>0.0</sog>
</extensions>
                    </trkpt>
                    <trkpt lat="54.400573333333334" lon="10.211926666666667">
                        <ele>0</ele>
                        <time>2022-08-18T14:19:36Z</time>
                        <extensions>
    <sog>0.0</sog>
</extensions>
                    </trkpt>
                    <trkpt lat="54.400560000000006" lon="10.211936666666666">
                        <ele>0</ele>
                        <time>2022-08-18T14:22:38Z</time>
                        <extensions>
    <sog>0.0</sog>
</extensions>
                    </trkpt>
                    <trkpt lat="54.400560000000006" lon="10.211941666666666">
                        <ele>0</ele>
                        <time>2022-08-18T14:25:37Z</time>
                        <extensions>
    <sog>0.0</sog>
</extensions>
                    </trkpt>
                    <trkpt lat="54.40056833333333" lon="10.211943333333332">
                        <ele>0</ele>
                        <time>2022-08-18T14:28:37Z</time>
                        <extensions>
    <sog>0.0</sog>
</extensions>
                    </trkpt>
                    <trkpt lat="54.40056833333333" lon="10.211941666666666">
                        <ele>0</ele>
                        <time>2022-08-18T14:37:37Z</time>
                        <extensions>
    <sog>0.0</sog>
</extensions>
                    </trkpt>
                    <trkpt lat="54.40058666666666" lon="10.21192">
                        <ele>0</ele>
                        <time>2022-08-18T14:40:38Z</time>
                        <extensions>
    <sog>0.0</sog>
</extensions>
                    </trkpt>
                    <trkpt lat="54.40058666666666" lon="10.211946666666668">
                        <ele>0</ele>
                        <time>2022-08-18T14:46:39Z</time>
                        <extensions>
    <sog>0.0</sog>
</extensions>
                    </trkpt>
                    <trkpt lat="54.40059333333333" lon="10.211933333333333">
                        <ele>0</ele>
                        <time>2022-08-18T14:52:38Z</time>
                        <extensions>
    <sog>0.0</sog>
</extensions>
                    </trkpt>
                    <trkpt lat="54.40058333333333" lon="10.211936666666666">
                        <ele>0</ele>
                        <time>2022-08-18T14:55:36Z</time>
                        <extensions>
    <sog>0.0</sog>
</extensions>
                    </trkpt>
                    <trkpt lat="54.40056666666667" lon="10.21195">
                        <ele>0</ele>
                        <time>2022-08-18T14:58:38Z</time>
                        <extensions>
    <sog>0.0</sog>
</extensions>
                    </trkpt>
                    <trkpt lat="54.400576666666666" lon="10.211943333333332">
                        <ele>0</ele>
                        <time>2022-08-18T15:01:38Z</time>
                        <extensions>
    <sog>0.0</sog>
</extensions>
                    </trkpt>
                    <trkpt lat="54.400594999999996" lon="10.211921666666665">
                        <ele>0</ele>
                        <time>2022-08-18T15:04:38Z</time>
                        <extensions>
    <sog>0.0</sog>
</extensions>
                    </trkpt>
                    <trkpt lat="54.40056333333334" lon="10.21195">
                        <ele>0</ele>
                        <time>2022-08-18T15:07:39Z</time>
                        <extensions>
    <sog>0.0</sog>
</extensions>
                    </trkpt>
                    <trkpt lat="54.400575" lon="10.211935">
                        <ele>0</ele>
                        <time>2022-08-18T15:13:40Z</time>
                        <extensions>
    <sog>0.0</sog>
</extensions>
                    </trkpt>
                    <trkpt lat="54.400558333333336" lon="10.211948333333334">
                        <ele>0</ele>
                        <time>2022-08-18T15:16:38Z</time>
                        <extensions>
    <sog>0.0</sog>
</extensions>
                    </trkpt>
                    <trkpt lat="54.400571666666664" lon="10.211946666666668">
                        <ele>0</ele>
                        <time>2022-08-18T15:19:40Z</time>
                        <extensions>
    <sog>0.0</sog>
</extensions>
                    </trkpt>
                    <trkpt lat="54.40056166666667" lon="10.21194">
                        <ele>0</ele>
                        <time>2022-08-18T15:22:38Z</time>
                        <extensions>
    <sog>0.0</sog>
</extensions>
                    </trkpt>
                    <trkpt lat="54.40056166666667" lon="10.211938333333334">
                        <ele>0</ele>
                        <time>2022-08-18T15:28:39Z</time>
                        <extensions>
    <sog>0.0</sog>
</extensions>
                    </trkpt>
                    <trkpt lat="54.400551666666665" lon="10.211931666666667">
                        <ele>0</ele>
                        <time>2022-08-18T15:31:38Z</time>
                        <extensions>
    <sog>0.0</sog>
</extensions>
                    </trkpt>
                    <trkpt lat="54.40056166666667" lon="10.211933333333333">
                        <ele>0</ele>
                        <time>2022-08-18T15:40:37Z</time>
                        <extensions>
    <sog>0.0</sog>
</extensions>
                    </trkpt>
                    <trkpt lat="54.40056166666667" lon="10.211936666666666">
                        <ele>0</ele>
                        <time>2022-08-18T15:46:40Z</time>
                        <extensions>
    <sog>0.0</sog>
</extensions>
                    </trkpt>
                    <trkpt lat="54.40054666666666" lon="10.211935">
                        <ele>0</ele>
                        <time>2022-08-18T15:49:39Z</time>
                        <extensions>
    <sog>0.0</sog>
</extensions>
                    </trkpt>
                    <trkpt lat="54.400555000000004" lon="10.211933333333333">
                        <ele>0</ele>
                        <time>2022-08-18T15:52:37Z</time>
                        <extensions>
    <sog>0.0</sog>
</extensions>
                    </trkpt>
                    <trkpt lat="54.400565" lon="10.211935">
                        <ele>0</ele>
                        <time>2022-08-18T15:55:38Z</time>
                        <extensions>
    <sog>0.0</sog>
</extensions>
                    </trkpt>
                    <trkpt lat="54.40057" lon="10.211938333333334">
                        <ele>0</ele>
                        <time>2022-08-18T15:58:37Z</time>
                        <extensions>
    <sog>0.0</sog>
</extensions>
                    </trkpt>
                    <trkpt lat="54.400565" lon="10.211946666666668">
                        <ele>0</ele>
                        <time>2022-08-18T16:01:37Z</time>
                        <extensions>
    <sog>0.0</sog>
</extensions>
                    </trkpt>
                    <trkpt lat="54.40056833333333" lon="10.21194">
                        <ele>0</ele>
                        <time>2022-08-18T16:07:38Z</time>
                        <extensions>
    <sog>0.0</sog>
</extensions>
                    </trkpt>
                    <trkpt lat="54.40056833333333" lon="10.21194">
                        <ele>0</ele>
                        <time>2022-08-18T16:10:38Z</time>
                        <extensions>
    <sog>0.0</sog>
</extensions>
                    </trkpt>
                    <trkpt lat="54.40056833333333" lon="10.211943333333332">
                        <ele>0</ele>
                        <time>2022-08-18T16:13:38Z</time>
                        <extensions>
    <sog>0.0</sog>
</extensions>
                    </trkpt>
                    <trkpt lat="54.400560000000006" lon="10.211931666666667">
                        <ele>0</ele>
                        <time>2022-08-18T16:16:39Z</time>
                        <extensions>
    <sog>0.0</sog>
</extensions>
                    </trkpt>
                    <trkpt lat="54.40056666666667" lon="10.211936666666666">
                        <ele>0</ele>
                        <time>2022-08-18T16:22:38Z</time>
                        <extensions>
    <sog>0.0</sog>
</extensions>
                    </trkpt>
                    <trkpt lat="54.40055333333333" lon="10.211943333333332">
                        <ele>0</ele>
                        <time>2022-08-18T16:25:36Z</time>
                        <extensions>
    <sog>0.0</sog>
</extensions>
                    </trkpt>
                    <trkpt lat="54.400555000000004" lon="10.211935">
                        <ele>0</ele>
                        <time>2022-08-18T16:28:36Z</time>
                        <extensions>
    <sog>0.0</sog>
</extensions>
                    </trkpt>
                    <trkpt lat="54.400555000000004" lon="10.211931666666667">
                        <ele>0</ele>
                        <time>2022-08-18T16:37:37Z</time>
                        <extensions>
    <sog>0.0</sog>
</extensions>
                    </trkpt>
                    <trkpt lat="54.40055666666667" lon="10.211946666666668">
                        <ele>0</ele>
                        <time>2022-08-18T16:40:37Z</time>
                        <extensions>
    <sog>0.0</sog>
</extensions>
                    </trkpt>
                    <trkpt lat="54.400565" lon="10.211946666666668">
                        <ele>0</ele>
                        <time>2022-08-18T16:52:38Z</time>
                        <extensions>
    <sog>0.0</sog>
</extensions>
                    </trkpt>
                    <trkpt lat="54.40054666666666" lon="10.211948333333334">
                        <ele>0</ele>
                        <time>2022-08-18T16:55:39Z</time>
                        <extensions>
    <sog>0.0</sog>
</extensions>
                    </trkpt>
                    <trkpt lat="54.400545" lon="10.211936666666666">
                        <ele>0</ele>
                        <time>2022-08-18T16:58:39Z</time>
                        <extensions>
    <sog>0.0</sog>
</extensions>
                    </trkpt>
                    <trkpt lat="54.400555000000004" lon="10.211931666666667">
                        <ele>0</ele>
                        <time>2022-08-18T17:04:37Z</time>
                        <extensions>
    <sog>0.0</sog>
</extensions>
                    </trkpt>
                    <trkpt lat="54.400551666666665" lon="10.211943333333332">
                        <ele>0</ele>
                        <time>2022-08-18T17:07:36Z</time>
                        <extensions>
    <sog>0.0</sog>
</extensions>
                    </trkpt>
                    <trkpt lat="54.400555000000004" lon="10.211931666666667">
                        <ele>0</ele>
                        <time>2022-08-18T17:10:37Z</time>
                        <extensions>
    <sog>0.0</sog>
</extensions>
                    </trkpt>
                    <trkpt lat="54.40055666666667" lon="10.211946666666668">
                        <ele>0</ele>
                        <time>2022-08-18T17:16:39Z</time>
                        <extensions>
    <sog>0.1</sog>
</extensions>
                    </trkpt>
                    <trkpt lat="54.40056166666667" lon="10.211926666666667">
                        <ele>0</ele>
                        <time>2022-08-18T17:19:40Z</time>
                        <extensions>
    <sog>0.0</sog>
</extensions>
                    </trkpt>
                    <trkpt lat="54.400555000000004" lon="10.211928333333333">
                        <ele>0</ele>
                        <time>2022-08-18T17:22:36Z</time>
                        <extensions>
    <sog>0.0</sog>
</extensions>
                    </trkpt>
                    <trkpt lat="54.400571666666664" lon="10.211935">
                        <ele>0</ele>
                        <time>2022-08-18T17:34:40Z</time>
                        <extensions>
    <sog>0.0</sog>
</extensions>
                    </trkpt>
                    <trkpt lat="54.400555000000004" lon="10.211911666666667">
                        <ele>0</ele>
                        <time>2022-08-18T17:37:37Z</time>
                        <extensions>
    <sog>0.0</sog>
</extensions>
                    </trkpt>
                    <trkpt lat="54.40056166666667" lon="10.211911666666667">
                        <ele>0</ele>
                        <time>2022-08-18T17:43:37Z</time>
                        <extensions>
    <sog>0.0</sog>
</extensions>
                    </trkpt>
                    <trkpt lat="54.400558333333336" lon="10.211925">
                        <ele>0</ele>
                        <time>2022-08-18T17:46:38Z</time>
                        <extensions>
    <sog>0.0</sog>
</extensions>
                    </trkpt>
                    <trkpt lat="54.40057" lon="10.211900000000002">
                        <ele>0</ele>
                        <time>2022-08-18T17:49:38Z</time>
                        <extensions>
    <sog>0.0</sog>
</extensions>
                    </trkpt>
                    <trkpt lat="54.400571666666664" lon="10.211925">
                        <ele>0</ele>
                        <time>2022-08-18T17:52:38Z</time>
                        <extensions>
    <sog>0.0</sog>
</extensions>
                    </trkpt>
                    <trkpt lat="54.400558333333336" lon="10.211928333333333">
                        <ele>0</ele>
                        <time>2022-08-18T17:55:38Z</time>
                        <extensions>
    <sog>0.0</sog>
</extensions>
                    </trkpt>
                    <trkpt lat="54.400565" lon="10.211916666666667">
                        <ele>0</ele>
                        <time>2022-08-18T17:58:37Z</time>
                        <extensions>
    <sog>0.0</sog>
</extensions>
                    </trkpt>
                    <trkpt lat="54.40056166666667" lon="10.211925">
                        <ele>0</ele>
                        <time>2022-08-18T18:01:38Z</time>
                        <extensions>
    <sog>0.0</sog>
</extensions>
                    </trkpt>
                    <trkpt lat="54.400560000000006" lon="10.211935">
                        <ele>0</ele>
                        <time>2022-08-18T18:04:40Z</time>
                        <extensions>
    <sog>0.0</sog>
</extensions>
                    </trkpt>
                    <trkpt lat="54.40056166666667" lon="10.211921666666665">
                        <ele>0</ele>
                        <time>2022-08-18T18:07:38Z</time>
                        <extensions>
    <sog>0.0</sog>
</extensions>
                    </trkpt>
                    <trkpt lat="54.40056166666667" lon="10.211921666666665">
                        <ele>0</ele>
                        <time>2022-08-18T18:10:38Z</time>
                        <extensions>
    <sog>0.0</sog>
</extensions>
                    </trkpt>
                    <trkpt lat="54.400555000000004" lon="10.21194">
                        <ele>0</ele>
                        <time>2022-08-18T18:13:39Z</time>
                        <extensions>
    <sog>0.0</sog>
</extensions>
                    </trkpt>
                    <trkpt lat="54.400558333333336" lon="10.211918333333333">
                        <ele>0</ele>
                        <time>2022-08-18T18:19:38Z</time>
                        <extensions>
    <sog>0.0</sog>
</extensions>
                    </trkpt>
                    <trkpt lat="54.400571666666664" lon="10.211915">
                        <ele>0</ele>
                        <time>2022-08-18T18:22:37Z</time>
                        <extensions>
    <sog>0.0</sog>
</extensions>
                    </trkpt>
                    <trkpt lat="54.400578333333335" lon="10.21192">
                        <ele>0</ele>
                        <time>2022-08-18T18:25:37Z</time>
                        <extensions>
    <sog>0.0</sog>
</extensions>
                    </trkpt>
                    <trkpt lat="54.400571666666664" lon="10.21192">
                        <ele>0</ele>
                        <time>2022-08-18T18:31:37Z</time>
                        <extensions>
    <sog>0.0</sog>
</extensions>
                    </trkpt>
                    <trkpt lat="54.400565" lon="10.21191">
                        <ele>0</ele>
                        <time>2022-08-18T18:37:39Z</time>
                        <extensions>
    <sog>0.0</sog>
</extensions>
                    </trkpt>
                    <trkpt lat="54.40056666666667" lon="10.211923333333335">
                        <ele>0</ele>
                        <time>2022-08-18T18:40:37Z</time>
                        <extensions>
    <sog>0.0</sog>
</extensions>
                    </trkpt>
                    <trkpt lat="54.40055666666667" lon="10.211918333333333">
                        <ele>0</ele>
                        <time>2022-08-18T18:43:37Z</time>
                        <extensions>
    <sog>0.0</sog>
</extensions>
                    </trkpt>
                    <trkpt lat="54.40056833333333" lon="10.211918333333333">
                        <ele>0</ele>
                        <time>2022-08-18T18:46:36Z</time>
                        <extensions>
    <sog>0.0</sog>
</extensions>
                    </trkpt>
                    <trkpt lat="54.400571666666664" lon="10.211911666666667">
                        <ele>0</ele>
                        <time>2022-08-18T18:49:38Z</time>
                        <extensions>
    <sog>0.1</sog>
</extensions>
                    </trkpt>
                    <trkpt lat="54.40056833333333" lon="10.211915">
                        <ele>0</ele>
                        <time>2022-08-18T18:52:40Z</time>
                        <extensions>
    <sog>0.0</sog>
</extensions>
                    </trkpt>
                    <trkpt lat="54.400575" lon="10.211916666666667">
                        <ele>0</ele>
                        <time>2022-08-18T18:58:38Z</time>
                        <extensions>
    <sog>0.0</sog>
</extensions>
                    </trkpt>
                    <trkpt lat="54.400585" lon="10.211923333333335">
                        <ele>0</ele>
                        <time>2022-08-18T19:01:39Z</time>
                        <extensions>
    <sog>0.0</sog>
</extensions>
                    </trkpt>
                    <trkpt lat="54.400578333333335" lon="10.211913333333333">
                        <ele>0</ele>
                        <time>2022-08-18T19:04:38Z</time>
                        <extensions>
    <sog>0.0</sog>
</extensions>
                    </trkpt>
                    <trkpt lat="54.400565" lon="10.211911666666667">
                        <ele>0</ele>
                        <time>2022-08-18T19:10:39Z</time>
                        <extensions>
    <sog>0.0</sog>
</extensions>
                    </trkpt>
                    <trkpt lat="54.40057" lon="10.21191">
                        <ele>0</ele>
                        <time>2022-08-18T19:13:36Z</time>
                        <extensions>
    <sog>0.0</sog>
</extensions>
                    </trkpt>
                    <trkpt lat="54.400571666666664" lon="10.211936666666666">
                        <ele>0</ele>
                        <time>2022-08-18T19:16:40Z</time>
                        <extensions>
    <sog>0.0</sog>
</extensions>
                    </trkpt>
                    <trkpt lat="54.40057" lon="10.211925">
                        <ele>0</ele>
                        <time>2022-08-18T19:22:38Z</time>
                        <extensions>
    <sog>0.0</sog>
</extensions>
                    </trkpt>
                    <trkpt lat="54.40056333333334" lon="10.211929999999999">
                        <ele>0</ele>
                        <time>2022-08-18T19:25:36Z</time>
                        <extensions>
    <sog>0.0</sog>
</extensions>
                    </trkpt>
                    <trkpt lat="54.400565" lon="10.21192">
                        <ele>0</ele>
                        <time>2022-08-18T19:28:38Z</time>
                        <extensions>
    <sog>0.0</sog>
</extensions>
                    </trkpt>
                    <trkpt lat="54.40058" lon="10.211925">
                        <ele>0</ele>
                        <time>2022-08-18T19:31:37Z</time>
                        <extensions>
    <sog>0.0</sog>
</extensions>
                    </trkpt>
                    <trkpt lat="54.40056166666667" lon="10.211906666666666">
                        <ele>0</ele>
                        <time>2022-08-18T19:34:39Z</time>
                        <extensions>
    <sog>0.0</sog>
</extensions>
                    </trkpt>
                    <trkpt lat="54.400575" lon="10.211916666666667">
                        <ele>0</ele>
                        <time>2022-08-18T19:40:38Z</time>
                        <extensions>
    <sog>0.0</sog>
</extensions>
                    </trkpt>
                    <trkpt lat="54.40057" lon="10.211905">
                        <ele>0</ele>
                        <time>2022-08-18T19:43:36Z</time>
                        <extensions>
    <sog>0.0</sog>
</extensions>
                    </trkpt>
                    <trkpt lat="54.40059" lon="10.211895">
                        <ele>0</ele>
                        <time>2022-08-18T19:46:36Z</time>
                        <extensions>
    <sog>0.0</sog>
</extensions>
                    </trkpt>
                    <trkpt lat="54.400575" lon="10.211929999999999">
                        <ele>0</ele>
                        <time>2022-08-18T19:55:37Z</time>
                        <extensions>
    <sog>0.0</sog>
</extensions>
                    </trkpt>
                    <trkpt lat="54.400571666666664" lon="10.211906666666666">
                        <ele>0</ele>
                        <time>2022-08-18T20:04:36Z</time>
                        <extensions>
    <sog>0.0</sog>
</extensions>
                    </trkpt>
                    <trkpt lat="54.400573333333334" lon="10.211921666666665">
                        <ele>0</ele>
                        <time>2022-08-18T20:07:39Z</time>
                        <extensions>
    <sog>0.0</sog>
</extensions>
                    </trkpt>
                    <trkpt lat="54.400575" lon="10.211931666666667">
                        <ele>0</ele>
                        <time>2022-08-18T20:10:38Z</time>
                        <extensions>
    <sog>0.0</sog>
</extensions>
                    </trkpt>
                    <trkpt lat="54.400596666666665" lon="10.211921666666665">
                        <ele>0</ele>
                        <time>2022-08-18T20:13:36Z</time>
                        <extensions>
    <sog>0.0</sog>
</extensions>
                    </trkpt>
                    <trkpt lat="54.400591666666664" lon="10.211933333333333">
                        <ele>0</ele>
                        <time>2022-08-18T20:16:38Z</time>
                        <extensions>
    <sog>0.0</sog>
</extensions>
                    </trkpt>
                    <trkpt lat="54.40058333333333" lon="10.211935">
                        <ele>0</ele>
                        <time>2022-08-18T20:19:38Z</time>
                        <extensions>
    <sog>0.0</sog>
</extensions>
                    </trkpt>
                    <trkpt lat="54.400594999999996" lon="10.211918333333333">
                        <ele>0</ele>
                        <time>2022-08-18T20:25:38Z</time>
                        <extensions>
    <sog>0.0</sog>
</extensions>
                    </trkpt>
                    <trkpt lat="54.40058166666667" lon="10.211929999999999">
                        <ele>0</ele>
                        <time>2022-08-18T20:37:37Z</time>
                        <extensions>
    <sog>0.0</sog>
</extensions>
                    </trkpt>
                    <trkpt lat="54.400621666666666" lon="10.211928333333333">
                        <ele>0</ele>
                        <time>2022-08-18T20:40:39Z</time>
                        <extensions>
    <sog>0.0</sog>
</extensions>
                    </trkpt>
                    <trkpt lat="54.40061333333333" lon="10.211935">
                        <ele>0</ele>
                        <time>2022-08-18T20:43:38Z</time>
                        <extensions>
    <sog>0.0</sog>
</extensions>
                    </trkpt>
                    <trkpt lat="54.40059833333333" lon="10.211925">
                        <ele>0</ele>
                        <time>2022-08-18T20:49:36Z</time>
                        <extensions>
    <sog>0.0</sog>
</extensions>
                    </trkpt>
                    <trkpt lat="54.400618333333334" lon="10.211929999999999">
                        <ele>0</ele>
                        <time>2022-08-18T20:52:36Z</time>
                        <extensions>
    <sog>0.0</sog>
</extensions>
                    </trkpt>
                    <trkpt lat="54.400591666666664" lon="10.211925">
                        <ele>0</ele>
                        <time>2022-08-18T20:58:38Z</time>
                        <extensions>
    <sog>0.0</sog>
</extensions>
                    </trkpt>
                    <trkpt lat="54.400596666666665" lon="10.211929999999999">
                        <ele>0</ele>
                        <time>2022-08-18T21:01:37Z</time>
                        <extensions>
    <sog>0.0</sog>
</extensions>
                    </trkpt>
                    <trkpt lat="54.40058666666666" lon="10.211933333333333">
                        <ele>0</ele>
                        <time>2022-08-18T21:04:36Z</time>
                        <extensions>
    <sog>0.0</sog>
</extensions>
                    </trkpt>
                    <trkpt lat="54.400591666666664" lon="10.211943333333332">
                        <ele>0</ele>
                        <time>2022-08-18T21:07:40Z</time>
                        <extensions>
    <sog>0.0</sog>
</extensions>
                    </trkpt>
                    <trkpt lat="54.40058333333333" lon="10.211935">
                        <ele>0</ele>
                        <time>2022-08-18T21:10:39Z</time>
                        <extensions>
    <sog>0.0</sog>
</extensions>
                    </trkpt>
                    <trkpt lat="54.40058" lon="10.211933333333333">
                        <ele>0</ele>
                        <time>2022-08-18T21:13:40Z</time>
                        <extensions>
    <sog>0.0</sog>
</extensions>
                    </trkpt>
                    <trkpt lat="54.400573333333334" lon="10.211929999999999">
                        <ele>0</ele>
                        <time>2022-08-18T21:16:38Z</time>
                        <extensions>
    <sog>0.0</sog>
</extensions>
                    </trkpt>
                    <trkpt lat="54.40056666666667" lon="10.211921666666665">
                        <ele>0</ele>
                        <time>2022-08-18T21:19:39Z</time>
                        <extensions>
    <sog>0.0</sog>
</extensions>
                    </trkpt>
                    <trkpt lat="54.400585" lon="10.211941666666666">
                        <ele>0</ele>
                        <time>2022-08-18T21:22:39Z</time>
                        <extensions>
    <sog>0.0</sog>
</extensions>
                    </trkpt>
                    <trkpt lat="54.40056833333333" lon="10.211935">
                        <ele>0</ele>
                        <time>2022-08-18T21:25:37Z</time>
                        <extensions>
    <sog>0.0</sog>
</extensions>
                    </trkpt>
                    <trkpt lat="54.40058166666667" lon="10.211923333333335">
                        <ele>0</ele>
                        <time>2022-08-18T21:28:38Z</time>
                        <extensions>
    <sog>0.0</sog>
</extensions>
                    </trkpt>
                    <trkpt lat="54.40058" lon="10.211931666666667">
                        <ele>0</ele>
                        <time>2022-08-18T21:31:36Z</time>
                        <extensions>
    <sog>0.0</sog>
</extensions>
                    </trkpt>
                    <trkpt lat="54.400578333333335" lon="10.211926666666667">
                        <ele>0</ele>
                        <time>2022-08-18T21:37:36Z</time>
                        <extensions>
    <sog>0.0</sog>
</extensions>
                    </trkpt>
                    <trkpt lat="54.40058166666667" lon="10.211926666666667">
                        <ele>0</ele>
                        <time>2022-08-18T21:40:39Z</time>
                        <extensions>
    <sog>0.0</sog>
</extensions>
                    </trkpt>
                    <trkpt lat="54.400578333333335" lon="10.211911666666667">
                        <ele>0</ele>
                        <time>2022-08-18T21:43:37Z</time>
                        <extensions>
    <sog>0.0</sog>
</extensions>
                    </trkpt>
                    <trkpt lat="54.40057" lon="10.211923333333335">
                        <ele>0</ele>
                        <time>2022-08-18T21:46:40Z</time>
                        <extensions>
    <sog>0.0</sog>
</extensions>
                    </trkpt>
                    <trkpt lat="54.400576666666666" lon="10.211923333333335">
                        <ele>0</ele>
                        <time>2022-08-18T21:49:39Z</time>
                        <extensions>
    <sog>0.0</sog>
</extensions>
                    </trkpt>
                    <trkpt lat="54.400576666666666" lon="10.211929999999999">
                        <ele>0</ele>
                        <time>2022-08-18T21:52:39Z</time>
                        <extensions>
    <sog>0.0</sog>
</extensions>
                    </trkpt>
                    <trkpt lat="54.400578333333335" lon="10.211926666666667">
                        <ele>0</ele>
                        <time>2022-08-18T21:55:36Z</time>
                        <extensions>
    <sog>0.0</sog>
</extensions>
                    </trkpt>
                    <trkpt lat="54.400575" lon="10.211918333333333">
                        <ele>0</ele>
                        <time>2022-08-18T22:01:37Z</time>
                        <extensions>
    <sog>0.0</sog>
</extensions>
                    </trkpt>
                    <trkpt lat="54.40056666666667" lon="10.211925">
                        <ele>0</ele>
                        <time>2022-08-18T22:07:37Z</time>
                        <extensions>
    <sog>0.0</sog>
</extensions>
                    </trkpt>
                    <trkpt lat="54.400575" lon="10.211913333333333">
                        <ele>0</ele>
                        <time>2022-08-18T22:10:36Z</time>
                        <extensions>
    <sog>0.0</sog>
</extensions>
                    </trkpt>
                    <trkpt lat="54.400558333333336" lon="10.211931666666667">
                        <ele>0</ele>
                        <time>2022-08-18T22:16:37Z</time>
                        <extensions>
    <sog>0.0</sog>
</extensions>
                    </trkpt>
                    <trkpt lat="54.400573333333334" lon="10.21191">
                        <ele>0</ele>
                        <time>2022-08-18T22:19:39Z</time>
                        <extensions>
    <sog>0.0</sog>
</extensions>
                    </trkpt>
                    <trkpt lat="54.40058" lon="10.211903333333334">
                        <ele>0</ele>
                        <time>2022-08-18T22:25:37Z</time>
                        <extensions>
    <sog>0.0</sog>
</extensions>
                    </trkpt>
                    <trkpt lat="54.400576666666666" lon="10.211918333333333">
                        <ele>0</ele>
                        <time>2022-08-18T22:28:37Z</time>
                        <extensions>
    <sog>0.0</sog>
</extensions>
                    </trkpt>
                    <trkpt lat="54.40058166666667" lon="10.211918333333333">
                        <ele>0</ele>
                        <time>2022-08-18T22:31:39Z</time>
                        <extensions>
    <sog>0.0</sog>
</extensions>
                    </trkpt>
                    <trkpt lat="54.40059333333333" lon="10.211900000000002">
                        <ele>0</ele>
                        <time>2022-08-18T22:34:38Z</time>
                        <extensions>
    <sog>0.0</sog>
</extensions>
                    </trkpt>
                    <trkpt lat="54.400576666666666" lon="10.21192">
                        <ele>0</ele>
                        <time>2022-08-18T22:37:37Z</time>
                        <extensions>
    <sog>0.0</sog>
</extensions>
                    </trkpt>
                    <trkpt lat="54.400565" lon="10.211921666666665">
                        <ele>0</ele>
                        <time>2022-08-18T22:40:37Z</time>
                        <extensions>
    <sog>0.0</sog>
</extensions>
                    </trkpt>
                    <trkpt lat="54.40058166666667" lon="10.211925">
                        <ele>0</ele>
                        <time>2022-08-18T22:46:40Z</time>
                        <extensions>
    <sog>0.0</sog>
</extensions>
                    </trkpt>
                    <trkpt lat="54.400560000000006" lon="10.211931666666667">
                        <ele>0</ele>
                        <time>2022-08-18T22:49:40Z</time>
                        <extensions>
    <sog>0.0</sog>
</extensions>
                    </trkpt>
                    <trkpt lat="54.40058" lon="10.211903333333334">
                        <ele>0</ele>
                        <time>2022-08-18T22:52:38Z</time>
                        <extensions>
    <sog>0.0</sog>
</extensions>
                    </trkpt>
                    <trkpt lat="54.400551666666665" lon="10.211928333333333">
                        <ele>0</ele>
                        <time>2022-08-18T22:58:39Z</time>
                        <extensions>
    <sog>0.0</sog>
</extensions>
                    </trkpt>
                    <trkpt lat="54.40056833333333" lon="10.211921666666665">
                        <ele>0</ele>
                        <time>2022-08-18T23:04:40Z</time>
                        <extensions>
    <sog>0.0</sog>
</extensions>
                    </trkpt>
                    <trkpt lat="54.400558333333336" lon="10.21194">
                        <ele>0</ele>
                        <time>2022-08-18T23:07:38Z</time>
                        <extensions>
    <sog>0.0</sog>
</extensions>
                    </trkpt>
                    <trkpt lat="54.400549999999996" lon="10.211935">
                        <ele>0</ele>
                        <time>2022-08-18T23:10:37Z</time>
                        <extensions>
    <sog>0.0</sog>
</extensions>
                    </trkpt>
                    <trkpt lat="54.40055333333333" lon="10.211933333333333">
                        <ele>0</ele>
                        <time>2022-08-18T23:13:37Z</time>
                        <extensions>
    <sog>0.0</sog>
</extensions>
                    </trkpt>
                    <trkpt lat="54.40054" lon="10.211951666666666">
                        <ele>0</ele>
                        <time>2022-08-18T23:25:39Z</time>
                        <extensions>
    <sog>0.0</sog>
</extensions>
                    </trkpt>
                    <trkpt lat="54.40055666666667" lon="10.211923333333335">
                        <ele>0</ele>
                        <time>2022-08-18T23:28:39Z</time>
                        <extensions>
    <sog>0.0</sog>
</extensions>
                    </trkpt>
                    <trkpt lat="54.400535" lon="10.211953333333334">
                        <ele>0</ele>
                        <time>2022-08-18T23:31:37Z</time>
                        <extensions>
    <sog>0.0</sog>
</extensions>
                    </trkpt>
                    <trkpt lat="54.40054333333333" lon="10.211936666666666">
                        <ele>0</ele>
                        <time>2022-08-18T23:34:38Z</time>
                        <extensions>
    <sog>0.0</sog>
</extensions>
                    </trkpt>
                    <trkpt lat="54.40054833333333" lon="10.211936666666666">
                        <ele>0</ele>
                        <time>2022-08-18T23:37:39Z</time>
                        <extensions>
    <sog>0.0</sog>
</extensions>
                    </trkpt>
                    <trkpt lat="54.40053666666667" lon="10.211933333333333">
                        <ele>0</ele>
                        <time>2022-08-18T23:40:38Z</time>
                        <extensions>
    <sog>0.0</sog>
</extensions>
                    </trkpt>
                    <trkpt lat="54.40053666666667" lon="10.211933333333333">
                        <ele>0</ele>
                        <time>2022-08-18T23:46:39Z</time>
                        <extensions>
    <sog>0.0</sog>
</extensions>
                    </trkpt>
                    <trkpt lat="54.40054" lon="10.21194">
                        <ele>0</ele>
                        <time>2022-08-18T23:52:39Z</time>
                        <extensions>
    <sog>0.0</sog>
</extensions>
                    </trkpt>
                    <trkpt lat="54.400526666666664" lon="10.211944999999998">
                        <ele>0</ele>
                        <time>2022-08-18T23:58:38Z</time>
                        <extensions>
    <sog>0.0</sog>
</extensions>
                    </trkpt>
                    </trkseg>
                </trk>
</gpx>