<?xml version="1.0" encoding="UTF-8"?>
<gpx version="1.1" creator="AIS-to-GPX Converter" xmlns="http://www.topografix.com/GPX/1/1">
                <trk>
                    <name>anon0126</name>
                    <trkseg>
                                            <trkpt lat="54.401468333333334" lon="10.214631666666666">
                        <ele>0</ele>
                        <time>2022-08-18T00:00:32Z</time>
                        <extensions>
    <sog>0.0</sog>
</extensions>
                    </trkpt>
                    <trkpt lat="54.40148333333333" lon="10.214651666666667">
                        <ele>0</ele>
                        <time>2022-08-18T00:03:34Z</time>
                        <extensions>
    <sog>0.0</sog>
</extensions>
                    </trkpt>
                    <trkpt lat="54.40149833333333" lon="10.214643333333333">
                        <ele>0</ele>
                        <time>2022-08-18T00:06:33Z</time>
                        <extensions>
    <sog>0.0</sog>
</extensions>
                    </trkpt>
                    <trkpt lat="54.40149666666667" lon="10.214641666666667">
                        <ele>0</ele>
                        <time>2022-08-18T00:09:33Z</time>
                        <extensions>
    <sog>0.0</sog>
</extensions>
                    </trkpt>
                    <trkpt lat="54.401516666666666" lon="10.214648333333335">
                        <ele>0</ele>
                        <time>2022-08-18T00:21:32Z</time>
                        <extensions>
    <sog>0.0</sog>
</extensions>
                    </trkpt>
                    <trkpt lat="54.401516666666666" lon="10.214671666666668">
                        <ele>0</ele>
                        <time>2022-08-18T00:24:32Z</time>
                        <extensions>
    <sog>0.1</sog>
</extensions>
                    </trkpt>
                    <trkpt lat="54.40152166666667" lon="10.21465">
                        <ele>0</ele>
                        <time>2022-08-18T00:27:32Z</time>
                        <extensions>
    <sog>0.0</sog>
</extensions>
                    </trkpt>
                    <trkpt lat="54.401489999999995" lon="10.214635">
                        <ele>0</ele>
                        <time>2022-08-18T00:33:32Z</time>
                        <extensions>
    <sog>0.1</sog>
</extensions>
                    </trkpt>
                    <trkpt lat="54.40150666666667" lon="10.214658333333334">
                        <ele>0</ele>
                        <time>2022-08-18T00:36:34Z</time>
                        <extensions>
    <sog>0.0</sog>
</extensions>
                    </trkpt>
                    <trkpt lat="54.401505" lon="10.214651666666667">
                        <ele>0</ele>
                        <time>2022-08-18T00:39:32Z</time>
                        <extensions>
    <sog>0.0</sog>
</extensions>
                    </trkpt>
                    <trkpt lat="54.40151166666667" lon="10.214656666666666">
                        <ele>0</ele>
                        <time>2022-08-18T00:45:32Z</time>
                        <extensions>
    <sog>0.0</sog>
</extensions>
                    </trkpt>
                    <trkpt lat="54.401516666666666" lon="10.214656666666666">
                        <ele>0</ele>
                        <time>2022-08-18T00:51:33Z</time>
                        <extensions>
    <sog>0.0</sog>
</extensions>
                    </trkpt>
                    <trkpt lat="54.40148333333333" lon="10.214654999999999">
                        <ele>0</ele>
                        <time>2022-08-18T00:57:33Z</time>
                        <extensions>
    <sog>0.1</sog>
</extensions>
                    </trkpt>
                    <trkpt lat="54.40151166666667" lon="10.214665">
                        <ele>0</ele>
                        <time>2022-08-18T01:00:33Z</time>
                        <extensions>
    <sog>0.0</sog>
</extensions>
                    </trkpt>
                    <trkpt lat="54.40151166666667" lon="10.214665">
                        <ele>0</ele>
                        <time>2022-08-18T01:00:33Z</time>
                        <extensions>
    <sog>0.0</sog>
</extensions>
                    </trkpt>
                    <trkpt lat="54.40150333333334" lon="10.214668333333332">
                        <ele>0</ele>
                        <time>2022-08-18T01:03:34Z</time>
                        <extensions>
    <sog>0.0</sog>
</extensions>
                    </trkpt>
                    <trkpt lat="54.40149666666667" lon="10.214656666666666">
                        <ele>0</ele>
                        <time>2022-08-18T01:09:32Z</time>
                        <extensions>
    <sog>0.0</sog>
</extensions>
                    </trkpt>
                    <trkpt lat="54.401505" lon="10.214636666666667">
                        <ele>0</ele>
                        <time>2022-08-18T01:12:34Z</time>
                        <extensions>
    <sog>0.1</sog>
</extensions>
                    </trkpt>
                    <trkpt lat="54.401515" lon="10.214635">
                        <ele>0</ele>
                        <time>2022-08-18T01:15:32Z</time>
                        <extensions>
    <sog>0.0</sog>
</extensions>
                    </trkpt>
                    <trkpt lat="54.401500000000006" lon="10.214621666666666">
                        <ele>0</ele>
                        <time>2022-08-18T01:21:32Z</time>
                        <extensions>
    <sog>0.0</sog>
</extensions>
                    </trkpt>
                    <trkpt lat="54.40149666666667" lon="10.214635">
                        <ele>0</ele>
                        <time>2022-08-18T01:27:32Z</time>
                        <extensions>
    <sog>0.0</sog>
</extensions>
                    </trkpt>
                    <trkpt lat="54.401505" lon="10.214635">
                        <ele>0</ele>
                        <time>2022-08-18T01:33:32Z</time>
                        <extensions>
    <sog>0.0</sog>
</extensions>
                    </trkpt>
                    <trkpt lat="54.401500000000006" lon="10.214633333333333">
                        <ele>0</ele>
                        <time>2022-08-18T01:36:33Z</time>
                        <extensions>
    <sog>0.0</sog>
</extensions>
                    </trkpt>
                    <trkpt lat="54.401513333333334" lon="10.214618333333334">
                        <ele>0</ele>
                        <time>2022-08-18T01:39:35Z</time>
                        <extensions>
    <sog>0.0</sog>
</extensions>
                    </trkpt>
                    <trkpt lat="54.401485" lon="10.214626666666668">
                        <ele>0</ele>
                        <time>2022-08-18T01:45:33Z</time>
                        <extensions>
    <sog>0.1</sog>
</extensions>
                    </trkpt>
                    <trkpt lat="54.401491666666665" lon="10.214648333333335">
                        <ele>0</ele>
                        <time>2022-08-18T01:51:33Z</time>
                        <extensions>
    <sog>0.0</sog>
</extensions>
                    </trkpt>
                    <trkpt lat="54.401500000000006" lon="10.214661666666666">
                        <ele>0</ele>
                        <time>2022-08-18T02:03:33Z</time>
                        <extensions>
    <sog>0.0</sog>
</extensions>
                    </trkpt>
                    <trkpt lat="54.40148666666666" lon="10.214661666666666">
                        <ele>0</ele>
                        <time>2022-08-18T02:06:33Z</time>
                        <extensions>
    <sog>0.0</sog>
</extensions>
                    </trkpt>
                    <trkpt lat="54.40149666666667" lon="10.214646666666665">
                        <ele>0</ele>
                        <time>2022-08-18T02:09:35Z</time>
                        <extensions>
    <sog>0.0</sog>
</extensions>
                    </trkpt>
                    <trkpt lat="54.401534999999996" lon="10.214638333333333">
                        <ele>0</ele>
                        <time>2022-08-18T02:15:32Z</time>
                        <extensions>
    <sog>0.1</sog>
</extensions>
                    </trkpt>
                    <trkpt lat="54.40152166666667" lon="10.214625000000002">
                        <ele>0</ele>
                        <time>2022-08-18T02:27:33Z</time>
                        <extensions>
    <sog>0.0</sog>
</extensions>
                    </trkpt>
                    <trkpt lat="54.401505" lon="10.214631666666666">
                        <ele>0</ele>
                        <time>2022-08-18T02:30:32Z</time>
                        <extensions>
    <sog>0.0</sog>
</extensions>
                    </trkpt>
                    <trkpt lat="54.40150166666667" lon="10.214633333333333">
                        <ele>0</ele>
                        <time>2022-08-18T02:33:34Z</time>
                        <extensions>
    <sog>0.0</sog>
</extensions>
                    </trkpt>
                    <trkpt lat="54.40150166666667" lon="10.214631666666666">
                        <ele>0</ele>
                        <time>2022-08-18T02:36:32Z</time>
                        <extensions>
    <sog>0.0</sog>
</extensions>
                    </trkpt>
                    <trkpt lat="54.40149833333333" lon="10.214638333333333">
                        <ele>0</ele>
                        <time>2022-08-18T02:39:32Z</time>
                        <extensions>
    <sog>0.1</sog>
</extensions>
                    </trkpt>
                    <trkpt lat="54.40148833333333" lon="10.214623333333332">
                        <ele>0</ele>
                        <time>2022-08-18T02:45:33Z</time>
                        <extensions>
    <sog>0.1</sog>
</extensions>
                    </trkpt>
                    <trkpt lat="54.401491666666665" lon="10.214643333333333">
                        <ele>0</ele>
                        <time>2022-08-18T02:51:32Z</time>
                        <extensions>
    <sog>0.0</sog>
</extensions>
                    </trkpt>
                    <trkpt lat="54.401491666666665" lon="10.214633333333333">
                        <ele>0</ele>
                        <time>2022-08-18T02:54:33Z</time>
                        <extensions>
    <sog>0.0</sog>
</extensions>
                    </trkpt>
                    <trkpt lat="54.401491666666665" lon="10.214626666666668">
                        <ele>0</ele>
                        <time>2022-08-18T02:57:33Z</time>
                        <extensions>
    <sog>0.0</sog>
</extensions>
                    </trkpt>
                    <trkpt lat="54.401495" lon="10.21462">
                        <ele>0</ele>
                        <time>2022-08-18T03:03:33Z</time>
                        <extensions>
    <sog>0.0</sog>
</extensions>
                    </trkpt>
                    <trkpt lat="54.40150166666667" lon="10.21463">
                        <ele>0</ele>
                        <time>2022-08-18T03:06:33Z</time>
                        <extensions>
    <sog>0.0</sog>
</extensions>
                    </trkpt>
                    <trkpt lat="54.40151166666667" lon="10.21461">
                        <ele>0</ele>
                        <time>2022-08-18T03:09:32Z</time>
                        <extensions>
    <sog>0.1</sog>
</extensions>
                    </trkpt>
                    <trkpt lat="54.40150333333334" lon="10.214633333333333">
                        <ele>0</ele>
                        <time>2022-08-18T03:15:33Z</time>
                        <extensions>
    <sog>0.1</sog>
</extensions>
                    </trkpt>
                    <trkpt lat="54.401475" lon="10.214623333333332">
                        <ele>0</ele>
                        <time>2022-08-18T03:18:35Z</time>
                        <extensions>
    <sog>0.0</sog>
</extensions>
                    </trkpt>
                    <trkpt lat="54.401471666666666" lon="10.214626666666668">
                        <ele>0</ele>
                        <time>2022-08-18T03:21:32Z</time>
                        <extensions>
    <sog>0.0</sog>
</extensions>
                    </trkpt>
                    <trkpt lat="54.401475" lon="10.214654999999999">
                        <ele>0</ele>
                        <time>2022-08-18T03:30:33Z</time>
                        <extensions>
    <sog>0.0</sog>
</extensions>
                    </trkpt>
                    <trkpt lat="54.401491666666665" lon="10.214638333333333">
                        <ele>0</ele>
                        <time>2022-08-18T03:45:32Z</time>
                        <extensions>
    <sog>0.0</sog>
</extensions>
                    </trkpt>
                    <trkpt lat="54.401495" lon="10.214641666666667">
                        <ele>0</ele>
                        <time>2022-08-18T03:51:34Z</time>
                        <extensions>
    <sog>0.8</sog>
</extensions>
                    </trkpt>
                    <trkpt lat="54.40150833333333" lon="10.214616666666666">
                        <ele>0</ele>
                        <time>2022-08-18T03:54:33Z</time>
                        <extensions>
    <sog>0.1</sog>
</extensions>
                    </trkpt>
                    <trkpt lat="54.40149666666667" lon="10.214635">
                        <ele>0</ele>
                        <time>2022-08-18T04:03:33Z</time>
                        <extensions>
    <sog>0.1</sog>
</extensions>
                    </trkpt>
                    <trkpt lat="54.40144166666666" lon="10.21465">
                        <ele>0</ele>
                        <time>2022-08-18T04:09:32Z</time>
                        <extensions>
    <sog>0.0</sog>
</extensions>
                    </trkpt>
                    <trkpt lat="54.401475" lon="10.214640000000001">
                        <ele>0</ele>
                        <time>2022-08-18T04:24:33Z</time>
                        <extensions>
    <sog>0.0</sog>
</extensions>
                    </trkpt>
                    <trkpt lat="54.40144333333333" lon="10.214644999999999">
                        <ele>0</ele>
                        <time>2022-08-18T04:27:33Z</time>
                        <extensions>
    <sog>0.0</sog>
</extensions>
                    </trkpt>
                    <trkpt lat="54.40147833333333" lon="10.21465">
                        <ele>0</ele>
                        <time>2022-08-18T04:33:32Z</time>
                        <extensions>
    <sog>0.0</sog>
</extensions>
                    </trkpt>
                    <trkpt lat="54.40146333333333" lon="10.214646666666665">
                        <ele>0</ele>
                        <time>2022-08-18T04:39:32Z</time>
                        <extensions>
    <sog>0.0</sog>
</extensions>
                    </trkpt>
                    <trkpt lat="54.401455000000006" lon="10.214654999999999">
                        <ele>0</ele>
                        <time>2022-08-18T04:48:35Z</time>
                        <extensions>
    <sog>0.2</sog>
</extensions>
                    </trkpt>
                    <trkpt lat="54.401485" lon="10.214636666666667">
                        <ele>0</ele>
                        <time>2022-08-18T04:54:33Z</time>
                        <extensions>
    <sog>0.1</sog>
</extensions>
                    </trkpt>
                    <trkpt lat="54.401468333333334" lon="10.214635">
                        <ele>0</ele>
                        <time>2022-08-18T05:06:33Z</time>
                        <extensions>
    <sog>0.1</sog>
</extensions>
                    </trkpt>
                    <trkpt lat="54.40146166666667" lon="10.214640000000001">
                        <ele>0</ele>
                        <time>2022-08-18T05:09:33Z</time>
                        <extensions>
    <sog>0.0</sog>
</extensions>
                    </trkpt>
                    <trkpt lat="54.40144333333333" lon="10.21466">
                        <ele>0</ele>
                        <time>2022-08-18T05:15:34Z</time>
                        <extensions>
    <sog>0.0</sog>
</extensions>
                    </trkpt>
                    <trkpt lat="54.40150166666667" lon="10.214646666666665">
                        <ele>0</ele>
                        <time>2022-08-18T05:18:34Z</time>
                        <extensions>
    <sog>0.1</sog>
</extensions>
                    </trkpt>
                    <trkpt lat="54.40152333333333" lon="10.214666666666666">
                        <ele>0</ele>
                        <time>2022-08-18T05:21:33Z</time>
                        <extensions>
    <sog>0.1</sog>
</extensions>
                    </trkpt>
                    <trkpt lat="54.401471666666666" lon="10.214644999999999">
                        <ele>0</ele>
                        <time>2022-08-18T05:30:33Z</time>
                        <extensions>
    <sog>0.1</sog>
</extensions>
                    </trkpt>
                    <trkpt lat="54.40148333333333" lon="10.214641666666667">
                        <ele>0</ele>
                        <time>2022-08-18T05:39:33Z</time>
                        <extensions>
    <sog>0.1</sog>
</extensions>
                    </trkpt>
                    <trkpt lat="54.401473333333335" lon="10.214651666666667">
                        <ele>0</ele>
                        <time>2022-08-18T05:42:33Z</time>
                        <extensions>
    <sog>0.0</sog>
</extensions>
                    </trkpt>
                    <trkpt lat="54.401455000000006" lon="10.214625000000002">
                        <ele>0</ele>
                        <time>2022-08-18T05:51:32Z</time>
                        <extensions>
    <sog>0.1</sog>
</extensions>
                    </trkpt>
                    <trkpt lat="54.40149666666667" lon="10.21463">
                        <ele>0</ele>
                        <time>2022-08-18T05:54:33Z</time>
                        <extensions>
    <sog>0.1</sog>
</extensions>
                    </trkpt>
                    <trkpt lat="54.401475" lon="10.214651666666667">
                        <ele>0</ele>
                        <time>2022-08-18T05:57:33Z</time>
                        <extensions>
    <sog>0.0</sog>
</extensions>
                    </trkpt>
                    <trkpt lat="54.40146666666667" lon="10.214638333333333">
                        <ele>0</ele>
                        <time>2022-08-18T06:00:33Z</time>
                        <extensions>
    <sog>0.0</sog>
</extensions>
                    </trkpt>
                    <trkpt lat="54.40146666666667" lon="10.214638333333333">
                        <ele>0</ele>
                        <time>2022-08-18T06:00:33Z</time>
                        <extensions>
    <sog>0.0</sog>
</extensions>
                    </trkpt>
                    <trkpt lat="54.40148833333333" lon="10.214623333333332">
                        <ele>0</ele>
                        <time>2022-08-18T06:03:33Z</time>
                        <extensions>
    <sog>0.0</sog>
</extensions>
                    </trkpt>
                    <trkpt lat="54.40147666666667" lon="10.214665">
                        <ele>0</ele>
                        <time>2022-08-18T06:09:33Z</time>
                        <extensions>
    <sog>0.0</sog>
</extensions>
                    </trkpt>
                    <trkpt lat="54.40147833333333" lon="10.214628333333334">
                        <ele>0</ele>
                        <time>2022-08-18T06:15:32Z</time>
                        <extensions>
    <sog>0.0</sog>
</extensions>
                    </trkpt>
                    <trkpt lat="54.40148833333333" lon="10.214631666666666">
                        <ele>0</ele>
                        <time>2022-08-18T06:21:35Z</time>
                        <extensions>
    <sog>0.0</sog>
</extensions>
                    </trkpt>
                    <trkpt lat="54.401489999999995" lon="10.214631666666666">
                        <ele>0</ele>
                        <time>2022-08-18T06:24:33Z</time>
                        <extensions>
    <sog>0.0</sog>
</extensions>
                    </trkpt>
                    <trkpt lat="54.40148833333333" lon="10.21463">
                        <ele>0</ele>
                        <time>2022-08-18T06:27:33Z</time>
                        <extensions>
    <sog>0.0</sog>
</extensions>
                    </trkpt>
                    <trkpt lat="54.401491666666665" lon="10.21463">
                        <ele>0</ele>
                        <time>2022-08-18T06:30:35Z</time>
                        <extensions>
    <sog>0.3</sog>
</extensions>
                    </trkpt>
                    <trkpt lat="54.40149333333333" lon="10.21463">
                        <ele>0</ele>
                        <time>2022-08-18T06:36:33Z</time>
                        <extensions>
    <sog>0.1</sog>
</extensions>
                    </trkpt>
                    <trkpt lat="54.401495" lon="10.214635">
                        <ele>0</ele>
                        <time>2022-08-18T06:39:33Z</time>
                        <extensions>
    <sog>0.0</sog>
</extensions>
                    </trkpt>
                    <trkpt lat="54.401495" lon="10.214646666666665">
                        <ele>0</ele>
                        <time>2022-08-18T06:45:33Z</time>
                        <extensions>
    <sog>0.0</sog>
</extensions>
                    </trkpt>
                    <trkpt lat="54.40150333333334" lon="10.214651666666667">
                        <ele>0</ele>
                        <time>2022-08-18T06:54:32Z</time>
                        <extensions>
    <sog>0.0</sog>
</extensions>
                    </trkpt>
                    <trkpt lat="54.40148166666667" lon="10.214651666666667">
                        <ele>0</ele>
                        <time>2022-08-18T06:57:32Z</time>
                        <extensions>
    <sog>0.0</sog>
</extensions>
                    </trkpt>
                    <trkpt lat="54.40148666666666" lon="10.214651666666667">
                        <ele>0</ele>
                        <time>2022-08-18T07:03:33Z</time>
                        <extensions>
    <sog>0.0</sog>
</extensions>
                    </trkpt>
                    <trkpt lat="54.401495" lon="10.214653333333333">
                        <ele>0</ele>
                        <time>2022-08-18T07:06:33Z</time>
                        <extensions>
    <sog>0.2</sog>
</extensions>
                    </trkpt>
                    <trkpt lat="54.40148166666667" lon="10.214651666666667">
                        <ele>0</ele>
                        <time>2022-08-18T07:09:35Z</time>
                        <extensions>
    <sog>0.1</sog>
</extensions>
                    </trkpt>
                    <trkpt lat="54.40148666666666" lon="10.214656666666666">
                        <ele>0</ele>
                        <time>2022-08-18T07:12:32Z</time>
                        <extensions>
    <sog>0.1</sog>
</extensions>
                    </trkpt>
                    <trkpt lat="54.40148166666667" lon="10.214668333333332">
                        <ele>0</ele>
                        <time>2022-08-18T07:15:32Z</time>
                                                <extensions>
                            <sog>1.0</sog>
<cog>51.7</cog>
                        </extensions>
                    </trkpt>
                    <trkpt lat="54.401485" lon="10.21465">
                        <ele>0</ele>
                        <time>2022-08-18T07:21:33Z</time>
                        <extensions>
    <sog>0.1</sog>
</extensions>
                    </trkpt>
                    <trkpt lat="54.401485" lon="10.214651666666667">
                        <ele>0</ele>
                        <time>2022-08-18T07:27:34Z</time>
                        <extensions>
    <sog>0.0</sog>
</extensions>
                    </trkpt>
                    <trkpt lat="54.40149833333333" lon="10.214644999999999">
                        <ele>0</ele>
                        <time>2022-08-18T07:33:33Z</time>
                        <extensions>
    <sog>0.0</sog>
</extensions>
                    </trkpt>
                    <trkpt lat="54.40148" lon="10.214665">
                        <ele>0</ele>
                        <time>2022-08-18T07:42:33Z</time>
                        <extensions>
    <sog>0.0</sog>
</extensions>
                    </trkpt>
                    <trkpt lat="54.401475" lon="10.214653333333333">
                        <ele>0</ele>
                        <time>2022-08-18T07:45:32Z</time>
                        <extensions>
    <sog>0.0</sog>
</extensions>
                    </trkpt>
                    <trkpt lat="54.40148833333333" lon="10.214654999999999">
                        <ele>0</ele>
                        <time>2022-08-18T07:57:35Z</time>
                        <extensions>
    <sog>0.0</sog>
</extensions>
                    </trkpt>
                    <trkpt lat="54.40150333333334" lon="10.214648333333335">
                        <ele>0</ele>
                        <time>2022-08-18T08:03:33Z</time>
                        <extensions>
    <sog>0.0</sog>
</extensions>
                    </trkpt>
                    <trkpt lat="54.40149666666667" lon="10.21465">
                        <ele>0</ele>
                        <time>2022-08-18T08:09:32Z</time>
                        <extensions>
    <sog>0.0</sog>
</extensions>
                    </trkpt>
                    <trkpt lat="54.40152" lon="10.21463">
                        <ele>0</ele>
                        <time>2022-08-18T08:12:33Z</time>
                        <extensions>
    <sog>0.1</sog>
</extensions>
                    </trkpt>
                    <trkpt lat="54.40148" lon="10.214651666666667">
                        <ele>0</ele>
                        <time>2022-08-18T08:18:33Z</time>
                        <extensions>
    <sog>0.0</sog>
</extensions>
                    </trkpt>
                    <trkpt lat="54.401468333333334" lon="10.214665">
                        <ele>0</ele>
                        <time>2022-08-18T08:21:34Z</time>
                        <extensions>
    <sog>0.1</sog>
</extensions>
                    </trkpt>
                    <trkpt lat="54.40146333333333" lon="10.214663333333334">
                        <ele>0</ele>
                        <time>2022-08-18T08:27:34Z</time>
                        <extensions>
    <sog>0.0</sog>
</extensions>
                    </trkpt>
                    <trkpt lat="54.40147" lon="10.214675">
                        <ele>0</ele>
                        <time>2022-08-18T08:30:36Z</time>
                        <extensions>
    <sog>0.0</sog>
</extensions>
                    </trkpt>
                    <trkpt lat="54.401475" lon="10.214661666666666">
                        <ele>0</ele>
                        <time>2022-08-18T08:33:35Z</time>
                        <extensions>
    <sog>0.1</sog>
</extensions>
                    </trkpt>
                    <trkpt lat="54.40145666666667" lon="10.21465">
                        <ele>0</ele>
                        <time>2022-08-18T08:39:33Z</time>
                        <extensions>
    <sog>0.0</sog>
</extensions>
                    </trkpt>
                    <trkpt lat="54.40146666666667" lon="10.214663333333334">
                        <ele>0</ele>
                        <time>2022-08-18T08:45:36Z</time>
                        <extensions>
    <sog>0.0</sog>
</extensions>
                    </trkpt>
                    <trkpt lat="54.401475" lon="10.214671666666668">
                        <ele>0</ele>
                        <time>2022-08-18T08:48:33Z</time>
                        <extensions>
    <sog>0.0</sog>
</extensions>
                    </trkpt>
                    <trkpt lat="54.401471666666666" lon="10.214651666666667">
                        <ele>0</ele>
                        <time>2022-08-18T09:00:35Z</time>
                        <extensions>
    <sog>0.0</sog>
</extensions>
                    </trkpt>
                    <trkpt lat="54.401471666666666" lon="10.214651666666667">
                        <ele>0</ele>
                        <time>2022-08-18T09:00:35Z</time>
                        <extensions>
    <sog>0.0</sog>
</extensions>
                    </trkpt>
                    <trkpt lat="54.401465" lon="10.214651666666667">
                        <ele>0</ele>
                        <time>2022-08-18T09:03:34Z</time>
                        <extensions>
    <sog>0.0</sog>
</extensions>
                    </trkpt>
                    <trkpt lat="54.401485" lon="10.214643333333333">
                        <ele>0</ele>
                        <time>2022-08-18T09:06:35Z</time>
                        <extensions>
    <sog>0.0</sog>
</extensions>
                    </trkpt>
                    <trkpt lat="54.40149833333333" lon="10.214646666666665">
                        <ele>0</ele>
                        <time>2022-08-18T09:15:34Z</time>
                        <extensions>
    <sog>0.0</sog>
</extensions>
                    </trkpt>
                    <trkpt lat="54.40148" lon="10.214635">
                        <ele>0</ele>
                        <time>2022-08-18T09:21:32Z</time>
                        <extensions>
    <sog>0.0</sog>
</extensions>
                    </trkpt>
                    <trkpt lat="54.40151" lon="10.214606666666667">
                        <ele>0</ele>
                        <time>2022-08-18T09:33:33Z</time>
                        <extensions>
    <sog>0.1</sog>
</extensions>
                    </trkpt>
                    <trkpt lat="54.40148" lon="10.214651666666667">
                        <ele>0</ele>
                        <time>2022-08-18T09:36:32Z</time>
                        <extensions>
    <sog>0.1</sog>
</extensions>
                    </trkpt>
                    <trkpt lat="54.401475" lon="10.214683333333333">
                        <ele>0</ele>
                        <time>2022-08-18T09:39:33Z</time>
                        <extensions>
    <sog>0.0</sog>
</extensions>
                    </trkpt>
                    <trkpt lat="54.401489999999995" lon="10.214646666666665">
                        <ele>0</ele>
                        <time>2022-08-18T09:42:35Z</time>
                        <extensions>
    <sog>0.0</sog>
</extensions>
                    </trkpt>
                    <trkpt lat="54.40148" lon="10.21465">
                        <ele>0</ele>
                        <time>2022-08-18T09:45:34Z</time>
                        <extensions>
    <sog>0.0</sog>
</extensions>
                    </trkpt>
                    <trkpt lat="54.401489999999995" lon="10.214648333333335">
                        <ele>0</ele>
                        <time>2022-08-18T09:48:33Z</time>
                        <extensions>
    <sog>0.0</sog>
</extensions>
                    </trkpt>
                    <trkpt lat="54.40148166666667" lon="10.21465">
                        <ele>0</ele>
                        <time>2022-08-18T09:57:34Z</time>
                        <extensions>
    <sog>0.0</sog>
</extensions>
                    </trkpt>
                    <trkpt lat="54.40147" lon="10.214641666666667">
                        <ele>0</ele>
                        <time>2022-08-18T10:06:33Z</time>
                        <extensions>
    <sog>0.0</sog>
</extensions>
                    </trkpt>
                    <trkpt lat="54.40148" lon="10.214641666666667">
                        <ele>0</ele>
                        <time>2022-08-18T10:09:33Z</time>
                        <extensions>
    <sog>0.0</sog>
</extensions>
                    </trkpt>
                    <trkpt lat="54.401475" lon="10.21468">
                        <ele>0</ele>
                        <time>2022-08-18T10:12:34Z</time>
                        <extensions>
    <sog>0.0</sog>
</extensions>
                    </trkpt>
                    <trkpt lat="54.40149333333333" lon="10.214621666666666">
                        <ele>0</ele>
                        <time>2022-08-18T10:18:36Z</time>
                        <extensions>
    <sog>0.0</sog>
</extensions>
                    </trkpt>
                    <trkpt lat="54.40151" lon="10.214631666666666">
                        <ele>0</ele>
                        <time>2022-08-18T10:27:33Z</time>
                        <extensions>
    <sog>0.0</sog>
</extensions>
                    </trkpt>
                    <trkpt lat="54.401515" lon="10.21463">
                        <ele>0</ele>
                        <time>2022-08-18T10:39:34Z</time>
                        <extensions>
    <sog>0.2</sog>
</extensions>
                    </trkpt>
                    <trkpt lat="54.401500000000006" lon="10.214683333333333">
                        <ele>0</ele>
                        <time>2022-08-18T10:48:33Z</time>
                        <extensions>
    <sog>0.0</sog>
</extensions>
                    </trkpt>
                    <trkpt lat="54.401495" lon="10.214665">
                        <ele>0</ele>
                        <time>2022-08-18T10:51:33Z</time>
                        <extensions>
    <sog>0.0</sog>
</extensions>
                    </trkpt>
                    <trkpt lat="54.40148833333333" lon="10.214676666666666">
                        <ele>0</ele>
                        <time>2022-08-18T10:57:33Z</time>
                        <extensions>
    <sog>0.0</sog>
</extensions>
                    </trkpt>
                    <trkpt lat="54.401525" lon="10.214611666666666">
                        <ele>0</ele>
                        <time>2022-08-18T11:06:33Z</time>
                        <extensions>
    <sog>0.0</sog>
</extensions>
                    </trkpt>
                    <trkpt lat="54.401516666666666" lon="10.21463">
                        <ele>0</ele>
                        <time>2022-08-18T11:18:33Z</time>
                        <extensions>
    <sog>0.0</sog>
</extensions>
                    </trkpt>
                    <trkpt lat="54.40149333333333" lon="10.214648333333335">
                        <ele>0</ele>
                        <time>2022-08-18T11:21:33Z</time>
                        <extensions>
    <sog>0.0</sog>
</extensions>
                    </trkpt>
                    <trkpt lat="54.40150166666667" lon="10.21463">
                        <ele>0</ele>
                        <time>2022-08-18T11:24:34Z</time>
                        <extensions>
    <sog>0.0</sog>
</extensions>
                    </trkpt>
                    <trkpt lat="54.40150166666667" lon="10.214648333333335">
                        <ele>0</ele>
                        <time>2022-08-18T11:33:33Z</time>
                        <extensions>
    <sog>0.1</sog>
</extensions>
                    </trkpt>
                    <trkpt lat="54.40150666666667" lon="10.214658333333334">
                        <ele>0</ele>
                        <time>2022-08-18T11:51:35Z</time>
                        <extensions>
    <sog>0.0</sog>
</extensions>
                    </trkpt>
                    <trkpt lat="54.40149833333333" lon="10.214608333333333">
                        <ele>0</ele>
                        <time>2022-08-18T11:57:34Z</time>
                        <extensions>
    <sog>0.0</sog>
</extensions>
                    </trkpt>
                    <trkpt lat="54.40149833333333" lon="10.21466">
                        <ele>0</ele>
                        <time>2022-08-18T12:03:33Z</time>
                        <extensions>
    <sog>0.0</sog>
</extensions>
                    </trkpt>
                    <trkpt lat="54.40149666666667" lon="10.214628333333334">
                        <ele>0</ele>
                        <time>2022-08-18T12:09:33Z</time>
                        <extensions>
    <sog>0.0</sog>
</extensions>
                    </trkpt>
                    <trkpt lat="54.401471666666666" lon="10.214671666666668">
                        <ele>0</ele>
                        <time>2022-08-18T12:18:33Z</time>
                        <extensions>
    <sog>0.0</sog>
</extensions>
                    </trkpt>
                    <trkpt lat="54.40148333333333" lon="10.214646666666665">
                        <ele>0</ele>
                        <time>2022-08-18T12:21:33Z</time>
                        <extensions>
    <sog>0.0</sog>
</extensions>
                    </trkpt>
                    <trkpt lat="54.401475" lon="10.21465">
                        <ele>0</ele>
                        <time>2022-08-18T12:27:33Z</time>
                        <extensions>
    <sog>0.0</sog>
</extensions>
                    </trkpt>
                    <trkpt lat="54.40147666666667" lon="10.214644999999999">
                        <ele>0</ele>
                        <time>2022-08-18T12:30:33Z</time>
                        <extensions>
    <sog>0.0</sog>
</extensions>
                    </trkpt>
                    <trkpt lat="54.401491666666665" lon="10.214628333333334">
                        <ele>0</ele>
                        <time>2022-08-18T12:33:34Z</time>
                        <extensions>
    <sog>0.1</sog>
</extensions>
                    </trkpt>
                    <trkpt lat="54.40148166666667" lon="10.214636666666667">
                        <ele>0</ele>
                        <time>2022-08-18T12:36:33Z</time>
                        <extensions>
    <sog>0.0</sog>
</extensions>
                    </trkpt>
                    <trkpt lat="54.40147833333333" lon="10.214648333333335">
                        <ele>0</ele>
                        <time>2022-08-18T12:39:35Z</time>
                        <extensions>
    <sog>0.0</sog>
</extensions>
                    </trkpt>
                    <trkpt lat="54.40146666666667" lon="10.214671666666668">
                        <ele>0</ele>
                        <time>2022-08-18T12:42:33Z</time>
                        <extensions>
    <sog>0.1</sog>
</extensions>
                    </trkpt>
                    <trkpt lat="54.40148166666667" lon="10.214653333333333">
                        <ele>0</ele>
                        <time>2022-08-18T12:45:33Z</time>
                        <extensions>
    <sog>0.0</sog>
</extensions>
                    </trkpt>
                    <trkpt lat="54.40148166666667" lon="10.214641666666667">
                        <ele>0</ele>
                        <time>2022-08-18T12:48:34Z</time>
                        <extensions>
    <sog>0.0</sog>
</extensions>
                    </trkpt>
                    <trkpt lat="54.40148333333333" lon="10.214678333333334">
                        <ele>0</ele>
                        <time>2022-08-18T13:00:33Z</time>
                        <extensions>
    <sog>0.0</sog>
</extensions>
                    </trkpt>
                    <trkpt lat="54.40148333333333" lon="10.214678333333334">
                        <ele>0</ele>
                        <time>2022-08-18T13:00:33Z</time>
                        <extensions>
    <sog>0.0</sog>
</extensions>
                    </trkpt>
                    <trkpt lat="54.40148833333333" lon="10.214654999999999">
                        <ele>0</ele>
                        <time>2022-08-18T13:06:33Z</time>
                        <extensions>
    <sog>0.0</sog>
</extensions>
                    </trkpt>
                    <trkpt lat="54.40148833333333" lon="10.214644999999999">
                        <ele>0</ele>
                        <time>2022-08-18T13:09:34Z</time>
                        <extensions>
    <sog>0.0</sog>
</extensions>
                    </trkpt>
                    <trkpt lat="54.401513333333334" lon="10.214635">
                        <ele>0</ele>
                        <time>2022-08-18T13:18:32Z</time>
                        <extensions>
    <sog>0.0</sog>
</extensions>
                    </trkpt>
                    <trkpt lat="54.401516666666666" lon="10.214625000000002">
                        <ele>0</ele>
                        <time>2022-08-18T13:21:33Z</time>
                        <extensions>
    <sog>0.0</sog>
</extensions>
                    </trkpt>
                    <trkpt lat="54.40148833333333" lon="10.21467">
                        <ele>0</ele>
                        <time>2022-08-18T13:27:32Z</time>
                        <extensions>
    <sog>0.0</sog>
</extensions>
                    </trkpt>
                    <trkpt lat="54.40147833333333" lon="10.214681666666667">
                        <ele>0</ele>
                        <time>2022-08-18T13:30:33Z</time>
                        <extensions>
    <sog>0.2</sog>
</extensions>
                    </trkpt>
                    <trkpt lat="54.40147666666667" lon="10.214671666666668">
                        <ele>0</ele>
                        <time>2022-08-18T13:33:34Z</time>
                        <extensions>
    <sog>0.0</sog>
</extensions>
                    </trkpt>
                    <trkpt lat="54.40148" lon="10.214681666666667">
                        <ele>0</ele>
                        <time>2022-08-18T13:36:33Z</time>
                        <extensions>
    <sog>0.2</sog>
</extensions>
                    </trkpt>
                    <trkpt lat="54.401473333333335" lon="10.214683333333333">
                        <ele>0</ele>
                        <time>2022-08-18T13:45:34Z</time>
                        <extensions>
    <sog>0.2</sog>
</extensions>
                    </trkpt>
                    <trkpt lat="54.40151166666667" lon="10.214648333333335">
                        <ele>0</ele>
                        <time>2022-08-18T13:48:32Z</time>
                        <extensions>
    <sog>0.0</sog>
</extensions>
                    </trkpt>
                    <trkpt lat="54.40146333333333" lon="10.21469">
                        <ele>0</ele>
                        <time>2022-08-18T13:54:33Z</time>
                        <extensions>
    <sog>0.0</sog>
</extensions>
                    </trkpt>
                    <trkpt lat="54.40147" lon="10.21465">
                        <ele>0</ele>
                        <time>2022-08-18T13:57:34Z</time>
                        <extensions>
    <sog>0.0</sog>
</extensions>
                    </trkpt>
                    <trkpt lat="54.40147833333333" lon="10.214654999999999">
                        <ele>0</ele>
                        <time>2022-08-18T14:03:34Z</time>
                        <extensions>
    <sog>0.1</sog>
</extensions>
                    </trkpt>
                    <trkpt lat="54.40148166666667" lon="10.214628333333334">
                        <ele>0</ele>
                        <time>2022-08-18T14:09:34Z</time>
                        <extensions>
    <sog>0.1</sog>
</extensions>
                    </trkpt>
                    <trkpt lat="54.401455000000006" lon="10.214633333333333">
                        <ele>0</ele>
                        <time>2022-08-18T14:12:33Z</time>
                        <extensions>
    <sog>0.0</sog>
</extensions>
                    </trkpt>
                    <trkpt lat="54.40145666666667" lon="10.214643333333333">
                        <ele>0</ele>
                        <time>2022-08-18T14:15:33Z</time>
                        <extensions>
    <sog>0.1</sog>
</extensions>
                    </trkpt>
                    <trkpt lat="54.40145" lon="10.214615">
                        <ele>0</ele>
                        <time>2022-08-18T14:18:33Z</time>
                        <extensions>
    <sog>0.0</sog>
</extensions>
                    </trkpt>
                    <trkpt lat="54.40145" lon="10.214628333333334">
                        <ele>0</ele>
                        <time>2022-08-18T14:21:33Z</time>
                        <extensions>
    <sog>0.0</sog>
</extensions>
                    </trkpt>
                    <trkpt lat="54.401465" lon="10.214665">
                        <ele>0</ele>
                        <time>2022-08-18T14:24:34Z</time>
                        <extensions>
    <sog>0.1</sog>
</extensions>
                    </trkpt>
                    <trkpt lat="54.401455000000006" lon="10.214658333333334">
                        <ele>0</ele>
                        <time>2022-08-18T14:27:33Z</time>
                        <extensions>
    <sog>0.1</sog>
</extensions>
                    </trkpt>
                    <trkpt lat="54.40145833333334" lon="10.214643333333333">
                        <ele>0</ele>
                        <time>2022-08-18T14:30:33Z</time>
                        <extensions>
    <sog>0.0</sog>
</extensions>
                    </trkpt>
                    <trkpt lat="54.40147833333333" lon="10.214644999999999">
                        <ele>0</ele>
                        <time>2022-08-18T14:39:34Z</time>
                        <extensions>
    <sog>0.2</sog>
</extensions>
                    </trkpt>
                    <trkpt lat="54.401485" lon="10.214653333333333">
                        <ele>0</ele>
                        <time>2022-08-18T14:45:33Z</time>
                        <extensions>
    <sog>0.0</sog>
</extensions>
                    </trkpt>
                    <trkpt lat="54.401471666666666" lon="10.214644999999999">
                        <ele>0</ele>
                        <time>2022-08-18T14:51:33Z</time>
                        <extensions>
    <sog>0.1</sog>
</extensions>
                    </trkpt>
                    <trkpt lat="54.40147833333333" lon="10.214646666666665">
                        <ele>0</ele>
                        <time>2022-08-18T14:54:34Z</time>
                        <extensions>
    <sog>0.0</sog>
</extensions>
                    </trkpt>
                    <trkpt lat="54.401475" lon="10.214661666666666">
                        <ele>0</ele>
                        <time>2022-08-18T14:57:33Z</time>
                        <extensions>
    <sog>0.0</sog>
</extensions>
                    </trkpt>
                    <trkpt lat="54.40148166666667" lon="10.21465">
                        <ele>0</ele>
                        <time>2022-08-18T15:03:33Z</time>
                        <extensions>
    <sog>0.0</sog>
</extensions>
                    </trkpt>
                    <trkpt lat="54.40147" lon="10.214656666666666">
                        <ele>0</ele>
                        <time>2022-08-18T15:09:34Z</time>
                        <extensions>
    <sog>0.0</sog>
</extensions>
                    </trkpt>
                    <trkpt lat="54.401485" lon="10.214666666666666">
                        <ele>0</ele>
                        <time>2022-08-18T15:12:34Z</time>
                        <extensions>
    <sog>0.0</sog>
</extensions>
                    </trkpt>
                    <trkpt lat="54.401489999999995" lon="10.214678333333334">
                        <ele>0</ele>
                        <time>2022-08-18T15:24:33Z</time>
                        <extensions>
    <sog>0.0</sog>
</extensions>
                    </trkpt>
                    <trkpt lat="54.40146333333333" lon="10.214683333333333">
                        <ele>0</ele>
                        <time>2022-08-18T15:30:34Z</time>
                        <extensions>
    <sog>0.0</sog>
</extensions>
                    </trkpt>
                    <trkpt lat="54.401471666666666" lon="10.21468">
                        <ele>0</ele>
                        <time>2022-08-18T15:33:34Z</time>
                        <extensions>
    <sog>0.0</sog>
</extensions>
                    </trkpt>
                    <trkpt lat="54.40146666666667" lon="10.214673333333334">
                        <ele>0</ele>
                        <time>2022-08-18T15:36:33Z</time>
                        <extensions>
    <sog>0.0</sog>
</extensions>
                    </trkpt>
                    <trkpt lat="54.40147833333333" lon="10.21466">
                        <ele>0</ele>
                        <time>2022-08-18T15:39:34Z</time>
                        <extensions>
    <sog>0.0</sog>
</extensions>
                    </trkpt>
                    <trkpt lat="54.40147666666667" lon="10.214653333333333">
                        <ele>0</ele>
                        <time>2022-08-18T15:42:33Z</time>
                        <extensions>
    <sog>0.0</sog>
</extensions>
                    </trkpt>
                    <trkpt lat="54.40148333333333" lon="10.214685">
                        <ele>0</ele>
                        <time>2022-08-18T15:48:33Z</time>
                        <extensions>
    <sog>0.0</sog>
</extensions>
                    </trkpt>
                    <trkpt lat="54.40148666666666" lon="10.214675">
                        <ele>0</ele>
                        <time>2022-08-18T15:51:33Z</time>
                        <extensions>
    <sog>0.0</sog>
</extensions>
                    </trkpt>
                    <trkpt lat="54.401485" lon="10.21468">
                        <ele>0</ele>
                        <time>2022-08-18T15:54:33Z</time>
                        <extensions>
    <sog>0.0</sog>
</extensions>
                    </trkpt>
                    <trkpt lat="54.40147" lon="10.214673333333334">
                        <ele>0</ele>
                        <time>2022-08-18T15:57:33Z</time>
                        <extensions>
    <sog>0.0</sog>
</extensions>
                    </trkpt>
                    <trkpt lat="54.40147833333333" lon="10.214668333333332">
                        <ele>0</ele>
                        <time>2022-08-18T16:00:33Z</time>
                        <extensions>
    <sog>0.0</sog>
</extensions>
                    </trkpt>
                    <trkpt lat="54.40147833333333" lon="10.214668333333332">
                        <ele>0</ele>
                        <time>2022-08-18T16:00:33Z</time>
                        <extensions>
    <sog>0.0</sog>
</extensions>
                    </trkpt>
                    <trkpt lat="54.401475" lon="10.214654999999999">
                        <ele>0</ele>
                        <time>2022-08-18T16:03:33Z</time>
                        <extensions>
    <sog>0.0</sog>
</extensions>
                    </trkpt>
                    <trkpt lat="54.40146666666667" lon="10.214678333333334">
                        <ele>0</ele>
                        <time>2022-08-18T16:09:35Z</time>
                        <extensions>
    <sog>0.0</sog>
</extensions>
                    </trkpt>
                    <trkpt lat="54.40147" lon="10.214671666666668">
                        <ele>0</ele>
                        <time>2022-08-18T16:12:33Z</time>
                        <extensions>
    <sog>0.0</sog>
</extensions>
                    </trkpt>
                    <trkpt lat="54.401473333333335" lon="10.214675">
                        <ele>0</ele>
                        <time>2022-08-18T16:15:34Z</time>
                        <extensions>
    <sog>0.0</sog>
</extensions>
                    </trkpt>
                    <trkpt lat="54.40146" lon="10.214665">
                        <ele>0</ele>
                        <time>2022-08-18T16:21:33Z</time>
                        <extensions>
    <sog>0.0</sog>
</extensions>
                    </trkpt>
                    <trkpt lat="54.40146" lon="10.21468">
                        <ele>0</ele>
                        <time>2022-08-18T16:24:35Z</time>
                        <extensions>
    <sog>0.0</sog>
</extensions>
                    </trkpt>
                    <trkpt lat="54.40145666666667" lon="10.214676666666666">
                        <ele>0</ele>
                        <time>2022-08-18T16:27:33Z</time>
                        <extensions>
    <sog>0.0</sog>
</extensions>
                    </trkpt>
                    <trkpt lat="54.401465" lon="10.214691666666665">
                        <ele>0</ele>
                        <time>2022-08-18T16:33:33Z</time>
                        <extensions>
    <sog>0.0</sog>
</extensions>
                    </trkpt>
                    <trkpt lat="54.401468333333334" lon="10.214678333333334">
                        <ele>0</ele>
                        <time>2022-08-18T16:36:33Z</time>
                        <extensions>
    <sog>0.0</sog>
</extensions>
                    </trkpt>
                    <trkpt lat="54.40147" lon="10.21468">
                        <ele>0</ele>
                        <time>2022-08-18T16:39:33Z</time>
                        <extensions>
    <sog>0.0</sog>
</extensions>
                    </trkpt>
                    <trkpt lat="54.40148" lon="10.214661666666666">
                        <ele>0</ele>
                        <time>2022-08-18T16:45:33Z</time>
                        <extensions>
    <sog>0.0</sog>
</extensions>
                    </trkpt>
                    <trkpt lat="54.40146666666667" lon="10.214663333333334">
                        <ele>0</ele>
                        <time>2022-08-18T16:48:33Z</time>
                        <extensions>
    <sog>0.0</sog>
</extensions>
                    </trkpt>
                    <trkpt lat="54.40148166666667" lon="10.214671666666668">
                        <ele>0</ele>
                        <time>2022-08-18T16:57:33Z</time>
                        <extensions>
    <sog>0.0</sog>
</extensions>
                    </trkpt>
                    <trkpt lat="54.40147" lon="10.214646666666665">
                        <ele>0</ele>
                        <time>2022-08-18T17:00:36Z</time>
                        <extensions>
    <sog>0.0</sog>
</extensions>
                    </trkpt>
                    <trkpt lat="54.40147" lon="10.214646666666665">
                        <ele>0</ele>
                        <time>2022-08-18T17:00:36Z</time>
                        <extensions>
    <sog>0.0</sog>
</extensions>
                    </trkpt>
                    <trkpt lat="54.40145833333334" lon="10.214641666666667">
                        <ele>0</ele>
                        <time>2022-08-18T17:03:33Z</time>
                        <extensions>
    <sog>0.0</sog>
</extensions>
                    </trkpt>
                    <trkpt lat="54.401471666666666" lon="10.214675">
                        <ele>0</ele>
                        <time>2022-08-18T17:09:33Z</time>
                        <extensions>
    <sog>0.0</sog>
</extensions>
                    </trkpt>
                    <trkpt lat="54.401489999999995" lon="10.214638333333333">
                        <ele>0</ele>
                        <time>2022-08-18T17:15:34Z</time>
                        <extensions>
    <sog>0.0</sog>
</extensions>
                    </trkpt>
                    <trkpt lat="54.40148166666667" lon="10.214653333333333">
                        <ele>0</ele>
                        <time>2022-08-18T17:18:33Z</time>
                        <extensions>
    <sog>0.0</sog>
</extensions>
                    </trkpt>
                    <trkpt lat="54.40148166666667" lon="10.214666666666666">
                        <ele>0</ele>
                        <time>2022-08-18T17:24:35Z</time>
                        <extensions>
    <sog>0.0</sog>
</extensions>
                    </trkpt>
                    <trkpt lat="54.40148833333333" lon="10.214661666666666">
                        <ele>0</ele>
                        <time>2022-08-18T17:27:33Z</time>
                        <extensions>
    <sog>0.0</sog>
</extensions>
                    </trkpt>
                    <trkpt lat="54.40148166666667" lon="10.214686666666667">
                        <ele>0</ele>
                        <time>2022-08-18T17:33:33Z</time>
                        <extensions>
    <sog>0.0</sog>
</extensions>
                    </trkpt>
                    <trkpt lat="54.401489999999995" lon="10.21468">
                        <ele>0</ele>
                        <time>2022-08-18T17:36:33Z</time>
                        <extensions>
    <sog>0.0</sog>
</extensions>
                    </trkpt>
                    <trkpt lat="54.401489999999995" lon="10.214683333333333">
                        <ele>0</ele>
                        <time>2022-08-18T17:39:33Z</time>
                        <extensions>
    <sog>0.1</sog>
</extensions>
                    </trkpt>
                    <trkpt lat="54.40147833333333" lon="10.214663333333334">
                        <ele>0</ele>
                        <time>2022-08-18T17:42:34Z</time>
                        <extensions>
    <sog>0.1</sog>
</extensions>
                    </trkpt>
                    <trkpt lat="54.40149666666667" lon="10.21468">
                        <ele>0</ele>
                        <time>2022-08-18T17:45:34Z</time>
                        <extensions>
    <sog>0.0</sog>
</extensions>
                    </trkpt>
                    <trkpt lat="54.401500000000006" lon="10.214658333333334">
                        <ele>0</ele>
                        <time>2022-08-18T17:51:33Z</time>
                        <extensions>
    <sog>0.0</sog>
</extensions>
                    </trkpt>
                    <trkpt lat="54.40148833333333" lon="10.214676666666666">
                        <ele>0</ele>
                        <time>2022-08-18T18:00:33Z</time>
                        <extensions>
    <sog>0.2</sog>
</extensions>
                    </trkpt>
                    <trkpt lat="54.40148833333333" lon="10.214676666666666">
                        <ele>0</ele>
                        <time>2022-08-18T18:00:33Z</time>
                        <extensions>
    <sog>0.2</sog>
</extensions>
                    </trkpt>
                    <trkpt lat="54.40147833333333" lon="10.214646666666665">
                        <ele>0</ele>
                        <time>2022-08-18T18:03:33Z</time>
                        <extensions>
    <sog>0.0</sog>
</extensions>
                    </trkpt>
                    <trkpt lat="54.40148166666667" lon="10.214656666666666">
                        <ele>0</ele>
                        <time>2022-08-18T18:06:33Z</time>
                        <extensions>
    <sog>0.0</sog>
</extensions>
                    </trkpt>
                    <trkpt lat="54.40148166666667" lon="10.214658333333334">
                        <ele>0</ele>
                        <time>2022-08-18T18:09:34Z</time>
                        <extensions>
    <sog>0.0</sog>
</extensions>
                    </trkpt>
                    <trkpt lat="54.40148833333333" lon="10.21465">
                        <ele>0</ele>
                        <time>2022-08-18T18:12:34Z</time>
                        <extensions>
    <sog>0.0</sog>
</extensions>
                    </trkpt>
                    <trkpt lat="54.401489999999995" lon="10.214658333333334">
                        <ele>0</ele>
                        <time>2022-08-18T18:18:34Z</time>
                        <extensions>
    <sog>0.0</sog>
</extensions>
                    </trkpt>
                    <trkpt lat="54.40149666666667" lon="10.214648333333335">
                        <ele>0</ele>
                        <time>2022-08-18T18:21:33Z</time>
                        <extensions>
    <sog>0.0</sog>
</extensions>
                    </trkpt>
                    <trkpt lat="54.40150333333334" lon="10.214636666666667">
                        <ele>0</ele>
                        <time>2022-08-18T18:24:33Z</time>
                        <extensions>
    <sog>0.0</sog>
</extensions>
                    </trkpt>
                    <trkpt lat="54.401495" lon="10.214656666666666">
                        <ele>0</ele>
                        <time>2022-08-18T18:30:34Z</time>
                        <extensions>
    <sog>0.0</sog>
</extensions>
                    </trkpt>
                    <trkpt lat="54.40148833333333" lon="10.21466">
                        <ele>0</ele>
                        <time>2022-08-18T18:33:33Z</time>
                        <extensions>
    <sog>0.0</sog>
</extensions>
                    </trkpt>
                    <trkpt lat="54.401473333333335" lon="10.214673333333334">
                        <ele>0</ele>
                        <time>2022-08-18T18:36:34Z</time>
                        <extensions>
    <sog>0.0</sog>
</extensions>
                    </trkpt>
                    <trkpt lat="54.40148833333333" lon="10.214663333333334">
                        <ele>0</ele>
                        <time>2022-08-18T18:51:35Z</time>
                        <extensions>
    <sog>0.0</sog>
</extensions>
                    </trkpt>
                    <trkpt lat="54.40148166666667" lon="10.21465">
                        <ele>0</ele>
                        <time>2022-08-18T18:54:33Z</time>
                        <extensions>
    <sog>0.0</sog>
</extensions>
                    </trkpt>
                    <trkpt lat="54.40148666666666" lon="10.214668333333332">
                        <ele>0</ele>
                        <time>2022-08-18T19:00:33Z</time>
                        <extensions>
    <sog>0.0</sog>
</extensions>
                    </trkpt>
                    <trkpt lat="54.40148666666666" lon="10.214668333333332">
                        <ele>0</ele>
                        <time>2022-08-18T19:00:33Z</time>
                        <extensions>
    <sog>0.0</sog>
</extensions>
                    </trkpt>
                    <trkpt lat="54.401491666666665" lon="10.214663333333334">
                        <ele>0</ele>
                        <time>2022-08-18T19:03:36Z</time>
                        <extensions>
    <sog>0.0</sog>
</extensions>
                    </trkpt>
                    <trkpt lat="54.40148166666667" lon="10.21467">
                        <ele>0</ele>
                        <time>2022-08-18T19:09:33Z</time>
                        <extensions>
    <sog>0.0</sog>
</extensions>
                    </trkpt>
                    <trkpt lat="54.401489999999995" lon="10.214666666666666">
                        <ele>0</ele>
                        <time>2022-08-18T19:15:33Z</time>
                        <extensions>
    <sog>0.0</sog>
</extensions>
                    </trkpt>
                    <trkpt lat="54.401489999999995" lon="10.214673333333334">
                        <ele>0</ele>
                        <time>2022-08-18T19:18:33Z</time>
                        <extensions>
    <sog>0.1</sog>
</extensions>
                    </trkpt>
                    <trkpt lat="54.40149333333333" lon="10.214671666666668">
                        <ele>0</ele>
                        <time>2022-08-18T19:27:33Z</time>
                        <extensions>
    <sog>0.0</sog>
</extensions>
                    </trkpt>
                    <trkpt lat="54.40149666666667" lon="10.21466">
                        <ele>0</ele>
                        <time>2022-08-18T19:30:35Z</time>
                        <extensions>
    <sog>0.0</sog>
</extensions>
                    </trkpt>
                    <trkpt lat="54.40148" lon="10.214658333333334">
                        <ele>0</ele>
                        <time>2022-08-18T19:39:34Z</time>
                        <extensions>
    <sog>0.1</sog>
</extensions>
                    </trkpt>
                    <trkpt lat="54.401485" lon="10.214668333333332">
                        <ele>0</ele>
                        <time>2022-08-18T19:42:33Z</time>
                        <extensions>
    <sog>0.0</sog>
</extensions>
                    </trkpt>
                    <trkpt lat="54.401471666666666" lon="10.214673333333334">
                        <ele>0</ele>
                        <time>2022-08-18T19:51:34Z</time>
                        <extensions>
    <sog>0.0</sog>
</extensions>
                    </trkpt>
                    <trkpt lat="54.40148833333333" lon="10.21466">
                        <ele>0</ele>
                        <time>2022-08-18T19:57:33Z</time>
                        <extensions>
    <sog>0.0</sog>
</extensions>
                    </trkpt>
                    <trkpt lat="54.401468333333334" lon="10.214666666666666">
                        <ele>0</ele>
                        <time>2022-08-18T20:03:33Z</time>
                        <extensions>
    <sog>0.0</sog>
</extensions>
                    </trkpt>
                    <trkpt lat="54.40145833333334" lon="10.214646666666665">
                        <ele>0</ele>
                        <time>2022-08-18T20:18:33Z</time>
                        <extensions>
    <sog>0.0</sog>
</extensions>
                    </trkpt>
                    <trkpt lat="54.40148833333333" lon="10.214658333333334">
                        <ele>0</ele>
                        <time>2022-08-18T20:21:34Z</time>
                        <extensions>
    <sog>0.1</sog>
</extensions>
                    </trkpt>
                    <trkpt lat="54.40149833333333" lon="10.214651666666667">
                        <ele>0</ele>
                        <time>2022-08-18T20:24:35Z</time>
                        <extensions>
    <sog>0.3</sog>
</extensions>
                    </trkpt>
                    <trkpt lat="54.401473333333335" lon="10.21467">
                        <ele>0</ele>
                        <time>2022-08-18T20:30:33Z</time>
                        <extensions>
    <sog>0.1</sog>
</extensions>
                    </trkpt>
                    <trkpt lat="54.401485" lon="10.214673333333334">
                        <ele>0</ele>
                        <time>2022-08-18T20:33:33Z</time>
                        <extensions>
    <sog>0.1</sog>
</extensions>
                    </trkpt>
                    <trkpt lat="54.40145333333333" lon="10.214658333333334">
                        <ele>0</ele>
                        <time>2022-08-18T20:36:35Z</time>
                        <extensions>
    <sog>0.0</sog>
</extensions>
                    </trkpt>
                    <trkpt lat="54.401500000000006" lon="10.21467">
                        <ele>0</ele>
                        <time>2022-08-18T20:42:33Z</time>
                        <extensions>
    <sog>0.1</sog>
</extensions>
                    </trkpt>
                    <trkpt lat="54.40147666666667" lon="10.214668333333332">
                        <ele>0</ele>
                        <time>2022-08-18T20:45:34Z</time>
                        <extensions>
    <sog>0.0</sog>
</extensions>
                    </trkpt>
                    <trkpt lat="54.40145833333334" lon="10.21467">
                        <ele>0</ele>
                        <time>2022-08-18T20:48:34Z</time>
                        <extensions>
    <sog>0.0</sog>
</extensions>
                    </trkpt>
                    <trkpt lat="54.401475" lon="10.214654999999999">
                        <ele>0</ele>
                        <time>2022-08-18T20:51:33Z</time>
                        <extensions>
    <sog>0.0</sog>
</extensions>
                    </trkpt>
                    <trkpt lat="54.40148666666666" lon="10.214654999999999">
                        <ele>0</ele>
                        <time>2022-08-18T20:54:33Z</time>
                        <extensions>
    <sog>0.0</sog>
</extensions>
                    </trkpt>
                    <trkpt lat="54.401500000000006" lon="10.214656666666666">
                        <ele>0</ele>
                        <time>2022-08-18T21:03:34Z</time>
                        <extensions>
    <sog>0.0</sog>
</extensions>
                    </trkpt>
                    <trkpt lat="54.40149666666667" lon="10.214644999999999">
                        <ele>0</ele>
                        <time>2022-08-18T21:06:34Z</time>
                        <extensions>
    <sog>0.0</sog>
</extensions>
                    </trkpt>
                    <trkpt lat="54.40151166666667" lon="10.214654999999999">
                        <ele>0</ele>
                        <time>2022-08-18T21:09:33Z</time>
                        <extensions>
    <sog>0.0</sog>
</extensions>
                    </trkpt>
                    <trkpt lat="54.40149833333333" lon="10.214671666666668">
                        <ele>0</ele>
                        <time>2022-08-18T21:12:35Z</time>
                        <extensions>
    <sog>0.0</sog>
</extensions>
                    </trkpt>
                    <trkpt lat="54.40149833333333" lon="10.214654999999999">
                        <ele>0</ele>
                        <time>2022-08-18T21:21:33Z</time>
                        <extensions>
    <sog>0.0</sog>
</extensions>
                    </trkpt>
                    <trkpt lat="54.40150666666667" lon="10.214644999999999">
                        <ele>0</ele>
                        <time>2022-08-18T21:24:34Z</time>
                        <extensions>
    <sog>0.0</sog>
</extensions>
                    </trkpt>
                    <trkpt lat="54.40150666666667" lon="10.214643333333333">
                        <ele>0</ele>
                        <time>2022-08-18T21:27:33Z</time>
                        <extensions>
    <sog>0.0</sog>
</extensions>
                    </trkpt>
                    <trkpt lat="54.40154" lon="10.214641666666667">
                        <ele>0</ele>
                        <time>2022-08-18T21:39:34Z</time>
                        <extensions>
    <sog>0.0</sog>
</extensions>
                    </trkpt>
                    <trkpt lat="54.40154666666667" lon="10.214665">
                        <ele>0</ele>
                        <time>2022-08-18T21:42:33Z</time>
                        <extensions>
    <sog>0.0</sog>
</extensions>
                    </trkpt>
                    <trkpt lat="54.40151166666667" lon="10.214653333333333">
                        <ele>0</ele>
                        <time>2022-08-18T21:51:34Z</time>
                        <extensions>
    <sog>0.1</sog>
</extensions>
                    </trkpt>
                    <trkpt lat="54.401491666666665" lon="10.214644999999999">
                        <ele>0</ele>
                        <time>2022-08-18T21:57:34Z</time>
                        <extensions>
    <sog>0.0</sog>
</extensions>
                    </trkpt>
                    <trkpt lat="54.40149833333333" lon="10.214641666666667">
                        <ele>0</ele>
                        <time>2022-08-18T22:03:37Z</time>
                        <extensions>
    <sog>0.0</sog>
</extensions>
                    </trkpt>
                    <trkpt lat="54.401495" lon="10.214635">
                        <ele>0</ele>
                        <time>2022-08-18T22:09:33Z</time>
                        <extensions>
    <sog>0.0</sog>
</extensions>
                    </trkpt>
                    <trkpt lat="54.401471666666666" lon="10.214685">
                        <ele>0</ele>
                        <time>2022-08-18T22:18:33Z</time>
                        <extensions>
    <sog>0.0</sog>
</extensions>
                    </trkpt>
                    <trkpt lat="54.40148333333333" lon="10.214685">
                        <ele>0</ele>
                        <time>2022-08-18T22:24:34Z</time>
                        <extensions>
    <sog>0.1</sog>
</extensions>
                    </trkpt>
                    <trkpt lat="54.40148833333333" lon="10.214686666666667">
                        <ele>0</ele>
                        <time>2022-08-18T22:27:34Z</time>
                        <extensions>
    <sog>0.0</sog>
</extensions>
                    </trkpt>
                    <trkpt lat="54.40150333333334" lon="10.214646666666665">
                        <ele>0</ele>
                        <time>2022-08-18T22:36:33Z</time>
                        <extensions>
    <sog>0.0</sog>
</extensions>
                    </trkpt>
                    <trkpt lat="54.40148666666666" lon="10.214633333333333">
                        <ele>0</ele>
                        <time>2022-08-18T22:45:33Z</time>
                        <extensions>
    <sog>0.0</sog>
</extensions>
                    </trkpt>
                    <trkpt lat="54.40150666666667" lon="10.214636666666667">
                        <ele>0</ele>
                        <time>2022-08-18T22:48:33Z</time>
                        <extensions>
    <sog>0.0</sog>
</extensions>
                    </trkpt>
                    <trkpt lat="54.40147833333333" lon="10.214653333333333">
                        <ele>0</ele>
                        <time>2022-08-18T22:51:34Z</time>
                        <extensions>
    <sog>0.1</sog>
</extensions>
                    </trkpt>
                    <trkpt lat="54.401495" lon="10.214653333333333">
                        <ele>0</ele>
                        <time>2022-08-18T22:57:34Z</time>
                        <extensions>
    <sog>0.0</sog>
</extensions>
                    </trkpt>
                    <trkpt lat="54.40150333333334" lon="10.214643333333333">
                        <ele>0</ele>
                        <time>2022-08-18T23:00:33Z</time>
                        <extensions>
    <sog>0.0</sog>
</extensions>
                    </trkpt>
                    <trkpt lat="54.40150333333334" lon="10.214643333333333">
                        <ele>0</ele>
                        <time>2022-08-18T23:00:33Z</time>
                        <extensions>
    <sog>0.0</sog>
</extensions>
                    </trkpt>
                    <trkpt lat="54.401505" lon="10.21467">
                        <ele>0</ele>
                        <time>2022-08-18T23:03:34Z</time>
                        <extensions>
    <sog>0.1</sog>
</extensions>
                    </trkpt>
                    <trkpt lat="54.401525" lon="10.214654999999999">
                        <ele>0</ele>
                        <time>2022-08-18T23:06:34Z</time>
                        <extensions>
    <sog>0.0</sog>
</extensions>
                    </trkpt>
                    <trkpt lat="54.40150166666667" lon="10.214643333333333">
                        <ele>0</ele>
                        <time>2022-08-18T23:09:35Z</time>
                        <extensions>
    <sog>0.1</sog>
</extensions>
                    </trkpt>
                    <trkpt lat="54.40150833333333" lon="10.214633333333333">
                        <ele>0</ele>
                        <time>2022-08-18T23:12:35Z</time>
                        <extensions>
    <sog>0.3</sog>
</extensions>
                    </trkpt>
                    <trkpt lat="54.401513333333334" lon="10.214648333333335">
                        <ele>0</ele>
                        <time>2022-08-18T23:15:35Z</time>
                        <extensions>
    <sog>0.1</sog>
</extensions>
                    </trkpt>
                    <trkpt lat="54.40151166666667" lon="10.214640000000001">
                        <ele>0</ele>
                        <time>2022-08-18T23:18:33Z</time>
                        <extensions>
    <sog>0.1</sog>
</extensions>
                    </trkpt>
                    <trkpt lat="54.40148666666666" lon="10.214651666666667">
                        <ele>0</ele>
                        <time>2022-08-18T23:21:33Z</time>
                        <extensions>
    <sog>0.1</sog>
</extensions>
                    </trkpt>
                    <trkpt lat="54.40151166666667" lon="10.214640000000001">
                        <ele>0</ele>
                        <time>2022-08-18T23:24:33Z</time>
                        <extensions>
    <sog>0.0</sog>
</extensions>
                    </trkpt>
                    <trkpt lat="54.40148333333333" lon="10.214681666666667">
                        <ele>0</ele>
                        <time>2022-08-18T23:27:33Z</time>
                        <extensions>
    <sog>0.0</sog>
</extensions>
                    </trkpt>
                    <trkpt lat="54.401500000000006" lon="10.214640000000001">
                        <ele>0</ele>
                        <time>2022-08-18T23:30:33Z</time>
                        <extensions>
    <sog>0.0</sog>
</extensions>
                    </trkpt>
                    <trkpt lat="54.40147" lon="10.214666666666666">
                        <ele>0</ele>
                        <time>2022-08-18T23:33:34Z</time>
                        <extensions>
    <sog>0.1</sog>
</extensions>
                    </trkpt>
                    <trkpt lat="54.401475" lon="10.214665">
                        <ele>0</ele>
                        <time>2022-08-18T23:39:34Z</time>
                        <extensions>
    <sog>0.1</sog>
</extensions>
                    </trkpt>
                    <trkpt lat="54.40145666666667" lon="10.214686666666667">
                        <ele>0</ele>
                        <time>2022-08-18T23:42:33Z</time>
                        <extensions>
    <sog>0.0</sog>
</extensions>
                    </trkpt>
                    <trkpt lat="54.40145" lon="10.214678333333334">
                        <ele>0</ele>
                        <time>2022-08-18T23:45:34Z</time>
                        <extensions>
    <sog>0.0</sog>
</extensions>
                    </trkpt>
                    <trkpt lat="54.401489999999995" lon="10.214651666666667">
                        <ele>0</ele>
                        <time>2022-08-18T23:48:34Z</time>
                        <extensions>
    <sog>0.0</sog>
</extensions>
                    </trkpt>
                    <trkpt lat="54.401475" lon="10.214656666666666">
                        <ele>0</ele>
                        <time>2022-08-18T23:51:34Z</time>
                        <extensions>
    <sog>0.1</sog>
</extensions>
                    </trkpt>
                    <trkpt lat="54.40149666666667" lon="10.214616666666666">
                        <ele>0</ele>
                        <time>2022-08-18T23:57:34Z</time>
                        <extensions>
    <sog>0.0</sog>
</extensions>
                    </trkpt>
                    </trkseg>
                </trk>
</gpx>