<?xml version="1.0" encoding="UTF-8"?>
<gpx version="1.1" creator="AIS-to-GPX Converter" xmlns="http://www.topografix.com/GPX/1/1">
                <trk>
                    <name>anon0291</name>
                    <trkseg>
                                            <trkpt lat="54.435975" lon="10.170748333333334">
                        <ele>0</ele>
                        <time>2022-08-18T20:40:47Z</time>
                        <extensions>
    <sog>0.0</sog>
</extensions>
                    </trkpt>
                    <trkpt lat="54.43595666666667" lon="10.170768333333333">
                        <ele>0</ele>
                        <time>2022-08-18T20:43:48Z</time>
                        <extensions>
    <sog>0.0</sog>
</extensions>
                    </trkpt>
                    <trkpt lat="54.435948333333336" lon="10.17075">
                        <ele>0</ele>
                        <time>2022-08-18T20:46:48Z</time>
                        <extensions>
    <sog>0.0</sog>
</extensions>
                    </trkpt>
                    <trkpt lat="54.435939999999995" lon="10.170786666666666">
                        <ele>0</ele>
                        <time>2022-08-18T20:49:47Z</time>
                        <extensions>
    <sog>0.0</sog>
</extensions>
                    </trkpt>
                    <trkpt lat="54.43596333333333" lon="10.170763333333333">
                        <ele>0</ele>
                        <time>2022-08-18T20:52:47Z</time>
                        <extensions>
    <sog>0.0</sog>
</extensions>
                    </trkpt>
                    <trkpt lat="54.43597666666667" lon="10.170766666666667">
                        <ele>0</ele>
                        <time>2022-08-18T20:55:50Z</time>
                        <extensions>
    <sog>0.0</sog>
</extensions>
                    </trkpt>
                    <trkpt lat="54.435968333333335" lon="10.170758333333334">
                        <ele>0</ele>
                        <time>2022-08-18T20:58:50Z</time>
                        <extensions>
    <sog>0.0</sog>
</extensions>
                    </trkpt>
                    <trkpt lat="54.43594666666667" lon="10.17074">
                        <ele>0</ele>
                        <time>2022-08-18T21:01:46Z</time>
                        <extensions>
    <sog>0.0</sog>
</extensions>
                    </trkpt>
                    <trkpt lat="54.43595166666667" lon="10.170729999999999">
                        <ele>0</ele>
                        <time>2022-08-18T21:04:49Z</time>
                        <extensions>
    <sog>0.0</sog>
</extensions>
                    </trkpt>
                    <trkpt lat="54.43595666666667" lon="10.170748333333334">
                        <ele>0</ele>
                        <time>2022-08-18T21:07:49Z</time>
                        <extensions>
    <sog>0.0</sog>
</extensions>
                    </trkpt>
                    <trkpt lat="54.43596166666667" lon="10.170755000000002">
                        <ele>0</ele>
                        <time>2022-08-18T21:10:47Z</time>
                        <extensions>
    <sog>0.0</sog>
</extensions>
                    </trkpt>
                    <trkpt lat="54.43599" lon="10.170783333333333">
                        <ele>0</ele>
                        <time>2022-08-18T21:13:48Z</time>
                        <extensions>
    <sog>0.0</sog>
</extensions>
                    </trkpt>
                    <trkpt lat="54.435968333333335" lon="10.170768333333333">
                        <ele>0</ele>
                        <time>2022-08-18T21:16:46Z</time>
                        <extensions>
    <sog>0.0</sog>
</extensions>
                    </trkpt>
                    <trkpt lat="54.43597833333333" lon="10.170748333333334">
                        <ele>0</ele>
                        <time>2022-08-18T21:19:48Z</time>
                        <extensions>
    <sog>0.0</sog>
</extensions>
                    </trkpt>
                    <trkpt lat="54.43598333333333" lon="10.170768333333333">
                        <ele>0</ele>
                        <time>2022-08-18T21:22:48Z</time>
                        <extensions>
    <sog>0.0</sog>
</extensions>
                    </trkpt>
                    <trkpt lat="54.436013333333335" lon="10.170805">
                        <ele>0</ele>
                        <time>2022-08-18T21:31:48Z</time>
                        <extensions>
    <sog>0.0</sog>
</extensions>
                    </trkpt>
                    <trkpt lat="54.43596166666667" lon="10.170741666666666">
                        <ele>0</ele>
                        <time>2022-08-18T21:34:47Z</time>
                        <extensions>
    <sog>0.0</sog>
</extensions>
                    </trkpt>
                    <trkpt lat="54.435955" lon="10.170738333333333">
                        <ele>0</ele>
                        <time>2022-08-18T21:40:50Z</time>
                        <extensions>
    <sog>0.0</sog>
</extensions>
                    </trkpt>
                    <trkpt lat="54.43598166666666" lon="10.170755000000002">
                        <ele>0</ele>
                        <time>2022-08-18T21:43:47Z</time>
                        <extensions>
    <sog>0.2</sog>
</extensions>
                    </trkpt>
                    <trkpt lat="54.43600333333333" lon="10.170678333333333">
                        <ele>0</ele>
                        <time>2022-08-18T21:46:47Z</time>
                        <extensions>
    <sog>0.0</sog>
</extensions>
                    </trkpt>
                    <trkpt lat="54.43597166666667" lon="10.170725000000001">
                        <ele>0</ele>
                        <time>2022-08-18T21:49:48Z</time>
                        <extensions>
    <sog>0.0</sog>
</extensions>
                    </trkpt>
                    <trkpt lat="54.435955" lon="10.170748333333334">
                        <ele>0</ele>
                        <time>2022-08-18T21:52:49Z</time>
                        <extensions>
    <sog>0.0</sog>
</extensions>
                    </trkpt>
                    <trkpt lat="54.43595666666667" lon="10.17075">
                        <ele>0</ele>
                        <time>2022-08-18T21:55:47Z</time>
                        <extensions>
    <sog>0.0</sog>
</extensions>
                    </trkpt>
                    <trkpt lat="54.43598333333333" lon="10.170761666666667">
                        <ele>0</ele>
                        <time>2022-08-18T21:58:50Z</time>
                        <extensions>
    <sog>0.0</sog>
</extensions>
                    </trkpt>
                    <trkpt lat="54.43598833333333" lon="10.17076">
                        <ele>0</ele>
                        <time>2022-08-18T22:01:48Z</time>
                        <extensions>
    <sog>0.0</sog>
</extensions>
                    </trkpt>
                    <trkpt lat="54.435986666666665" lon="10.170761666666667">
                        <ele>0</ele>
                        <time>2022-08-18T22:04:48Z</time>
                        <extensions>
    <sog>0.0</sog>
</extensions>
                    </trkpt>
                    <trkpt lat="54.436005" lon="10.170731666666667">
                        <ele>0</ele>
                        <time>2022-08-18T22:07:49Z</time>
                        <extensions>
    <sog>0.0</sog>
</extensions>
                    </trkpt>
                    <trkpt lat="54.435993333333336" lon="10.170753333333332">
                        <ele>0</ele>
                        <time>2022-08-18T22:10:49Z</time>
                        <extensions>
    <sog>0.0</sog>
</extensions>
                    </trkpt>
                    <trkpt lat="54.43597333333333" lon="10.170745">
                        <ele>0</ele>
                        <time>2022-08-18T22:13:49Z</time>
                        <extensions>
    <sog>0.0</sog>
</extensions>
                    </trkpt>
                    <trkpt lat="54.43599" lon="10.170743333333332">
                        <ele>0</ele>
                        <time>2022-08-18T22:16:46Z</time>
                        <extensions>
    <sog>0.0</sog>
</extensions>
                    </trkpt>
                    <trkpt lat="54.43598" lon="10.170755000000002">
                        <ele>0</ele>
                        <time>2022-08-18T22:19:48Z</time>
                        <extensions>
    <sog>0.0</sog>
</extensions>
                    </trkpt>
                    <trkpt lat="54.43597333333333" lon="10.170711666666667">
                        <ele>0</ele>
                        <time>2022-08-18T22:22:48Z</time>
                        <extensions>
    <sog>0.0</sog>
</extensions>
                    </trkpt>
                    <trkpt lat="54.43595833333333" lon="10.170726666666667">
                        <ele>0</ele>
                        <time>2022-08-18T22:25:46Z</time>
                        <extensions>
    <sog>0.0</sog>
</extensions>
                    </trkpt>
                    <trkpt lat="54.435966666666666" lon="10.170723333333333">
                        <ele>0</ele>
                        <time>2022-08-18T22:28:49Z</time>
                        <extensions>
    <sog>0.0</sog>
</extensions>
                    </trkpt>
                    <trkpt lat="54.43594666666667" lon="10.170751666666666">
                        <ele>0</ele>
                        <time>2022-08-18T22:31:49Z</time>
                        <extensions>
    <sog>0.0</sog>
</extensions>
                    </trkpt>
                    <trkpt lat="54.43595666666667" lon="10.170729999999999">
                        <ele>0</ele>
                        <time>2022-08-18T22:34:47Z</time>
                        <extensions>
    <sog>0.0</sog>
</extensions>
                    </trkpt>
                    <trkpt lat="54.435955" lon="10.170736666666667">
                        <ele>0</ele>
                        <time>2022-08-18T22:37:47Z</time>
                        <extensions>
    <sog>0.0</sog>
</extensions>
                    </trkpt>
                    <trkpt lat="54.43597" lon="10.170728333333333">
                        <ele>0</ele>
                        <time>2022-08-18T22:40:50Z</time>
                        <extensions>
    <sog>0.0</sog>
</extensions>
                    </trkpt>
                    <trkpt lat="54.43597666666667" lon="10.170738333333333">
                        <ele>0</ele>
                        <time>2022-08-18T22:43:48Z</time>
                        <extensions>
    <sog>0.0</sog>
</extensions>
                    </trkpt>
                    <trkpt lat="54.435986666666665" lon="10.170736666666667">
                        <ele>0</ele>
                        <time>2022-08-18T22:46:49Z</time>
                        <extensions>
    <sog>0.0</sog>
</extensions>
                    </trkpt>
                    <trkpt lat="54.435966666666666" lon="10.170746666666668">
                        <ele>0</ele>
                        <time>2022-08-18T22:49:46Z</time>
                        <extensions>
    <sog>0.0</sog>
</extensions>
                    </trkpt>
                    <trkpt lat="54.435975" lon="10.170723333333333">
                        <ele>0</ele>
                        <time>2022-08-18T22:52:46Z</time>
                        <extensions>
    <sog>0.0</sog>
</extensions>
                    </trkpt>
                    <trkpt lat="54.435950000000005" lon="10.170726666666667">
                        <ele>0</ele>
                        <time>2022-08-18T22:55:48Z</time>
                        <extensions>
    <sog>0.0</sog>
</extensions>
                    </trkpt>
                    <trkpt lat="54.435939999999995" lon="10.170753333333332">
                        <ele>0</ele>
                        <time>2022-08-18T22:58:48Z</time>
                        <extensions>
    <sog>0.0</sog>
</extensions>
                    </trkpt>
                    <trkpt lat="54.435955" lon="10.170766666666667">
                        <ele>0</ele>
                        <time>2022-08-18T23:01:50Z</time>
                        <extensions>
    <sog>0.0</sog>
</extensions>
                    </trkpt>
                    <trkpt lat="54.43597166666667" lon="10.17076">
                        <ele>0</ele>
                        <time>2022-08-18T23:04:48Z</time>
                        <extensions>
    <sog>0.0</sog>
</extensions>
                    </trkpt>
                    <trkpt lat="54.43595833333333" lon="10.170746666666668">
                        <ele>0</ele>
                        <time>2022-08-18T23:07:47Z</time>
                        <extensions>
    <sog>0.0</sog>
</extensions>
                    </trkpt>
                    <trkpt lat="54.435955" lon="10.170771666666667">
                        <ele>0</ele>
                        <time>2022-08-18T23:10:50Z</time>
                        <extensions>
    <sog>0.0</sog>
</extensions>
                    </trkpt>
                    <trkpt lat="54.43597333333333" lon="10.170781666666667">
                        <ele>0</ele>
                        <time>2022-08-18T23:13:46Z</time>
                        <extensions>
    <sog>0.0</sog>
</extensions>
                    </trkpt>
                    <trkpt lat="54.43597" lon="10.170746666666668">
                        <ele>0</ele>
                        <time>2022-08-18T23:16:46Z</time>
                        <extensions>
    <sog>0.0</sog>
</extensions>
                    </trkpt>
                    <trkpt lat="54.43597333333333" lon="10.170746666666668">
                        <ele>0</ele>
                        <time>2022-08-18T23:19:48Z</time>
                        <extensions>
    <sog>0.1</sog>
</extensions>
                    </trkpt>
                    <trkpt lat="54.43598" lon="10.17069">
                        <ele>0</ele>
                        <time>2022-08-18T23:22:46Z</time>
                        <extensions>
    <sog>0.0</sog>
</extensions>
                    </trkpt>
                    <trkpt lat="54.43598333333333" lon="10.17072">
                        <ele>0</ele>
                        <time>2022-08-18T23:25:48Z</time>
                        <extensions>
    <sog>0.0</sog>
</extensions>
                    </trkpt>
                    <trkpt lat="54.43597333333333" lon="10.170706666666666">
                        <ele>0</ele>
                        <time>2022-08-18T23:28:50Z</time>
                        <extensions>
    <sog>0.0</sog>
</extensions>
                    </trkpt>
                    <trkpt lat="54.43598833333333" lon="10.170735">
                        <ele>0</ele>
                        <time>2022-08-18T23:31:49Z</time>
                        <extensions>
    <sog>0.0</sog>
</extensions>
                    </trkpt>
                    <trkpt lat="54.43599666666667" lon="10.170736666666667">
                        <ele>0</ele>
                        <time>2022-08-18T23:34:48Z</time>
                        <extensions>
    <sog>0.0</sog>
</extensions>
                    </trkpt>
                    <trkpt lat="54.43598333333333" lon="10.170758333333334">
                        <ele>0</ele>
                        <time>2022-08-18T23:37:48Z</time>
                        <extensions>
    <sog>0.0</sog>
</extensions>
                    </trkpt>
                    <trkpt lat="54.43591333333333" lon="10.170778333333335">
                        <ele>0</ele>
                        <time>2022-08-18T23:40:47Z</time>
                        <extensions>
    <sog>0.1</sog>
</extensions>
                    </trkpt>
                    <trkpt lat="54.43590833333334" lon="10.170748333333334">
                        <ele>0</ele>
                        <time>2022-08-18T23:43:47Z</time>
                        <extensions>
    <sog>0.0</sog>
</extensions>
                    </trkpt>
                    <trkpt lat="54.435903333333336" lon="10.17074">
                        <ele>0</ele>
                        <time>2022-08-18T23:46:48Z</time>
                        <extensions>
    <sog>0.1</sog>
</extensions>
                    </trkpt>
                    <trkpt lat="54.435965" lon="10.170770000000001">
                        <ele>0</ele>
                        <time>2022-08-18T23:49:49Z</time>
                        <extensions>
    <sog>0.0</sog>
</extensions>
                    </trkpt>
                    <trkpt lat="54.43596166666667" lon="10.170765">
                        <ele>0</ele>
                        <time>2022-08-18T23:52:49Z</time>
                        <extensions>
    <sog>0.0</sog>
</extensions>
                    </trkpt>
                    <trkpt lat="54.436005" lon="10.170755000000002">
                        <ele>0</ele>
                        <time>2022-08-18T23:55:49Z</time>
                        <extensions>
    <sog>0.0</sog>
</extensions>
                    </trkpt>
                    <trkpt lat="54.43598833333333" lon="10.170781666666667">
                        <ele>0</ele>
                        <time>2022-08-18T23:58:47Z</time>
                        <extensions>
    <sog>0.0</sog>
</extensions>
                    </trkpt>
                    </trkseg>
                </trk>
</gpx>