<?xml version="1.0" encoding="UTF-8"?>
<gpx version="1.1" creator="AIS-to-GPX Converter" xmlns="http://www.topografix.com/GPX/1/1">
                <trk>
                    <name>anon0212</name>
                    <trkseg>
                                            <trkpt lat="54.475831666666664" lon="9.839145">
                        <ele>0</ele>
                        <time>2022-08-18T00:02:50Z</time>
                                                <extensions>
                            <sog>0.0</sog>
<cog>244.2</cog>
                        </extensions>
                    </trkpt>
                    <trkpt lat="54.475811666666665" lon="9.839116666666666">
                        <ele>0</ele>
                        <time>2022-08-18T00:06:01Z</time>
                                                <extensions>
                            <sog>0.0</sog>
<cog>228.2</cog>
                        </extensions>
                    </trkpt>
                    <trkpt lat="54.47582" lon="9.839143333333334">
                        <ele>0</ele>
                        <time>2022-08-18T00:10:31Z</time>
                                                <extensions>
                            <sog>0.0</sog>
<cog>232.3</cog>
                        </extensions>
                    </trkpt>
                    <trkpt lat="54.475831666666664" lon="9.83911">
                        <ele>0</ele>
                        <time>2022-08-18T00:17:01Z</time>
                                                <extensions>
                            <sog>0.0</sog>
<cog>212.8</cog>
                        </extensions>
                    </trkpt>
                    <trkpt lat="54.47582" lon="9.839123333333333">
                        <ele>0</ele>
                        <time>2022-08-18T00:20:10Z</time>
                                                <extensions>
                            <sog>0.0</sog>
<cog>212.2</cog>
                        </extensions>
                    </trkpt>
                    <trkpt lat="54.47582" lon="9.839106666666668">
                        <ele>0</ele>
                        <time>2022-08-18T00:21:11Z</time>
                                                <extensions>
                            <sog>0.0</sog>
<cog>216.0</cog>
                        </extensions>
                    </trkpt>
                    <trkpt lat="54.475825" lon="9.839128333333333">
                        <ele>0</ele>
                        <time>2022-08-18T00:24:20Z</time>
                                                <extensions>
                            <sog>0.0</sog>
<cog>219.7</cog>
                        </extensions>
                    </trkpt>
                    <trkpt lat="54.475825" lon="9.839125">
                        <ele>0</ele>
                        <time>2022-08-18T00:24:31Z</time>
                                                <extensions>
                            <sog>0.0</sog>
<cog>219.3</cog>
                        </extensions>
                    </trkpt>
                    <trkpt lat="54.475831666666664" lon="9.839128333333333">
                        <ele>0</ele>
                        <time>2022-08-18T00:25:20Z</time>
                                                <extensions>
                            <sog>0.0</sog>
<cog>220.8</cog>
                        </extensions>
                    </trkpt>
                    <trkpt lat="54.475835" lon="9.839135">
                        <ele>0</ele>
                        <time>2022-08-18T00:25:51Z</time>
                                                <extensions>
                            <sog>0.0</sog>
<cog>220.4</cog>
                        </extensions>
                    </trkpt>
                    <trkpt lat="54.475825" lon="9.839123333333333">
                        <ele>0</ele>
                        <time>2022-08-18T00:26:41Z</time>
                                                <extensions>
                            <sog>0.0</sog>
<cog>222.1</cog>
                        </extensions>
                    </trkpt>
                    <trkpt lat="54.47582333333333" lon="9.839123333333333">
                        <ele>0</ele>
                        <time>2022-08-18T00:27:41Z</time>
                                                <extensions>
                            <sog>0.0</sog>
<cog>223.2</cog>
                        </extensions>
                    </trkpt>
                    <trkpt lat="54.475833333333334" lon="9.839143333333334">
                        <ele>0</ele>
                        <time>2022-08-18T00:28:41Z</time>
                                                <extensions>
                            <sog>0.0</sog>
<cog>222.4</cog>
                        </extensions>
                    </trkpt>
                    <trkpt lat="54.47582333333333" lon="9.839116666666666">
                        <ele>0</ele>
                        <time>2022-08-18T00:31:10Z</time>
                                                <extensions>
                            <sog>0.0</sog>
<cog>227.7</cog>
                        </extensions>
                    </trkpt>
                    <trkpt lat="54.47582166666667" lon="9.839116666666666">
                        <ele>0</ele>
                        <time>2022-08-18T00:31:20Z</time>
                                                <extensions>
                            <sog>0.0</sog>
<cog>226.1</cog>
                        </extensions>
                    </trkpt>
                    <trkpt lat="54.47582" lon="9.839123333333333">
                        <ele>0</ele>
                        <time>2022-08-18T00:31:41Z</time>
                                                <extensions>
                            <sog>0.0</sog>
<cog>225.3</cog>
                        </extensions>
                    </trkpt>
                    <trkpt lat="54.47581666666667" lon="9.839118333333333">
                        <ele>0</ele>
                        <time>2022-08-18T00:32:41Z</time>
                                                <extensions>
                            <sog>0.0</sog>
<cog>226.2</cog>
                        </extensions>
                    </trkpt>
                    <trkpt lat="54.475845" lon="9.839158333333334">
                        <ele>0</ele>
                        <time>2022-08-18T00:33:00Z</time>
                                                <extensions>
                            <sog>0.0</sog>
<cog>226.0</cog>
                        </extensions>
                    </trkpt>
                    <trkpt lat="54.47583833333333" lon="9.839141666666666">
                        <ele>0</ele>
                        <time>2022-08-18T00:34:00Z</time>
                                                <extensions>
                            <sog>0.0</sog>
<cog>227.7</cog>
                        </extensions>
                    </trkpt>
                    <trkpt lat="54.47587" lon="9.839126666666667">
                        <ele>0</ele>
                        <time>2022-08-18T00:39:41Z</time>
                                                <extensions>
                            <sog>0.0</sog>
<cog>262.3</cog>
                        </extensions>
                    </trkpt>
                    <trkpt lat="54.47586166666667" lon="9.839138333333333">
                        <ele>0</ele>
                        <time>2022-08-18T00:40:21Z</time>
                                                <extensions>
                            <sog>0.0</sog>
<cog>263.4</cog>
                        </extensions>
                    </trkpt>
                    <trkpt lat="54.475829999999995" lon="9.839125">
                        <ele>0</ele>
                        <time>2022-08-18T00:42:40Z</time>
                                                <extensions>
                            <sog>0.0</sog>
<cog>240.6</cog>
                        </extensions>
                    </trkpt>
                    <trkpt lat="54.47582166666667" lon="9.839120000000001">
                        <ele>0</ele>
                        <time>2022-08-18T00:42:51Z</time>
                                                <extensions>
                            <sog>0.0</sog>
<cog>239.1</cog>
                        </extensions>
                    </trkpt>
                    <trkpt lat="54.47582166666667" lon="9.839126666666667">
                        <ele>0</ele>
                        <time>2022-08-18T00:43:21Z</time>
                                                <extensions>
                            <sog>0.0</sog>
<cog>242.9</cog>
                        </extensions>
                    </trkpt>
                    <trkpt lat="54.47585333333333" lon="9.839138333333333">
                        <ele>0</ele>
                        <time>2022-08-18T00:45:10Z</time>
                                                <extensions>
                            <sog>0.0</sog>
<cog>274.2</cog>
                        </extensions>
                    </trkpt>
                    <trkpt lat="54.475855" lon="9.839139999999999">
                        <ele>0</ele>
                        <time>2022-08-18T00:45:30Z</time>
                                                <extensions>
                            <sog>0.0</sog>
<cog>286.2</cog>
                        </extensions>
                    </trkpt>
                    <trkpt lat="54.475855" lon="9.839143333333334">
                        <ele>0</ele>
                        <time>2022-08-18T00:45:40Z</time>
                                                <extensions>
                            <sog>0.1</sog>
<cog>289.6</cog>
                        </extensions>
                    </trkpt>
                    <trkpt lat="54.47585" lon="9.839138333333333">
                        <ele>0</ele>
                        <time>2022-08-18T00:46:21Z</time>
                                                <extensions>
                            <sog>0.0</sog>
<cog>293.7</cog>
                        </extensions>
                    </trkpt>
                    <trkpt lat="54.47584" lon="9.839143333333334">
                        <ele>0</ele>
                        <time>2022-08-18T00:50:11Z</time>
                                                <extensions>
                            <sog>0.1</sog>
<cog>260.6</cog>
                        </extensions>
                    </trkpt>
                    <trkpt lat="54.475835" lon="9.839141666666666">
                        <ele>0</ele>
                        <time>2022-08-18T00:50:30Z</time>
                                                <extensions>
                            <sog>0.0</sog>
<cog>269.2</cog>
                        </extensions>
                    </trkpt>
                    <trkpt lat="54.47585" lon="9.839146666666666">
                        <ele>0</ele>
                        <time>2022-08-18T00:52:11Z</time>
                                                <extensions>
                            <sog>0.0</sog>
<cog>288.8</cog>
                        </extensions>
                    </trkpt>
                    <trkpt lat="54.47584833333334" lon="9.839151666666668">
                        <ele>0</ele>
                        <time>2022-08-18T00:53:00Z</time>
                                                <extensions>
                            <sog>0.0</sog>
<cog>285.8</cog>
                        </extensions>
                    </trkpt>
                    <trkpt lat="54.47584666666667" lon="9.83915">
                        <ele>0</ele>
                        <time>2022-08-18T00:53:50Z</time>
                                                <extensions>
                            <sog>0.1</sog>
<cog>307.0</cog>
                        </extensions>
                    </trkpt>
                    <trkpt lat="54.475855" lon="9.839146666666666">
                        <ele>0</ele>
                        <time>2022-08-18T00:54:11Z</time>
                                                <extensions>
                            <sog>0.0</sog>
<cog>318.4</cog>
                        </extensions>
                    </trkpt>
                    <trkpt lat="54.47584833333334" lon="9.839133333333333">
                        <ele>0</ele>
                        <time>2022-08-18T00:55:30Z</time>
                                                <extensions>
                            <sog>0.0</sog>
<cog>310.3</cog>
                        </extensions>
                    </trkpt>
                    <trkpt lat="54.475845" lon="9.839131666666667">
                        <ele>0</ele>
                        <time>2022-08-18T00:55:50Z</time>
                                                <extensions>
                            <sog>0.0</sog>
<cog>303.1</cog>
                        </extensions>
                    </trkpt>
                    <trkpt lat="54.4758" lon="9.8391">
                        <ele>0</ele>
                        <time>2022-08-18T00:56:50Z</time>
                                                <extensions>
                            <sog>0.0</sog>
<cog>300.3</cog>
                        </extensions>
                    </trkpt>
                    <trkpt lat="54.47582833333333" lon="9.839121666666667">
                        <ele>0</ele>
                        <time>2022-08-18T01:03:50Z</time>
                                                <extensions>
                            <sog>0.0</sog>
<cog>278.7</cog>
                        </extensions>
                    </trkpt>
                    <trkpt lat="54.47582166666667" lon="9.839131666666667">
                        <ele>0</ele>
                        <time>2022-08-18T01:05:01Z</time>
                                                <extensions>
                            <sog>0.0</sog>
<cog>263.7</cog>
                        </extensions>
                    </trkpt>
                    <trkpt lat="54.475795" lon="9.839105">
                        <ele>0</ele>
                        <time>2022-08-18T01:05:20Z</time>
                                                <extensions>
                            <sog>0.0</sog>
<cog>255.9</cog>
                        </extensions>
                    </trkpt>
                    <trkpt lat="54.47581" lon="9.839108333333334">
                        <ele>0</ele>
                        <time>2022-08-18T01:09:20Z</time>
                                                <extensions>
                            <sog>0.0</sog>
<cog>259.5</cog>
                        </extensions>
                    </trkpt>
                    <trkpt lat="54.47582" lon="9.839128333333333">
                        <ele>0</ele>
                        <time>2022-08-18T01:11:01Z</time>
                                                <extensions>
                            <sog>0.1</sog>
<cog>290.8</cog>
                        </extensions>
                    </trkpt>
                    <trkpt lat="54.475831666666664" lon="9.839103333333332">
                        <ele>0</ele>
                        <time>2022-08-18T01:30:50Z</time>
                                                <extensions>
                            <sog>0.0</sog>
<cog>317.5</cog>
                        </extensions>
                    </trkpt>
                    <trkpt lat="54.475856666666665" lon="9.839098333333334">
                        <ele>0</ele>
                        <time>2022-08-18T01:37:41Z</time>
                                                <extensions>
                            <sog>0.1</sog>
<cog>319.2</cog>
                        </extensions>
                    </trkpt>
                    <trkpt lat="54.47584833333334" lon="9.839096666666668">
                        <ele>0</ele>
                        <time>2022-08-18T01:38:21Z</time>
                                                <extensions>
                            <sog>0.1</sog>
<cog>310.1</cog>
                        </extensions>
                    </trkpt>
                    <trkpt lat="54.475825" lon="9.839123333333333">
                        <ele>0</ele>
                        <time>2022-08-18T01:51:20Z</time>
                                                <extensions>
                            <sog>0.1</sog>
<cog>343.0</cog>
                        </extensions>
                    </trkpt>
                    <trkpt lat="54.475829999999995" lon="9.839121666666667">
                        <ele>0</ele>
                        <time>2022-08-18T01:52:01Z</time>
                                                <extensions>
                            <sog>0.1</sog>
<cog>328.7</cog>
                        </extensions>
                    </trkpt>
                    <trkpt lat="54.47587166666666" lon="9.839105">
                        <ele>0</ele>
                        <time>2022-08-18T01:53:01Z</time>
                                                <extensions>
                            <sog>0.0</sog>
<cog>329.0</cog>
                        </extensions>
                    </trkpt>
                    <trkpt lat="54.47587166666666" lon="9.839106666666668">
                        <ele>0</ele>
                        <time>2022-08-18T01:53:11Z</time>
                                                <extensions>
                            <sog>0.0</sog>
<cog>327.8</cog>
                        </extensions>
                    </trkpt>
                    <trkpt lat="54.47586833333333" lon="9.839106666666668">
                        <ele>0</ele>
                        <time>2022-08-18T01:53:20Z</time>
                                                <extensions>
                            <sog>0.0</sog>
<cog>327.0</cog>
                        </extensions>
                    </trkpt>
                    <trkpt lat="54.47584833333334" lon="9.839113333333334">
                        <ele>0</ele>
                        <time>2022-08-18T01:55:40Z</time>
                                                <extensions>
                            <sog>0.0</sog>
<cog>325.2</cog>
                        </extensions>
                    </trkpt>
                    <trkpt lat="54.47584" lon="9.839135">
                        <ele>0</ele>
                        <time>2022-08-18T02:09:10Z</time>
                                                <extensions>
                            <sog>0.0</sog>
<cog>13.1</cog>
                        </extensions>
                    </trkpt>
                    <trkpt lat="54.475855" lon="9.839133333333333">
                        <ele>0</ele>
                        <time>2022-08-18T02:23:41Z</time>
                                                <extensions>
                            <sog>0.0</sog>
<cog>357.3</cog>
                        </extensions>
                    </trkpt>
                    <trkpt lat="54.47588666666666" lon="9.839143333333334">
                        <ele>0</ele>
                        <time>2022-08-18T02:26:00Z</time>
                                                <extensions>
                            <sog>0.0</sog>
<cog>354.9</cog>
                        </extensions>
                    </trkpt>
                    <trkpt lat="54.475833333333334" lon="9.839106666666668">
                        <ele>0</ele>
                        <time>2022-08-18T02:56:50Z</time>
                                                <extensions>
                            <sog>0.0</sog>
<cog>268.1</cog>
                        </extensions>
                    </trkpt>
                    <trkpt lat="54.475825" lon="9.839111666666668">
                        <ele>0</ele>
                        <time>2022-08-18T03:02:01Z</time>
                                                <extensions>
                            <sog>0.0</sog>
<cog>248.5</cog>
                        </extensions>
                    </trkpt>
                    <trkpt lat="54.47582666666666" lon="9.8391">
                        <ele>0</ele>
                        <time>2022-08-18T03:07:40Z</time>
                                                <extensions>
                            <sog>0.0</sog>
<cog>284.7</cog>
                        </extensions>
                    </trkpt>
                    <trkpt lat="54.47584333333334" lon="9.839138333333333">
                        <ele>0</ele>
                        <time>2022-08-18T03:12:50Z</time>
                                                <extensions>
                            <sog>0.0</sog>
<cog>292.1</cog>
                        </extensions>
                    </trkpt>
                    <trkpt lat="54.47584666666667" lon="9.839145">
                        <ele>0</ele>
                        <time>2022-08-18T03:12:59Z</time>
                                                <extensions>
                            <sog>0.0</sog>
<cog>295.1</cog>
                        </extensions>
                    </trkpt>
                    <trkpt lat="54.47581666666667" lon="9.839096666666668">
                        <ele>0</ele>
                        <time>2022-08-18T03:23:09Z</time>
                                                <extensions>
                            <sog>0.0</sog>
<cog>267.0</cog>
                        </extensions>
                    </trkpt>
                    <trkpt lat="54.47584" lon="9.839106666666668">
                        <ele>0</ele>
                        <time>2022-08-18T03:23:31Z</time>
                                                <extensions>
                            <sog>0.1</sog>
<cog>260.5</cog>
                        </extensions>
                    </trkpt>
                    <trkpt lat="54.47584833333334" lon="9.839133333333333">
                        <ele>0</ele>
                        <time>2022-08-18T03:27:10Z</time>
                                                <extensions>
                            <sog>0.0</sog>
<cog>280.8</cog>
                        </extensions>
                    </trkpt>
                    <trkpt lat="54.475874999999995" lon="9.839138333333333">
                        <ele>0</ele>
                        <time>2022-08-18T03:27:49Z</time>
                                                <extensions>
                            <sog>0.1</sog>
<cog>284.8</cog>
                        </extensions>
                    </trkpt>
                    <trkpt lat="54.47586666666667" lon="9.839133333333333">
                        <ele>0</ele>
                        <time>2022-08-18T03:27:59Z</time>
                                                <extensions>
                            <sog>0.0</sog>
<cog>284.4</cog>
                        </extensions>
                    </trkpt>
                    <trkpt lat="54.475858333333335" lon="9.839133333333333">
                        <ele>0</ele>
                        <time>2022-08-18T03:28:10Z</time>
                                                <extensions>
                            <sog>0.1</sog>
<cog>285.1</cog>
                        </extensions>
                    </trkpt>
                    <trkpt lat="54.475833333333334" lon="9.839138333333333">
                        <ele>0</ele>
                        <time>2022-08-18T03:30:59Z</time>
                                                <extensions>
                            <sog>0.0</sog>
<cog>280.7</cog>
                        </extensions>
                    </trkpt>
                    <trkpt lat="54.47582833333333" lon="9.839125">
                        <ele>0</ele>
                        <time>2022-08-18T03:31:59Z</time>
                                                <extensions>
                            <sog>0.0</sog>
<cog>280.1</cog>
                        </extensions>
                    </trkpt>
                    <trkpt lat="54.47582666666666" lon="9.839126666666667">
                        <ele>0</ele>
                        <time>2022-08-18T03:32:10Z</time>
                                                <extensions>
                            <sog>0.0</sog>
<cog>281.6</cog>
                        </extensions>
                    </trkpt>
                    <trkpt lat="54.47582833333333" lon="9.839125">
                        <ele>0</ele>
                        <time>2022-08-18T03:32:50Z</time>
                                                <extensions>
                            <sog>0.1</sog>
<cog>276.7</cog>
                        </extensions>
                    </trkpt>
                    <trkpt lat="54.47582666666666" lon="9.839126666666667">
                        <ele>0</ele>
                        <time>2022-08-18T03:33:50Z</time>
                                                <extensions>
                            <sog>0.0</sog>
<cog>252.4</cog>
                        </extensions>
                    </trkpt>
                    <trkpt lat="54.475825" lon="9.839136666666667">
                        <ele>0</ele>
                        <time>2022-08-18T03:34:50Z</time>
                                                <extensions>
                            <sog>0.0</sog>
<cog>255.7</cog>
                        </extensions>
                    </trkpt>
                    <trkpt lat="54.47582166666667" lon="9.839135">
                        <ele>0</ele>
                        <time>2022-08-18T03:34:59Z</time>
                                                <extensions>
                            <sog>0.0</sog>
<cog>254.5</cog>
                        </extensions>
                    </trkpt>
                    <trkpt lat="54.47585166666667" lon="9.839138333333333">
                        <ele>0</ele>
                        <time>2022-08-18T03:41:01Z</time>
                                                <extensions>
                            <sog>0.0</sog>
<cog>269.9</cog>
                        </extensions>
                    </trkpt>
                    <trkpt lat="54.475856666666665" lon="9.839138333333333">
                        <ele>0</ele>
                        <time>2022-08-18T03:41:21Z</time>
                                                <extensions>
                            <sog>0.0</sog>
<cog>278.3</cog>
                        </extensions>
                    </trkpt>
                    <trkpt lat="54.475845" lon="9.83913">
                        <ele>0</ele>
                        <time>2022-08-18T03:42:10Z</time>
                                                <extensions>
                            <sog>0.0</sog>
<cog>283.5</cog>
                        </extensions>
                    </trkpt>
                    <trkpt lat="54.47581666666667" lon="9.839126666666667">
                        <ele>0</ele>
                        <time>2022-08-18T03:45:40Z</time>
                                                <extensions>
                            <sog>0.0</sog>
<cog>242.7</cog>
                        </extensions>
                    </trkpt>
                    <trkpt lat="54.47584333333334" lon="9.839136666666667">
                        <ele>0</ele>
                        <time>2022-08-18T03:46:21Z</time>
                                                <extensions>
                            <sog>0.0</sog>
<cog>251.3</cog>
                        </extensions>
                    </trkpt>
                    <trkpt lat="54.475835" lon="9.839113333333334">
                        <ele>0</ele>
                        <time>2022-08-18T03:51:01Z</time>
                                                <extensions>
                            <sog>0.0</sog>
<cog>265.3</cog>
                        </extensions>
                    </trkpt>
                    <trkpt lat="54.47582833333333" lon="9.839118333333333">
                        <ele>0</ele>
                        <time>2022-08-18T03:56:30Z</time>
                                                <extensions>
                            <sog>0.0</sog>
<cog>297.2</cog>
                        </extensions>
                    </trkpt>
                    <trkpt lat="54.4758" lon="9.839096666666668">
                        <ele>0</ele>
                        <time>2022-08-18T03:57:20Z</time>
                                                <extensions>
                            <sog>0.0</sog>
<cog>278.7</cog>
                        </extensions>
                    </trkpt>
                    <trkpt lat="54.47580833333333" lon="9.839094999999999">
                        <ele>0</ele>
                        <time>2022-08-18T03:57:41Z</time>
                                                <extensions>
                            <sog>0.0</sog>
<cog>279.5</cog>
                        </extensions>
                    </trkpt>
                    <trkpt lat="54.47581666666667" lon="9.83911">
                        <ele>0</ele>
                        <time>2022-08-18T04:08:40Z</time>
                                                <extensions>
                            <sog>0.0</sog>
<cog>242.8</cog>
                        </extensions>
                    </trkpt>
                    <trkpt lat="54.475833333333334" lon="9.839108333333334">
                        <ele>0</ele>
                        <time>2022-08-18T04:21:11Z</time>
                                                <extensions>
                            <sog>0.1</sog>
<cog>293.5</cog>
                        </extensions>
                    </trkpt>
                    <trkpt lat="54.475833333333334" lon="9.83913">
                        <ele>0</ele>
                        <time>2022-08-18T04:41:51Z</time>
                                                <extensions>
                            <sog>0.0</sog>
<cog>300.6</cog>
                        </extensions>
                    </trkpt>
                    <trkpt lat="54.47580666666667" lon="9.839135">
                        <ele>0</ele>
                        <time>2022-08-18T04:44:01Z</time>
                                                <extensions>
                            <sog>0.0</sog>
<cog>286.9</cog>
                        </extensions>
                    </trkpt>
                    <trkpt lat="54.47579833333334" lon="9.839121666666667">
                        <ele>0</ele>
                        <time>2022-08-18T04:45:31Z</time>
                                                <extensions>
                            <sog>0.0</sog>
<cog>288.4</cog>
                        </extensions>
                    </trkpt>
                    <trkpt lat="54.475813333333335" lon="9.839115">
                        <ele>0</ele>
                        <time>2022-08-18T04:48:21Z</time>
                                                <extensions>
                            <sog>0.0</sog>
<cog>278.4</cog>
                        </extensions>
                    </trkpt>
                    <trkpt lat="54.475813333333335" lon="9.839115">
                        <ele>0</ele>
                        <time>2022-08-18T04:50:31Z</time>
                                                <extensions>
                            <sog>0.0</sog>
<cog>264.4</cog>
                        </extensions>
                    </trkpt>
                    <trkpt lat="54.47580666666667" lon="9.839111666666668">
                        <ele>0</ele>
                        <time>2022-08-18T04:51:20Z</time>
                                                <extensions>
                            <sog>0.0</sog>
<cog>261.6</cog>
                        </extensions>
                    </trkpt>
                    <trkpt lat="54.475818333333336" lon="9.839116666666666">
                        <ele>0</ele>
                        <time>2022-08-18T04:52:00Z</time>
                                                <extensions>
                            <sog>0.0</sog>
<cog>257.6</cog>
                        </extensions>
                    </trkpt>
                    <trkpt lat="54.47582166666667" lon="9.839123333333333">
                        <ele>0</ele>
                        <time>2022-08-18T04:52:10Z</time>
                                                <extensions>
                            <sog>0.0</sog>
<cog>258.2</cog>
                        </extensions>
                    </trkpt>
                    <trkpt lat="54.47581" lon="9.839115">
                        <ele>0</ele>
                        <time>2022-08-18T04:52:50Z</time>
                                                <extensions>
                            <sog>0.0</sog>
<cog>257.3</cog>
                        </extensions>
                    </trkpt>
                    <trkpt lat="54.47580666666667" lon="9.839125">
                        <ele>0</ele>
                        <time>2022-08-18T04:56:01Z</time>
                                                <extensions>
                            <sog>0.1</sog>
<cog>259.1</cog>
                        </extensions>
                    </trkpt>
                    <trkpt lat="54.47580666666667" lon="9.839128333333333">
                        <ele>0</ele>
                        <time>2022-08-18T04:56:40Z</time>
                                                <extensions>
                            <sog>0.0</sog>
<cog>262.8</cog>
                        </extensions>
                    </trkpt>
                    <trkpt lat="54.475795" lon="9.839111666666668">
                        <ele>0</ele>
                        <time>2022-08-18T04:57:09Z</time>
                                                <extensions>
                            <sog>0.0</sog>
<cog>266.8</cog>
                        </extensions>
                    </trkpt>
                    <trkpt lat="54.47578333333333" lon="9.83913">
                        <ele>0</ele>
                        <time>2022-08-18T04:58:09Z</time>
                                                <extensions>
                            <sog>0.0</sog>
<cog>260.5</cog>
                        </extensions>
                    </trkpt>
                    <trkpt lat="54.475766666666665" lon="9.839108333333334">
                        <ele>0</ele>
                        <time>2022-08-18T04:58:30Z</time>
                                                <extensions>
                            <sog>0.0</sog>
<cog>253.1</cog>
                        </extensions>
                    </trkpt>
                    <trkpt lat="54.475811666666665" lon="9.839120000000001">
                        <ele>0</ele>
                        <time>2022-08-18T05:00:30Z</time>
                                                <extensions>
                            <sog>0.0</sog>
<cog>260.6</cog>
                        </extensions>
                    </trkpt>
                    <trkpt lat="54.475811666666665" lon="9.839120000000001">
                        <ele>0</ele>
                        <time>2022-08-18T05:00:30Z</time>
                                                <extensions>
                            <sog>0.0</sog>
<cog>260.6</cog>
                        </extensions>
                    </trkpt>
                    <trkpt lat="54.475811666666665" lon="9.839103333333332">
                        <ele>0</ele>
                        <time>2022-08-18T05:03:10Z</time>
                                                <extensions>
                            <sog>0.0</sog>
<cog>233.5</cog>
                        </extensions>
                    </trkpt>
                    <trkpt lat="54.47582666666666" lon="9.839091666666667">
                        <ele>0</ele>
                        <time>2022-08-18T05:03:41Z</time>
                                                <extensions>
                            <sog>0.0</sog>
<cog>230.1</cog>
                        </extensions>
                    </trkpt>
                    <trkpt lat="54.47582166666667" lon="9.83913">
                        <ele>0</ele>
                        <time>2022-08-18T05:10:01Z</time>
                                                <extensions>
                            <sog>0.0</sog>
<cog>262.2</cog>
                        </extensions>
                    </trkpt>
                    <trkpt lat="54.475825" lon="9.839120000000001">
                        <ele>0</ele>
                        <time>2022-08-18T05:10:30Z</time>
                                                <extensions>
                            <sog>0.0</sog>
<cog>251.9</cog>
                        </extensions>
                    </trkpt>
                    <trkpt lat="54.475836666666666" lon="9.839111666666668">
                        <ele>0</ele>
                        <time>2022-08-18T05:13:31Z</time>
                                                <extensions>
                            <sog>0.1</sog>
<cog>270.7</cog>
                        </extensions>
                    </trkpt>
                    <trkpt lat="54.47584" lon="9.839115">
                        <ele>0</ele>
                        <time>2022-08-18T05:13:50Z</time>
                                                <extensions>
                            <sog>0.0</sog>
<cog>279.7</cog>
                        </extensions>
                    </trkpt>
                    <trkpt lat="54.475818333333336" lon="9.839111666666668">
                        <ele>0</ele>
                        <time>2022-08-18T05:15:31Z</time>
                                                <extensions>
                            <sog>0.0</sog>
<cog>259.1</cog>
                        </extensions>
                    </trkpt>
                    <trkpt lat="54.47580833333333" lon="9.839116666666666">
                        <ele>0</ele>
                        <time>2022-08-18T05:19:01Z</time>
                                                <extensions>
                            <sog>0.0</sog>
<cog>270.0</cog>
                        </extensions>
                    </trkpt>
                    <trkpt lat="54.47582666666666" lon="9.839120000000001">
                        <ele>0</ele>
                        <time>2022-08-18T05:21:01Z</time>
                                                <extensions>
                            <sog>0.0</sog>
<cog>272.7</cog>
                        </extensions>
                    </trkpt>
                    <trkpt lat="54.47582166666667" lon="9.839116666666666">
                        <ele>0</ele>
                        <time>2022-08-18T05:21:10Z</time>
                                                <extensions>
                            <sog>0.0</sog>
<cog>272.8</cog>
                        </extensions>
                    </trkpt>
                    <trkpt lat="54.47580833333333" lon="9.839135">
                        <ele>0</ele>
                        <time>2022-08-18T05:22:10Z</time>
                                                <extensions>
                            <sog>0.0</sog>
<cog>263.3</cog>
                        </extensions>
                    </trkpt>
                    <trkpt lat="54.47582166666667" lon="9.839108333333334">
                        <ele>0</ele>
                        <time>2022-08-18T05:24:11Z</time>
                                                <extensions>
                            <sog>0.0</sog>
<cog>262.5</cog>
                        </extensions>
                    </trkpt>
                    <trkpt lat="54.47579833333334" lon="9.839135">
                        <ele>0</ele>
                        <time>2022-08-18T05:27:31Z</time>
                                                <extensions>
                            <sog>0.0</sog>
<cog>248.0</cog>
                        </extensions>
                    </trkpt>
                    <trkpt lat="54.47584166666666" lon="9.839123333333333">
                        <ele>0</ele>
                        <time>2022-08-18T05:33:11Z</time>
                                                <extensions>
                            <sog>0.0</sog>
<cog>285.4</cog>
                        </extensions>
                    </trkpt>
                    <trkpt lat="54.47583833333333" lon="9.839136666666667">
                        <ele>0</ele>
                        <time>2022-08-18T05:34:01Z</time>
                                                <extensions>
                            <sog>0.0</sog>
<cog>275.3</cog>
                        </extensions>
                    </trkpt>
                    <trkpt lat="54.47583833333333" lon="9.839136666666667">
                        <ele>0</ele>
                        <time>2022-08-18T05:34:11Z</time>
                                                <extensions>
                            <sog>0.0</sog>
<cog>275.7</cog>
                        </extensions>
                    </trkpt>
                    <trkpt lat="54.47583833333333" lon="9.839151666666668">
                        <ele>0</ele>
                        <time>2022-08-18T05:42:51Z</time>
                                                <extensions>
                            <sog>0.0</sog>
<cog>226.5</cog>
                        </extensions>
                    </trkpt>
                    <trkpt lat="54.475836666666666" lon="9.839141666666666">
                        <ele>0</ele>
                        <time>2022-08-18T05:43:11Z</time>
                                                <extensions>
                            <sog>0.0</sog>
<cog>229.6</cog>
                        </extensions>
                    </trkpt>
                    <trkpt lat="54.47584666666667" lon="9.83911">
                        <ele>0</ele>
                        <time>2022-08-18T05:45:11Z</time>
                                                <extensions>
                            <sog>0.0</sog>
<cog>228.1</cog>
                        </extensions>
                    </trkpt>
                    <trkpt lat="54.47586" lon="9.8391">
                        <ele>0</ele>
                        <time>2022-08-18T05:46:20Z</time>
                                                <extensions>
                            <sog>0.0</sog>
<cog>221.1</cog>
                        </extensions>
                    </trkpt>
                    <trkpt lat="54.475863333333336" lon="9.8391">
                        <ele>0</ele>
                        <time>2022-08-18T05:46:31Z</time>
                                                <extensions>
                            <sog>0.0</sog>
<cog>221.3</cog>
                        </extensions>
                    </trkpt>
                    <trkpt lat="54.47586166666667" lon="9.839096666666668">
                        <ele>0</ele>
                        <time>2022-08-18T05:46:40Z</time>
                                                <extensions>
                            <sog>0.0</sog>
<cog>221.2</cog>
                        </extensions>
                    </trkpt>
                    <trkpt lat="54.475874999999995" lon="9.839113333333334">
                        <ele>0</ele>
                        <time>2022-08-18T05:48:50Z</time>
                                                <extensions>
                            <sog>0.1</sog>
<cog>217.7</cog>
                        </extensions>
                    </trkpt>
                    <trkpt lat="54.47586666666667" lon="9.839105">
                        <ele>0</ele>
                        <time>2022-08-18T05:49:31Z</time>
                                                <extensions>
                            <sog>0.0</sog>
<cog>219.9</cog>
                        </extensions>
                    </trkpt>
                    <trkpt lat="54.47586666666667" lon="9.839113333333334">
                        <ele>0</ele>
                        <time>2022-08-18T05:49:50Z</time>
                                                <extensions>
                            <sog>0.0</sog>
<cog>220.8</cog>
                        </extensions>
                    </trkpt>
                    <trkpt lat="54.475863333333336" lon="9.839121666666667">
                        <ele>0</ele>
                        <time>2022-08-18T05:50:10Z</time>
                                                <extensions>
                            <sog>0.0</sog>
<cog>222.7</cog>
                        </extensions>
                    </trkpt>
                    <trkpt lat="54.475856666666665" lon="9.839158333333334">
                        <ele>0</ele>
                        <time>2022-08-18T05:50:51Z</time>
                                                <extensions>
                            <sog>0.0</sog>
<cog>219.5</cog>
                        </extensions>
                    </trkpt>
                    <trkpt lat="54.47585" lon="9.839135">
                        <ele>0</ele>
                        <time>2022-08-18T05:51:00Z</time>
                                                <extensions>
                            <sog>0.0</sog>
<cog>218.5</cog>
                        </extensions>
                    </trkpt>
                    <trkpt lat="54.475829999999995" lon="9.83915">
                        <ele>0</ele>
                        <time>2022-08-18T05:58:41Z</time>
                                                <extensions>
                            <sog>0.0</sog>
<cog>225.4</cog>
                        </extensions>
                    </trkpt>
                    <trkpt lat="54.47586166666667" lon="9.839156666666666">
                        <ele>0</ele>
                        <time>2022-08-18T06:02:21Z</time>
                                                <extensions>
                            <sog>0.0</sog>
<cog>236.2</cog>
                        </extensions>
                    </trkpt>
                    <trkpt lat="54.47581666666667" lon="9.839138333333333">
                        <ele>0</ele>
                        <time>2022-08-18T06:22:51Z</time>
                                                <extensions>
                            <sog>0.0</sog>
<cog>260.1</cog>
                        </extensions>
                    </trkpt>
                    <trkpt lat="54.47584" lon="9.839151666666668">
                        <ele>0</ele>
                        <time>2022-08-18T06:33:01Z</time>
                                                <extensions>
                            <sog>0.0</sog>
<cog>271.4</cog>
                        </extensions>
                    </trkpt>
                    <trkpt lat="54.475825" lon="9.839143333333334">
                        <ele>0</ele>
                        <time>2022-08-18T06:33:50Z</time>
                                                <extensions>
                            <sog>0.0</sog>
<cog>270.6</cog>
                        </extensions>
                    </trkpt>
                    <trkpt lat="54.475825" lon="9.839098333333334">
                        <ele>0</ele>
                        <time>2022-08-18T06:39:00Z</time>
                                                <extensions>
                            <sog>0.0</sog>
<cog>288.1</cog>
                        </extensions>
                    </trkpt>
                    <trkpt lat="54.47583833333333" lon="9.83913">
                        <ele>0</ele>
                        <time>2022-08-18T06:41:10Z</time>
                                                <extensions>
                            <sog>0.0</sog>
<cog>286.6</cog>
                        </extensions>
                    </trkpt>
                    <trkpt lat="54.475835" lon="9.83913">
                        <ele>0</ele>
                        <time>2022-08-18T06:51:50Z</time>
                                                <extensions>
                            <sog>0.0</sog>
<cog>281.2</cog>
                        </extensions>
                    </trkpt>
                    <trkpt lat="54.47583833333333" lon="9.839148333333332">
                        <ele>0</ele>
                        <time>2022-08-18T06:57:31Z</time>
                                                <extensions>
                            <sog>0.0</sog>
<cog>290.9</cog>
                        </extensions>
                    </trkpt>
                    <trkpt lat="54.475835" lon="9.839096666666668">
                        <ele>0</ele>
                        <time>2022-08-18T07:02:41Z</time>
                                                <extensions>
                            <sog>0.1</sog>
<cog>269.0</cog>
                        </extensions>
                    </trkpt>
                    <trkpt lat="54.47582166666667" lon="9.839123333333333">
                        <ele>0</ele>
                        <time>2022-08-18T07:55:50Z</time>
                                                <extensions>
                            <sog>0.1</sog>
<cog>286.1</cog>
                        </extensions>
                    </trkpt>
                    <trkpt lat="54.475835" lon="9.839168333333333">
                        <ele>0</ele>
                        <time>2022-08-18T08:30:29Z</time>
                                                <extensions>
                            <sog>0.0</sog>
<cog>288.6</cog>
                        </extensions>
                    </trkpt>
                    <trkpt lat="54.47584666666667" lon="9.839158333333334">
                        <ele>0</ele>
                        <time>2022-08-18T08:39:51Z</time>
                                                <extensions>
                            <sog>0.0</sog>
<cog>310.0</cog>
                        </extensions>
                    </trkpt>
                    <trkpt lat="54.47580333333334" lon="9.839116666666666">
                        <ele>0</ele>
                        <time>2022-08-18T08:54:51Z</time>
                                                <extensions>
                            <sog>0.0</sog>
<cog>225.0</cog>
                        </extensions>
                    </trkpt>
                    <trkpt lat="54.47582166666667" lon="9.839126666666667">
                        <ele>0</ele>
                        <time>2022-08-18T09:04:10Z</time>
                                                <extensions>
                            <sog>0.1</sog>
<cog>216.7</cog>
                        </extensions>
                    </trkpt>
                    <trkpt lat="54.47581666666667" lon="9.839123333333333">
                        <ele>0</ele>
                        <time>2022-08-18T09:23:51Z</time>
                                                <extensions>
                            <sog>0.0</sog>
<cog>263.8</cog>
                        </extensions>
                    </trkpt>
                    <trkpt lat="54.47581666666667" lon="9.839133333333333">
                        <ele>0</ele>
                        <time>2022-08-18T09:26:31Z</time>
                                                <extensions>
                            <sog>0.0</sog>
<cog>264.7</cog>
                        </extensions>
                    </trkpt>
                    <trkpt lat="54.47584166666666" lon="9.83917">
                        <ele>0</ele>
                        <time>2022-08-18T09:35:50Z</time>
                                                <extensions>
                            <sog>0.0</sog>
<cog>236.4</cog>
                        </extensions>
                    </trkpt>
                    <trkpt lat="54.475833333333334" lon="9.839165000000001">
                        <ele>0</ele>
                        <time>2022-08-18T09:42:50Z</time>
                                                <extensions>
                            <sog>0.0</sog>
<cog>232.1</cog>
                        </extensions>
                    </trkpt>
                    <trkpt lat="54.475786666666664" lon="9.83908">
                        <ele>0</ele>
                        <time>2022-08-18T10:11:20Z</time>
                                                <extensions>
                            <sog>0.0</sog>
<cog>305.8</cog>
                        </extensions>
                    </trkpt>
                    <trkpt lat="54.47584" lon="9.839126666666667">
                        <ele>0</ele>
                        <time>2022-08-18T10:42:50Z</time>
                                                <extensions>
                            <sog>0.0</sog>
<cog>320.5</cog>
                        </extensions>
                    </trkpt>
                    <trkpt lat="54.475856666666665" lon="9.839165000000001">
                        <ele>0</ele>
                        <time>2022-08-18T11:01:31Z</time>
                                                <extensions>
                            <sog>0.0</sog>
<cog>322.6</cog>
                        </extensions>
                    </trkpt>
                    <trkpt lat="54.47582333333333" lon="9.839183333333333">
                        <ele>0</ele>
                        <time>2022-08-18T11:05:11Z</time>
                                                <extensions>
                            <sog>0.0</sog>
<cog>316.3</cog>
                        </extensions>
                    </trkpt>
                    <trkpt lat="54.47582666666666" lon="9.839139999999999">
                        <ele>0</ele>
                        <time>2022-08-18T11:21:31Z</time>
                                                <extensions>
                            <sog>0.0</sog>
<cog>200.3</cog>
                        </extensions>
                    </trkpt>
                    <trkpt lat="54.47582833333333" lon="9.83915">
                        <ele>0</ele>
                        <time>2022-08-18T11:35:00Z</time>
                                                <extensions>
                            <sog>0.0</sog>
<cog>52.0</cog>
                        </extensions>
                    </trkpt>
                    <trkpt lat="54.47582666666666" lon="9.839128333333333">
                        <ele>0</ele>
                        <time>2022-08-18T13:05:11Z</time>
                                                <extensions>
                            <sog>0.0</sog>
<cog>291.9</cog>
                        </extensions>
                    </trkpt>
                    <trkpt lat="54.47582666666666" lon="9.839161666666666">
                        <ele>0</ele>
                        <time>2022-08-18T13:44:30Z</time>
                                                <extensions>
                            <sog>0.0</sog>
<cog>295.8</cog>
                        </extensions>
                    </trkpt>
                    <trkpt lat="54.475865" lon="9.839166666666667">
                        <ele>0</ele>
                        <time>2022-08-18T14:42:40Z</time>
                                                <extensions>
                            <sog>0.0</sog>
<cog>285.9</cog>
                        </extensions>
                    </trkpt>
                    <trkpt lat="54.47582333333333" lon="9.839158333333334">
                        <ele>0</ele>
                        <time>2022-08-18T16:39:10Z</time>
                                                <extensions>
                            <sog>0.0</sog>
<cog>245.2</cog>
                        </extensions>
                    </trkpt>
                    <trkpt lat="54.47585333333333" lon="9.839158333333334">
                        <ele>0</ele>
                        <time>2022-08-18T17:10:31Z</time>
                                                <extensions>
                            <sog>0.0</sog>
<cog>301.9</cog>
                        </extensions>
                    </trkpt>
                    <trkpt lat="54.475845" lon="9.839146666666666">
                        <ele>0</ele>
                        <time>2022-08-18T17:26:50Z</time>
                                                <extensions>
                            <sog>0.0</sog>
<cog>279.8</cog>
                        </extensions>
                    </trkpt>
                    <trkpt lat="54.47584666666667" lon="9.839145">
                        <ele>0</ele>
                        <time>2022-08-18T17:27:00Z</time>
                                                <extensions>
                            <sog>0.0</sog>
<cog>282.1</cog>
                        </extensions>
                    </trkpt>
                    <trkpt lat="54.47588833333334" lon="9.839094999999999">
                        <ele>0</ele>
                        <time>2022-08-18T17:47:50Z</time>
                                                <extensions>
                            <sog>0.0</sog>
<cog>290.6</cog>
                        </extensions>
                    </trkpt>
                    <trkpt lat="54.47584833333334" lon="9.839125">
                        <ele>0</ele>
                        <time>2022-08-18T17:53:51Z</time>
                                                <extensions>
                            <sog>0.0</sog>
<cog>312.7</cog>
                        </extensions>
                    </trkpt>
                    <trkpt lat="54.47587166666666" lon="9.839135">
                        <ele>0</ele>
                        <time>2022-08-18T19:11:51Z</time>
                                                <extensions>
                            <sog>0.0</sog>
<cog>274.9</cog>
                        </extensions>
                    </trkpt>
                    <trkpt lat="54.47585333333333" lon="9.839116666666666">
                        <ele>0</ele>
                        <time>2022-08-18T19:16:50Z</time>
                                                <extensions>
                            <sog>0.0</sog>
<cog>276.4</cog>
                        </extensions>
                    </trkpt>
                    <trkpt lat="54.475789999999996" lon="9.83911">
                        <ele>0</ele>
                        <time>2022-08-18T21:58:51Z</time>
                                                <extensions>
                            <sog>0.0</sog>
<cog>120.3</cog>
                        </extensions>
                    </trkpt>
                    <trkpt lat="54.475813333333335" lon="9.839145">
                        <ele>0</ele>
                        <time>2022-08-18T23:42:11Z</time>
                                                <extensions>
                            <sog>0.0</sog>
<cog>356.7</cog>
                        </extensions>
                    </trkpt>
                    </trkseg>
                </trk>
</gpx>