<?xml version="1.0" encoding="UTF-8"?>
<gpx version="1.1" creator="AIS-to-GPX Converter" xmlns="http://www.topografix.com/GPX/1/1">
                <trk>
                    <name>anon0326</name>
                    <trkseg>
                                            <trkpt lat="54.40248333333333" lon="10.215986666666668">
                        <ele>0</ele>
                        <time>2022-08-18T07:35:07Z</time>
                                                <extensions>
                            <sog>0.0</sog>
<cog>0.0</cog>
                        </extensions>
                    </trkpt>
                    <trkpt lat="54.40246666666667" lon="10.215968333333333">
                        <ele>0</ele>
                        <time>2022-08-18T07:38:06Z</time>
                                                <extensions>
                            <sog>0.0</sog>
<cog>0.0</cog>
                        </extensions>
                    </trkpt>
                    <trkpt lat="54.402433333333335" lon="10.215961666666667">
                        <ele>0</ele>
                        <time>2022-08-18T07:44:07Z</time>
                                                <extensions>
                            <sog>0.0</sog>
<cog>0.0</cog>
                        </extensions>
                    </trkpt>
                    <trkpt lat="54.40246666666667" lon="10.215923333333334">
                        <ele>0</ele>
                        <time>2022-08-18T07:47:10Z</time>
                                                <extensions>
                            <sog>0.0</sog>
<cog>0.0</cog>
                        </extensions>
                    </trkpt>
                    <trkpt lat="54.40245" lon="10.215951666666665">
                        <ele>0</ele>
                        <time>2022-08-18T07:53:06Z</time>
                                                <extensions>
                            <sog>0.0</sog>
<cog>0.0</cog>
                        </extensions>
                    </trkpt>
                    <trkpt lat="54.40244" lon="10.215943333333334">
                        <ele>0</ele>
                        <time>2022-08-18T07:56:07Z</time>
                                                <extensions>
                            <sog>0.0</sog>
<cog>0.0</cog>
                        </extensions>
                    </trkpt>
                    <trkpt lat="54.402456666666666" lon="10.215938333333334">
                        <ele>0</ele>
                        <time>2022-08-18T07:59:06Z</time>
                                                <extensions>
                            <sog>0.0</sog>
<cog>0.0</cog>
                        </extensions>
                    </trkpt>
                    <trkpt lat="54.402433333333335" lon="10.215951666666665">
                        <ele>0</ele>
                        <time>2022-08-18T08:02:11Z</time>
                                                <extensions>
                            <sog>0.0</sog>
<cog>0.0</cog>
                        </extensions>
                    </trkpt>
                    <trkpt lat="54.40242666666666" lon="10.215941666666668">
                        <ele>0</ele>
                        <time>2022-08-18T08:05:07Z</time>
                                                <extensions>
                            <sog>0.0</sog>
<cog>0.0</cog>
                        </extensions>
                    </trkpt>
                    <trkpt lat="54.402433333333335" lon="10.215976666666668">
                        <ele>0</ele>
                        <time>2022-08-18T08:08:08Z</time>
                                                <extensions>
                            <sog>0.0</sog>
<cog>0.0</cog>
                        </extensions>
                    </trkpt>
                    <trkpt lat="54.40238333333333" lon="10.215961666666667">
                        <ele>0</ele>
                        <time>2022-08-18T08:11:07Z</time>
                                                <extensions>
                            <sog>0.0</sog>
<cog>0.0</cog>
                        </extensions>
                    </trkpt>
                    <trkpt lat="54.402456666666666" lon="10.215906666666665">
                        <ele>0</ele>
                        <time>2022-08-18T08:14:07Z</time>
                                                <extensions>
                            <sog>0.0</sog>
<cog>0.0</cog>
                        </extensions>
                    </trkpt>
                    <trkpt lat="54.40246666666667" lon="10.215910000000001">
                        <ele>0</ele>
                        <time>2022-08-18T08:17:07Z</time>
                                                <extensions>
                            <sog>0.0</sog>
<cog>0.0</cog>
                        </extensions>
                    </trkpt>
                    <trkpt lat="54.401846666666664" lon="10.214705">
                        <ele>0</ele>
                        <time>2022-08-18T08:23:09Z</time>
                                                <extensions>
                            <sog>2.0</sog>
<cog>293.0</cog>
                        </extensions>
                    </trkpt>
                    <trkpt lat="54.40212333333333" lon="10.214358333333333">
                        <ele>0</ele>
                        <time>2022-08-18T08:23:36Z</time>
                                                <extensions>
                            <sog>3.2</sog>
<cog>324.7</cog>
                        </extensions>
                    </trkpt>
                    <trkpt lat="54.40253" lon="10.213866666666666">
                        <ele>0</ele>
                        <time>2022-08-18T08:24:07Z</time>
                                                <extensions>
                            <sog>3.8</sog>
<cog>327.3</cog>
                        </extensions>
                    </trkpt>
                    <trkpt lat="54.403596666666665" lon="10.213348333333332">
                        <ele>0</ele>
                        <time>2022-08-18T08:25:09Z</time>
                                                <extensions>
                            <sog>4.2</sog>
<cog>350.8</cog>
                        </extensions>
                    </trkpt>
                    <trkpt lat="54.40512666666667" lon="10.213103333333333">
                        <ele>0</ele>
                        <time>2022-08-18T08:26:08Z</time>
                                                <extensions>
                            <sog>6.3</sog>
<cog>358.4</cog>
                        </extensions>
                    </trkpt>
                    <trkpt lat="54.40604" lon="10.213058333333333">
                        <ele>0</ele>
                        <time>2022-08-18T08:26:40Z</time>
                                                <extensions>
                            <sog>6.0</sog>
<cog>356.5</cog>
                        </extensions>
                    </trkpt>
                    <trkpt lat="54.40681" lon="10.212951666666667">
                        <ele>0</ele>
                        <time>2022-08-18T08:27:07Z</time>
                                                <extensions>
                            <sog>6.2</sog>
<cog>355.9</cog>
                        </extensions>
                    </trkpt>
                    <trkpt lat="54.408593333333336" lon="10.212708333333333">
                        <ele>0</ele>
                        <time>2022-08-18T08:28:07Z</time>
                                                <extensions>
                            <sog>6.5</sog>
<cog>355.0</cog>
                        </extensions>
                    </trkpt>
                    <trkpt lat="54.40959333333333" lon="10.212596666666666">
                        <ele>0</ele>
                        <time>2022-08-18T08:28:39Z</time>
                                                <extensions>
                            <sog>6.6</sog>
<cog>2.1</cog>
                        </extensions>
                    </trkpt>
                    <trkpt lat="54.41041666666667" lon="10.212755">
                        <ele>0</ele>
                        <time>2022-08-18T08:29:07Z</time>
                                                <extensions>
                            <sog>6.5</sog>
<cog>5.5</cog>
                        </extensions>
                    </trkpt>
                    <trkpt lat="54.41144333333333" lon="10.212908333333333">
                        <ele>0</ele>
                        <time>2022-08-18T08:29:40Z</time>
                                                <extensions>
                            <sog>6.9</sog>
<cog>4.6</cog>
                        </extensions>
                    </trkpt>
                    <trkpt lat="54.41224666666667" lon="10.213141666666667">
                        <ele>0</ele>
                        <time>2022-08-18T08:30:07Z</time>
                                                <extensions>
                            <sog>6.4</sog>
<cog>16.3</cog>
                        </extensions>
                    </trkpt>
                    <trkpt lat="54.41399" lon="10.214031666666667">
                        <ele>0</ele>
                        <time>2022-08-18T08:31:07Z</time>
                                                <extensions>
                            <sog>6.0</sog>
<cog>18.5</cog>
                        </extensions>
                    </trkpt>
                    <trkpt lat="54.41480333333333" lon="10.214441666666666">
                        <ele>0</ele>
                        <time>2022-08-18T08:31:37Z</time>
                                                <extensions>
                            <sog>6.6</sog>
<cog>17.0</cog>
                        </extensions>
                    </trkpt>
                    <trkpt lat="54.415616666666665" lon="10.214876666666667">
                        <ele>0</ele>
                        <time>2022-08-18T08:32:06Z</time>
                                                <extensions>
                            <sog>6.5</sog>
<cog>17.9</cog>
                        </extensions>
                    </trkpt>
                    <trkpt lat="54.416536666666666" lon="10.215356666666667">
                        <ele>0</ele>
                        <time>2022-08-18T08:32:39Z</time>
                                                <extensions>
                            <sog>6.9</sog>
<cog>18.4</cog>
                        </extensions>
                    </trkpt>
                    <trkpt lat="54.417350000000006" lon="10.215766666666667">
                        <ele>0</ele>
                        <time>2022-08-18T08:33:07Z</time>
                                                <extensions>
                            <sog>6.4</sog>
<cog>16.6</cog>
                        </extensions>
                    </trkpt>
                    <trkpt lat="54.418189999999996" lon="10.216135000000001">
                        <ele>0</ele>
                        <time>2022-08-18T08:33:37Z</time>
                                                <extensions>
                            <sog>6.2</sog>
<cog>16.0</cog>
                        </extensions>
                    </trkpt>
                    <trkpt lat="54.41901" lon="10.216515">
                        <ele>0</ele>
                        <time>2022-08-18T08:34:06Z</time>
                                                <extensions>
                            <sog>6.5</sog>
<cog>17.6</cog>
                        </extensions>
                    </trkpt>
                    <trkpt lat="54.41986333333333" lon="10.216925">
                        <ele>0</ele>
                        <time>2022-08-18T08:34:36Z</time>
                                                <extensions>
                            <sog>6.7</sog>
<cog>17.7</cog>
                        </extensions>
                    </trkpt>
                    <trkpt lat="54.420719999999996" lon="10.217298333333334">
                        <ele>0</ele>
                        <time>2022-08-18T08:35:06Z</time>
                                                <extensions>
                            <sog>6.2</sog>
<cog>15.9</cog>
                        </extensions>
                    </trkpt>
                    <trkpt lat="54.42155666666667" lon="10.217785">
                        <ele>0</ele>
                        <time>2022-08-18T08:35:36Z</time>
                                                <extensions>
                            <sog>7.6</sog>
<cog>22.7</cog>
                        </extensions>
                    </trkpt>
                    <trkpt lat="54.42241333333333" lon="10.218051666666666">
                        <ele>0</ele>
                        <time>2022-08-18T08:36:06Z</time>
                                                <extensions>
                            <sog>6.4</sog>
<cog>15.2</cog>
                        </extensions>
                    </trkpt>
                    <trkpt lat="54.423186666666666" lon="10.218368333333332">
                        <ele>0</ele>
                        <time>2022-08-18T08:36:36Z</time>
                                                <extensions>
                            <sog>4.2</sog>
<cog>13.9</cog>
                        </extensions>
                    </trkpt>
                    <trkpt lat="54.42355" lon="10.218721666666665">
                        <ele>0</ele>
                        <time>2022-08-18T08:37:06Z</time>
                                                <extensions>
                            <sog>2.3</sog>
<cog>33.3</cog>
                        </extensions>
                    </trkpt>
                    <trkpt lat="54.42375333333334" lon="10.219036666666666">
                        <ele>0</ele>
                        <time>2022-08-18T08:37:36Z</time>
                                                <extensions>
                            <sog>1.7</sog>
<cog>40.6</cog>
                        </extensions>
                    </trkpt>
                    <trkpt lat="54.42391666666666" lon="10.219285000000001">
                        <ele>0</ele>
                        <time>2022-08-18T08:38:06Z</time>
                                                <extensions>
                            <sog>1.4</sog>
<cog>0.0</cog>
                        </extensions>
                    </trkpt>
                    <trkpt lat="54.42409" lon="10.219496666666666">
                        <ele>0</ele>
                        <time>2022-08-18T08:38:37Z</time>
                                                <extensions>
                            <sog>1.3</sog>
<cog>40.3</cog>
                        </extensions>
                    </trkpt>
                    <trkpt lat="54.42422666666666" lon="10.219683333333334">
                        <ele>0</ele>
                        <time>2022-08-18T08:39:08Z</time>
                                                <extensions>
                            <sog>0.9</sog>
<cog>41.1</cog>
                        </extensions>
                    </trkpt>
                    <trkpt lat="54.42435666666667" lon="10.21984">
                        <ele>0</ele>
                        <time>2022-08-18T08:39:37Z</time>
                                                <extensions>
                            <sog>1.6</sog>
<cog>42.6</cog>
                        </extensions>
                    </trkpt>
                    <trkpt lat="54.42448666666667" lon="10.219995">
                        <ele>0</ele>
                        <time>2022-08-18T08:40:06Z</time>
                                                <extensions>
                            <sog>1.1</sog>
<cog>38.9</cog>
                        </extensions>
                    </trkpt>
                    <trkpt lat="54.424616666666665" lon="10.220161666666666">
                        <ele>0</ele>
                        <time>2022-08-18T08:40:38Z</time>
                                                <extensions>
                            <sog>0.7</sog>
<cog>38.4</cog>
                        </extensions>
                    </trkpt>
                    <trkpt lat="54.42523666666667" lon="10.221084999999999">
                        <ele>0</ele>
                        <time>2022-08-18T08:43:38Z</time>
                                                <extensions>
                            <sog>0.7</sog>
<cog>44.5</cog>
                        </extensions>
                    </trkpt>
                    <trkpt lat="54.42612999999999" lon="10.221053333333334">
                        <ele>0</ele>
                        <time>2022-08-18T08:46:36Z</time>
                                                <extensions>
                            <sog>1.8</sog>
<cog>345.4</cog>
                        </extensions>
                    </trkpt>
                    <trkpt lat="54.42645" lon="10.220961666666666">
                        <ele>0</ele>
                        <time>2022-08-18T08:47:09Z</time>
                                                <extensions>
                            <sog>2.0</sog>
<cog>348.8</cog>
                        </extensions>
                    </trkpt>
                    <trkpt lat="54.42678333333333" lon="10.22092">
                        <ele>0</ele>
                        <time>2022-08-18T08:47:37Z</time>
                                                <extensions>
                            <sog>3.1</sog>
<cog>356.1</cog>
                        </extensions>
                    </trkpt>
                    <trkpt lat="54.42723" lon="10.221026666666667">
                        <ele>0</ele>
                        <time>2022-08-18T08:48:07Z</time>
                                                <extensions>
                            <sog>3.6</sog>
<cog>11.7</cog>
                        </extensions>
                    </trkpt>
                    <trkpt lat="54.427686666666666" lon="10.221201666666667">
                        <ele>0</ele>
                        <time>2022-08-18T08:48:39Z</time>
                                                <extensions>
                            <sog>2.4</sog>
<cog>16.1</cog>
                        </extensions>
                    </trkpt>
                    <trkpt lat="54.42809333333333" lon="10.221253333333333">
                        <ele>0</ele>
                        <time>2022-08-18T08:49:07Z</time>
                                                <extensions>
                            <sog>3.5</sog>
<cog>358.2</cog>
                        </extensions>
                    </trkpt>
                    <trkpt lat="54.42976" lon="10.221311666666667">
                        <ele>0</ele>
                        <time>2022-08-18T08:50:37Z</time>
                                                <extensions>
                            <sog>4.4</sog>
<cog>3.6</cog>
                        </extensions>
                    </trkpt>
                    <trkpt lat="54.430436666666665" lon="10.22123">
                        <ele>0</ele>
                        <time>2022-08-18T08:51:06Z</time>
                                                <extensions>
                            <sog>5.1</sog>
<cog>352.4</cog>
                        </extensions>
                    </trkpt>
                    <trkpt lat="54.43119333333333" lon="10.221126666666667">
                        <ele>0</ele>
                        <time>2022-08-18T08:51:36Z</time>
                                                <extensions>
                            <sog>5.6</sog>
<cog>355.5</cog>
                        </extensions>
                    </trkpt>
                    <trkpt lat="54.43196666666667" lon="10.220921666666667">
                        <ele>0</ele>
                        <time>2022-08-18T08:52:07Z</time>
                                                <extensions>
                            <sog>5.6</sog>
<cog>349.1</cog>
                        </extensions>
                    </trkpt>
                    <trkpt lat="54.43268333333333" lon="10.220661666666667">
                        <ele>0</ele>
                        <time>2022-08-18T08:52:36Z</time>
                                                <extensions>
                            <sog>5.4</sog>
<cog>348.3</cog>
                        </extensions>
                    </trkpt>
                    <trkpt lat="54.433440000000004" lon="10.22043">
                        <ele>0</ele>
                        <time>2022-08-18T08:53:06Z</time>
                                                <extensions>
                            <sog>5.5</sog>
<cog>347.4</cog>
                        </extensions>
                    </trkpt>
                    <trkpt lat="54.43421333333333" lon="10.220128333333333">
                        <ele>0</ele>
                        <time>2022-08-18T08:53:38Z</time>
                                                <extensions>
                            <sog>5.3</sog>
<cog>345.3</cog>
                        </extensions>
                    </trkpt>
                    <trkpt lat="54.434920000000005" lon="10.219841666666667">
                        <ele>0</ele>
                        <time>2022-08-18T08:54:07Z</time>
                                                <extensions>
                            <sog>5.4</sog>
<cog>346.4</cog>
                        </extensions>
                    </trkpt>
                    <trkpt lat="54.435653333333335" lon="10.2195">
                        <ele>0</ele>
                        <time>2022-08-18T08:54:37Z</time>
                                                <extensions>
                            <sog>5.2</sog>
<cog>344.2</cog>
                        </extensions>
                    </trkpt>
                    <trkpt lat="54.43646666666667" lon="10.219146666666667">
                        <ele>0</ele>
                        <time>2022-08-18T08:55:09Z</time>
                                                <extensions>
                            <sog>5.9</sog>
<cog>345.8</cog>
                        </extensions>
                    </trkpt>
                    <trkpt lat="54.43721666666667" lon="10.218845">
                        <ele>0</ele>
                        <time>2022-08-18T08:55:37Z</time>
                                                <extensions>
                            <sog>5.5</sog>
<cog>347.5</cog>
                        </extensions>
                    </trkpt>
                    <trkpt lat="54.437940000000005" lon="10.218505">
                        <ele>0</ele>
                        <time>2022-08-18T08:56:07Z</time>
                                                <extensions>
                            <sog>5.2</sog>
<cog>344.8</cog>
                        </extensions>
                    </trkpt>
                    <trkpt lat="54.438719999999996" lon="10.218151666666667">
                        <ele>0</ele>
                        <time>2022-08-18T08:56:37Z</time>
                                                <extensions>
                            <sog>5.6</sog>
<cog>343.6</cog>
                        </extensions>
                    </trkpt>
                    <trkpt lat="54.43948666666667" lon="10.217841666666667">
                        <ele>0</ele>
                        <time>2022-08-18T08:57:06Z</time>
                                                <extensions>
                            <sog>5.6</sog>
<cog>346.9</cog>
                        </extensions>
                    </trkpt>
                    <trkpt lat="54.44027666666667" lon="10.217483333333332">
                        <ele>0</ele>
                        <time>2022-08-18T08:57:37Z</time>
                                                <extensions>
                            <sog>5.5</sog>
<cog>342.6</cog>
                        </extensions>
                    </trkpt>
                    <trkpt lat="54.44101666666666" lon="10.217135">
                        <ele>0</ele>
                        <time>2022-08-18T08:58:06Z</time>
                                                <extensions>
                            <sog>6.0</sog>
<cog>343.9</cog>
                        </extensions>
                    </trkpt>
                    <trkpt lat="54.441739999999996" lon="10.216791666666667">
                        <ele>0</ele>
                        <time>2022-08-18T08:58:36Z</time>
                                                <extensions>
                            <sog>5.3</sog>
<cog>345.8</cog>
                        </extensions>
                    </trkpt>
                    <trkpt lat="54.442456666666665" lon="10.216443333333332">
                        <ele>0</ele>
                        <time>2022-08-18T08:59:06Z</time>
                                                <extensions>
                            <sog>5.4</sog>
<cog>346.9</cog>
                        </extensions>
                    </trkpt>
                    <trkpt lat="54.44320333333334" lon="10.216086666666666">
                        <ele>0</ele>
                        <time>2022-08-18T08:59:37Z</time>
                                                <extensions>
                            <sog>5.5</sog>
<cog>344.0</cog>
                        </extensions>
                    </trkpt>
                    <trkpt lat="54.44389" lon="10.215748333333332">
                        <ele>0</ele>
                        <time>2022-08-18T09:00:06Z</time>
                                                <extensions>
                            <sog>5.0</sog>
<cog>343.2</cog>
                        </extensions>
                    </trkpt>
                    <trkpt lat="54.44389" lon="10.215748333333332">
                        <ele>0</ele>
                        <time>2022-08-18T09:00:06Z</time>
                                                <extensions>
                            <sog>5.0</sog>
<cog>343.2</cog>
                        </extensions>
                    </trkpt>
                    <trkpt lat="54.445346666666666" lon="10.21506">
                        <ele>0</ele>
                        <time>2022-08-18T09:01:07Z</time>
                                                <extensions>
                            <sog>5.3</sog>
<cog>345.4</cog>
                        </extensions>
                    </trkpt>
                    <trkpt lat="54.44609333333334" lon="10.21475">
                        <ele>0</ele>
                        <time>2022-08-18T09:01:38Z</time>
                                                <extensions>
                            <sog>5.4</sog>
<cog>346.7</cog>
                        </extensions>
                    </trkpt>
                    <trkpt lat="54.446776666666665" lon="10.214448333333333">
                        <ele>0</ele>
                        <time>2022-08-18T09:02:07Z</time>
                                                <extensions>
                            <sog>5.2</sog>
<cog>346.9</cog>
                        </extensions>
                    </trkpt>
                    <trkpt lat="54.4475" lon="10.214116666666666">
                        <ele>0</ele>
                        <time>2022-08-18T09:02:38Z</time>
                                                <extensions>
                            <sog>5.1</sog>
<cog>344.4</cog>
                        </extensions>
                    </trkpt>
                    <trkpt lat="54.44817" lon="10.213813333333333">
                        <ele>0</ele>
                        <time>2022-08-18T09:03:07Z</time>
                                                <extensions>
                            <sog>4.9</sog>
<cog>345.7</cog>
                        </extensions>
                    </trkpt>
                    <trkpt lat="54.448859999999996" lon="10.213503333333334">
                        <ele>0</ele>
                        <time>2022-08-18T09:03:38Z</time>
                                                <extensions>
                            <sog>5.1</sog>
<cog>344.5</cog>
                        </extensions>
                    </trkpt>
                    <trkpt lat="54.449513333333336" lon="10.213236666666667">
                        <ele>0</ele>
                        <time>2022-08-18T09:04:07Z</time>
                                                <extensions>
                            <sog>4.9</sog>
<cog>346.4</cog>
                        </extensions>
                    </trkpt>
                    <trkpt lat="54.45021" lon="10.212928333333334">
                        <ele>0</ele>
                        <time>2022-08-18T09:04:36Z</time>
                                                <extensions>
                            <sog>5.2</sog>
<cog>343.8</cog>
                        </extensions>
                    </trkpt>
                    <trkpt lat="54.45105" lon="10.212576666666667">
                        <ele>0</ele>
                        <time>2022-08-18T09:05:11Z</time>
                                                <extensions>
                            <sog>5.1</sog>
<cog>346.6</cog>
                        </extensions>
                    </trkpt>
                    <trkpt lat="54.45166666666667" lon="10.212213333333333">
                        <ele>0</ele>
                        <time>2022-08-18T09:05:39Z</time>
                                                <extensions>
                            <sog>4.9</sog>
<cog>341.5</cog>
                        </extensions>
                    </trkpt>
                    <trkpt lat="54.45227" lon="10.211828333333333">
                        <ele>0</ele>
                        <time>2022-08-18T09:06:06Z</time>
                                                <extensions>
                            <sog>4.9</sog>
<cog>339.5</cog>
                        </extensions>
                    </trkpt>
                    <trkpt lat="54.45294666666667" lon="10.211365">
                        <ele>0</ele>
                        <time>2022-08-18T09:06:38Z</time>
                                                <extensions>
                            <sog>4.9</sog>
<cog>337.4</cog>
                        </extensions>
                    </trkpt>
                    <trkpt lat="54.453563333333335" lon="10.210993333333333">
                        <ele>0</ele>
                        <time>2022-08-18T09:07:06Z</time>
                                                <extensions>
                            <sog>4.8</sog>
<cog>340.8</cog>
                        </extensions>
                    </trkpt>
                    <trkpt lat="54.45427333333334" lon="10.210573333333334">
                        <ele>0</ele>
                        <time>2022-08-18T09:07:39Z</time>
                                                <extensions>
                            <sog>5.1</sog>
<cog>341.4</cog>
                        </extensions>
                    </trkpt>
                    <trkpt lat="54.45494" lon="10.210246666666666">
                        <ele>0</ele>
                        <time>2022-08-18T09:08:07Z</time>
                                                <extensions>
                            <sog>4.7</sog>
<cog>343.7</cog>
                        </extensions>
                    </trkpt>
                    <trkpt lat="54.455616666666664" lon="10.209858333333333">
                        <ele>0</ele>
                        <time>2022-08-18T09:08:37Z</time>
                                                <extensions>
                            <sog>5.2</sog>
<cog>341.7</cog>
                        </extensions>
                    </trkpt>
                    <trkpt lat="54.456273333333336" lon="10.209508333333334">
                        <ele>0</ele>
                        <time>2022-08-18T09:09:06Z</time>
                                                <extensions>
                            <sog>4.6</sog>
<cog>341.1</cog>
                        </extensions>
                    </trkpt>
                    <trkpt lat="54.45695" lon="10.209131666666668">
                        <ele>0</ele>
                        <time>2022-08-18T09:09:36Z</time>
                                                <extensions>
                            <sog>5.3</sog>
<cog>344.1</cog>
                        </extensions>
                    </trkpt>
                    <trkpt lat="54.45759333333333" lon="10.208789999999999">
                        <ele>0</ele>
                        <time>2022-08-18T09:10:07Z</time>
                                                <extensions>
                            <sog>4.7</sog>
<cog>342.9</cog>
                        </extensions>
                    </trkpt>
                    <trkpt lat="54.458243333333336" lon="10.208403333333333">
                        <ele>0</ele>
                        <time>2022-08-18T09:10:37Z</time>
                                                <extensions>
                            <sog>4.4</sog>
<cog>342.6</cog>
                        </extensions>
                    </trkpt>
                    <trkpt lat="54.458893333333336" lon="10.20801">
                        <ele>0</ele>
                        <time>2022-08-18T09:11:07Z</time>
                                                <extensions>
                            <sog>4.8</sog>
<cog>341.2</cog>
                        </extensions>
                    </trkpt>
                    <trkpt lat="54.45953" lon="10.207671666666666">
                        <ele>0</ele>
                        <time>2022-08-18T09:11:36Z</time>
                                                <extensions>
                            <sog>4.9</sog>
<cog>344.5</cog>
                        </extensions>
                    </trkpt>
                    <trkpt lat="54.460116666666664" lon="10.207318333333335">
                        <ele>0</ele>
                        <time>2022-08-18T09:12:07Z</time>
                                                <extensions>
                            <sog>4.0</sog>
<cog>337.9</cog>
                        </extensions>
                    </trkpt>
                    <trkpt lat="54.46059666666667" lon="10.20697">
                        <ele>0</ele>
                        <time>2022-08-18T09:12:37Z</time>
                                                <extensions>
                            <sog>3.7</sog>
<cog>337.4</cog>
                        </extensions>
                    </trkpt>
                    <trkpt lat="54.46107666666667" lon="10.206623333333333">
                        <ele>0</ele>
                        <time>2022-08-18T09:13:07Z</time>
                                                <extensions>
                            <sog>3.8</sog>
<cog>332.4</cog>
                        </extensions>
                    </trkpt>
                    <trkpt lat="54.46159" lon="10.206259999999999">
                        <ele>0</ele>
                        <time>2022-08-18T09:13:37Z</time>
                                                <extensions>
                            <sog>4.1</sog>
<cog>340.0</cog>
                        </extensions>
                    </trkpt>
                    <trkpt lat="54.46272666666667" lon="10.20561">
                        <ele>0</ele>
                        <time>2022-08-18T09:14:39Z</time>
                                                <extensions>
                            <sog>4.7</sog>
<cog>344.1</cog>
                        </extensions>
                    </trkpt>
                    <trkpt lat="54.463256666666666" lon="10.205328333333334">
                        <ele>0</ele>
                        <time>2022-08-18T09:15:06Z</time>
                                                <extensions>
                            <sog>4.2</sog>
<cog>343.2</cog>
                        </extensions>
                    </trkpt>
                    <trkpt lat="54.46436333333334" lon="10.204668333333332">
                        <ele>0</ele>
                        <time>2022-08-18T09:16:07Z</time>
                                                <extensions>
                            <sog>4.3</sog>
<cog>342.1</cog>
                        </extensions>
                    </trkpt>
                    <trkpt lat="54.464933333333335" lon="10.204398333333334">
                        <ele>0</ele>
                        <time>2022-08-18T09:16:36Z</time>
                                                <extensions>
                            <sog>4.4</sog>
<cog>346.3</cog>
                        </extensions>
                    </trkpt>
                    <trkpt lat="54.46548666666667" lon="10.204151666666666">
                        <ele>0</ele>
                        <time>2022-08-18T09:17:06Z</time>
                                                <extensions>
                            <sog>3.7</sog>
<cog>345.2</cog>
                        </extensions>
                    </trkpt>
                    <trkpt lat="54.466" lon="10.203861666666667">
                        <ele>0</ele>
                        <time>2022-08-18T09:17:38Z</time>
                                                <extensions>
                            <sog>3.6</sog>
<cog>341.8</cog>
                        </extensions>
                    </trkpt>
                    <trkpt lat="54.466429999999995" lon="10.203608333333333">
                        <ele>0</ele>
                        <time>2022-08-18T09:18:06Z</time>
                                                <extensions>
                            <sog>3.4</sog>
<cog>342.3</cog>
                        </extensions>
                    </trkpt>
                    <trkpt lat="54.466919999999995" lon="10.203308333333332">
                        <ele>0</ele>
                        <time>2022-08-18T09:18:38Z</time>
                                                <extensions>
                            <sog>3.4</sog>
<cog>341.0</cog>
                        </extensions>
                    </trkpt>
                    <trkpt lat="54.46734333333333" lon="10.203051666666665">
                        <ele>0</ele>
                        <time>2022-08-18T09:19:08Z</time>
                                                <extensions>
                            <sog>3.3</sog>
<cog>341.5</cog>
                        </extensions>
                    </trkpt>
                    <trkpt lat="54.46776666666666" lon="10.202820000000001">
                        <ele>0</ele>
                        <time>2022-08-18T09:19:36Z</time>
                                                <extensions>
                            <sog>3.1</sog>
<cog>342.0</cog>
                        </extensions>
                    </trkpt>
                    <trkpt lat="54.46818" lon="10.202568333333334">
                        <ele>0</ele>
                        <time>2022-08-18T09:20:06Z</time>
                                                <extensions>
                            <sog>3.1</sog>
<cog>341.5</cog>
                        </extensions>
                    </trkpt>
                    <trkpt lat="54.469010000000004" lon="10.202033333333333">
                        <ele>0</ele>
                        <time>2022-08-18T09:21:09Z</time>
                                                <extensions>
                            <sog>3.0</sog>
<cog>340.3</cog>
                        </extensions>
                    </trkpt>
                    <trkpt lat="54.46941666666667" lon="10.201844999999999">
                        <ele>0</ele>
                        <time>2022-08-18T09:21:39Z</time>
                                                <extensions>
                            <sog>3.0</sog>
<cog>342.0</cog>
                        </extensions>
                    </trkpt>
                    <trkpt lat="54.46982333333334" lon="10.201635000000001">
                        <ele>0</ele>
                        <time>2022-08-18T09:22:07Z</time>
                                                <extensions>
                            <sog>3.1</sog>
<cog>342.3</cog>
                        </extensions>
                    </trkpt>
                    <trkpt lat="54.47022333333334" lon="10.201425">
                        <ele>0</ele>
                        <time>2022-08-18T09:22:37Z</time>
                                                <extensions>
                            <sog>3.0</sog>
<cog>342.5</cog>
                        </extensions>
                    </trkpt>
                    <trkpt lat="54.470623333333336" lon="10.20117">
                        <ele>0</ele>
                        <time>2022-08-18T09:23:07Z</time>
                                                <extensions>
                            <sog>2.9</sog>
<cog>341.5</cog>
                        </extensions>
                    </trkpt>
                    <trkpt lat="54.471030000000006" lon="10.200935">
                        <ele>0</ele>
                        <time>2022-08-18T09:23:38Z</time>
                                                <extensions>
                            <sog>3.0</sog>
<cog>341.2</cog>
                        </extensions>
                    </trkpt>
                    <trkpt lat="54.471426666666666" lon="10.200718333333333">
                        <ele>0</ele>
                        <time>2022-08-18T09:24:06Z</time>
                                                <extensions>
                            <sog>3.3</sog>
<cog>343.2</cog>
                        </extensions>
                    </trkpt>
                    <trkpt lat="54.47186666666666" lon="10.20045">
                        <ele>0</ele>
                        <time>2022-08-18T09:24:38Z</time>
                                                <extensions>
                            <sog>3.2</sog>
<cog>340.8</cog>
                        </extensions>
                    </trkpt>
                    <trkpt lat="54.472273333333334" lon="10.200226666666667">
                        <ele>0</ele>
                        <time>2022-08-18T09:25:06Z</time>
                                                <extensions>
                            <sog>3.1</sog>
<cog>341.3</cog>
                        </extensions>
                    </trkpt>
                    <trkpt lat="54.47269666666667" lon="10.200001666666667">
                        <ele>0</ele>
                        <time>2022-08-18T09:25:36Z</time>
                                                <extensions>
                            <sog>3.1</sog>
<cog>343.1</cog>
                        </extensions>
                    </trkpt>
                    <trkpt lat="54.473103333333334" lon="10.199776666666667">
                        <ele>0</ele>
                        <time>2022-08-18T09:26:07Z</time>
                                                <extensions>
                            <sog>3.0</sog>
<cog>341.7</cog>
                        </extensions>
                    </trkpt>
                    <trkpt lat="54.47350333333333" lon="10.199526666666666">
                        <ele>0</ele>
                        <time>2022-08-18T09:26:37Z</time>
                                                <extensions>
                            <sog>3.1</sog>
<cog>340.8</cog>
                        </extensions>
                    </trkpt>
                    <trkpt lat="54.473933333333335" lon="10.199298333333333">
                        <ele>0</ele>
                        <time>2022-08-18T09:27:07Z</time>
                                                <extensions>
                            <sog>3.1</sog>
<cog>342.6</cog>
                        </extensions>
                    </trkpt>
                    <trkpt lat="54.47431666666667" lon="10.199083333333334">
                        <ele>0</ele>
                        <time>2022-08-18T09:27:36Z</time>
                                                <extensions>
                            <sog>3.0</sog>
<cog>342.1</cog>
                        </extensions>
                    </trkpt>
                    <trkpt lat="54.47472333333334" lon="10.198843333333334">
                        <ele>0</ele>
                        <time>2022-08-18T09:28:07Z</time>
                                                <extensions>
                            <sog>2.9</sog>
<cog>341.0</cog>
                        </extensions>
                    </trkpt>
                    <trkpt lat="54.47514666666667" lon="10.198591666666665">
                        <ele>0</ele>
                        <time>2022-08-18T09:28:38Z</time>
                                                <extensions>
                            <sog>3.3</sog>
<cog>340.4</cog>
                        </extensions>
                    </trkpt>
                    <trkpt lat="54.475530000000006" lon="10.198363333333333">
                        <ele>0</ele>
                        <time>2022-08-18T09:29:07Z</time>
                                                <extensions>
                            <sog>3.2</sog>
<cog>342.0</cog>
                        </extensions>
                    </trkpt>
                    <trkpt lat="54.47593666666667" lon="10.198135">
                        <ele>0</ele>
                        <time>2022-08-18T09:29:36Z</time>
                                                <extensions>
                            <sog>3.0</sog>
<cog>342.7</cog>
                        </extensions>
                    </trkpt>
                    <trkpt lat="54.47633333333333" lon="10.19792">
                        <ele>0</ele>
                        <time>2022-08-18T09:30:06Z</time>
                                                <extensions>
                            <sog>3.0</sog>
<cog>343.5</cog>
                        </extensions>
                    </trkpt>
                    <trkpt lat="54.476726666666664" lon="10.197711666666667">
                        <ele>0</ele>
                        <time>2022-08-18T09:30:37Z</time>
                                                <extensions>
                            <sog>2.9</sog>
<cog>342.2</cog>
                        </extensions>
                    </trkpt>
                    <trkpt lat="54.478653333333334" lon="10.196628333333333">
                        <ele>0</ele>
                        <time>2022-08-18T09:33:07Z</time>
                                                <extensions>
                            <sog>2.9</sog>
<cog>340.5</cog>
                        </extensions>
                    </trkpt>
                    <trkpt lat="54.47907" lon="10.196378333333334">
                        <ele>0</ele>
                        <time>2022-08-18T09:33:39Z</time>
                                                <extensions>
                            <sog>2.9</sog>
<cog>341.2</cog>
                        </extensions>
                    </trkpt>
                    <trkpt lat="54.47942" lon="10.196188333333334">
                        <ele>0</ele>
                        <time>2022-08-18T09:34:07Z</time>
                                                <extensions>
                            <sog>3.1</sog>
<cog>343.6</cog>
                        </extensions>
                    </trkpt>
                    <trkpt lat="54.47986" lon="10.195948333333332">
                        <ele>0</ele>
                        <time>2022-08-18T09:34:38Z</time>
                                                <extensions>
                            <sog>3.2</sog>
<cog>342.7</cog>
                        </extensions>
                    </trkpt>
                    <trkpt lat="54.480266666666665" lon="10.195753333333332">
                        <ele>0</ele>
                        <time>2022-08-18T09:35:07Z</time>
                                                <extensions>
                            <sog>3.1</sog>
<cog>343.0</cog>
                        </extensions>
                    </trkpt>
                    <trkpt lat="54.48106333333333" lon="10.195255">
                        <ele>0</ele>
                        <time>2022-08-18T09:36:08Z</time>
                                                <extensions>
                            <sog>3.0</sog>
<cog>337.0</cog>
                        </extensions>
                    </trkpt>
                    <trkpt lat="54.48140333333333" lon="10.19498">
                        <ele>0</ele>
                        <time>2022-08-18T09:36:36Z</time>
                                                <extensions>
                            <sog>2.9</sog>
<cog>334.9</cog>
                        </extensions>
                    </trkpt>
                    <trkpt lat="54.48175333333334" lon="10.194685">
                        <ele>0</ele>
                        <time>2022-08-18T09:37:06Z</time>
                                                <extensions>
                            <sog>2.7</sog>
<cog>333.8</cog>
                        </extensions>
                    </trkpt>
                    <trkpt lat="54.48213666666666" lon="10.194385">
                        <ele>0</ele>
                        <time>2022-08-18T09:37:38Z</time>
                                                <extensions>
                            <sog>2.7</sog>
<cog>336.1</cog>
                        </extensions>
                    </trkpt>
                    <trkpt lat="54.482510000000005" lon="10.194123333333332">
                        <ele>0</ele>
                        <time>2022-08-18T09:38:07Z</time>
                                                <extensions>
                            <sog>3.0</sog>
<cog>338.1</cog>
                        </extensions>
                    </trkpt>
                    <trkpt lat="54.482886666666666" lon="10.193825">
                        <ele>0</ele>
                        <time>2022-08-18T09:38:37Z</time>
                                                <extensions>
                            <sog>2.8</sog>
<cog>336.1</cog>
                        </extensions>
                    </trkpt>
                    <trkpt lat="54.48328333333333" lon="10.193520000000001">
                        <ele>0</ele>
                        <time>2022-08-18T09:39:08Z</time>
                                                <extensions>
                            <sog>3.1</sog>
<cog>337.3</cog>
                        </extensions>
                    </trkpt>
                    <trkpt lat="54.48367666666666" lon="10.193251666666667">
                        <ele>0</ele>
                        <time>2022-08-18T09:39:37Z</time>
                                                <extensions>
                            <sog>3.0</sog>
<cog>337.4</cog>
                        </extensions>
                    </trkpt>
                    <trkpt lat="54.48405666666667" lon="10.192995">
                        <ele>0</ele>
                        <time>2022-08-18T09:40:07Z</time>
                                                <extensions>
                            <sog>2.9</sog>
<cog>337.9</cog>
                        </extensions>
                    </trkpt>
                    <trkpt lat="54.48484666666666" lon="10.192398333333333">
                        <ele>0</ele>
                        <time>2022-08-18T09:41:09Z</time>
                                                <extensions>
                            <sog>2.9</sog>
<cog>336.8</cog>
                        </extensions>
                    </trkpt>
                    <trkpt lat="54.48519666666667" lon="10.192125">
                        <ele>0</ele>
                        <time>2022-08-18T09:41:37Z</time>
                                                <extensions>
                            <sog>3.2</sog>
<cog>336.1</cog>
                        </extensions>
                    </trkpt>
                    <trkpt lat="54.48558" lon="10.191845">
                        <ele>0</ele>
                        <time>2022-08-18T09:42:06Z</time>
                                                <extensions>
                            <sog>3.0</sog>
<cog>340.1</cog>
                        </extensions>
                    </trkpt>
                    <trkpt lat="54.48598666666667" lon="10.191535">
                        <ele>0</ele>
                        <time>2022-08-18T09:42:39Z</time>
                                                <extensions>
                            <sog>3.0</sog>
<cog>336.0</cog>
                        </extensions>
                    </trkpt>
                    <trkpt lat="54.486336666666666" lon="10.19128">
                        <ele>0</ele>
                        <time>2022-08-18T09:43:07Z</time>
                                                <extensions>
                            <sog>3.0</sog>
<cog>336.3</cog>
                        </extensions>
                    </trkpt>
                    <trkpt lat="54.48672666666666" lon="10.190976666666668">
                        <ele>0</ele>
                        <time>2022-08-18T09:43:37Z</time>
                                                <extensions>
                            <sog>2.9</sog>
<cog>336.4</cog>
                        </extensions>
                    </trkpt>
                    <trkpt lat="54.48711" lon="10.190691666666668">
                        <ele>0</ele>
                        <time>2022-08-18T09:44:07Z</time>
                                                <extensions>
                            <sog>3.2</sog>
<cog>335.8</cog>
                        </extensions>
                    </trkpt>
                    <trkpt lat="54.48748333333333" lon="10.190410000000002">
                        <ele>0</ele>
                        <time>2022-08-18T09:44:37Z</time>
                                                <extensions>
                            <sog>2.7</sog>
<cog>333.1</cog>
                        </extensions>
                    </trkpt>
                    <trkpt lat="54.487899999999996" lon="10.190098333333333">
                        <ele>0</ele>
                        <time>2022-08-18T09:45:07Z</time>
                                                <extensions>
                            <sog>3.0</sog>
<cog>338.2</cog>
                        </extensions>
                    </trkpt>
                    <trkpt lat="54.48916666666666" lon="10.189186666666666">
                        <ele>0</ele>
                        <time>2022-08-18T09:46:36Z</time>
                                                <extensions>
                            <sog>3.6</sog>
<cog>336.1</cog>
                        </extensions>
                    </trkpt>
                    <trkpt lat="54.48968" lon="10.188855">
                        <ele>0</ele>
                        <time>2022-08-18T09:47:09Z</time>
                                                <extensions>
                            <sog>3.7</sog>
<cog>339.4</cog>
                        </extensions>
                    </trkpt>
                    <trkpt lat="54.49062666666667" lon="10.188218333333333">
                        <ele>0</ele>
                        <time>2022-08-18T09:48:06Z</time>
                                                <extensions>
                            <sog>3.7</sog>
<cog>337.2</cog>
                        </extensions>
                    </trkpt>
                    <trkpt lat="54.491096666666664" lon="10.187868333333334">
                        <ele>0</ele>
                        <time>2022-08-18T09:48:37Z</time>
                                                <extensions>
                            <sog>3.6</sog>
<cog>336.4</cog>
                        </extensions>
                    </trkpt>
                    <trkpt lat="54.49157666666667" lon="10.187531666666667">
                        <ele>0</ele>
                        <time>2022-08-18T09:49:07Z</time>
                                                <extensions>
                            <sog>3.7</sog>
<cog>338.9</cog>
                        </extensions>
                    </trkpt>
                    <trkpt lat="54.49255333333333" lon="10.186825">
                        <ele>0</ele>
                        <time>2022-08-18T09:50:08Z</time>
                                                <extensions>
                            <sog>3.7</sog>
<cog>334.8</cog>
                        </extensions>
                    </trkpt>
                    <trkpt lat="54.49403333333333" lon="10.18578">
                        <ele>0</ele>
                        <time>2022-08-18T09:51:37Z</time>
                                                <extensions>
                            <sog>4.0</sog>
<cog>337.6</cog>
                        </extensions>
                    </trkpt>
                    <trkpt lat="54.49543333333334" lon="10.184651666666667">
                        <ele>0</ele>
                        <time>2022-08-18T09:53:08Z</time>
                                                <extensions>
                            <sog>3.6</sog>
<cog>336.2</cog>
                        </extensions>
                    </trkpt>
                    <trkpt lat="54.49631333333333" lon="10.183955">
                        <ele>0</ele>
                        <time>2022-08-18T09:54:08Z</time>
                                                <extensions>
                            <sog>3.4</sog>
<cog>333.8</cog>
                        </extensions>
                    </trkpt>
                    <trkpt lat="54.497103333333335" lon="10.18327">
                        <ele>0</ele>
                        <time>2022-08-18T09:55:06Z</time>
                                                <extensions>
                            <sog>3.6</sog>
<cog>332.5</cog>
                        </extensions>
                    </trkpt>
                    <trkpt lat="54.498079999999995" lon="10.182518333333332">
                        <ele>0</ele>
                        <time>2022-08-18T09:56:10Z</time>
                                                <extensions>
                            <sog>3.4</sog>
<cog>335.1</cog>
                        </extensions>
                    </trkpt>
                    <trkpt lat="54.49893333333333" lon="10.181836666666667">
                        <ele>0</ele>
                        <time>2022-08-18T09:57:06Z</time>
                                                <extensions>
                            <sog>3.5</sog>
<cog>334.4</cog>
                        </extensions>
                    </trkpt>
                    <trkpt lat="54.49939" lon="10.181481666666667">
                        <ele>0</ele>
                        <time>2022-08-18T09:57:38Z</time>
                                                <extensions>
                            <sog>3.4</sog>
<cog>334.9</cog>
                        </extensions>
                    </trkpt>
                    <trkpt lat="54.49979666666666" lon="10.181183333333333">
                        <ele>0</ele>
                        <time>2022-08-18T09:58:06Z</time>
                                                <extensions>
                            <sog>3.6</sog>
<cog>337.0</cog>
                        </extensions>
                    </trkpt>
                    <trkpt lat="54.50025333333333" lon="10.180845">
                        <ele>0</ele>
                        <time>2022-08-18T09:58:37Z</time>
                                                <extensions>
                            <sog>3.5</sog>
<cog>336.7</cog>
                        </extensions>
                    </trkpt>
                    <trkpt lat="54.50071666666667" lon="10.180508333333334">
                        <ele>0</ele>
                        <time>2022-08-18T09:59:06Z</time>
                                                <extensions>
                            <sog>3.7</sog>
<cog>335.9</cog>
                        </extensions>
                    </trkpt>
                    <trkpt lat="54.501219999999996" lon="10.180111666666667">
                        <ele>0</ele>
                        <time>2022-08-18T09:59:40Z</time>
                                                <extensions>
                            <sog>3.3</sog>
<cog>335.5</cog>
                        </extensions>
                    </trkpt>
                    <trkpt lat="54.50165333333334" lon="10.179761666666668">
                        <ele>0</ele>
                        <time>2022-08-18T10:00:09Z</time>
                                                <extensions>
                            <sog>3.6</sog>
<cog>336.2</cog>
                        </extensions>
                    </trkpt>
                    <trkpt lat="54.50165333333334" lon="10.179761666666668">
                        <ele>0</ele>
                        <time>2022-08-18T10:00:09Z</time>
                                                <extensions>
                            <sog>3.6</sog>
<cog>336.2</cog>
                        </extensions>
                    </trkpt>
                    <trkpt lat="54.502066666666664" lon="10.179450000000001">
                        <ele>0</ele>
                        <time>2022-08-18T10:00:37Z</time>
                                                <extensions>
                            <sog>3.3</sog>
<cog>335.4</cog>
                        </extensions>
                    </trkpt>
                    <trkpt lat="54.502066666666664" lon="10.179450000000001">
                        <ele>0</ele>
                        <time>2022-08-18T10:00:37Z</time>
                                                <extensions>
                            <sog>3.3</sog>
<cog>335.4</cog>
                        </extensions>
                    </trkpt>
                    <trkpt lat="54.50248333333333" lon="10.179129999999999">
                        <ele>0</ele>
                        <time>2022-08-18T10:01:06Z</time>
                                                <extensions>
                            <sog>3.4</sog>
<cog>335.7</cog>
                        </extensions>
                    </trkpt>
                    <trkpt lat="54.50333" lon="10.178498333333332">
                        <ele>0</ele>
                        <time>2022-08-18T10:02:07Z</time>
                                                <extensions>
                            <sog>3.0</sog>
<cog>335.7</cog>
                        </extensions>
                    </trkpt>
                    <trkpt lat="54.50375" lon="10.178165">
                        <ele>0</ele>
                        <time>2022-08-18T10:02:38Z</time>
                                                <extensions>
                            <sog>3.4</sog>
<cog>335.0</cog>
                        </extensions>
                    </trkpt>
                    <trkpt lat="54.50414333333333" lon="10.177876666666666">
                        <ele>0</ele>
                        <time>2022-08-18T10:03:06Z</time>
                                                <extensions>
                            <sog>3.1</sog>
<cog>335.0</cog>
                        </extensions>
                    </trkpt>
                    <trkpt lat="54.50492333333333" lon="10.177238333333333">
                        <ele>0</ele>
                        <time>2022-08-18T10:04:07Z</time>
                                                <extensions>
                            <sog>3.0</sog>
<cog>336.2</cog>
                        </extensions>
                    </trkpt>
                    <trkpt lat="54.50608666666667" lon="10.176265">
                        <ele>0</ele>
                        <time>2022-08-18T10:05:37Z</time>
                                                <extensions>
                            <sog>3.3</sog>
<cog>337.5</cog>
                        </extensions>
                    </trkpt>
                    <trkpt lat="54.50655" lon="10.175895">
                        <ele>0</ele>
                        <time>2022-08-18T10:06:08Z</time>
                                                <extensions>
                            <sog>3.6</sog>
<cog>336.5</cog>
                        </extensions>
                    </trkpt>
                    <trkpt lat="54.50700666666667" lon="10.175588333333334">
                        <ele>0</ele>
                        <time>2022-08-18T10:06:37Z</time>
                                                <extensions>
                            <sog>3.2</sog>
<cog>339.6</cog>
                        </extensions>
                    </trkpt>
                    <trkpt lat="54.50748" lon="10.175266666666666">
                        <ele>0</ele>
                        <time>2022-08-18T10:07:07Z</time>
                                                <extensions>
                            <sog>3.7</sog>
<cog>338.1</cog>
                        </extensions>
                    </trkpt>
                    <trkpt lat="54.50843" lon="10.174498333333334">
                        <ele>0</ele>
                        <time>2022-08-18T10:08:08Z</time>
                                                <extensions>
                            <sog>3.5</sog>
<cog>335.1</cog>
                        </extensions>
                    </trkpt>
                    <trkpt lat="54.50891" lon="10.174104999999999">
                        <ele>0</ele>
                        <time>2022-08-18T10:08:39Z</time>
                                                <extensions>
                            <sog>3.6</sog>
<cog>335.5</cog>
                        </extensions>
                    </trkpt>
                    <trkpt lat="54.509350000000005" lon="10.173741666666666">
                        <ele>0</ele>
                        <time>2022-08-18T10:09:08Z</time>
                                                <extensions>
                            <sog>3.6</sog>
<cog>334.0</cog>
                        </extensions>
                    </trkpt>
                    <trkpt lat="54.509789999999995" lon="10.173376666666666">
                        <ele>0</ele>
                        <time>2022-08-18T10:09:38Z</time>
                                                <extensions>
                            <sog>3.4</sog>
<cog>332.5</cog>
                        </extensions>
                    </trkpt>
                    <trkpt lat="54.510173333333334" lon="10.17303">
                        <ele>0</ele>
                        <time>2022-08-18T10:10:06Z</time>
                                                <extensions>
                            <sog>3.2</sog>
<cog>330.1</cog>
                        </extensions>
                    </trkpt>
                    <trkpt lat="54.51057" lon="10.172586666666666">
                        <ele>0</ele>
                        <time>2022-08-18T10:10:37Z</time>
                                                <extensions>
                            <sog>3.3</sog>
<cog>327.3</cog>
                        </extensions>
                    </trkpt>
                    <trkpt lat="54.511313333333334" lon="10.17178">
                        <ele>0</ele>
                        <time>2022-08-18T10:11:36Z</time>
                                                <extensions>
                            <sog>3.4</sog>
<cog>324.6</cog>
                        </extensions>
                    </trkpt>
                    <trkpt lat="54.511693333333334" lon="10.171361666666666">
                        <ele>0</ele>
                        <time>2022-08-18T10:12:06Z</time>
                                                <extensions>
                            <sog>3.0</sog>
<cog>328.7</cog>
                        </extensions>
                    </trkpt>
                    <trkpt lat="54.51207" lon="10.170973333333334">
                        <ele>0</ele>
                        <time>2022-08-18T10:12:36Z</time>
                                                <extensions>
                            <sog>3.1</sog>
<cog>330.1</cog>
                        </extensions>
                    </trkpt>
                    <trkpt lat="54.51246666666667" lon="10.170556666666666">
                        <ele>0</ele>
                        <time>2022-08-18T10:13:07Z</time>
                                                <extensions>
                            <sog>3.3</sog>
<cog>327.4</cog>
                        </extensions>
                    </trkpt>
                    <trkpt lat="54.51287333333333" lon="10.170155">
                        <ele>0</ele>
                        <time>2022-08-18T10:13:37Z</time>
                                                <extensions>
                            <sog>3.2</sog>
<cog>329.9</cog>
                        </extensions>
                    </trkpt>
                    <trkpt lat="54.51325666666666" lon="10.169753333333334">
                        <ele>0</ele>
                        <time>2022-08-18T10:14:07Z</time>
                                                <extensions>
                            <sog>3.2</sog>
<cog>329.9</cog>
                        </extensions>
                    </trkpt>
                    <trkpt lat="54.51399666666667" lon="10.169013333333334">
                        <ele>0</ele>
                        <time>2022-08-18T10:15:06Z</time>
                                                <extensions>
                            <sog>3.1</sog>
<cog>329.5</cog>
                        </extensions>
                    </trkpt>
                    <trkpt lat="54.51469" lon="10.168241666666667">
                        <ele>0</ele>
                        <time>2022-08-18T10:16:06Z</time>
                                                <extensions>
                            <sog>3.0</sog>
<cog>326.5</cog>
                        </extensions>
                    </trkpt>
                    <trkpt lat="54.51508666666667" lon="10.167856666666667">
                        <ele>0</ele>
                        <time>2022-08-18T10:16:37Z</time>
                                                <extensions>
                            <sog>3.3</sog>
<cog>329.6</cog>
                        </extensions>
                    </trkpt>
                    <trkpt lat="54.51580333333333" lon="10.167068333333333">
                        <ele>0</ele>
                        <time>2022-08-18T10:17:36Z</time>
                                                <extensions>
                            <sog>3.2</sog>
<cog>328.1</cog>
                        </extensions>
                    </trkpt>
                    <trkpt lat="54.51617" lon="10.166661666666666">
                        <ele>0</ele>
                        <time>2022-08-18T10:18:06Z</time>
                                                <extensions>
                            <sog>3.6</sog>
<cog>325.0</cog>
                        </extensions>
                    </trkpt>
                    <trkpt lat="54.51818" lon="10.16444">
                        <ele>0</ele>
                        <time>2022-08-18T10:21:06Z</time>
                                                <extensions>
                            <sog>3.0</sog>
<cog>326.6</cog>
                        </extensions>
                    </trkpt>
                    <trkpt lat="54.51882333333333" lon="10.163743333333334">
                        <ele>0</ele>
                        <time>2022-08-18T10:22:06Z</time>
                                                <extensions>
                            <sog>2.7</sog>
<cog>327.6</cog>
                        </extensions>
                    </trkpt>
                    <trkpt lat="54.519133333333336" lon="10.163414999999999">
                        <ele>0</ele>
                        <time>2022-08-18T10:22:36Z</time>
                                                <extensions>
                            <sog>2.5</sog>
<cog>328.5</cog>
                        </extensions>
                    </trkpt>
                    <trkpt lat="54.519443333333335" lon="10.163063333333334">
                        <ele>0</ele>
                        <time>2022-08-18T10:23:07Z</time>
                                                <extensions>
                            <sog>2.5</sog>
<cog>328.2</cog>
                        </extensions>
                    </trkpt>
                    <trkpt lat="54.519733333333335" lon="10.162721666666666">
                        <ele>0</ele>
                        <time>2022-08-18T10:23:37Z</time>
                                                <extensions>
                            <sog>2.5</sog>
<cog>327.6</cog>
                        </extensions>
                    </trkpt>
                    <trkpt lat="54.52002" lon="10.162393333333334">
                        <ele>0</ele>
                        <time>2022-08-18T10:24:06Z</time>
                                                <extensions>
                            <sog>2.4</sog>
<cog>326.6</cog>
                        </extensions>
                    </trkpt>
                    <trkpt lat="54.52030333333333" lon="10.162068333333334">
                        <ele>0</ele>
                        <time>2022-08-18T10:24:36Z</time>
                                                <extensions>
                            <sog>2.3</sog>
<cog>328.2</cog>
                        </extensions>
                    </trkpt>
                    <trkpt lat="54.521166666666666" lon="10.161101666666667">
                        <ele>0</ele>
                        <time>2022-08-18T10:26:10Z</time>
                                                <extensions>
                            <sog>2.4</sog>
<cog>331.8</cog>
                        </extensions>
                    </trkpt>
                    <trkpt lat="54.52142" lon="10.160811666666666">
                        <ele>0</ele>
                        <time>2022-08-18T10:26:39Z</time>
                                                <extensions>
                            <sog>2.4</sog>
<cog>329.9</cog>
                        </extensions>
                    </trkpt>
                    <trkpt lat="54.521679999999996" lon="10.160521666666666">
                        <ele>0</ele>
                        <time>2022-08-18T10:27:09Z</time>
                                                <extensions>
                            <sog>2.4</sog>
<cog>329.0</cog>
                        </extensions>
                    </trkpt>
                    <trkpt lat="54.58336666666666" lon="10.084145000000001">
                        <ele>0</ele>
                        <time>2022-08-18T11:16:07Z</time>
                                                <extensions>
                            <sog>7.3</sog>
<cog>321.2</cog>
                        </extensions>
                    </trkpt>
                    <trkpt lat="54.58416333333333" lon="10.083011666666666">
                        <ele>0</ele>
                        <time>2022-08-18T11:16:37Z</time>
                                                <extensions>
                            <sog>7.3</sog>
<cog>319.9</cog>
                        </extensions>
                    </trkpt>
                    </trkseg>
                </trk>
</gpx>