<?xml version="1.0" encoding="UTF-8"?>
<gpx version="1.1" creator="AIS-to-GPX Converter" xmlns="http://www.topografix.com/GPX/1/1">
                <trk>
                    <name>anon0094</name>
                    <trkseg>
                                            <trkpt lat="54.530636666666666" lon="10.295968333333333">
                        <ele>0</ele>
                        <time>2022-08-18T16:17:21Z</time>
                                                <extensions>
                            <sog>6.3</sog>
<cog>204.4</cog>
                        </extensions>
                    </trkpt>
                    <trkpt lat="54.529061666666664" lon="10.294711666666666">
                        <ele>0</ele>
                        <time>2022-08-18T16:18:21Z</time>
                                                <extensions>
                            <sog>6.3</sog>
<cog>206.3</cog>
                        </extensions>
                    </trkpt>
                    <trkpt lat="54.52260833333333" lon="10.289651666666666">
                        <ele>0</ele>
                        <time>2022-08-18T16:22:24Z</time>
                                                <extensions>
                            <sog>6.4</sog>
<cog>206.4</cog>
                        </extensions>
                    </trkpt>
                    <trkpt lat="54.505183333333335" lon="10.275413333333335">
                        <ele>0</ele>
                        <time>2022-08-18T16:33:23Z</time>
                                                <extensions>
                            <sog>6.4</sog>
<cog>208.1</cog>
                        </extensions>
                    </trkpt>
                    <trkpt lat="54.503636666666665" lon="10.274091666666667">
                        <ele>0</ele>
                        <time>2022-08-18T16:34:23Z</time>
                                                <extensions>
                            <sog>6.4</sog>
<cog>207.7</cog>
                        </extensions>
                    </trkpt>
                    <trkpt lat="54.50282166666667" lon="10.273378333333334">
                        <ele>0</ele>
                        <time>2022-08-18T16:34:54Z</time>
                                                <extensions>
                            <sog>6.2</sog>
<cog>208.6</cog>
                        </extensions>
                    </trkpt>
                    <trkpt lat="54.501245000000004" lon="10.272003333333334">
                        <ele>0</ele>
                        <time>2022-08-18T16:35:54Z</time>
                                                <extensions>
                            <sog>6.4</sog>
<cog>206.9</cog>
                        </extensions>
                    </trkpt>
                    <trkpt lat="54.50046833333333" lon="10.271338333333334">
                        <ele>0</ele>
                        <time>2022-08-18T16:36:22Z</time>
                                                <extensions>
                            <sog>6.6</sog>
<cog>206.2</cog>
                        </extensions>
                    </trkpt>
                    <trkpt lat="54.498023333333336" lon="10.269208333333333">
                        <ele>0</ele>
                        <time>2022-08-18T16:37:54Z</time>
                                                <extensions>
                            <sog>6.5</sog>
<cog>204.9</cog>
                        </extensions>
                    </trkpt>
                    <trkpt lat="54.497296666666664" lon="10.268581666666668">
                        <ele>0</ele>
                        <time>2022-08-18T16:38:22Z</time>
                                                <extensions>
                            <sog>6.5</sog>
<cog>207.6</cog>
                        </extensions>
                    </trkpt>
                    <trkpt lat="54.492446666666666" lon="10.264389999999999">
                        <ele>0</ele>
                        <time>2022-08-18T16:41:22Z</time>
                                                <extensions>
                            <sog>6.5</sog>
<cog>206.5</cog>
                        </extensions>
                    </trkpt>
                    <trkpt lat="54.49155333333333" lon="10.263631666666667">
                        <ele>0</ele>
                        <time>2022-08-18T16:41:54Z</time>
                                                <extensions>
                            <sog>6.5</sog>
<cog>207.3</cog>
                        </extensions>
                    </trkpt>
                    <trkpt lat="54.48999" lon="10.262276666666667">
                        <ele>0</ele>
                        <time>2022-08-18T16:42:53Z</time>
                                                <extensions>
                            <sog>6.5</sog>
<cog>204.6</cog>
                        </extensions>
                    </trkpt>
                    <trkpt lat="54.486758333333334" lon="10.25949">
                        <ele>0</ele>
                        <time>2022-08-18T16:44:53Z</time>
                                                <extensions>
                            <sog>6.6</sog>
<cog>206.8</cog>
                        </extensions>
                    </trkpt>
                    <trkpt lat="54.48511166666666" lon="10.258061666666666">
                        <ele>0</ele>
                        <time>2022-08-18T16:45:53Z</time>
                                                <extensions>
                            <sog>6.4</sog>
<cog>203.4</cog>
                        </extensions>
                    </trkpt>
                    <trkpt lat="54.48436166666667" lon="10.257415">
                        <ele>0</ele>
                        <time>2022-08-18T16:46:22Z</time>
                                                <extensions>
                            <sog>6.4</sog>
<cog>204.4</cog>
                        </extensions>
                    </trkpt>
                    <trkpt lat="54.483444999999996" lon="10.256623333333332">
                        <ele>0</ele>
                        <time>2022-08-18T16:46:55Z</time>
                                                <extensions>
                            <sog>6.6</sog>
<cog>209.3</cog>
                        </extensions>
                    </trkpt>
                    <trkpt lat="54.482745" lon="10.256008333333334">
                        <ele>0</ele>
                        <time>2022-08-18T16:47:22Z</time>
                                                <extensions>
                            <sog>6.6</sog>
<cog>205.5</cog>
                        </extensions>
                    </trkpt>
                    <trkpt lat="54.481855" lon="10.255226666666665">
                        <ele>0</ele>
                        <time>2022-08-18T16:47:55Z</time>
                                                <extensions>
                            <sog>6.6</sog>
<cog>207.0</cog>
                        </extensions>
                    </trkpt>
                    <trkpt lat="54.48112166666667" lon="10.254591666666666">
                        <ele>0</ele>
                        <time>2022-08-18T16:48:22Z</time>
                                                <extensions>
                            <sog>6.5</sog>
<cog>206.0</cog>
                        </extensions>
                    </trkpt>
                    <trkpt lat="54.480228333333336" lon="10.25381">
                        <ele>0</ele>
                        <time>2022-08-18T16:48:55Z</time>
                                                <extensions>
                            <sog>6.5</sog>
<cog>206.5</cog>
                        </extensions>
                    </trkpt>
                    <trkpt lat="54.47941333333333" lon="10.253106666666667">
                        <ele>0</ele>
                        <time>2022-08-18T16:49:25Z</time>
                                                <extensions>
                            <sog>6.6</sog>
<cog>207.6</cog>
                        </extensions>
                    </trkpt>
                    <trkpt lat="54.478605" lon="10.252395">
                        <ele>0</ele>
                        <time>2022-08-18T16:49:55Z</time>
                                                <extensions>
                            <sog>6.6</sog>
<cog>206.1</cog>
                        </extensions>
                    </trkpt>
                    <trkpt lat="54.47777" lon="10.251661666666667">
                        <ele>0</ele>
                        <time>2022-08-18T16:50:25Z</time>
                                                <extensions>
                            <sog>6.6</sog>
<cog>208.1</cog>
                        </extensions>
                    </trkpt>
                    <trkpt lat="54.476168333333334" lon="10.250301666666667">
                        <ele>0</ele>
                        <time>2022-08-18T16:51:25Z</time>
                                                <extensions>
                            <sog>6.4</sog>
<cog>207.7</cog>
                        </extensions>
                    </trkpt>
                    <trkpt lat="54.47219833333334" lon="10.246838333333333">
                        <ele>0</ele>
                        <time>2022-08-18T16:53:52Z</time>
                                                <extensions>
                            <sog>6.5</sog>
<cog>206.0</cog>
                        </extensions>
                    </trkpt>
                    <trkpt lat="54.470569999999995" lon="10.245428333333333">
                        <ele>0</ele>
                        <time>2022-08-18T16:54:52Z</time>
                                                <extensions>
                            <sog>6.7</sog>
<cog>206.6</cog>
                        </extensions>
                    </trkpt>
                    <trkpt lat="54.469645" lon="10.244656666666666">
                        <ele>0</ele>
                        <time>2022-08-18T16:55:25Z</time>
                                                <extensions>
                            <sog>6.4</sog>
<cog>205.5</cog>
                        </extensions>
                    </trkpt>
                    <trkpt lat="54.468941666666666" lon="10.24406">
                        <ele>0</ele>
                        <time>2022-08-18T16:55:52Z</time>
                                                <extensions>
                            <sog>6.5</sog>
<cog>208.6</cog>
                        </extensions>
                    </trkpt>
                    <trkpt lat="54.46731666666667" lon="10.242635">
                        <ele>0</ele>
                        <time>2022-08-18T16:56:53Z</time>
                                                <extensions>
                            <sog>6.4</sog>
<cog>207.8</cog>
                        </extensions>
                    </trkpt>
                    <trkpt lat="54.46646833333333" lon="10.241888333333332">
                        <ele>0</ele>
                        <time>2022-08-18T16:57:24Z</time>
                                                <extensions>
                            <sog>6.5</sog>
<cog>207.8</cog>
                        </extensions>
                    </trkpt>
                    <trkpt lat="54.465693333333334" lon="10.241231666666666">
                        <ele>0</ele>
                        <time>2022-08-18T16:57:53Z</time>
                                                <extensions>
                            <sog>6.4</sog>
<cog>205.1</cog>
                        </extensions>
                    </trkpt>
                    <trkpt lat="54.464866666666666" lon="10.240531666666667">
                        <ele>0</ele>
                        <time>2022-08-18T16:58:24Z</time>
                                                <extensions>
                            <sog>6.4</sog>
<cog>207.4</cog>
                        </extensions>
                    </trkpt>
                    <trkpt lat="54.46331" lon="10.239155">
                        <ele>0</ele>
                        <time>2022-08-18T16:59:24Z</time>
                                                <extensions>
                            <sog>6.6</sog>
<cog>208.4</cog>
                        </extensions>
                    </trkpt>
                    <trkpt lat="54.46253333333333" lon="10.238493333333334">
                        <ele>0</ele>
                        <time>2022-08-18T16:59:53Z</time>
                                                <extensions>
                            <sog>6.3</sog>
<cog>205.5</cog>
                        </extensions>
                    </trkpt>
                    <trkpt lat="54.461715000000005" lon="10.237765">
                        <ele>0</ele>
                        <time>2022-08-18T17:00:24Z</time>
                                                <extensions>
                            <sog>6.4</sog>
<cog>206.8</cog>
                        </extensions>
                    </trkpt>
                    <trkpt lat="54.461715000000005" lon="10.237765">
                        <ele>0</ele>
                        <time>2022-08-18T17:00:24Z</time>
                                                <extensions>
                            <sog>6.4</sog>
<cog>206.8</cog>
                        </extensions>
                    </trkpt>
                    <trkpt lat="54.460921666666664" lon="10.237076666666667">
                        <ele>0</ele>
                        <time>2022-08-18T17:00:53Z</time>
                                                <extensions>
                            <sog>6.6</sog>
<cog>206.6</cog>
                        </extensions>
                    </trkpt>
                    <trkpt lat="54.460921666666664" lon="10.237076666666667">
                        <ele>0</ele>
                        <time>2022-08-18T17:00:53Z</time>
                                                <extensions>
                            <sog>6.6</sog>
<cog>206.6</cog>
                        </extensions>
                    </trkpt>
                    <trkpt lat="54.46013000000001" lon="10.236388333333334">
                        <ele>0</ele>
                        <time>2022-08-18T17:01:24Z</time>
                                                <extensions>
                            <sog>6.4</sog>
<cog>206.0</cog>
                        </extensions>
                    </trkpt>
                    <trkpt lat="54.45933" lon="10.235713333333333">
                        <ele>0</ele>
                        <time>2022-08-18T17:01:54Z</time>
                                                <extensions>
                            <sog>6.4</sog>
<cog>207.9</cog>
                        </extensions>
                    </trkpt>
                    <trkpt lat="54.45773833333333" lon="10.234341666666667">
                        <ele>0</ele>
                        <time>2022-08-18T17:02:54Z</time>
                                                <extensions>
                            <sog>6.4</sog>
<cog>208.5</cog>
                        </extensions>
                    </trkpt>
                    <trkpt lat="54.45384333333333" lon="10.231015000000001">
                        <ele>0</ele>
                        <time>2022-08-18T17:05:22Z</time>
                                                <extensions>
                            <sog>6.2</sog>
<cog>207.6</cog>
                        </extensions>
                    </trkpt>
                    <trkpt lat="54.452284999999996" lon="10.229646666666667">
                        <ele>0</ele>
                        <time>2022-08-18T17:06:22Z</time>
                                                <extensions>
                            <sog>6.3</sog>
<cog>206.7</cog>
                        </extensions>
                    </trkpt>
                    <trkpt lat="54.450691666666664" lon="10.228273333333334">
                        <ele>0</ele>
                        <time>2022-08-18T17:07:24Z</time>
                                                <extensions>
                            <sog>6.2</sog>
<cog>205.9</cog>
                        </extensions>
                    </trkpt>
                    <trkpt lat="54.44913666666666" lon="10.227011666666668">
                        <ele>0</ele>
                        <time>2022-08-18T17:08:24Z</time>
                                                <extensions>
                            <sog>6.2</sog>
<cog>205.3</cog>
                        </extensions>
                    </trkpt>
                    <trkpt lat="54.446839999999995" lon="10.224943333333332">
                        <ele>0</ele>
                        <time>2022-08-18T17:09:53Z</time>
                                                <extensions>
                            <sog>6.1</sog>
<cog>209.5</cog>
                        </extensions>
                    </trkpt>
                    <trkpt lat="54.44616166666666" lon="10.224253333333333">
                        <ele>0</ele>
                        <time>2022-08-18T17:10:24Z</time>
                                                <extensions>
                            <sog>5.2</sog>
<cog>203.9</cog>
                        </extensions>
                    </trkpt>
                    <trkpt lat="54.44545666666667" lon="10.22377">
                        <ele>0</ele>
                        <time>2022-08-18T17:10:53Z</time>
                                                <extensions>
                            <sog>6.0</sog>
<cog>204.7</cog>
                        </extensions>
                    </trkpt>
                    <trkpt lat="54.444655" lon="10.223066666666666">
                        <ele>0</ele>
                        <time>2022-08-18T17:11:24Z</time>
                                                <extensions>
                            <sog>6.2</sog>
<cog>207.2</cog>
                        </extensions>
                    </trkpt>
                    <trkpt lat="54.443918333333336" lon="10.222415000000002">
                        <ele>0</ele>
                        <time>2022-08-18T17:11:53Z</time>
                                                <extensions>
                            <sog>6.3</sog>
<cog>209.0</cog>
                        </extensions>
                    </trkpt>
                    <trkpt lat="54.44310666666667" lon="10.221918333333333">
                        <ele>0</ele>
                        <time>2022-08-18T17:12:24Z</time>
                                                <extensions>
                            <sog>6.2</sog>
<cog>195.8</cog>
                        </extensions>
                    </trkpt>
                    <trkpt lat="54.44231166666667" lon="10.221488333333333">
                        <ele>0</ele>
                        <time>2022-08-18T17:12:53Z</time>
                                                <extensions>
                            <sog>6.2</sog>
<cog>197.4</cog>
                        </extensions>
                    </trkpt>
                    <trkpt lat="54.44146333333333" lon="10.221038333333333">
                        <ele>0</ele>
                        <time>2022-08-18T17:13:24Z</time>
                                                <extensions>
                            <sog>6.2</sog>
<cog>197.9</cog>
                        </extensions>
                    </trkpt>
                    <trkpt lat="54.440725" lon="10.220633333333334">
                        <ele>0</ele>
                        <time>2022-08-18T17:13:51Z</time>
                                                <extensions>
                            <sog>6.2</sog>
<cog>197.0</cog>
                        </extensions>
                    </trkpt>
                    <trkpt lat="54.439798333333336" lon="10.220136666666667">
                        <ele>0</ele>
                        <time>2022-08-18T17:14:25Z</time>
                                                <extensions>
                            <sog>6.2</sog>
<cog>197.5</cog>
                        </extensions>
                    </trkpt>
                    <trkpt lat="54.43909166666666" lon="10.21973">
                        <ele>0</ele>
                        <time>2022-08-18T17:14:51Z</time>
                                                <extensions>
                            <sog>6.2</sog>
<cog>198.5</cog>
                        </extensions>
                    </trkpt>
                    <trkpt lat="54.43816" lon="10.219211666666666">
                        <ele>0</ele>
                        <time>2022-08-18T17:15:25Z</time>
                                                <extensions>
                            <sog>6.0</sog>
<cog>197.9</cog>
                        </extensions>
                    </trkpt>
                    <trkpt lat="54.437435" lon="10.218791666666668">
                        <ele>0</ele>
                        <time>2022-08-18T17:15:51Z</time>
                                                <extensions>
                            <sog>6.2</sog>
<cog>198.7</cog>
                        </extensions>
                    </trkpt>
                    <trkpt lat="54.43653333333334" lon="10.21831">
                        <ele>0</ele>
                        <time>2022-08-18T17:16:25Z</time>
                                                <extensions>
                            <sog>6.3</sog>
<cog>197.3</cog>
                        </extensions>
                    </trkpt>
                    <trkpt lat="54.43489666666667" lon="10.217393333333332">
                        <ele>0</ele>
                        <time>2022-08-18T17:17:25Z</time>
                                                <extensions>
                            <sog>6.3</sog>
<cog>198.6</cog>
                        </extensions>
                    </trkpt>
                    <trkpt lat="54.43254833333334" lon="10.216090000000001">
                        <ele>0</ele>
                        <time>2022-08-18T17:18:51Z</time>
                                                <extensions>
                            <sog>6.2</sog>
<cog>198.2</cog>
                        </extensions>
                    </trkpt>
                    <trkpt lat="54.43161666666666" lon="10.215555">
                        <ele>0</ele>
                        <time>2022-08-18T17:19:25Z</time>
                                                <extensions>
                            <sog>6.4</sog>
<cog>198.8</cog>
                        </extensions>
                    </trkpt>
                    <trkpt lat="54.43078333333334" lon="10.215091666666666">
                        <ele>0</ele>
                        <time>2022-08-18T17:19:55Z</time>
                                                <extensions>
                            <sog>6.3</sog>
<cog>198.4</cog>
                        </extensions>
                    </trkpt>
                    <trkpt lat="54.429115" lon="10.214163333333333">
                        <ele>0</ele>
                        <time>2022-08-18T17:20:55Z</time>
                                                <extensions>
                            <sog>6.3</sog>
<cog>196.2</cog>
                        </extensions>
                    </trkpt>
                    <trkpt lat="54.42827" lon="10.213690000000001">
                        <ele>0</ele>
                        <time>2022-08-18T17:21:25Z</time>
                                                <extensions>
                            <sog>6.5</sog>
<cog>198.4</cog>
                        </extensions>
                    </trkpt>
                    <trkpt lat="54.426579999999994" lon="10.212768333333335">
                        <ele>0</ele>
                        <time>2022-08-18T17:22:25Z</time>
                                                <extensions>
                            <sog>6.5</sog>
<cog>198.9</cog>
                        </extensions>
                    </trkpt>
                    <trkpt lat="54.42574166666667" lon="10.212298333333333">
                        <ele>0</ele>
                        <time>2022-08-18T17:22:55Z</time>
                                                <extensions>
                            <sog>6.5</sog>
<cog>198.0</cog>
                        </extensions>
                    </trkpt>
                    <trkpt lat="54.424904999999995" lon="10.211829999999999">
                        <ele>0</ele>
                        <time>2022-08-18T17:23:25Z</time>
                                                <extensions>
                            <sog>6.3</sog>
<cog>199.0</cog>
                        </extensions>
                    </trkpt>
                    <trkpt lat="54.422398333333334" lon="10.210434999999999">
                        <ele>0</ele>
                        <time>2022-08-18T17:24:55Z</time>
                                                <extensions>
                            <sog>6.3</sog>
<cog>198.2</cog>
                        </extensions>
                    </trkpt>
                    <trkpt lat="54.42153666666666" lon="10.20996">
                        <ele>0</ele>
                        <time>2022-08-18T17:25:25Z</time>
                                                <extensions>
                            <sog>6.2</sog>
<cog>197.9</cog>
                        </extensions>
                    </trkpt>
                    <trkpt lat="54.42071" lon="10.209508333333334">
                        <ele>0</ele>
                        <time>2022-08-18T17:25:55Z</time>
                                                <extensions>
                            <sog>6.3</sog>
<cog>199.0</cog>
                        </extensions>
                    </trkpt>
                    <trkpt lat="54.419943333333336" lon="10.20908">
                        <ele>0</ele>
                        <time>2022-08-18T17:26:24Z</time>
                                                <extensions>
                            <sog>6.2</sog>
<cog>197.8</cog>
                        </extensions>
                    </trkpt>
                    <trkpt lat="54.419088333333335" lon="10.208605">
                        <ele>0</ele>
                        <time>2022-08-18T17:26:55Z</time>
                                                <extensions>
                            <sog>6.2</sog>
<cog>199.2</cog>
                        </extensions>
                    </trkpt>
                    <trkpt lat="54.41828666666667" lon="10.208165000000001">
                        <ele>0</ele>
                        <time>2022-08-18T17:27:24Z</time>
                                                <extensions>
                            <sog>6.3</sog>
<cog>195.6</cog>
                        </extensions>
                    </trkpt>
                    <trkpt lat="54.417425" lon="10.207690000000001">
                        <ele>0</ele>
                        <time>2022-08-18T17:27:55Z</time>
                                                <extensions>
                            <sog>6.2</sog>
<cog>199.1</cog>
                        </extensions>
                    </trkpt>
                    <trkpt lat="54.416630000000005" lon="10.207234999999999">
                        <ele>0</ele>
                        <time>2022-08-18T17:28:24Z</time>
                                                <extensions>
                            <sog>6.3</sog>
<cog>197.3</cog>
                        </extensions>
                    </trkpt>
                    <trkpt lat="54.41578166666667" lon="10.206773333333333">
                        <ele>0</ele>
                        <time>2022-08-18T17:28:55Z</time>
                                                <extensions>
                            <sog>6.2</sog>
<cog>200.1</cog>
                        </extensions>
                    </trkpt>
                    <trkpt lat="54.41499833333333" lon="10.206321666666666">
                        <ele>0</ele>
                        <time>2022-08-18T17:29:24Z</time>
                                                <extensions>
                            <sog>6.2</sog>
<cog>198.1</cog>
                        </extensions>
                    </trkpt>
                    <trkpt lat="54.41414833333333" lon="10.205845">
                        <ele>0</ele>
                        <time>2022-08-18T17:29:55Z</time>
                                                <extensions>
                            <sog>6.3</sog>
<cog>199.0</cog>
                        </extensions>
                    </trkpt>
                    <trkpt lat="54.41333833333333" lon="10.205393333333335">
                        <ele>0</ele>
                        <time>2022-08-18T17:30:24Z</time>
                                                <extensions>
                            <sog>6.4</sog>
<cog>197.9</cog>
                        </extensions>
                    </trkpt>
                    <trkpt lat="54.41245166666667" lon="10.204894999999999">
                        <ele>0</ele>
                        <time>2022-08-18T17:30:55Z</time>
                                                <extensions>
                            <sog>6.2</sog>
<cog>198.0</cog>
                        </extensions>
                    </trkpt>
                    <trkpt lat="54.41164666666667" lon="10.204450000000001">
                        <ele>0</ele>
                        <time>2022-08-18T17:31:25Z</time>
                                                <extensions>
                            <sog>6.4</sog>
<cog>198.3</cog>
                        </extensions>
                    </trkpt>
                    <trkpt lat="54.40995833333333" lon="10.203658333333333">
                        <ele>0</ele>
                        <time>2022-08-18T17:32:25Z</time>
                                                <extensions>
                            <sog>6.4</sog>
<cog>189.1</cog>
                        </extensions>
                    </trkpt>
                    <trkpt lat="54.40908" lon="10.203444999999999">
                        <ele>0</ele>
                        <time>2022-08-18T17:32:55Z</time>
                                                <extensions>
                            <sog>6.5</sog>
<cog>187.8</cog>
                        </extensions>
                    </trkpt>
                    <trkpt lat="54.40819" lon="10.203238333333333">
                        <ele>0</ele>
                        <time>2022-08-18T17:33:25Z</time>
                                                <extensions>
                            <sog>6.5</sog>
<cog>187.1</cog>
                        </extensions>
                    </trkpt>
                    <trkpt lat="54.407268333333334" lon="10.203045">
                        <ele>0</ele>
                        <time>2022-08-18T17:33:55Z</time>
                                                <extensions>
                            <sog>6.5</sog>
<cog>187.4</cog>
                        </extensions>
                    </trkpt>
                    <trkpt lat="54.40643" lon="10.202815">
                        <ele>0</ele>
                        <time>2022-08-18T17:34:25Z</time>
                                                <extensions>
                            <sog>6.2</sog>
<cog>191.0</cog>
                        </extensions>
                    </trkpt>
                    <trkpt lat="54.40557166666667" lon="10.202496666666667">
                        <ele>0</ele>
                        <time>2022-08-18T17:34:55Z</time>
                                                <extensions>
                            <sog>6.4</sog>
<cog>193.2</cog>
                        </extensions>
                    </trkpt>
                    <trkpt lat="54.40471" lon="10.202103333333334">
                        <ele>0</ele>
                        <time>2022-08-18T17:35:25Z</time>
                                                <extensions>
                            <sog>6.4</sog>
<cog>194.3</cog>
                        </extensions>
                    </trkpt>
                    <trkpt lat="54.403933333333335" lon="10.201738333333333">
                        <ele>0</ele>
                        <time>2022-08-18T17:35:52Z</time>
                                                <extensions>
                            <sog>6.5</sog>
<cog>196.3</cog>
                        </extensions>
                    </trkpt>
                    <trkpt lat="54.40297333333333" lon="10.201261666666666">
                        <ele>0</ele>
                        <time>2022-08-18T17:36:25Z</time>
                                                <extensions>
                            <sog>6.6</sog>
<cog>195.1</cog>
                        </extensions>
                    </trkpt>
                    <trkpt lat="54.40216" lon="10.200871666666666">
                        <ele>0</ele>
                        <time>2022-08-18T17:36:52Z</time>
                                                <extensions>
                            <sog>6.5</sog>
<cog>195.9</cog>
                        </extensions>
                    </trkpt>
                    <trkpt lat="54.40120833333334" lon="10.200406666666668">
                        <ele>0</ele>
                        <time>2022-08-18T17:37:25Z</time>
                                                <extensions>
                            <sog>6.5</sog>
<cog>197.1</cog>
                        </extensions>
                    </trkpt>
                    <trkpt lat="54.40043" lon="10.200009999999999">
                        <ele>0</ele>
                        <time>2022-08-18T17:37:52Z</time>
                                                <extensions>
                            <sog>6.5</sog>
<cog>196.1</cog>
                        </extensions>
                    </trkpt>
                    <trkpt lat="54.399483333333336" lon="10.19954">
                        <ele>0</ele>
                        <time>2022-08-18T17:38:25Z</time>
                                                <extensions>
                            <sog>6.5</sog>
<cog>195.1</cog>
                        </extensions>
                    </trkpt>
                    <trkpt lat="54.39873" lon="10.199171666666667">
                        <ele>0</ele>
                        <time>2022-08-18T17:38:52Z</time>
                                                <extensions>
                            <sog>6.5</sog>
<cog>196.3</cog>
                        </extensions>
                    </trkpt>
                    <trkpt lat="54.397775" lon="10.198715">
                        <ele>0</ele>
                        <time>2022-08-18T17:39:25Z</time>
                                                <extensions>
                            <sog>6.5</sog>
<cog>196.8</cog>
                        </extensions>
                    </trkpt>
                    <trkpt lat="54.396995" lon="10.198328333333334">
                        <ele>0</ele>
                        <time>2022-08-18T17:39:52Z</time>
                                                <extensions>
                            <sog>6.6</sog>
<cog>195.5</cog>
                        </extensions>
                    </trkpt>
                    <trkpt lat="54.39429833333334" lon="10.197004999999999">
                        <ele>0</ele>
                        <time>2022-08-18T17:41:25Z</time>
                                                <extensions>
                            <sog>6.4</sog>
<cog>196.8</cog>
                        </extensions>
                    </trkpt>
                    <trkpt lat="54.393525" lon="10.19661">
                        <ele>0</ele>
                        <time>2022-08-18T17:41:52Z</time>
                                                <extensions>
                            <sog>6.5</sog>
<cog>196.1</cog>
                        </extensions>
                    </trkpt>
                    <trkpt lat="54.392581666666665" lon="10.196140000000002">
                        <ele>0</ele>
                        <time>2022-08-18T17:42:25Z</time>
                                                <extensions>
                            <sog>6.4</sog>
<cog>196.5</cog>
                        </extensions>
                    </trkpt>
                    <trkpt lat="54.39178166666667" lon="10.195735">
                        <ele>0</ele>
                        <time>2022-08-18T17:42:52Z</time>
                                                <extensions>
                            <sog>6.4</sog>
<cog>196.7</cog>
                        </extensions>
                    </trkpt>
                    <trkpt lat="54.390094999999995" lon="10.194876666666666">
                        <ele>0</ele>
                        <time>2022-08-18T17:43:52Z</time>
                                                <extensions>
                            <sog>6.2</sog>
<cog>197.6</cog>
                        </extensions>
                    </trkpt>
                    <trkpt lat="54.38925833333334" lon="10.194201666666666">
                        <ele>0</ele>
                        <time>2022-08-18T17:44:25Z</time>
                                                <extensions>
                            <sog>6.2</sog>
<cog>212.1</cog>
                        </extensions>
                    </trkpt>
                    <trkpt lat="54.38868166666667" lon="10.193315">
                        <ele>0</ele>
                        <time>2022-08-18T17:44:52Z</time>
                                                <extensions>
                            <sog>6.2</sog>
<cog>227.5</cog>
                        </extensions>
                    </trkpt>
                    <trkpt lat="54.38805333333333" lon="10.19224">
                        <ele>0</ele>
                        <time>2022-08-18T17:45:23Z</time>
                                                <extensions>
                            <sog>6.3</sog>
<cog>224.4</cog>
                        </extensions>
                    </trkpt>
                    <trkpt lat="54.38743" lon="10.191181666666667">
                        <ele>0</ele>
                        <time>2022-08-18T17:45:52Z</time>
                                                <extensions>
                            <sog>6.3</sog>
<cog>224.7</cog>
                        </extensions>
                    </trkpt>
                    <trkpt lat="54.38676833333333" lon="10.19011">
                        <ele>0</ele>
                        <time>2022-08-18T17:46:23Z</time>
                                                <extensions>
                            <sog>6.3</sog>
<cog>222.1</cog>
                        </extensions>
                    </trkpt>
                    <trkpt lat="54.386163333333336" lon="10.189183333333334">
                        <ele>0</ele>
                        <time>2022-08-18T17:46:52Z</time>
                                                <extensions>
                            <sog>6.2</sog>
<cog>222.3</cog>
                        </extensions>
                    </trkpt>
                    <trkpt lat="54.38548333333333" lon="10.188181666666667">
                        <ele>0</ele>
                        <time>2022-08-18T17:47:23Z</time>
                                                <extensions>
                            <sog>6.3</sog>
<cog>220.9</cog>
                        </extensions>
                    </trkpt>
                    <trkpt lat="54.384141666666665" lon="10.18617">
                        <ele>0</ele>
                        <time>2022-08-18T17:48:23Z</time>
                                                <extensions>
                            <sog>6.4</sog>
<cog>226.9</cog>
                        </extensions>
                    </trkpt>
                    <trkpt lat="54.38357333333333" lon="10.185076666666667">
                        <ele>0</ele>
                        <time>2022-08-18T17:48:52Z</time>
                                                <extensions>
                            <sog>6.4</sog>
<cog>229.6</cog>
                        </extensions>
                    </trkpt>
                    <trkpt lat="54.383021666666664" lon="10.18384">
                        <ele>0</ele>
                        <time>2022-08-18T17:49:23Z</time>
                                                <extensions>
                            <sog>6.3</sog>
<cog>237.6</cog>
                        </extensions>
                    </trkpt>
                    <trkpt lat="54.38261333333333" lon="10.182633333333333">
                        <ele>0</ele>
                        <time>2022-08-18T17:49:52Z</time>
                                                <extensions>
                            <sog>6.3</sog>
<cog>242.3</cog>
                        </extensions>
                    </trkpt>
                    <trkpt lat="54.38217833333333" lon="10.181213333333334">
                        <ele>0</ele>
                        <time>2022-08-18T17:50:23Z</time>
                                                <extensions>
                            <sog>6.3</sog>
<cog>243.6</cog>
                        </extensions>
                    </trkpt>
                    <trkpt lat="54.381845" lon="10.179946666666666">
                        <ele>0</ele>
                        <time>2022-08-18T17:50:52Z</time>
                                                <extensions>
                            <sog>6.3</sog>
<cog>245.8</cog>
                        </extensions>
                    </trkpt>
                    <trkpt lat="54.38150333333333" lon="10.178528333333333">
                        <ele>0</ele>
                        <time>2022-08-18T17:51:23Z</time>
                                                <extensions>
                            <sog>6.2</sog>
<cog>249.0</cog>
                        </extensions>
                    </trkpt>
                    <trkpt lat="54.38090166666667" lon="10.175843333333335">
                        <ele>0</ele>
                        <time>2022-08-18T17:52:23Z</time>
                                                <extensions>
                            <sog>6.2</sog>
<cog>248.5</cog>
                        </extensions>
                    </trkpt>
                    <trkpt lat="54.380625" lon="10.17446">
                        <ele>0</ele>
                        <time>2022-08-18T17:52:52Z</time>
                                                <extensions>
                            <sog>6.2</sog>
<cog>251.1</cog>
                        </extensions>
                    </trkpt>
                    <trkpt lat="54.380363333333335" lon="10.173001666666666">
                        <ele>0</ele>
                        <time>2022-08-18T17:53:23Z</time>
                                                <extensions>
                            <sog>6.2</sog>
<cog>255.0</cog>
                        </extensions>
                    </trkpt>
                    <trkpt lat="54.38019666666666" lon="10.171606666666666">
                        <ele>0</ele>
                        <time>2022-08-18T17:53:52Z</time>
                                                <extensions>
                            <sog>6.2</sog>
<cog>258.1</cog>
                        </extensions>
                    </trkpt>
                    <trkpt lat="54.38009833333333" lon="10.170105000000001">
                        <ele>0</ele>
                        <time>2022-08-18T17:54:23Z</time>
                                                <extensions>
                            <sog>6.2</sog>
<cog>269.7</cog>
                        </extensions>
                    </trkpt>
                    <trkpt lat="54.38009833333333" lon="10.168635">
                        <ele>0</ele>
                        <time>2022-08-18T17:54:54Z</time>
                                                <extensions>
                            <sog>6.2</sog>
<cog>273.5</cog>
                        </extensions>
                    </trkpt>
                    <trkpt lat="54.38045666666667" lon="10.167348333333333">
                        <ele>0</ele>
                        <time>2022-08-18T17:55:23Z</time>
                                                <extensions>
                            <sog>6.3</sog>
<cog>320.4</cog>
                        </extensions>
                    </trkpt>
                    <trkpt lat="54.381155" lon="10.166496666666665">
                        <ele>0</ele>
                        <time>2022-08-18T17:55:54Z</time>
                                                <extensions>
                            <sog>5.8</sog>
<cog>328.5</cog>
                        </extensions>
                    </trkpt>
                    <trkpt lat="54.381745" lon="10.165898333333333">
                        <ele>0</ele>
                        <time>2022-08-18T17:56:22Z</time>
                                                <extensions>
                            <sog>4.9</sog>
<cog>331.7</cog>
                        </extensions>
                    </trkpt>
                    <trkpt lat="54.382345" lon="10.165384999999999">
                        <ele>0</ele>
                        <time>2022-08-18T17:56:54Z</time>
                                                <extensions>
                            <sog>4.0</sog>
<cog>334.5</cog>
                        </extensions>
                    </trkpt>
                    <trkpt lat="54.382765" lon="10.165021666666666">
                        <ele>0</ele>
                        <time>2022-08-18T17:57:22Z</time>
                                                <extensions>
                            <sog>3.3</sog>
<cog>331.8</cog>
                        </extensions>
                    </trkpt>
                    <trkpt lat="54.38307666666666" lon="10.164518333333332">
                        <ele>0</ele>
                        <time>2022-08-18T17:57:54Z</time>
                                                <extensions>
                            <sog>2.5</sog>
<cog>280.4</cog>
                        </extensions>
                    </trkpt>
                    <trkpt lat="54.38304166666667" lon="10.163968333333335">
                        <ele>0</ele>
                        <time>2022-08-18T17:58:22Z</time>
                                                <extensions>
                            <sog>2.6</sog>
<cog>259.6</cog>
                        </extensions>
                    </trkpt>
                    <trkpt lat="54.382975" lon="10.163423333333332">
                        <ele>0</ele>
                        <time>2022-08-18T17:58:52Z</time>
                                                <extensions>
                            <sog>1.9</sog>
<cog>266.6</cog>
                        </extensions>
                    </trkpt>
                    <trkpt lat="54.38297333333333" lon="10.163088333333333">
                        <ele>0</ele>
                        <time>2022-08-18T17:59:22Z</time>
                                                <extensions>
                            <sog>0.9</sog>
<cog>264.5</cog>
                        </extensions>
                    </trkpt>
                    <trkpt lat="54.38294666666666" lon="10.163070000000001">
                        <ele>0</ele>
                        <time>2022-08-18T17:59:52Z</time>
                        <extensions>
    <sog>0.1</sog>
</extensions>
                    </trkpt>
                    <trkpt lat="54.382963333333336" lon="10.162913333333334">
                        <ele>0</ele>
                        <time>2022-08-18T18:00:52Z</time>
                                                <extensions>
                            <sog>1.0</sog>
<cog>167.8</cog>
                        </extensions>
                    </trkpt>
                    <trkpt lat="54.382963333333336" lon="10.162913333333334">
                        <ele>0</ele>
                        <time>2022-08-18T18:00:52Z</time>
                                                <extensions>
                            <sog>1.0</sog>
<cog>167.8</cog>
                        </extensions>
                    </trkpt>
                    <trkpt lat="54.382846666666666" lon="10.162988333333335">
                        <ele>0</ele>
                        <time>2022-08-18T18:01:25Z</time>
                                                <extensions>
                            <sog>0.6</sog>
<cog>147.5</cog>
                        </extensions>
                    </trkpt>
                    <trkpt lat="54.38280666666667" lon="10.163056666666668">
                        <ele>0</ele>
                        <time>2022-08-18T18:01:52Z</time>
                        <extensions>
    <sog>0.3</sog>
</extensions>
                    </trkpt>
                    <trkpt lat="54.38276333333333" lon="10.163128333333333">
                        <ele>0</ele>
                        <time>2022-08-18T18:02:25Z</time>
                                                <extensions>
                            <sog>0.8</sog>
<cog>146.7</cog>
                        </extensions>
                    </trkpt>
                    <trkpt lat="54.38283" lon="10.163283333333334">
                        <ele>0</ele>
                        <time>2022-08-18T18:04:51Z</time>
                                                <extensions>
                            <sog>1.4</sog>
<cog>118.5</cog>
                        </extensions>
                    </trkpt>
                    <trkpt lat="54.38283166666667" lon="10.163283333333334">
                        <ele>0</ele>
                        <time>2022-08-18T18:05:19Z</time>
                                                <extensions>
                            <sog>0.4</sog>
<cog>311.6</cog>
                        </extensions>
                    </trkpt>
                    <trkpt lat="54.38287166666667" lon="10.163205">
                        <ele>0</ele>
                        <time>2022-08-18T18:05:51Z</time>
                                                <extensions>
                            <sog>0.4</sog>
<cog>306.2</cog>
                        </extensions>
                    </trkpt>
                    <trkpt lat="54.382888333333334" lon="10.163158333333334">
                        <ele>0</ele>
                        <time>2022-08-18T18:06:19Z</time>
                        <extensions>
    <sog>0.2</sog>
</extensions>
                    </trkpt>
                    <trkpt lat="54.38289333333333" lon="10.163136666666666">
                        <ele>0</ele>
                        <time>2022-08-18T18:06:51Z</time>
                        <extensions>
    <sog>0.0</sog>
</extensions>
                    </trkpt>
                    <trkpt lat="54.38289666666667" lon="10.16315">
                        <ele>0</ele>
                        <time>2022-08-18T18:07:19Z</time>
                        <extensions>
    <sog>0.1</sog>
</extensions>
                    </trkpt>
                    <trkpt lat="54.38289666666667" lon="10.16318">
                        <ele>0</ele>
                        <time>2022-08-18T18:07:51Z</time>
                        <extensions>
    <sog>0.1</sog>
</extensions>
                    </trkpt>
                    <trkpt lat="54.382905" lon="10.163243333333332">
                        <ele>0</ele>
                        <time>2022-08-18T18:08:52Z</time>
                        <extensions>
    <sog>0.1</sog>
</extensions>
                    </trkpt>
                    <trkpt lat="54.38287833333333" lon="10.16324">
                        <ele>0</ele>
                        <time>2022-08-18T18:11:19Z</time>
                        <extensions>
    <sog>0.1</sog>
</extensions>
                    </trkpt>
                    <trkpt lat="54.38288166666667" lon="10.163268333333333">
                        <ele>0</ele>
                        <time>2022-08-18T18:14:19Z</time>
                        <extensions>
    <sog>0.0</sog>
</extensions>
                    </trkpt>
                    <trkpt lat="54.38289666666667" lon="10.163248333333334">
                        <ele>0</ele>
                        <time>2022-08-18T18:17:21Z</time>
                        <extensions>
    <sog>0.1</sog>
</extensions>
                    </trkpt>
                    <trkpt lat="54.382873333333336" lon="10.163258333333333">
                        <ele>0</ele>
                        <time>2022-08-18T18:23:19Z</time>
                        <extensions>
    <sog>0.1</sog>
</extensions>
                    </trkpt>
                    <trkpt lat="54.382913333333335" lon="10.16329">
                        <ele>0</ele>
                        <time>2022-08-18T18:26:21Z</time>
                        <extensions>
    <sog>0.2</sog>
</extensions>
                    </trkpt>
                    <trkpt lat="54.38289333333333" lon="10.163241666666666">
                        <ele>0</ele>
                        <time>2022-08-18T18:29:19Z</time>
                        <extensions>
    <sog>0.2</sog>
</extensions>
                    </trkpt>
                    <trkpt lat="54.38288166666667" lon="10.163281666666668">
                        <ele>0</ele>
                        <time>2022-08-18T18:32:20Z</time>
                        <extensions>
    <sog>0.2</sog>
</extensions>
                    </trkpt>
                    <trkpt lat="54.382868333333334" lon="10.163288333333332">
                        <ele>0</ele>
                        <time>2022-08-18T18:35:20Z</time>
                        <extensions>
    <sog>0.1</sog>
</extensions>
                    </trkpt>
                    <trkpt lat="54.38286333333333" lon="10.163285">
                        <ele>0</ele>
                        <time>2022-08-18T18:38:21Z</time>
                        <extensions>
    <sog>0.1</sog>
</extensions>
                    </trkpt>
                    <trkpt lat="54.38287833333333" lon="10.163281666666668">
                        <ele>0</ele>
                        <time>2022-08-18T18:41:19Z</time>
                        <extensions>
    <sog>0.1</sog>
</extensions>
                    </trkpt>
                    <trkpt lat="54.38285833333334" lon="10.163279999999999">
                        <ele>0</ele>
                        <time>2022-08-18T18:44:20Z</time>
                        <extensions>
    <sog>0.0</sog>
</extensions>
                    </trkpt>
                    <trkpt lat="54.382888333333334" lon="10.163293333333334">
                        <ele>0</ele>
                        <time>2022-08-18T18:47:20Z</time>
                        <extensions>
    <sog>0.1</sog>
</extensions>
                    </trkpt>
                    <trkpt lat="54.38292333333333" lon="10.163278333333333">
                        <ele>0</ele>
                        <time>2022-08-18T18:53:18Z</time>
                        <extensions>
    <sog>0.0</sog>
</extensions>
                    </trkpt>
                    <trkpt lat="54.382918333333336" lon="10.163296666666668">
                        <ele>0</ele>
                        <time>2022-08-18T18:56:18Z</time>
                        <extensions>
    <sog>0.1</sog>
</extensions>
                    </trkpt>
                    <trkpt lat="54.38287666666667" lon="10.163301666666666">
                        <ele>0</ele>
                        <time>2022-08-18T19:05:21Z</time>
                        <extensions>
    <sog>0.1</sog>
</extensions>
                    </trkpt>
                    <trkpt lat="54.38291666666667" lon="10.163296666666668">
                        <ele>0</ele>
                        <time>2022-08-18T19:08:19Z</time>
                        <extensions>
    <sog>0.1</sog>
</extensions>
                    </trkpt>
                    <trkpt lat="54.38294666666666" lon="10.163291666666668">
                        <ele>0</ele>
                        <time>2022-08-18T19:11:20Z</time>
                        <extensions>
    <sog>0.1</sog>
</extensions>
                    </trkpt>
                    </trkseg>
                </trk>
</gpx>