<?xml version="1.0" encoding="UTF-8"?>
<gpx version="1.1" creator="AIS-to-GPX Converter" xmlns="http://www.topografix.com/GPX/1/1">
                <trk>
                    <name>anon0135</name>
                    <trkseg>
                                            <trkpt lat="54.475585" lon="9.852715">
                        <ele>0</ele>
                        <time>2022-08-18T00:00:15Z</time>
                        <extensions>
    <sog>0.0</sog>
</extensions>
                    </trkpt>
                    <trkpt lat="54.47563" lon="9.852688333333333">
                        <ele>0</ele>
                        <time>2022-08-18T00:03:13Z</time>
                        <extensions>
    <sog>0.0</sog>
</extensions>
                    </trkpt>
                    <trkpt lat="54.47562333333334" lon="9.852695">
                        <ele>0</ele>
                        <time>2022-08-18T00:06:15Z</time>
                        <extensions>
    <sog>0.0</sog>
</extensions>
                    </trkpt>
                    <trkpt lat="54.475620000000006" lon="9.852689999999999">
                        <ele>0</ele>
                        <time>2022-08-18T00:09:14Z</time>
                        <extensions>
    <sog>0.0</sog>
</extensions>
                    </trkpt>
                    <trkpt lat="54.47561833333334" lon="9.852693333333333">
                        <ele>0</ele>
                        <time>2022-08-18T00:15:15Z</time>
                        <extensions>
    <sog>0.0</sog>
</extensions>
                    </trkpt>
                    <trkpt lat="54.47562333333334" lon="9.852686666666667">
                        <ele>0</ele>
                        <time>2022-08-18T00:21:13Z</time>
                        <extensions>
    <sog>0.0</sog>
</extensions>
                    </trkpt>
                    <trkpt lat="54.47562666666667" lon="9.852688333333333">
                        <ele>0</ele>
                        <time>2022-08-18T00:24:15Z</time>
                        <extensions>
    <sog>0.0</sog>
</extensions>
                    </trkpt>
                    <trkpt lat="54.47562333333334" lon="9.852691666666667">
                        <ele>0</ele>
                        <time>2022-08-18T00:27:13Z</time>
                        <extensions>
    <sog>0.0</sog>
</extensions>
                    </trkpt>
                    <trkpt lat="54.47562833333333" lon="9.852704999999998">
                        <ele>0</ele>
                        <time>2022-08-18T00:30:16Z</time>
                        <extensions>
    <sog>0.0</sog>
</extensions>
                    </trkpt>
                    <trkpt lat="54.475625" lon="9.852693333333333">
                        <ele>0</ele>
                        <time>2022-08-18T00:33:15Z</time>
                        <extensions>
    <sog>0.0</sog>
</extensions>
                    </trkpt>
                    <trkpt lat="54.47560333333333" lon="9.852689999999999">
                        <ele>0</ele>
                        <time>2022-08-18T00:36:13Z</time>
                        <extensions>
    <sog>0.0</sog>
</extensions>
                    </trkpt>
                    <trkpt lat="54.475620000000006" lon="9.852678333333333">
                        <ele>0</ele>
                        <time>2022-08-18T00:39:14Z</time>
                        <extensions>
    <sog>0.0</sog>
</extensions>
                    </trkpt>
                    <trkpt lat="54.475611666666666" lon="9.852686666666667">
                        <ele>0</ele>
                        <time>2022-08-18T00:42:14Z</time>
                        <extensions>
    <sog>0.0</sog>
</extensions>
                    </trkpt>
                    <trkpt lat="54.47561666666666" lon="9.852701666666666">
                        <ele>0</ele>
                        <time>2022-08-18T00:48:16Z</time>
                        <extensions>
    <sog>0.0</sog>
</extensions>
                    </trkpt>
                    <trkpt lat="54.47561833333334" lon="9.852695">
                        <ele>0</ele>
                        <time>2022-08-18T00:51:13Z</time>
                        <extensions>
    <sog>0.0</sog>
</extensions>
                    </trkpt>
                    <trkpt lat="54.475609999999996" lon="9.852704999999998">
                        <ele>0</ele>
                        <time>2022-08-18T00:54:16Z</time>
                        <extensions>
    <sog>0.0</sog>
</extensions>
                    </trkpt>
                    <trkpt lat="54.475620000000006" lon="9.852704999999998">
                        <ele>0</ele>
                        <time>2022-08-18T00:57:13Z</time>
                        <extensions>
    <sog>0.0</sog>
</extensions>
                    </trkpt>
                    <trkpt lat="54.475606666666664" lon="9.852701666666666">
                        <ele>0</ele>
                        <time>2022-08-18T01:12:16Z</time>
                        <extensions>
    <sog>0.0</sog>
</extensions>
                    </trkpt>
                    <trkpt lat="54.475615" lon="9.852704999999998">
                        <ele>0</ele>
                        <time>2022-08-18T01:15:13Z</time>
                        <extensions>
    <sog>0.0</sog>
</extensions>
                    </trkpt>
                    <trkpt lat="54.47560166666666" lon="9.852715">
                        <ele>0</ele>
                        <time>2022-08-18T01:21:16Z</time>
                        <extensions>
    <sog>0.0</sog>
</extensions>
                    </trkpt>
                    <trkpt lat="54.47559833333333" lon="9.852713333333332">
                        <ele>0</ele>
                        <time>2022-08-18T01:24:14Z</time>
                        <extensions>
    <sog>0.0</sog>
</extensions>
                    </trkpt>
                    <trkpt lat="54.475606666666664" lon="9.852701666666666">
                        <ele>0</ele>
                        <time>2022-08-18T01:27:16Z</time>
                        <extensions>
    <sog>0.0</sog>
</extensions>
                    </trkpt>
                    <trkpt lat="54.47559833333333" lon="9.852713333333332">
                        <ele>0</ele>
                        <time>2022-08-18T01:36:13Z</time>
                        <extensions>
    <sog>0.1</sog>
</extensions>
                    </trkpt>
                    <trkpt lat="54.475615" lon="9.852703333333332">
                        <ele>0</ele>
                        <time>2022-08-18T01:39:15Z</time>
                        <extensions>
    <sog>0.0</sog>
</extensions>
                    </trkpt>
                    <trkpt lat="54.475608333333334" lon="9.852701666666666">
                        <ele>0</ele>
                        <time>2022-08-18T01:45:14Z</time>
                        <extensions>
    <sog>0.0</sog>
</extensions>
                    </trkpt>
                    <trkpt lat="54.47563666666667" lon="9.852695">
                        <ele>0</ele>
                        <time>2022-08-18T01:51:14Z</time>
                        <extensions>
    <sog>0.0</sog>
</extensions>
                    </trkpt>
                    <trkpt lat="54.47562833333333" lon="9.852693333333333">
                        <ele>0</ele>
                        <time>2022-08-18T01:54:13Z</time>
                        <extensions>
    <sog>0.0</sog>
</extensions>
                    </trkpt>
                    <trkpt lat="54.47562333333334" lon="9.852696666666667">
                        <ele>0</ele>
                        <time>2022-08-18T02:00:14Z</time>
                        <extensions>
    <sog>0.0</sog>
</extensions>
                    </trkpt>
                    <trkpt lat="54.47562333333334" lon="9.852696666666667">
                        <ele>0</ele>
                        <time>2022-08-18T02:00:14Z</time>
                        <extensions>
    <sog>0.0</sog>
</extensions>
                    </trkpt>
                    <trkpt lat="54.475611666666666" lon="9.852715">
                        <ele>0</ele>
                        <time>2022-08-18T02:06:15Z</time>
                        <extensions>
    <sog>0.0</sog>
</extensions>
                    </trkpt>
                    <trkpt lat="54.47562333333334" lon="9.852713333333332">
                        <ele>0</ele>
                        <time>2022-08-18T02:15:13Z</time>
                        <extensions>
    <sog>0.0</sog>
</extensions>
                    </trkpt>
                    <trkpt lat="54.47562166666667" lon="9.852711666666666">
                        <ele>0</ele>
                        <time>2022-08-18T02:18:16Z</time>
                        <extensions>
    <sog>0.0</sog>
</extensions>
                    </trkpt>
                    <trkpt lat="54.47562833333333" lon="9.852711666666666">
                        <ele>0</ele>
                        <time>2022-08-18T02:21:13Z</time>
                        <extensions>
    <sog>0.0</sog>
</extensions>
                    </trkpt>
                    <trkpt lat="54.47564333333333" lon="9.852706666666668">
                        <ele>0</ele>
                        <time>2022-08-18T02:24:13Z</time>
                        <extensions>
    <sog>0.0</sog>
</extensions>
                    </trkpt>
                    <trkpt lat="54.47564" lon="9.852691666666667">
                        <ele>0</ele>
                        <time>2022-08-18T02:30:16Z</time>
                        <extensions>
    <sog>0.0</sog>
</extensions>
                    </trkpt>
                    <trkpt lat="54.475656666666666" lon="9.852685000000001">
                        <ele>0</ele>
                        <time>2022-08-18T02:36:14Z</time>
                        <extensions>
    <sog>0.1</sog>
</extensions>
                    </trkpt>
                    <trkpt lat="54.475653333333334" lon="9.852693333333333">
                        <ele>0</ele>
                        <time>2022-08-18T02:42:13Z</time>
                        <extensions>
    <sog>0.0</sog>
</extensions>
                    </trkpt>
                    <trkpt lat="54.47563" lon="9.852695">
                        <ele>0</ele>
                        <time>2022-08-18T02:48:13Z</time>
                        <extensions>
    <sog>0.0</sog>
</extensions>
                    </trkpt>
                    <trkpt lat="54.47565" lon="9.852704999999998">
                        <ele>0</ele>
                        <time>2022-08-18T02:51:13Z</time>
                        <extensions>
    <sog>0.0</sog>
</extensions>
                    </trkpt>
                    <trkpt lat="54.47566" lon="9.852691666666667">
                        <ele>0</ele>
                        <time>2022-08-18T02:54:13Z</time>
                        <extensions>
    <sog>0.0</sog>
</extensions>
                    </trkpt>
                    <trkpt lat="54.475653333333334" lon="9.852678333333333">
                        <ele>0</ele>
                        <time>2022-08-18T02:57:15Z</time>
                        <extensions>
    <sog>0.0</sog>
</extensions>
                    </trkpt>
                    <trkpt lat="54.475653333333334" lon="9.852675">
                        <ele>0</ele>
                        <time>2022-08-18T03:03:15Z</time>
                        <extensions>
    <sog>0.0</sog>
</extensions>
                    </trkpt>
                    <trkpt lat="54.47564333333333" lon="9.85268">
                        <ele>0</ele>
                        <time>2022-08-18T03:09:15Z</time>
                        <extensions>
    <sog>0.0</sog>
</extensions>
                    </trkpt>
                    <trkpt lat="54.47563666666667" lon="9.852673333333334">
                        <ele>0</ele>
                        <time>2022-08-18T03:15:14Z</time>
                        <extensions>
    <sog>0.0</sog>
</extensions>
                    </trkpt>
                    <trkpt lat="54.47564" lon="9.85268">
                        <ele>0</ele>
                        <time>2022-08-18T03:18:15Z</time>
                        <extensions>
    <sog>0.0</sog>
</extensions>
                    </trkpt>
                    <trkpt lat="54.47564333333333" lon="9.852685000000001">
                        <ele>0</ele>
                        <time>2022-08-18T03:21:15Z</time>
                        <extensions>
    <sog>0.0</sog>
</extensions>
                    </trkpt>
                    <trkpt lat="54.475654999999996" lon="9.85268">
                        <ele>0</ele>
                        <time>2022-08-18T03:24:16Z</time>
                        <extensions>
    <sog>0.0</sog>
</extensions>
                    </trkpt>
                    <trkpt lat="54.47565" lon="9.852671666666668">
                        <ele>0</ele>
                        <time>2022-08-18T03:27:14Z</time>
                        <extensions>
    <sog>0.0</sog>
</extensions>
                    </trkpt>
                    <trkpt lat="54.47564" lon="9.852675">
                        <ele>0</ele>
                        <time>2022-08-18T03:33:14Z</time>
                        <extensions>
    <sog>0.0</sog>
</extensions>
                    </trkpt>
                    <trkpt lat="54.475645" lon="9.852666666666666">
                        <ele>0</ele>
                        <time>2022-08-18T03:39:14Z</time>
                        <extensions>
    <sog>0.0</sog>
</extensions>
                    </trkpt>
                    <trkpt lat="54.475638333333336" lon="9.852644999999999">
                        <ele>0</ele>
                        <time>2022-08-18T03:45:14Z</time>
                        <extensions>
    <sog>0.0</sog>
</extensions>
                    </trkpt>
                    <trkpt lat="54.475638333333336" lon="9.852655">
                        <ele>0</ele>
                        <time>2022-08-18T03:48:14Z</time>
                        <extensions>
    <sog>0.0</sog>
</extensions>
                    </trkpt>
                    <trkpt lat="54.47562666666667" lon="9.852665">
                        <ele>0</ele>
                        <time>2022-08-18T03:51:14Z</time>
                        <extensions>
    <sog>0.0</sog>
</extensions>
                    </trkpt>
                    <trkpt lat="54.47563" lon="9.852673333333334">
                        <ele>0</ele>
                        <time>2022-08-18T03:57:13Z</time>
                        <extensions>
    <sog>0.0</sog>
</extensions>
                    </trkpt>
                    <trkpt lat="54.475633333333334" lon="9.852681666666665">
                        <ele>0</ele>
                        <time>2022-08-18T04:03:13Z</time>
                        <extensions>
    <sog>0.0</sog>
</extensions>
                    </trkpt>
                    <trkpt lat="54.47564" lon="9.852693333333333">
                        <ele>0</ele>
                        <time>2022-08-18T04:09:13Z</time>
                        <extensions>
    <sog>0.0</sog>
</extensions>
                    </trkpt>
                    <trkpt lat="54.475651666666664" lon="9.852673333333334">
                        <ele>0</ele>
                        <time>2022-08-18T04:18:13Z</time>
                        <extensions>
    <sog>0.0</sog>
</extensions>
                    </trkpt>
                    <trkpt lat="54.475638333333336" lon="9.852673333333334">
                        <ele>0</ele>
                        <time>2022-08-18T04:21:15Z</time>
                        <extensions>
    <sog>0.0</sog>
</extensions>
                    </trkpt>
                    <trkpt lat="54.47565833333333" lon="9.852673333333334">
                        <ele>0</ele>
                        <time>2022-08-18T04:27:16Z</time>
                        <extensions>
    <sog>0.0</sog>
</extensions>
                    </trkpt>
                    <trkpt lat="54.475645" lon="9.85265">
                        <ele>0</ele>
                        <time>2022-08-18T04:30:13Z</time>
                        <extensions>
    <sog>0.0</sog>
</extensions>
                    </trkpt>
                    <trkpt lat="54.475625" lon="9.852673333333334">
                        <ele>0</ele>
                        <time>2022-08-18T04:33:13Z</time>
                        <extensions>
    <sog>0.0</sog>
</extensions>
                    </trkpt>
                    <trkpt lat="54.47562833333333" lon="9.85271">
                        <ele>0</ele>
                        <time>2022-08-18T04:39:14Z</time>
                        <extensions>
    <sog>0.0</sog>
</extensions>
                    </trkpt>
                    <trkpt lat="54.475631666666665" lon="9.852683333333333">
                        <ele>0</ele>
                        <time>2022-08-18T04:42:13Z</time>
                        <extensions>
    <sog>0.0</sog>
</extensions>
                    </trkpt>
                    <trkpt lat="54.47564" lon="9.852695">
                        <ele>0</ele>
                        <time>2022-08-18T04:45:12Z</time>
                        <extensions>
    <sog>0.0</sog>
</extensions>
                    </trkpt>
                    <trkpt lat="54.475631666666665" lon="9.8527">
                        <ele>0</ele>
                        <time>2022-08-18T04:51:16Z</time>
                        <extensions>
    <sog>0.0</sog>
</extensions>
                    </trkpt>
                    <trkpt lat="54.47563666666667" lon="9.852691666666667">
                        <ele>0</ele>
                        <time>2022-08-18T04:54:16Z</time>
                        <extensions>
    <sog>0.0</sog>
</extensions>
                    </trkpt>
                    <trkpt lat="54.47564" lon="9.852688333333333">
                        <ele>0</ele>
                        <time>2022-08-18T05:00:12Z</time>
                        <extensions>
    <sog>0.0</sog>
</extensions>
                    </trkpt>
                    <trkpt lat="54.47564" lon="9.852688333333333">
                        <ele>0</ele>
                        <time>2022-08-18T05:00:12Z</time>
                        <extensions>
    <sog>0.0</sog>
</extensions>
                    </trkpt>
                    <trkpt lat="54.47564" lon="9.852675">
                        <ele>0</ele>
                        <time>2022-08-18T05:03:15Z</time>
                        <extensions>
    <sog>0.0</sog>
</extensions>
                    </trkpt>
                    <trkpt lat="54.475633333333334" lon="9.852691666666667">
                        <ele>0</ele>
                        <time>2022-08-18T05:06:15Z</time>
                        <extensions>
    <sog>0.0</sog>
</extensions>
                    </trkpt>
                    <trkpt lat="54.475625" lon="9.852696666666667">
                        <ele>0</ele>
                        <time>2022-08-18T05:09:15Z</time>
                        <extensions>
    <sog>0.0</sog>
</extensions>
                    </trkpt>
                    <trkpt lat="54.47564166666667" lon="9.852689999999999">
                        <ele>0</ele>
                        <time>2022-08-18T05:12:14Z</time>
                        <extensions>
    <sog>0.0</sog>
</extensions>
                    </trkpt>
                    <trkpt lat="54.47563666666667" lon="9.852695">
                        <ele>0</ele>
                        <time>2022-08-18T05:18:15Z</time>
                        <extensions>
    <sog>0.0</sog>
</extensions>
                    </trkpt>
                    <trkpt lat="54.475638333333336" lon="9.852685000000001">
                        <ele>0</ele>
                        <time>2022-08-18T05:21:15Z</time>
                        <extensions>
    <sog>0.0</sog>
</extensions>
                    </trkpt>
                    <trkpt lat="54.47563666666667" lon="9.852695">
                        <ele>0</ele>
                        <time>2022-08-18T05:24:14Z</time>
                        <extensions>
    <sog>0.0</sog>
</extensions>
                    </trkpt>
                    <trkpt lat="54.47563666666667" lon="9.85268">
                        <ele>0</ele>
                        <time>2022-08-18T05:30:15Z</time>
                        <extensions>
    <sog>0.0</sog>
</extensions>
                    </trkpt>
                    <trkpt lat="54.47564333333333" lon="9.852685000000001">
                        <ele>0</ele>
                        <time>2022-08-18T05:33:15Z</time>
                        <extensions>
    <sog>0.0</sog>
</extensions>
                    </trkpt>
                    <trkpt lat="54.47563666666667" lon="9.85267">
                        <ele>0</ele>
                        <time>2022-08-18T05:45:13Z</time>
                        <extensions>
    <sog>0.0</sog>
</extensions>
                    </trkpt>
                    <trkpt lat="54.47564333333333" lon="9.852676666666667">
                        <ele>0</ele>
                        <time>2022-08-18T05:48:14Z</time>
                        <extensions>
    <sog>0.0</sog>
</extensions>
                    </trkpt>
                    <trkpt lat="54.475611666666666" lon="9.852681666666665">
                        <ele>0</ele>
                        <time>2022-08-18T05:51:15Z</time>
                        <extensions>
    <sog>0.0</sog>
</extensions>
                    </trkpt>
                    <trkpt lat="54.47562666666667" lon="9.852686666666667">
                        <ele>0</ele>
                        <time>2022-08-18T06:12:17Z</time>
                        <extensions>
    <sog>0.0</sog>
</extensions>
                    </trkpt>
                    <trkpt lat="54.47562166666667" lon="9.852673333333334">
                        <ele>0</ele>
                        <time>2022-08-18T06:15:16Z</time>
                        <extensions>
    <sog>0.0</sog>
</extensions>
                    </trkpt>
                    <trkpt lat="54.47559833333333" lon="9.85268">
                        <ele>0</ele>
                        <time>2022-08-18T06:21:14Z</time>
                        <extensions>
    <sog>0.0</sog>
</extensions>
                    </trkpt>
                    <trkpt lat="54.475615" lon="9.852688333333333">
                        <ele>0</ele>
                        <time>2022-08-18T06:33:16Z</time>
                        <extensions>
    <sog>0.0</sog>
</extensions>
                    </trkpt>
                    <trkpt lat="54.475605" lon="9.852676666666667">
                        <ele>0</ele>
                        <time>2022-08-18T06:39:13Z</time>
                        <extensions>
    <sog>0.0</sog>
</extensions>
                    </trkpt>
                    <trkpt lat="54.47561666666666" lon="9.852701666666666">
                        <ele>0</ele>
                        <time>2022-08-18T06:42:14Z</time>
                        <extensions>
    <sog>0.0</sog>
</extensions>
                    </trkpt>
                    <trkpt lat="54.47561833333334" lon="9.852701666666666">
                        <ele>0</ele>
                        <time>2022-08-18T06:45:13Z</time>
                        <extensions>
    <sog>0.0</sog>
</extensions>
                    </trkpt>
                    <trkpt lat="54.475631666666665" lon="9.852689999999999">
                        <ele>0</ele>
                        <time>2022-08-18T07:00:13Z</time>
                        <extensions>
    <sog>0.0</sog>
</extensions>
                    </trkpt>
                    <trkpt lat="54.475631666666665" lon="9.852689999999999">
                        <ele>0</ele>
                        <time>2022-08-18T07:00:13Z</time>
                        <extensions>
    <sog>0.0</sog>
</extensions>
                    </trkpt>
                    <trkpt lat="54.475609999999996" lon="9.852701666666666">
                        <ele>0</ele>
                        <time>2022-08-18T07:03:13Z</time>
                        <extensions>
    <sog>0.0</sog>
</extensions>
                    </trkpt>
                    <trkpt lat="54.475620000000006" lon="9.8527">
                        <ele>0</ele>
                        <time>2022-08-18T07:06:12Z</time>
                        <extensions>
    <sog>0.0</sog>
</extensions>
                    </trkpt>
                    <trkpt lat="54.47563" lon="9.852695">
                        <ele>0</ele>
                        <time>2022-08-18T07:09:15Z</time>
                        <extensions>
    <sog>0.0</sog>
</extensions>
                    </trkpt>
                    <trkpt lat="54.475625" lon="9.852693333333333">
                        <ele>0</ele>
                        <time>2022-08-18T07:12:13Z</time>
                        <extensions>
    <sog>0.0</sog>
</extensions>
                    </trkpt>
                    <trkpt lat="54.47562166666667" lon="9.852696666666667">
                        <ele>0</ele>
                        <time>2022-08-18T07:18:16Z</time>
                        <extensions>
    <sog>0.0</sog>
</extensions>
                    </trkpt>
                    <trkpt lat="54.47562666666667" lon="9.852685000000001">
                        <ele>0</ele>
                        <time>2022-08-18T07:24:13Z</time>
                        <extensions>
    <sog>0.0</sog>
</extensions>
                    </trkpt>
                    <trkpt lat="54.475625" lon="9.852686666666667">
                        <ele>0</ele>
                        <time>2022-08-18T07:33:15Z</time>
                        <extensions>
    <sog>0.0</sog>
</extensions>
                    </trkpt>
                    <trkpt lat="54.47561833333334" lon="9.852688333333333">
                        <ele>0</ele>
                        <time>2022-08-18T07:36:13Z</time>
                        <extensions>
    <sog>0.0</sog>
</extensions>
                    </trkpt>
                    <trkpt lat="54.47561833333334" lon="9.852696666666667">
                        <ele>0</ele>
                        <time>2022-08-18T07:39:15Z</time>
                        <extensions>
    <sog>0.0</sog>
</extensions>
                    </trkpt>
                    <trkpt lat="54.475625" lon="9.85268">
                        <ele>0</ele>
                        <time>2022-08-18T07:42:15Z</time>
                        <extensions>
    <sog>0.0</sog>
</extensions>
                    </trkpt>
                    <trkpt lat="54.475620000000006" lon="9.85268">
                        <ele>0</ele>
                        <time>2022-08-18T07:45:16Z</time>
                        <extensions>
    <sog>0.0</sog>
</extensions>
                    </trkpt>
                    <trkpt lat="54.47562166666667" lon="9.85268">
                        <ele>0</ele>
                        <time>2022-08-18T07:48:15Z</time>
                        <extensions>
    <sog>0.0</sog>
</extensions>
                    </trkpt>
                    <trkpt lat="54.475635000000004" lon="9.852673333333334">
                        <ele>0</ele>
                        <time>2022-08-18T07:51:14Z</time>
                        <extensions>
    <sog>0.0</sog>
</extensions>
                    </trkpt>
                    <trkpt lat="54.47563666666667" lon="9.852678333333333">
                        <ele>0</ele>
                        <time>2022-08-18T07:54:14Z</time>
                        <extensions>
    <sog>0.0</sog>
</extensions>
                    </trkpt>
                    <trkpt lat="54.475633333333334" lon="9.852673333333334">
                        <ele>0</ele>
                        <time>2022-08-18T08:03:15Z</time>
                        <extensions>
    <sog>0.0</sog>
</extensions>
                    </trkpt>
                    <trkpt lat="54.475615" lon="9.852676666666667">
                        <ele>0</ele>
                        <time>2022-08-18T08:06:12Z</time>
                        <extensions>
    <sog>0.0</sog>
</extensions>
                    </trkpt>
                    <trkpt lat="54.475611666666666" lon="9.852676666666667">
                        <ele>0</ele>
                        <time>2022-08-18T08:09:15Z</time>
                        <extensions>
    <sog>0.0</sog>
</extensions>
                    </trkpt>
                    <trkpt lat="54.475606666666664" lon="9.852678333333333">
                        <ele>0</ele>
                        <time>2022-08-18T08:15:15Z</time>
                        <extensions>
    <sog>0.1</sog>
</extensions>
                    </trkpt>
                    <trkpt lat="54.475609999999996" lon="9.852671666666668">
                        <ele>0</ele>
                        <time>2022-08-18T08:18:16Z</time>
                        <extensions>
    <sog>0.0</sog>
</extensions>
                    </trkpt>
                    <trkpt lat="54.47561833333334" lon="9.852678333333333">
                        <ele>0</ele>
                        <time>2022-08-18T08:21:14Z</time>
                        <extensions>
    <sog>0.0</sog>
</extensions>
                    </trkpt>
                    <trkpt lat="54.47561333333333" lon="9.852668333333334">
                        <ele>0</ele>
                        <time>2022-08-18T08:24:14Z</time>
                        <extensions>
    <sog>0.0</sog>
</extensions>
                    </trkpt>
                    <trkpt lat="54.47561666666666" lon="9.852675">
                        <ele>0</ele>
                        <time>2022-08-18T08:27:16Z</time>
                        <extensions>
    <sog>0.0</sog>
</extensions>
                    </trkpt>
                    <trkpt lat="54.475631666666665" lon="9.85268">
                        <ele>0</ele>
                        <time>2022-08-18T08:30:16Z</time>
                        <extensions>
    <sog>0.0</sog>
</extensions>
                    </trkpt>
                    <trkpt lat="54.47561833333334" lon="9.852689999999999">
                        <ele>0</ele>
                        <time>2022-08-18T08:39:15Z</time>
                        <extensions>
    <sog>0.0</sog>
</extensions>
                    </trkpt>
                    <trkpt lat="54.475620000000006" lon="9.852686666666667">
                        <ele>0</ele>
                        <time>2022-08-18T08:51:15Z</time>
                        <extensions>
    <sog>0.0</sog>
</extensions>
                    </trkpt>
                    <trkpt lat="54.47561666666666" lon="9.852685000000001">
                        <ele>0</ele>
                        <time>2022-08-18T08:54:16Z</time>
                        <extensions>
    <sog>0.0</sog>
</extensions>
                    </trkpt>
                    <trkpt lat="54.47561833333334" lon="9.852685000000001">
                        <ele>0</ele>
                        <time>2022-08-18T08:57:13Z</time>
                        <extensions>
    <sog>0.0</sog>
</extensions>
                    </trkpt>
                    <trkpt lat="54.47562333333334" lon="9.852681666666665">
                        <ele>0</ele>
                        <time>2022-08-18T09:00:14Z</time>
                        <extensions>
    <sog>0.0</sog>
</extensions>
                    </trkpt>
                    <trkpt lat="54.47562333333334" lon="9.852681666666665">
                        <ele>0</ele>
                        <time>2022-08-18T09:00:14Z</time>
                        <extensions>
    <sog>0.0</sog>
</extensions>
                    </trkpt>
                    <trkpt lat="54.47562666666667" lon="9.852678333333333">
                        <ele>0</ele>
                        <time>2022-08-18T09:03:14Z</time>
                        <extensions>
    <sog>0.0</sog>
</extensions>
                    </trkpt>
                    <trkpt lat="54.475620000000006" lon="9.852668333333334">
                        <ele>0</ele>
                        <time>2022-08-18T09:15:16Z</time>
                        <extensions>
    <sog>0.0</sog>
</extensions>
                    </trkpt>
                    <trkpt lat="54.47561833333334" lon="9.852665">
                        <ele>0</ele>
                        <time>2022-08-18T09:21:16Z</time>
                        <extensions>
    <sog>0.0</sog>
</extensions>
                    </trkpt>
                    <trkpt lat="54.47563666666667" lon="9.852671666666668">
                        <ele>0</ele>
                        <time>2022-08-18T09:27:15Z</time>
                        <extensions>
    <sog>0.0</sog>
</extensions>
                    </trkpt>
                    <trkpt lat="54.475645" lon="9.85268">
                        <ele>0</ele>
                        <time>2022-08-18T09:30:14Z</time>
                        <extensions>
    <sog>0.0</sog>
</extensions>
                    </trkpt>
                    <trkpt lat="54.47563" lon="9.852673333333334">
                        <ele>0</ele>
                        <time>2022-08-18T09:33:15Z</time>
                        <extensions>
    <sog>0.0</sog>
</extensions>
                    </trkpt>
                    <trkpt lat="54.47564" lon="9.852681666666665">
                        <ele>0</ele>
                        <time>2022-08-18T09:42:14Z</time>
                        <extensions>
    <sog>0.0</sog>
</extensions>
                    </trkpt>
                    <trkpt lat="54.475633333333334" lon="9.852688333333333">
                        <ele>0</ele>
                        <time>2022-08-18T09:48:15Z</time>
                        <extensions>
    <sog>0.0</sog>
</extensions>
                    </trkpt>
                    <trkpt lat="54.475635000000004" lon="9.852691666666667">
                        <ele>0</ele>
                        <time>2022-08-18T09:54:13Z</time>
                        <extensions>
    <sog>0.1</sog>
</extensions>
                    </trkpt>
                    <trkpt lat="54.47564833333333" lon="9.85268">
                        <ele>0</ele>
                        <time>2022-08-18T09:57:15Z</time>
                        <extensions>
    <sog>0.0</sog>
</extensions>
                    </trkpt>
                    <trkpt lat="54.475654999999996" lon="9.85268">
                        <ele>0</ele>
                        <time>2022-08-18T10:03:15Z</time>
                        <extensions>
    <sog>0.0</sog>
</extensions>
                    </trkpt>
                    <trkpt lat="54.475638333333336" lon="9.852683333333333">
                        <ele>0</ele>
                        <time>2022-08-18T10:06:15Z</time>
                        <extensions>
    <sog>0.0</sog>
</extensions>
                    </trkpt>
                    <trkpt lat="54.47564" lon="9.852686666666667">
                        <ele>0</ele>
                        <time>2022-08-18T10:09:16Z</time>
                        <extensions>
    <sog>0.0</sog>
</extensions>
                    </trkpt>
                    <trkpt lat="54.475645" lon="9.852685000000001">
                        <ele>0</ele>
                        <time>2022-08-18T10:12:14Z</time>
                        <extensions>
    <sog>0.0</sog>
</extensions>
                    </trkpt>
                    <trkpt lat="54.47566333333334" lon="9.852693333333333">
                        <ele>0</ele>
                        <time>2022-08-18T10:15:13Z</time>
                        <extensions>
    <sog>0.0</sog>
</extensions>
                    </trkpt>
                    <trkpt lat="54.475651666666664" lon="9.852689999999999">
                        <ele>0</ele>
                        <time>2022-08-18T10:21:16Z</time>
                        <extensions>
    <sog>0.0</sog>
</extensions>
                    </trkpt>
                    <trkpt lat="54.475680000000004" lon="9.852686666666667">
                        <ele>0</ele>
                        <time>2022-08-18T10:24:15Z</time>
                        <extensions>
    <sog>0.0</sog>
</extensions>
                    </trkpt>
                    <trkpt lat="54.47566333333334" lon="9.852676666666667">
                        <ele>0</ele>
                        <time>2022-08-18T10:27:16Z</time>
                        <extensions>
    <sog>0.0</sog>
</extensions>
                    </trkpt>
                    <trkpt lat="54.47564" lon="9.852696666666667">
                        <ele>0</ele>
                        <time>2022-08-18T10:33:15Z</time>
                        <extensions>
    <sog>0.0</sog>
</extensions>
                    </trkpt>
                    <trkpt lat="54.47564333333333" lon="9.852689999999999">
                        <ele>0</ele>
                        <time>2022-08-18T10:36:13Z</time>
                        <extensions>
    <sog>0.0</sog>
</extensions>
                    </trkpt>
                    <trkpt lat="54.475675" lon="9.852675">
                        <ele>0</ele>
                        <time>2022-08-18T10:51:13Z</time>
                        <extensions>
    <sog>0.0</sog>
</extensions>
                    </trkpt>
                    <trkpt lat="54.475654999999996" lon="9.852688333333333">
                        <ele>0</ele>
                        <time>2022-08-18T10:54:13Z</time>
                        <extensions>
    <sog>0.0</sog>
</extensions>
                    </trkpt>
                    <trkpt lat="54.47564333333333" lon="9.85268">
                        <ele>0</ele>
                        <time>2022-08-18T10:57:13Z</time>
                        <extensions>
    <sog>0.0</sog>
</extensions>
                    </trkpt>
                    <trkpt lat="54.475651666666664" lon="9.852678333333333">
                        <ele>0</ele>
                        <time>2022-08-18T11:00:13Z</time>
                        <extensions>
    <sog>0.0</sog>
</extensions>
                    </trkpt>
                    <trkpt lat="54.475651666666664" lon="9.852678333333333">
                        <ele>0</ele>
                        <time>2022-08-18T11:00:13Z</time>
                        <extensions>
    <sog>0.0</sog>
</extensions>
                    </trkpt>
                    <trkpt lat="54.475633333333334" lon="9.852689999999999">
                        <ele>0</ele>
                        <time>2022-08-18T11:03:15Z</time>
                        <extensions>
    <sog>0.0</sog>
</extensions>
                    </trkpt>
                    <trkpt lat="54.47562666666667" lon="9.852688333333333">
                        <ele>0</ele>
                        <time>2022-08-18T11:06:14Z</time>
                        <extensions>
    <sog>0.0</sog>
</extensions>
                    </trkpt>
                    <trkpt lat="54.475608333333334" lon="9.852689999999999">
                        <ele>0</ele>
                        <time>2022-08-18T11:15:13Z</time>
                        <extensions>
    <sog>0.0</sog>
</extensions>
                    </trkpt>
                    <trkpt lat="54.47561833333334" lon="9.85268">
                        <ele>0</ele>
                        <time>2022-08-18T11:18:15Z</time>
                        <extensions>
    <sog>0.0</sog>
</extensions>
                    </trkpt>
                    <trkpt lat="54.475608333333334" lon="9.852683333333333">
                        <ele>0</ele>
                        <time>2022-08-18T11:21:15Z</time>
                        <extensions>
    <sog>0.0</sog>
</extensions>
                    </trkpt>
                    <trkpt lat="54.475609999999996" lon="9.852685000000001">
                        <ele>0</ele>
                        <time>2022-08-18T11:24:14Z</time>
                        <extensions>
    <sog>0.0</sog>
</extensions>
                    </trkpt>
                    <trkpt lat="54.47560333333333" lon="9.852675">
                        <ele>0</ele>
                        <time>2022-08-18T11:33:15Z</time>
                        <extensions>
    <sog>0.0</sog>
</extensions>
                    </trkpt>
                    <trkpt lat="54.475590000000004" lon="9.85267">
                        <ele>0</ele>
                        <time>2022-08-18T11:39:14Z</time>
                        <extensions>
    <sog>0.0</sog>
</extensions>
                    </trkpt>
                    <trkpt lat="54.47555666666666" lon="9.852659999999998">
                        <ele>0</ele>
                        <time>2022-08-18T11:48:16Z</time>
                        <extensions>
    <sog>0.0</sog>
</extensions>
                    </trkpt>
                    <trkpt lat="54.475535" lon="9.852656666666666">
                        <ele>0</ele>
                        <time>2022-08-18T11:54:16Z</time>
                        <extensions>
    <sog>0.0</sog>
</extensions>
                    </trkpt>
                    <trkpt lat="54.475546666666666" lon="9.852676666666667">
                        <ele>0</ele>
                        <time>2022-08-18T11:57:16Z</time>
                        <extensions>
    <sog>0.0</sog>
</extensions>
                    </trkpt>
                    <trkpt lat="54.47555833333333" lon="9.852653333333334">
                        <ele>0</ele>
                        <time>2022-08-18T12:06:15Z</time>
                        <extensions>
    <sog>0.0</sog>
</extensions>
                    </trkpt>
                    <trkpt lat="54.475555" lon="9.852655">
                        <ele>0</ele>
                        <time>2022-08-18T12:09:15Z</time>
                        <extensions>
    <sog>0.0</sog>
</extensions>
                    </trkpt>
                    <trkpt lat="54.475575000000006" lon="9.852665">
                        <ele>0</ele>
                        <time>2022-08-18T12:12:15Z</time>
                        <extensions>
    <sog>0.0</sog>
</extensions>
                    </trkpt>
                    <trkpt lat="54.475561666666664" lon="9.852675">
                        <ele>0</ele>
                        <time>2022-08-18T12:15:13Z</time>
                        <extensions>
    <sog>0.0</sog>
</extensions>
                    </trkpt>
                    <trkpt lat="54.47557" lon="9.852665">
                        <ele>0</ele>
                        <time>2022-08-18T12:18:16Z</time>
                        <extensions>
    <sog>0.0</sog>
</extensions>
                    </trkpt>
                    <trkpt lat="54.47557333333334" lon="9.852661666666668">
                        <ele>0</ele>
                        <time>2022-08-18T12:27:14Z</time>
                        <extensions>
    <sog>0.0</sog>
</extensions>
                    </trkpt>
                    <trkpt lat="54.475595" lon="9.852703333333332">
                        <ele>0</ele>
                        <time>2022-08-18T12:42:15Z</time>
                        <extensions>
    <sog>0.0</sog>
</extensions>
                    </trkpt>
                    <trkpt lat="54.475585" lon="9.852676666666667">
                        <ele>0</ele>
                        <time>2022-08-18T12:48:15Z</time>
                        <extensions>
    <sog>0.0</sog>
</extensions>
                    </trkpt>
                    <trkpt lat="54.47557166666666" lon="9.85268">
                        <ele>0</ele>
                        <time>2022-08-18T12:51:13Z</time>
                        <extensions>
    <sog>0.0</sog>
</extensions>
                    </trkpt>
                    <trkpt lat="54.47557833333334" lon="9.852683333333333">
                        <ele>0</ele>
                        <time>2022-08-18T12:54:16Z</time>
                        <extensions>
    <sog>0.0</sog>
</extensions>
                    </trkpt>
                    <trkpt lat="54.4756" lon="9.852688333333333">
                        <ele>0</ele>
                        <time>2022-08-18T12:57:13Z</time>
                        <extensions>
    <sog>0.0</sog>
</extensions>
                    </trkpt>
                    <trkpt lat="54.475586666666665" lon="9.8527">
                        <ele>0</ele>
                        <time>2022-08-18T13:00:15Z</time>
                        <extensions>
    <sog>0.0</sog>
</extensions>
                    </trkpt>
                    <trkpt lat="54.475586666666665" lon="9.8527">
                        <ele>0</ele>
                        <time>2022-08-18T13:00:15Z</time>
                        <extensions>
    <sog>0.0</sog>
</extensions>
                    </trkpt>
                    <trkpt lat="54.47559666666667" lon="9.852671666666668">
                        <ele>0</ele>
                        <time>2022-08-18T13:09:13Z</time>
                        <extensions>
    <sog>0.0</sog>
</extensions>
                    </trkpt>
                    <trkpt lat="54.47560333333333" lon="9.852688333333333">
                        <ele>0</ele>
                        <time>2022-08-18T13:12:15Z</time>
                        <extensions>
    <sog>0.0</sog>
</extensions>
                    </trkpt>
                    <trkpt lat="54.475606666666664" lon="9.852688333333333">
                        <ele>0</ele>
                        <time>2022-08-18T13:15:13Z</time>
                        <extensions>
    <sog>0.0</sog>
</extensions>
                    </trkpt>
                    <trkpt lat="54.475605" lon="9.852689999999999">
                        <ele>0</ele>
                        <time>2022-08-18T13:21:14Z</time>
                        <extensions>
    <sog>0.0</sog>
</extensions>
                    </trkpt>
                    <trkpt lat="54.475609999999996" lon="9.852691666666667">
                        <ele>0</ele>
                        <time>2022-08-18T13:27:16Z</time>
                        <extensions>
    <sog>0.0</sog>
</extensions>
                    </trkpt>
                    <trkpt lat="54.475606666666664" lon="9.852696666666667">
                        <ele>0</ele>
                        <time>2022-08-18T13:30:15Z</time>
                        <extensions>
    <sog>0.0</sog>
</extensions>
                    </trkpt>
                    <trkpt lat="54.47559666666667" lon="9.852703333333332">
                        <ele>0</ele>
                        <time>2022-08-18T13:36:15Z</time>
                        <extensions>
    <sog>0.0</sog>
</extensions>
                    </trkpt>
                    <trkpt lat="54.47561833333334" lon="9.852716666666668">
                        <ele>0</ele>
                        <time>2022-08-18T13:45:15Z</time>
                        <extensions>
    <sog>0.0</sog>
</extensions>
                    </trkpt>
                    <trkpt lat="54.47562833333333" lon="9.852704999999998">
                        <ele>0</ele>
                        <time>2022-08-18T13:54:14Z</time>
                        <extensions>
    <sog>0.0</sog>
</extensions>
                    </trkpt>
                    <trkpt lat="54.475620000000006" lon="9.852696666666667">
                        <ele>0</ele>
                        <time>2022-08-18T14:00:14Z</time>
                        <extensions>
    <sog>0.0</sog>
</extensions>
                    </trkpt>
                    <trkpt lat="54.475620000000006" lon="9.852696666666667">
                        <ele>0</ele>
                        <time>2022-08-18T14:00:14Z</time>
                        <extensions>
    <sog>0.0</sog>
</extensions>
                    </trkpt>
                    <trkpt lat="54.475625" lon="9.852716666666668">
                        <ele>0</ele>
                        <time>2022-08-18T14:12:15Z</time>
                        <extensions>
    <sog>0.0</sog>
</extensions>
                    </trkpt>
                    <trkpt lat="54.47562333333334" lon="9.8527">
                        <ele>0</ele>
                        <time>2022-08-18T14:15:12Z</time>
                        <extensions>
    <sog>0.0</sog>
</extensions>
                    </trkpt>
                    <trkpt lat="54.47562833333333" lon="9.852706666666668">
                        <ele>0</ele>
                        <time>2022-08-18T14:18:13Z</time>
                        <extensions>
    <sog>0.0</sog>
</extensions>
                    </trkpt>
                    <trkpt lat="54.47562666666667" lon="9.852704999999998">
                        <ele>0</ele>
                        <time>2022-08-18T14:21:14Z</time>
                        <extensions>
    <sog>0.0</sog>
</extensions>
                    </trkpt>
                    <trkpt lat="54.47562833333333" lon="9.852706666666668">
                        <ele>0</ele>
                        <time>2022-08-18T14:24:15Z</time>
                        <extensions>
    <sog>0.0</sog>
</extensions>
                    </trkpt>
                    <trkpt lat="54.47562333333334" lon="9.85272">
                        <ele>0</ele>
                        <time>2022-08-18T14:27:14Z</time>
                        <extensions>
    <sog>0.0</sog>
</extensions>
                    </trkpt>
                    <trkpt lat="54.47561666666666" lon="9.852718333333334">
                        <ele>0</ele>
                        <time>2022-08-18T14:30:15Z</time>
                        <extensions>
    <sog>0.0</sog>
</extensions>
                    </trkpt>
                    <trkpt lat="54.47562833333333" lon="9.852715">
                        <ele>0</ele>
                        <time>2022-08-18T14:33:13Z</time>
                        <extensions>
    <sog>0.0</sog>
</extensions>
                    </trkpt>
                    <trkpt lat="54.475635000000004" lon="9.852716666666668">
                        <ele>0</ele>
                        <time>2022-08-18T14:36:14Z</time>
                        <extensions>
    <sog>0.0</sog>
</extensions>
                    </trkpt>
                    <trkpt lat="54.475620000000006" lon="9.852704999999998">
                        <ele>0</ele>
                        <time>2022-08-18T14:39:15Z</time>
                        <extensions>
    <sog>0.0</sog>
</extensions>
                    </trkpt>
                    <trkpt lat="54.47562833333333" lon="9.852718333333334">
                        <ele>0</ele>
                        <time>2022-08-18T14:42:15Z</time>
                        <extensions>
    <sog>0.0</sog>
</extensions>
                    </trkpt>
                    <trkpt lat="54.47562333333334" lon="9.852713333333332">
                        <ele>0</ele>
                        <time>2022-08-18T14:45:13Z</time>
                        <extensions>
    <sog>0.0</sog>
</extensions>
                    </trkpt>
                    <trkpt lat="54.475635000000004" lon="9.852706666666668">
                        <ele>0</ele>
                        <time>2022-08-18T14:51:14Z</time>
                        <extensions>
    <sog>0.0</sog>
</extensions>
                    </trkpt>
                    <trkpt lat="54.47562666666667" lon="9.852706666666668">
                        <ele>0</ele>
                        <time>2022-08-18T14:54:15Z</time>
                        <extensions>
    <sog>0.0</sog>
</extensions>
                    </trkpt>
                    <trkpt lat="54.47564166666667" lon="9.852696666666667">
                        <ele>0</ele>
                        <time>2022-08-18T15:00:14Z</time>
                        <extensions>
    <sog>0.0</sog>
</extensions>
                    </trkpt>
                    <trkpt lat="54.47564166666667" lon="9.852696666666667">
                        <ele>0</ele>
                        <time>2022-08-18T15:00:14Z</time>
                        <extensions>
    <sog>0.0</sog>
</extensions>
                    </trkpt>
                    <trkpt lat="54.47564" lon="9.852716666666668">
                        <ele>0</ele>
                        <time>2022-08-18T15:03:15Z</time>
                        <extensions>
    <sog>0.0</sog>
</extensions>
                    </trkpt>
                    <trkpt lat="54.475620000000006" lon="9.852716666666668">
                        <ele>0</ele>
                        <time>2022-08-18T15:09:13Z</time>
                        <extensions>
    <sog>0.0</sog>
</extensions>
                    </trkpt>
                    <trkpt lat="54.47562166666667" lon="9.852721666666667">
                        <ele>0</ele>
                        <time>2022-08-18T15:12:15Z</time>
                        <extensions>
    <sog>0.0</sog>
</extensions>
                    </trkpt>
                    <trkpt lat="54.47562333333334" lon="9.852716666666668">
                        <ele>0</ele>
                        <time>2022-08-18T15:21:16Z</time>
                        <extensions>
    <sog>0.0</sog>
</extensions>
                    </trkpt>
                    <trkpt lat="54.475625" lon="9.852708333333334">
                        <ele>0</ele>
                        <time>2022-08-18T15:27:16Z</time>
                        <extensions>
    <sog>0.0</sog>
</extensions>
                    </trkpt>
                    <trkpt lat="54.47562333333334" lon="9.85271">
                        <ele>0</ele>
                        <time>2022-08-18T15:30:15Z</time>
                        <extensions>
    <sog>0.0</sog>
</extensions>
                    </trkpt>
                    <trkpt lat="54.47561833333334" lon="9.852701666666666">
                        <ele>0</ele>
                        <time>2022-08-18T15:39:16Z</time>
                        <extensions>
    <sog>0.0</sog>
</extensions>
                    </trkpt>
                    <trkpt lat="54.47561833333334" lon="9.852715">
                        <ele>0</ele>
                        <time>2022-08-18T15:42:13Z</time>
                        <extensions>
    <sog>0.0</sog>
</extensions>
                    </trkpt>
                    <trkpt lat="54.475635000000004" lon="9.852723333333333">
                        <ele>0</ele>
                        <time>2022-08-18T15:57:16Z</time>
                        <extensions>
    <sog>0.1</sog>
</extensions>
                    </trkpt>
                    <trkpt lat="54.475620000000006" lon="9.85271">
                        <ele>0</ele>
                        <time>2022-08-18T16:00:16Z</time>
                        <extensions>
    <sog>0.0</sog>
</extensions>
                    </trkpt>
                    <trkpt lat="54.475620000000006" lon="9.85271">
                        <ele>0</ele>
                        <time>2022-08-18T16:00:16Z</time>
                        <extensions>
    <sog>0.0</sog>
</extensions>
                    </trkpt>
                    <trkpt lat="54.47562333333334" lon="9.85271">
                        <ele>0</ele>
                        <time>2022-08-18T16:03:16Z</time>
                        <extensions>
    <sog>0.0</sog>
</extensions>
                    </trkpt>
                    <trkpt lat="54.475609999999996" lon="9.852716666666668">
                        <ele>0</ele>
                        <time>2022-08-18T16:09:14Z</time>
                        <extensions>
    <sog>0.0</sog>
</extensions>
                    </trkpt>
                    <trkpt lat="54.475605" lon="9.852715">
                        <ele>0</ele>
                        <time>2022-08-18T16:12:14Z</time>
                        <extensions>
    <sog>0.0</sog>
</extensions>
                    </trkpt>
                    <trkpt lat="54.475609999999996" lon="9.852713333333332">
                        <ele>0</ele>
                        <time>2022-08-18T16:15:15Z</time>
                        <extensions>
    <sog>0.0</sog>
</extensions>
                    </trkpt>
                    <trkpt lat="54.475609999999996" lon="9.852721666666667">
                        <ele>0</ele>
                        <time>2022-08-18T16:18:15Z</time>
                        <extensions>
    <sog>0.0</sog>
</extensions>
                    </trkpt>
                    <trkpt lat="54.475608333333334" lon="9.852721666666667">
                        <ele>0</ele>
                        <time>2022-08-18T16:24:15Z</time>
                        <extensions>
    <sog>0.0</sog>
</extensions>
                    </trkpt>
                    <trkpt lat="54.475606666666664" lon="9.852726666666666">
                        <ele>0</ele>
                        <time>2022-08-18T16:27:13Z</time>
                        <extensions>
    <sog>0.0</sog>
</extensions>
                    </trkpt>
                    <trkpt lat="54.4756" lon="9.852731666666667">
                        <ele>0</ele>
                        <time>2022-08-18T16:30:14Z</time>
                        <extensions>
    <sog>0.0</sog>
</extensions>
                    </trkpt>
                    <trkpt lat="54.47561333333333" lon="9.852718333333334">
                        <ele>0</ele>
                        <time>2022-08-18T16:39:16Z</time>
                        <extensions>
    <sog>0.0</sog>
</extensions>
                    </trkpt>
                    <trkpt lat="54.47561333333333" lon="9.852721666666667">
                        <ele>0</ele>
                        <time>2022-08-18T16:45:16Z</time>
                        <extensions>
    <sog>0.0</sog>
</extensions>
                    </trkpt>
                    <trkpt lat="54.475608333333334" lon="9.852733333333333">
                        <ele>0</ele>
                        <time>2022-08-18T16:54:15Z</time>
                        <extensions>
    <sog>0.0</sog>
</extensions>
                    </trkpt>
                    <trkpt lat="54.475611666666666" lon="9.852728333333333">
                        <ele>0</ele>
                        <time>2022-08-18T16:57:13Z</time>
                        <extensions>
    <sog>0.0</sog>
</extensions>
                    </trkpt>
                    <trkpt lat="54.47559833333333" lon="9.852725">
                        <ele>0</ele>
                        <time>2022-08-18T17:00:15Z</time>
                        <extensions>
    <sog>0.0</sog>
</extensions>
                    </trkpt>
                    <trkpt lat="54.47559833333333" lon="9.852725">
                        <ele>0</ele>
                        <time>2022-08-18T17:00:15Z</time>
                        <extensions>
    <sog>0.0</sog>
</extensions>
                    </trkpt>
                    <trkpt lat="54.47561333333333" lon="9.852728333333333">
                        <ele>0</ele>
                        <time>2022-08-18T17:03:13Z</time>
                        <extensions>
    <sog>0.0</sog>
</extensions>
                    </trkpt>
                    <trkpt lat="54.47562833333333" lon="9.852721666666667">
                        <ele>0</ele>
                        <time>2022-08-18T17:06:15Z</time>
                        <extensions>
    <sog>0.0</sog>
</extensions>
                    </trkpt>
                    <trkpt lat="54.475620000000006" lon="9.852725">
                        <ele>0</ele>
                        <time>2022-08-18T17:09:16Z</time>
                        <extensions>
    <sog>0.0</sog>
</extensions>
                    </trkpt>
                    <trkpt lat="54.47562833333333" lon="9.852731666666667">
                        <ele>0</ele>
                        <time>2022-08-18T17:15:16Z</time>
                        <extensions>
    <sog>0.0</sog>
</extensions>
                    </trkpt>
                    <trkpt lat="54.47563" lon="9.852716666666668">
                        <ele>0</ele>
                        <time>2022-08-18T17:21:13Z</time>
                        <extensions>
    <sog>0.0</sog>
</extensions>
                    </trkpt>
                    <trkpt lat="54.47562166666667" lon="9.852721666666667">
                        <ele>0</ele>
                        <time>2022-08-18T17:30:15Z</time>
                        <extensions>
    <sog>0.0</sog>
</extensions>
                    </trkpt>
                    <trkpt lat="54.47561333333333" lon="9.852725">
                        <ele>0</ele>
                        <time>2022-08-18T17:33:15Z</time>
                        <extensions>
    <sog>0.0</sog>
</extensions>
                    </trkpt>
                    <trkpt lat="54.47561333333333" lon="9.852718333333334">
                        <ele>0</ele>
                        <time>2022-08-18T17:36:15Z</time>
                        <extensions>
    <sog>0.0</sog>
</extensions>
                    </trkpt>
                    <trkpt lat="54.47562666666667" lon="9.852726666666666">
                        <ele>0</ele>
                        <time>2022-08-18T17:39:13Z</time>
                        <extensions>
    <sog>0.0</sog>
</extensions>
                    </trkpt>
                    <trkpt lat="54.475633333333334" lon="9.852726666666666">
                        <ele>0</ele>
                        <time>2022-08-18T17:42:15Z</time>
                        <extensions>
    <sog>0.0</sog>
</extensions>
                    </trkpt>
                    <trkpt lat="54.475631666666665" lon="9.85272">
                        <ele>0</ele>
                        <time>2022-08-18T17:48:15Z</time>
                        <extensions>
    <sog>0.0</sog>
</extensions>
                    </trkpt>
                    <trkpt lat="54.475631666666665" lon="9.852718333333334">
                        <ele>0</ele>
                        <time>2022-08-18T17:51:13Z</time>
                        <extensions>
    <sog>0.0</sog>
</extensions>
                    </trkpt>
                    <trkpt lat="54.47562833333333" lon="9.852711666666666">
                        <ele>0</ele>
                        <time>2022-08-18T17:57:14Z</time>
                        <extensions>
    <sog>0.0</sog>
</extensions>
                    </trkpt>
                    <trkpt lat="54.475633333333334" lon="9.852708333333334">
                        <ele>0</ele>
                        <time>2022-08-18T18:03:16Z</time>
                        <extensions>
    <sog>0.0</sog>
</extensions>
                    </trkpt>
                    <trkpt lat="54.47562666666667" lon="9.852695">
                        <ele>0</ele>
                        <time>2022-08-18T18:06:15Z</time>
                        <extensions>
    <sog>0.0</sog>
</extensions>
                    </trkpt>
                    <trkpt lat="54.475609999999996" lon="9.852715">
                        <ele>0</ele>
                        <time>2022-08-18T18:09:15Z</time>
                        <extensions>
    <sog>0.0</sog>
</extensions>
                    </trkpt>
                    <trkpt lat="54.47561333333333" lon="9.852711666666666">
                        <ele>0</ele>
                        <time>2022-08-18T18:12:13Z</time>
                        <extensions>
    <sog>0.0</sog>
</extensions>
                    </trkpt>
                    <trkpt lat="54.475620000000006" lon="9.852695">
                        <ele>0</ele>
                        <time>2022-08-18T18:15:15Z</time>
                        <extensions>
    <sog>0.0</sog>
</extensions>
                    </trkpt>
                    <trkpt lat="54.475625" lon="9.852693333333333">
                        <ele>0</ele>
                        <time>2022-08-18T18:21:13Z</time>
                        <extensions>
    <sog>0.0</sog>
</extensions>
                    </trkpt>
                    <trkpt lat="54.475590000000004" lon="9.852691666666667">
                        <ele>0</ele>
                        <time>2022-08-18T18:27:13Z</time>
                        <extensions>
    <sog>0.0</sog>
</extensions>
                    </trkpt>
                    <trkpt lat="54.475633333333334" lon="9.8527">
                        <ele>0</ele>
                        <time>2022-08-18T18:33:16Z</time>
                        <extensions>
    <sog>0.0</sog>
</extensions>
                    </trkpt>
                    <trkpt lat="54.47563666666667" lon="9.852688333333333">
                        <ele>0</ele>
                        <time>2022-08-18T18:39:14Z</time>
                        <extensions>
    <sog>0.0</sog>
</extensions>
                    </trkpt>
                    <trkpt lat="54.475620000000006" lon="9.85268">
                        <ele>0</ele>
                        <time>2022-08-18T18:42:13Z</time>
                        <extensions>
    <sog>0.0</sog>
</extensions>
                    </trkpt>
                    <trkpt lat="54.475605" lon="9.852685000000001">
                        <ele>0</ele>
                        <time>2022-08-18T18:45:16Z</time>
                        <extensions>
    <sog>0.0</sog>
</extensions>
                    </trkpt>
                    <trkpt lat="54.47561666666666" lon="9.852683333333333">
                        <ele>0</ele>
                        <time>2022-08-18T18:48:13Z</time>
                        <extensions>
    <sog>0.0</sog>
</extensions>
                    </trkpt>
                    <trkpt lat="54.475615" lon="9.852685000000001">
                        <ele>0</ele>
                        <time>2022-08-18T18:57:16Z</time>
                        <extensions>
    <sog>0.0</sog>
</extensions>
                    </trkpt>
                    <trkpt lat="54.47561833333334" lon="9.852683333333333">
                        <ele>0</ele>
                        <time>2022-08-18T19:06:16Z</time>
                        <extensions>
    <sog>0.0</sog>
</extensions>
                    </trkpt>
                    <trkpt lat="54.47562666666667" lon="9.852695">
                        <ele>0</ele>
                        <time>2022-08-18T19:09:16Z</time>
                        <extensions>
    <sog>0.0</sog>
</extensions>
                    </trkpt>
                    <trkpt lat="54.47562333333334" lon="9.852691666666667">
                        <ele>0</ele>
                        <time>2022-08-18T19:12:12Z</time>
                        <extensions>
    <sog>0.0</sog>
</extensions>
                    </trkpt>
                    <trkpt lat="54.47562666666667" lon="9.852706666666668">
                        <ele>0</ele>
                        <time>2022-08-18T19:15:15Z</time>
                        <extensions>
    <sog>0.0</sog>
</extensions>
                    </trkpt>
                    <trkpt lat="54.47562666666667" lon="9.852691666666667">
                        <ele>0</ele>
                        <time>2022-08-18T19:18:15Z</time>
                        <extensions>
    <sog>0.0</sog>
</extensions>
                    </trkpt>
                    <trkpt lat="54.475633333333334" lon="9.852689999999999">
                        <ele>0</ele>
                        <time>2022-08-18T19:24:13Z</time>
                        <extensions>
    <sog>0.0</sog>
</extensions>
                    </trkpt>
                    <trkpt lat="54.47563666666667" lon="9.852708333333334">
                        <ele>0</ele>
                        <time>2022-08-18T19:27:15Z</time>
                        <extensions>
    <sog>0.0</sog>
</extensions>
                    </trkpt>
                    <trkpt lat="54.47563" lon="9.85271">
                        <ele>0</ele>
                        <time>2022-08-18T19:30:16Z</time>
                        <extensions>
    <sog>0.0</sog>
</extensions>
                    </trkpt>
                    <trkpt lat="54.475631666666665" lon="9.85268">
                        <ele>0</ele>
                        <time>2022-08-18T19:33:15Z</time>
                        <extensions>
    <sog>0.0</sog>
</extensions>
                    </trkpt>
                    <trkpt lat="54.47564333333333" lon="9.852673333333334">
                        <ele>0</ele>
                        <time>2022-08-18T19:39:13Z</time>
                        <extensions>
    <sog>0.0</sog>
</extensions>
                    </trkpt>
                    <trkpt lat="54.475633333333334" lon="9.85268">
                        <ele>0</ele>
                        <time>2022-08-18T19:45:14Z</time>
                        <extensions>
    <sog>0.0</sog>
</extensions>
                    </trkpt>
                    <trkpt lat="54.47564166666667" lon="9.852689999999999">
                        <ele>0</ele>
                        <time>2022-08-18T19:51:15Z</time>
                        <extensions>
    <sog>0.0</sog>
</extensions>
                    </trkpt>
                    <trkpt lat="54.47564" lon="9.852689999999999">
                        <ele>0</ele>
                        <time>2022-08-18T19:54:12Z</time>
                        <extensions>
    <sog>0.0</sog>
</extensions>
                    </trkpt>
                    <trkpt lat="54.47565" lon="9.852686666666667">
                        <ele>0</ele>
                        <time>2022-08-18T19:57:14Z</time>
                        <extensions>
    <sog>0.0</sog>
</extensions>
                    </trkpt>
                    <trkpt lat="54.475645" lon="9.852701666666666">
                        <ele>0</ele>
                        <time>2022-08-18T20:00:14Z</time>
                        <extensions>
    <sog>0.0</sog>
</extensions>
                    </trkpt>
                    <trkpt lat="54.475645" lon="9.852701666666666">
                        <ele>0</ele>
                        <time>2022-08-18T20:00:14Z</time>
                        <extensions>
    <sog>0.0</sog>
</extensions>
                    </trkpt>
                    <trkpt lat="54.475654999999996" lon="9.852693333333333">
                        <ele>0</ele>
                        <time>2022-08-18T20:03:15Z</time>
                        <extensions>
    <sog>0.0</sog>
</extensions>
                    </trkpt>
                    <trkpt lat="54.47565" lon="9.852673333333334">
                        <ele>0</ele>
                        <time>2022-08-18T20:06:13Z</time>
                        <extensions>
    <sog>0.0</sog>
</extensions>
                    </trkpt>
                    <trkpt lat="54.475653333333334" lon="9.852691666666667">
                        <ele>0</ele>
                        <time>2022-08-18T20:09:15Z</time>
                        <extensions>
    <sog>0.0</sog>
</extensions>
                    </trkpt>
                    <trkpt lat="54.47564833333333" lon="9.852681666666665">
                        <ele>0</ele>
                        <time>2022-08-18T20:15:13Z</time>
                        <extensions>
    <sog>0.0</sog>
</extensions>
                    </trkpt>
                    <trkpt lat="54.475654999999996" lon="9.852688333333333">
                        <ele>0</ele>
                        <time>2022-08-18T20:18:13Z</time>
                        <extensions>
    <sog>0.0</sog>
</extensions>
                    </trkpt>
                    <trkpt lat="54.47567" lon="9.852696666666667">
                        <ele>0</ele>
                        <time>2022-08-18T20:21:14Z</time>
                        <extensions>
    <sog>0.0</sog>
</extensions>
                    </trkpt>
                    <trkpt lat="54.475633333333334" lon="9.852704999999998">
                        <ele>0</ele>
                        <time>2022-08-18T20:30:15Z</time>
                        <extensions>
    <sog>0.0</sog>
</extensions>
                    </trkpt>
                    <trkpt lat="54.475645" lon="9.852689999999999">
                        <ele>0</ele>
                        <time>2022-08-18T20:36:13Z</time>
                        <extensions>
    <sog>0.0</sog>
</extensions>
                    </trkpt>
                    <trkpt lat="54.475635000000004" lon="9.852696666666667">
                        <ele>0</ele>
                        <time>2022-08-18T20:39:14Z</time>
                        <extensions>
    <sog>0.0</sog>
</extensions>
                    </trkpt>
                    <trkpt lat="54.47564666666666" lon="9.852696666666667">
                        <ele>0</ele>
                        <time>2022-08-18T20:42:15Z</time>
                        <extensions>
    <sog>0.0</sog>
</extensions>
                    </trkpt>
                    <trkpt lat="54.47564833333333" lon="9.852703333333332">
                        <ele>0</ele>
                        <time>2022-08-18T20:45:12Z</time>
                        <extensions>
    <sog>0.0</sog>
</extensions>
                    </trkpt>
                    <trkpt lat="54.475645" lon="9.852703333333332">
                        <ele>0</ele>
                        <time>2022-08-18T20:51:14Z</time>
                        <extensions>
    <sog>0.0</sog>
</extensions>
                    </trkpt>
                    <trkpt lat="54.47564333333333" lon="9.85271">
                        <ele>0</ele>
                        <time>2022-08-18T20:54:14Z</time>
                        <extensions>
    <sog>0.0</sog>
</extensions>
                    </trkpt>
                    <trkpt lat="54.475635000000004" lon="9.852713333333332">
                        <ele>0</ele>
                        <time>2022-08-18T20:57:14Z</time>
                        <extensions>
    <sog>0.0</sog>
</extensions>
                    </trkpt>
                    <trkpt lat="54.47564" lon="9.852708333333334">
                        <ele>0</ele>
                        <time>2022-08-18T21:00:15Z</time>
                        <extensions>
    <sog>0.0</sog>
</extensions>
                    </trkpt>
                    <trkpt lat="54.47564" lon="9.852708333333334">
                        <ele>0</ele>
                        <time>2022-08-18T21:00:15Z</time>
                        <extensions>
    <sog>0.0</sog>
</extensions>
                    </trkpt>
                    <trkpt lat="54.47564833333333" lon="9.8527">
                        <ele>0</ele>
                        <time>2022-08-18T21:09:14Z</time>
                        <extensions>
    <sog>0.0</sog>
</extensions>
                    </trkpt>
                    <trkpt lat="54.47563" lon="9.852708333333334">
                        <ele>0</ele>
                        <time>2022-08-18T21:12:13Z</time>
                        <extensions>
    <sog>0.0</sog>
</extensions>
                    </trkpt>
                    <trkpt lat="54.475645" lon="9.852711666666666">
                        <ele>0</ele>
                        <time>2022-08-18T21:18:14Z</time>
                        <extensions>
    <sog>0.0</sog>
</extensions>
                    </trkpt>
                    <trkpt lat="54.475631666666665" lon="9.852713333333332">
                        <ele>0</ele>
                        <time>2022-08-18T21:27:15Z</time>
                        <extensions>
    <sog>0.0</sog>
</extensions>
                    </trkpt>
                    <trkpt lat="54.475631666666665" lon="9.852708333333334">
                        <ele>0</ele>
                        <time>2022-08-18T21:42:16Z</time>
                        <extensions>
    <sog>0.0</sog>
</extensions>
                    </trkpt>
                    <trkpt lat="54.475635000000004" lon="9.852696666666667">
                        <ele>0</ele>
                        <time>2022-08-18T21:48:13Z</time>
                        <extensions>
    <sog>0.0</sog>
</extensions>
                    </trkpt>
                    <trkpt lat="54.475635000000004" lon="9.852695">
                        <ele>0</ele>
                        <time>2022-08-18T21:51:16Z</time>
                        <extensions>
    <sog>0.0</sog>
</extensions>
                    </trkpt>
                    <trkpt lat="54.47564333333333" lon="9.852696666666667">
                        <ele>0</ele>
                        <time>2022-08-18T21:54:16Z</time>
                        <extensions>
    <sog>0.0</sog>
</extensions>
                    </trkpt>
                    <trkpt lat="54.475631666666665" lon="9.852695">
                        <ele>0</ele>
                        <time>2022-08-18T22:03:13Z</time>
                        <extensions>
    <sog>0.0</sog>
</extensions>
                    </trkpt>
                    <trkpt lat="54.475651666666664" lon="9.852685000000001">
                        <ele>0</ele>
                        <time>2022-08-18T22:09:15Z</time>
                        <extensions>
    <sog>0.0</sog>
</extensions>
                    </trkpt>
                    <trkpt lat="54.47564166666667" lon="9.852689999999999">
                        <ele>0</ele>
                        <time>2022-08-18T22:12:14Z</time>
                        <extensions>
    <sog>0.0</sog>
</extensions>
                    </trkpt>
                    <trkpt lat="54.47563666666667" lon="9.852701666666666">
                        <ele>0</ele>
                        <time>2022-08-18T22:18:16Z</time>
                        <extensions>
    <sog>0.0</sog>
</extensions>
                    </trkpt>
                    <trkpt lat="54.475638333333336" lon="9.852695">
                        <ele>0</ele>
                        <time>2022-08-18T22:21:14Z</time>
                        <extensions>
    <sog>0.0</sog>
</extensions>
                    </trkpt>
                    <trkpt lat="54.475638333333336" lon="9.852708333333334">
                        <ele>0</ele>
                        <time>2022-08-18T22:24:14Z</time>
                        <extensions>
    <sog>0.0</sog>
</extensions>
                    </trkpt>
                    <trkpt lat="54.47564666666666" lon="9.852708333333334">
                        <ele>0</ele>
                        <time>2022-08-18T22:30:14Z</time>
                        <extensions>
    <sog>0.0</sog>
</extensions>
                    </trkpt>
                    <trkpt lat="54.47564" lon="9.852715">
                        <ele>0</ele>
                        <time>2022-08-18T22:39:13Z</time>
                        <extensions>
    <sog>0.0</sog>
</extensions>
                    </trkpt>
                    <trkpt lat="54.47564" lon="9.852726666666666">
                        <ele>0</ele>
                        <time>2022-08-18T22:42:16Z</time>
                        <extensions>
    <sog>0.0</sog>
</extensions>
                    </trkpt>
                    <trkpt lat="54.47565833333333" lon="9.85272">
                        <ele>0</ele>
                        <time>2022-08-18T22:45:14Z</time>
                        <extensions>
    <sog>0.0</sog>
</extensions>
                    </trkpt>
                    <trkpt lat="54.47564833333333" lon="9.85271">
                        <ele>0</ele>
                        <time>2022-08-18T22:48:16Z</time>
                        <extensions>
    <sog>0.0</sog>
</extensions>
                    </trkpt>
                    <trkpt lat="54.47564166666667" lon="9.85272">
                        <ele>0</ele>
                        <time>2022-08-18T22:51:15Z</time>
                        <extensions>
    <sog>0.0</sog>
</extensions>
                    </trkpt>
                    <trkpt lat="54.475631666666665" lon="9.852706666666668">
                        <ele>0</ele>
                        <time>2022-08-18T22:57:15Z</time>
                        <extensions>
    <sog>0.0</sog>
</extensions>
                    </trkpt>
                    <trkpt lat="54.47561833333334" lon="9.852731666666667">
                        <ele>0</ele>
                        <time>2022-08-18T23:03:15Z</time>
                        <extensions>
    <sog>0.0</sog>
</extensions>
                    </trkpt>
                    <trkpt lat="54.475625" lon="9.852718333333334">
                        <ele>0</ele>
                        <time>2022-08-18T23:06:15Z</time>
                        <extensions>
    <sog>0.0</sog>
</extensions>
                    </trkpt>
                    <trkpt lat="54.47560166666666" lon="9.852725">
                        <ele>0</ele>
                        <time>2022-08-18T23:15:16Z</time>
                        <extensions>
    <sog>0.0</sog>
</extensions>
                    </trkpt>
                    <trkpt lat="54.47560333333333" lon="9.85272">
                        <ele>0</ele>
                        <time>2022-08-18T23:18:16Z</time>
                        <extensions>
    <sog>0.0</sog>
</extensions>
                    </trkpt>
                    <trkpt lat="54.47560166666666" lon="9.852718333333334">
                        <ele>0</ele>
                        <time>2022-08-18T23:27:13Z</time>
                        <extensions>
    <sog>0.0</sog>
</extensions>
                    </trkpt>
                    <trkpt lat="54.475615" lon="9.852713333333332">
                        <ele>0</ele>
                        <time>2022-08-18T23:30:14Z</time>
                        <extensions>
    <sog>0.0</sog>
</extensions>
                    </trkpt>
                    <trkpt lat="54.475605" lon="9.852716666666668">
                        <ele>0</ele>
                        <time>2022-08-18T23:33:12Z</time>
                        <extensions>
    <sog>0.0</sog>
</extensions>
                    </trkpt>
                    <trkpt lat="54.47559666666667" lon="9.852708333333334">
                        <ele>0</ele>
                        <time>2022-08-18T23:36:13Z</time>
                        <extensions>
    <sog>0.0</sog>
</extensions>
                    </trkpt>
                    <trkpt lat="54.47558166666667" lon="9.852718333333334">
                        <ele>0</ele>
                        <time>2022-08-18T23:42:15Z</time>
                        <extensions>
    <sog>0.0</sog>
</extensions>
                    </trkpt>
                    <trkpt lat="54.47558166666667" lon="9.85271">
                        <ele>0</ele>
                        <time>2022-08-18T23:45:12Z</time>
                        <extensions>
    <sog>0.0</sog>
</extensions>
                    </trkpt>
                    <trkpt lat="54.475608333333334" lon="9.852706666666668">
                        <ele>0</ele>
                        <time>2022-08-18T23:54:13Z</time>
                        <extensions>
    <sog>0.0</sog>
</extensions>
                    </trkpt>
                    <trkpt lat="54.47558333333333" lon="9.852716666666668">
                        <ele>0</ele>
                        <time>2022-08-18T23:57:16Z</time>
                        <extensions>
    <sog>0.0</sog>
</extensions>
                    </trkpt>
                    </trkseg>
                </trk>
</gpx>