<?xml version="1.0" encoding="UTF-8"?>
<gpx version="1.1" creator="AIS-to-GPX Converter" xmlns="http://www.topografix.com/GPX/1/1">
                <trk>
                    <name>anon0370</name>
                    <trkseg>
                                            <trkpt lat="54.39948833333334" lon="10.21289">
                        <ele>0</ele>
                        <time>2022-08-18T06:19:36Z</time>
                        <extensions>
    <sog>0.0</sog>
</extensions>
                    </trkpt>
                    <trkpt lat="54.399475" lon="10.212906666666667">
                        <ele>0</ele>
                        <time>2022-08-18T06:23:03Z</time>
                        <extensions>
    <sog>0.0</sog>
</extensions>
                    </trkpt>
                    <trkpt lat="54.399483333333336" lon="10.212893333333334">
                        <ele>0</ele>
                        <time>2022-08-18T06:26:02Z</time>
                        <extensions>
    <sog>0.0</sog>
</extensions>
                    </trkpt>
                    <trkpt lat="54.399478333333334" lon="10.212891666666668">
                        <ele>0</ele>
                        <time>2022-08-18T06:29:03Z</time>
                        <extensions>
    <sog>0.0</sog>
</extensions>
                    </trkpt>
                    <trkpt lat="54.399483333333336" lon="10.212893333333334">
                        <ele>0</ele>
                        <time>2022-08-18T06:35:02Z</time>
                        <extensions>
    <sog>0.0</sog>
</extensions>
                    </trkpt>
                    <trkpt lat="54.39946833333333" lon="10.212913333333335">
                        <ele>0</ele>
                        <time>2022-08-18T06:41:03Z</time>
                        <extensions>
    <sog>0.0</sog>
</extensions>
                    </trkpt>
                    <trkpt lat="54.39948166666667" lon="10.212888333333332">
                        <ele>0</ele>
                        <time>2022-08-18T06:50:04Z</time>
                        <extensions>
    <sog>0.0</sog>
</extensions>
                    </trkpt>
                    <trkpt lat="54.399480000000004" lon="10.212881666666668">
                        <ele>0</ele>
                        <time>2022-08-18T06:53:02Z</time>
                        <extensions>
    <sog>0.0</sog>
</extensions>
                    </trkpt>
                    <trkpt lat="54.39948166666667" lon="10.2129">
                        <ele>0</ele>
                        <time>2022-08-18T07:05:04Z</time>
                        <extensions>
    <sog>0.0</sog>
</extensions>
                    </trkpt>
                    <trkpt lat="54.39948166666667" lon="10.212886666666666">
                        <ele>0</ele>
                        <time>2022-08-18T07:11:02Z</time>
                        <extensions>
    <sog>0.0</sog>
</extensions>
                    </trkpt>
                    <trkpt lat="54.39967166666667" lon="10.212815">
                        <ele>0</ele>
                        <time>2022-08-18T07:17:03Z</time>
                                                <extensions>
                            <sog>0.2</sog>
<cog>305.3</cog>
                        </extensions>
                    </trkpt>
                    <trkpt lat="54.40114833333334" lon="10.212815">
                        <ele>0</ele>
                        <time>2022-08-18T07:20:59Z</time>
                                                <extensions>
                            <sog>2.8</sog>
<cog>60.0</cog>
                        </extensions>
                    </trkpt>
                    <trkpt lat="54.40130166666667" lon="10.213305">
                        <ele>0</ele>
                        <time>2022-08-18T07:21:28Z</time>
                                                <extensions>
                            <sog>2.0</sog>
<cog>62.9</cog>
                        </extensions>
                    </trkpt>
                    <trkpt lat="54.4016" lon="10.214398333333332">
                        <ele>0</ele>
                        <time>2022-08-18T07:23:28Z</time>
                                                <extensions>
                            <sog>2.4</sog>
<cog>69.3</cog>
                        </extensions>
                    </trkpt>
                    <trkpt lat="54.40229" lon="10.21392">
                        <ele>0</ele>
                        <time>2022-08-18T07:24:28Z</time>
                                                <extensions>
                            <sog>3.8</sog>
<cog>319.5</cog>
                        </extensions>
                    </trkpt>
                    <trkpt lat="54.403043333333336" lon="10.212494999999999">
                        <ele>0</ele>
                        <time>2022-08-18T07:25:28Z</time>
                                                <extensions>
                            <sog>4.1</sog>
<cog>306.8</cog>
                        </extensions>
                    </trkpt>
                    <trkpt lat="54.403303333333334" lon="10.21171">
                        <ele>0</ele>
                        <time>2022-08-18T07:25:58Z</time>
                                                <extensions>
                            <sog>3.9</sog>
<cog>265.0</cog>
                        </extensions>
                    </trkpt>
                    <trkpt lat="54.403101666666664" lon="10.210701666666667">
                        <ele>0</ele>
                        <time>2022-08-18T07:26:30Z</time>
                                                <extensions>
                            <sog>4.4</sog>
<cog>250.4</cog>
                        </extensions>
                    </trkpt>
                    <trkpt lat="54.40134666666667" lon="10.207143333333333">
                        <ele>0</ele>
                        <time>2022-08-18T07:27:58Z</time>
                                                <extensions>
                            <sog>8.4</sog>
<cog>227.4</cog>
                        </extensions>
                    </trkpt>
                    <trkpt lat="54.40044833333333" lon="10.205715">
                        <ele>0</ele>
                        <time>2022-08-18T07:28:28Z</time>
                                                <extensions>
                            <sog>8.5</sog>
<cog>222.5</cog>
                        </extensions>
                    </trkpt>
                    <trkpt lat="54.399570000000004" lon="10.204341666666666">
                        <ele>0</ele>
                        <time>2022-08-18T07:28:58Z</time>
                                                <extensions>
                            <sog>8.7</sog>
<cog>222.5</cog>
                        </extensions>
                    </trkpt>
                    <trkpt lat="54.39771" lon="10.201855">
                        <ele>0</ele>
                        <time>2022-08-18T07:29:58Z</time>
                                                <extensions>
                            <sog>8.5</sog>
<cog>213.4</cog>
                        </extensions>
                    </trkpt>
                    <trkpt lat="54.396656666666665" lon="10.200768333333334">
                        <ele>0</ele>
                        <time>2022-08-18T07:30:29Z</time>
                                                <extensions>
                            <sog>8.6</sog>
<cog>207.6</cog>
                        </extensions>
                    </trkpt>
                    <trkpt lat="54.39449833333333" lon="10.199015000000001">
                        <ele>0</ele>
                        <time>2022-08-18T07:31:30Z</time>
                                                <extensions>
                            <sog>8.8</sog>
<cog>202.7</cog>
                        </extensions>
                    </trkpt>
                    <trkpt lat="54.39348333333333" lon="10.19825">
                        <ele>0</ele>
                        <time>2022-08-18T07:31:58Z</time>
                                                <extensions>
                            <sog>8.5</sog>
<cog>204.3</cog>
                        </extensions>
                    </trkpt>
                    <trkpt lat="54.39244333333333" lon="10.197396666666666">
                        <ele>0</ele>
                        <time>2022-08-18T07:32:28Z</time>
                                                <extensions>
                            <sog>8.6</sog>
<cog>206.4</cog>
                        </extensions>
                    </trkpt>
                    <trkpt lat="54.391315" lon="10.196558333333334">
                        <ele>0</ele>
                        <time>2022-08-18T07:32:58Z</time>
                                                <extensions>
                            <sog>8.5</sog>
<cog>204.0</cog>
                        </extensions>
                    </trkpt>
                    <trkpt lat="54.39026666666667" lon="10.195753333333332">
                        <ele>0</ele>
                        <time>2022-08-18T07:33:28Z</time>
                                                <extensions>
                            <sog>8.7</sog>
<cog>205.1</cog>
                        </extensions>
                    </trkpt>
                    <trkpt lat="54.38921333333334" lon="10.194805">
                        <ele>0</ele>
                        <time>2022-08-18T07:33:58Z</time>
                                                <extensions>
                            <sog>8.6</sog>
<cog>212.6</cog>
                        </extensions>
                    </trkpt>
                    <trkpt lat="54.388196666666666" lon="10.193605">
                        <ele>0</ele>
                        <time>2022-08-18T07:34:28Z</time>
                                                <extensions>
                            <sog>8.3</sog>
<cog>215.3</cog>
                        </extensions>
                    </trkpt>
                    <trkpt lat="54.38726333333333" lon="10.192421666666666">
                        <ele>0</ele>
                        <time>2022-08-18T07:34:58Z</time>
                                                <extensions>
                            <sog>8.4</sog>
<cog>219.8</cog>
                        </extensions>
                    </trkpt>
                    <trkpt lat="54.38632833333334" lon="10.191106666666666">
                        <ele>0</ele>
                        <time>2022-08-18T07:35:29Z</time>
                                                <extensions>
                            <sog>8.4</sog>
<cog>219.7</cog>
                        </extensions>
                    </trkpt>
                    <trkpt lat="54.385466666666666" lon="10.189853333333334">
                        <ele>0</ele>
                        <time>2022-08-18T07:35:59Z</time>
                                                <extensions>
                            <sog>8.4</sog>
<cog>221.3</cog>
                        </extensions>
                    </trkpt>
                    <trkpt lat="54.384645" lon="10.188451666666667">
                        <ele>0</ele>
                        <time>2022-08-18T07:36:28Z</time>
                                                <extensions>
                            <sog>8.3</sog>
<cog>227.7</cog>
                        </extensions>
                    </trkpt>
                    <trkpt lat="54.383828333333334" lon="10.186976666666668">
                        <ele>0</ele>
                        <time>2022-08-18T07:36:59Z</time>
                                                <extensions>
                            <sog>8.4</sog>
<cog>228.2</cog>
                        </extensions>
                    </trkpt>
                    <trkpt lat="54.383068333333334" lon="10.185565">
                        <ele>0</ele>
                        <time>2022-08-18T07:37:28Z</time>
                                                <extensions>
                            <sog>8.3</sog>
<cog>225.4</cog>
                        </extensions>
                    </trkpt>
                    <trkpt lat="54.38227833333334" lon="10.184036666666666">
                        <ele>0</ele>
                        <time>2022-08-18T07:37:59Z</time>
                                                <extensions>
                            <sog>8.3</sog>
<cog>229.9</cog>
                        </extensions>
                    </trkpt>
                    <trkpt lat="54.38153666666666" lon="10.182621666666668">
                        <ele>0</ele>
                        <time>2022-08-18T07:38:28Z</time>
                                                <extensions>
                            <sog>8.4</sog>
<cog>227.6</cog>
                        </extensions>
                    </trkpt>
                    <trkpt lat="54.38073" lon="10.181201666666668">
                        <ele>0</ele>
                        <time>2022-08-18T07:38:58Z</time>
                                                <extensions>
                            <sog>8.4</sog>
<cog>226.2</cog>
                        </extensions>
                    </trkpt>
                    <trkpt lat="54.37992833333333" lon="10.17977">
                        <ele>0</ele>
                        <time>2022-08-18T07:39:28Z</time>
                                                <extensions>
                            <sog>8.3</sog>
<cog>225.6</cog>
                        </extensions>
                    </trkpt>
                    <trkpt lat="54.379115" lon="10.178335">
                        <ele>0</ele>
                        <time>2022-08-18T07:39:58Z</time>
                                                <extensions>
                            <sog>8.4</sog>
<cog>224.3</cog>
                        </extensions>
                    </trkpt>
                    <trkpt lat="54.378275" lon="10.176861666666667">
                        <ele>0</ele>
                        <time>2022-08-18T07:40:29Z</time>
                                                <extensions>
                            <sog>8.3</sog>
<cog>226.6</cog>
                        </extensions>
                    </trkpt>
                    <trkpt lat="54.37746166666667" lon="10.175453333333333">
                        <ele>0</ele>
                        <time>2022-08-18T07:40:59Z</time>
                                                <extensions>
                            <sog>8.2</sog>
<cog>227.3</cog>
                        </extensions>
                    </trkpt>
                    <trkpt lat="54.376695000000005" lon="10.174145000000001">
                        <ele>0</ele>
                        <time>2022-08-18T07:41:28Z</time>
                                                <extensions>
                            <sog>8.3</sog>
<cog>225.3</cog>
                        </extensions>
                    </trkpt>
                    <trkpt lat="54.37506666666666" lon="10.171296666666667">
                        <ele>0</ele>
                        <time>2022-08-18T07:42:28Z</time>
                                                <extensions>
                            <sog>8.3</sog>
<cog>225.6</cog>
                        </extensions>
                    </trkpt>
                    <trkpt lat="54.3742" lon="10.169783333333333">
                        <ele>0</ele>
                        <time>2022-08-18T07:42:59Z</time>
                                                <extensions>
                            <sog>8.4</sog>
<cog>225.9</cog>
                        </extensions>
                    </trkpt>
                    <trkpt lat="54.373365" lon="10.168315">
                        <ele>0</ele>
                        <time>2022-08-18T07:43:30Z</time>
                                                <extensions>
                            <sog>8.3</sog>
<cog>226.5</cog>
                        </extensions>
                    </trkpt>
                    <trkpt lat="54.371945" lon="10.165456666666667">
                        <ele>0</ele>
                        <time>2022-08-18T07:44:28Z</time>
                                                <extensions>
                            <sog>8.4</sog>
<cog>234.1</cog>
                        </extensions>
                    </trkpt>
                    <trkpt lat="54.37119833333334" lon="10.163871666666667">
                        <ele>0</ele>
                        <time>2022-08-18T07:44:58Z</time>
                                                <extensions>
                            <sog>8.2</sog>
<cog>231.9</cog>
                        </extensions>
                    </trkpt>
                    <trkpt lat="54.37054333333333" lon="10.16243">
                        <ele>0</ele>
                        <time>2022-08-18T07:45:28Z</time>
                                                <extensions>
                            <sog>6.6</sog>
<cog>235.4</cog>
                        </extensions>
                    </trkpt>
                    <trkpt lat="54.370055" lon="10.161256666666667">
                        <ele>0</ele>
                        <time>2022-08-18T07:45:58Z</time>
                                                <extensions>
                            <sog>6.2</sog>
<cog>234.5</cog>
                        </extensions>
                    </trkpt>
                    <trkpt lat="54.36958" lon="10.160128333333335">
                        <ele>0</ele>
                        <time>2022-08-18T07:46:28Z</time>
                                                <extensions>
                            <sog>4.4</sog>
<cog>233.5</cog>
                        </extensions>
                    </trkpt>
                    <trkpt lat="54.369263333333336" lon="10.159403333333334">
                        <ele>0</ele>
                        <time>2022-08-18T07:47:00Z</time>
                                                <extensions>
                            <sog>3.2</sog>
<cog>233.9</cog>
                        </extensions>
                    </trkpt>
                    <trkpt lat="54.369038333333336" lon="10.158864999999999">
                        <ele>0</ele>
                        <time>2022-08-18T07:47:28Z</time>
                                                <extensions>
                            <sog>2.8</sog>
<cog>234.4</cog>
                        </extensions>
                    </trkpt>
                    <trkpt lat="54.368835" lon="10.158391666666667">
                        <ele>0</ele>
                        <time>2022-08-18T07:47:58Z</time>
                                                <extensions>
                            <sog>2.0</sog>
<cog>233.3</cog>
                        </extensions>
                    </trkpt>
                    <trkpt lat="54.368695" lon="10.158051666666667">
                        <ele>0</ele>
                        <time>2022-08-18T07:48:28Z</time>
                                                <extensions>
                            <sog>1.5</sog>
<cog>234.1</cog>
                        </extensions>
                    </trkpt>
                    <trkpt lat="54.368473333333334" lon="10.157561666666668">
                        <ele>0</ele>
                        <time>2022-08-18T07:49:28Z</time>
                                                <extensions>
                            <sog>1.1</sog>
<cog>236.6</cog>
                        </extensions>
                    </trkpt>
                    <trkpt lat="54.368323333333336" lon="10.157203333333333">
                        <ele>0</ele>
                        <time>2022-08-18T07:50:28Z</time>
                                                <extensions>
                            <sog>0.8</sog>
<cog>229.2</cog>
                        </extensions>
                    </trkpt>
                    <trkpt lat="54.36822666666667" lon="10.15699">
                        <ele>0</ele>
                        <time>2022-08-18T07:50:58Z</time>
                                                <extensions>
                            <sog>1.6</sog>
<cog>261.2</cog>
                        </extensions>
                    </trkpt>
                    <trkpt lat="54.368285" lon="10.155669999999999">
                        <ele>0</ele>
                        <time>2022-08-18T07:53:58Z</time>
                                                <extensions>
                            <sog>0.6</sog>
<cog>273.4</cog>
                        </extensions>
                    </trkpt>
                    <trkpt lat="54.368298333333335" lon="10.155071666666666">
                        <ele>0</ele>
                        <time>2022-08-18T07:56:59Z</time>
                                                <extensions>
                            <sog>0.3</sog>
<cog>271.7</cog>
                        </extensions>
                    </trkpt>
                    <trkpt lat="54.368495" lon="10.152831666666666">
                        <ele>0</ele>
                        <time>2022-08-18T08:03:00Z</time>
                                                <extensions>
                            <sog>0.5</sog>
<cog>266.7</cog>
                        </extensions>
                    </trkpt>
                    <trkpt lat="54.368543333333335" lon="10.152181666666667">
                        <ele>0</ele>
                        <time>2022-08-18T08:06:01Z</time>
                                                <extensions>
                            <sog>0.4</sog>
<cog>281.5</cog>
                        </extensions>
                    </trkpt>
                    <trkpt lat="54.368566666666666" lon="10.151706666666666">
                        <ele>0</ele>
                        <time>2022-08-18T08:08:57Z</time>
                                                <extensions>
                            <sog>0.3</sog>
<cog>261.2</cog>
                        </extensions>
                    </trkpt>
                    <trkpt lat="54.36855333333333" lon="10.151376666666666">
                        <ele>0</ele>
                        <time>2022-08-18T08:11:58Z</time>
                                                <extensions>
                            <sog>0.2</sog>
<cog>271.6</cog>
                        </extensions>
                    </trkpt>
                    <trkpt lat="54.36851333333333" lon="10.151641666666666">
                        <ele>0</ele>
                        <time>2022-08-18T08:13:53Z</time>
                                                <extensions>
                            <sog>2.2</sog>
<cog>49.5</cog>
                        </extensions>
                    </trkpt>
                    <trkpt lat="54.36869" lon="10.151985">
                        <ele>0</ele>
                        <time>2022-08-18T08:14:24Z</time>
                                                <extensions>
                            <sog>1.6</sog>
<cog>51.4</cog>
                        </extensions>
                    </trkpt>
                    <trkpt lat="54.36891666666667" lon="10.152408333333334">
                        <ele>0</ele>
                        <time>2022-08-18T08:15:25Z</time>
                                                <extensions>
                            <sog>1.0</sog>
<cog>55.6</cog>
                        </extensions>
                    </trkpt>
                    <trkpt lat="54.36893666666666" lon="10.152516666666665">
                        <ele>0</ele>
                        <time>2022-08-18T08:15:54Z</time>
                                                <extensions>
                            <sog>0.1</sog>
<cog>77.8</cog>
                        </extensions>
                    </trkpt>
                    <trkpt lat="54.368939999999995" lon="10.152571666666667">
                        <ele>0</ele>
                        <time>2022-08-18T08:16:23Z</time>
                                                <extensions>
                            <sog>0.3</sog>
<cog>77.8</cog>
                        </extensions>
                    </trkpt>
                    <trkpt lat="54.368948333333336" lon="10.152628333333332">
                        <ele>0</ele>
                        <time>2022-08-18T08:16:53Z</time>
                                                <extensions>
                            <sog>0.3</sog>
<cog>131.5</cog>
                        </extensions>
                    </trkpt>
                    <trkpt lat="54.36894333333333" lon="10.152601666666667">
                        <ele>0</ele>
                        <time>2022-08-18T08:17:23Z</time>
                                                <extensions>
                            <sog>0.2</sog>
<cog>178.9</cog>
                        </extensions>
                    </trkpt>
                    <trkpt lat="54.368948333333336" lon="10.152583333333332">
                        <ele>0</ele>
                        <time>2022-08-18T08:20:24Z</time>
                                                <extensions>
                            <sog>0.1</sog>
<cog>257.4</cog>
                        </extensions>
                    </trkpt>
                    <trkpt lat="54.368950000000005" lon="10.15256">
                        <ele>0</ele>
                        <time>2022-08-18T08:23:24Z</time>
                                                <extensions>
                            <sog>0.0</sog>
<cog>257.4</cog>
                        </extensions>
                    </trkpt>
                    <trkpt lat="54.368948333333336" lon="10.152581666666666">
                        <ele>0</ele>
                        <time>2022-08-18T08:29:23Z</time>
                                                <extensions>
                            <sog>0.0</sog>
<cog>257.4</cog>
                        </extensions>
                    </trkpt>
                    <trkpt lat="54.36868666666667" lon="10.153081666666667">
                        <ele>0</ele>
                        <time>2022-08-18T08:32:19Z</time>
                                                <extensions>
                            <sog>3.6</sog>
<cog>190.1</cog>
                        </extensions>
                    </trkpt>
                    <trkpt lat="54.36817333333333" lon="10.152798333333333">
                        <ele>0</ele>
                        <time>2022-08-18T08:32:49Z</time>
                                                <extensions>
                            <sog>3.5</sog>
<cog>205.9</cog>
                        </extensions>
                    </trkpt>
                    <trkpt lat="54.367305" lon="10.152001666666667">
                        <ele>0</ele>
                        <time>2022-08-18T08:34:18Z</time>
                                                <extensions>
                            <sog>1.6</sog>
<cog>211.9</cog>
                        </extensions>
                    </trkpt>
                    <trkpt lat="54.367131666666666" lon="10.151801666666668">
                        <ele>0</ele>
                        <time>2022-08-18T08:34:49Z</time>
                                                <extensions>
                            <sog>1.4</sog>
<cog>216.9</cog>
                        </extensions>
                    </trkpt>
                    <trkpt lat="54.36694166666667" lon="10.151553333333334">
                        <ele>0</ele>
                        <time>2022-08-18T08:35:48Z</time>
                                                <extensions>
                            <sog>0.2</sog>
<cog>179.2</cog>
                        </extensions>
                    </trkpt>
                    <trkpt lat="54.36694" lon="10.151651666666668">
                        <ele>0</ele>
                        <time>2022-08-18T08:36:18Z</time>
                                                <extensions>
                            <sog>0.6</sog>
<cog>90.6</cog>
                        </extensions>
                    </trkpt>
                    <trkpt lat="54.366935" lon="10.151778333333334">
                        <ele>0</ele>
                        <time>2022-08-18T08:36:48Z</time>
                                                <extensions>
                            <sog>0.5</sog>
<cog>92.4</cog>
                        </extensions>
                    </trkpt>
                    <trkpt lat="54.36680833333333" lon="10.151993333333333">
                        <ele>0</ele>
                        <time>2022-08-18T08:42:49Z</time>
                                                <extensions>
                            <sog>0.2</sog>
<cog>138.3</cog>
                        </extensions>
                    </trkpt>
                    <trkpt lat="54.36685666666666" lon="10.151706666666666">
                        <ele>0</ele>
                        <time>2022-08-18T08:45:48Z</time>
                                                <extensions>
                            <sog>0.2</sog>
<cog>288.3</cog>
                        </extensions>
                    </trkpt>
                    <trkpt lat="54.36694166666667" lon="10.151428333333333">
                        <ele>0</ele>
                        <time>2022-08-18T08:48:50Z</time>
                                                <extensions>
                            <sog>0.2</sog>
<cog>323.7</cog>
                        </extensions>
                    </trkpt>
                    <trkpt lat="54.367084999999996" lon="10.151238333333334">
                        <ele>0</ele>
                        <time>2022-08-18T08:51:49Z</time>
                                                <extensions>
                            <sog>0.3</sog>
<cog>334.7</cog>
                        </extensions>
                    </trkpt>
                    <trkpt lat="54.36722666666667" lon="10.151006666666666">
                        <ele>0</ele>
                        <time>2022-08-18T08:54:49Z</time>
                                                <extensions>
                            <sog>0.3</sog>
<cog>244.2</cog>
                        </extensions>
                    </trkpt>
                    <trkpt lat="54.367113333333336" lon="10.150855">
                        <ele>0</ele>
                        <time>2022-08-18T08:57:49Z</time>
                                                <extensions>
                            <sog>0.1</sog>
<cog>206.1</cog>
                        </extensions>
                    </trkpt>
                    <trkpt lat="54.367156666666666" lon="10.150773333333332">
                        <ele>0</ele>
                        <time>2022-08-18T09:00:52Z</time>
                                                <extensions>
                            <sog>0.1</sog>
<cog>206.1</cog>
                        </extensions>
                    </trkpt>
                    <trkpt lat="54.367156666666666" lon="10.150773333333332">
                        <ele>0</ele>
                        <time>2022-08-18T09:00:52Z</time>
                                                <extensions>
                            <sog>0.1</sog>
<cog>206.1</cog>
                        </extensions>
                    </trkpt>
                    <trkpt lat="54.36712333333333" lon="10.150626666666666">
                        <ele>0</ele>
                        <time>2022-08-18T09:03:48Z</time>
                                                <extensions>
                            <sog>0.3</sog>
<cog>336.7</cog>
                        </extensions>
                    </trkpt>
                    <trkpt lat="54.36700666666666" lon="10.150606666666667">
                        <ele>0</ele>
                        <time>2022-08-18T09:06:48Z</time>
                                                <extensions>
                            <sog>0.3</sog>
<cog>175.8</cog>
                        </extensions>
                    </trkpt>
                    <trkpt lat="54.36696166666666" lon="10.150466666666667">
                        <ele>0</ele>
                        <time>2022-08-18T09:12:49Z</time>
                                                <extensions>
                            <sog>0.1</sog>
<cog>180.6</cog>
                        </extensions>
                    </trkpt>
                    <trkpt lat="54.366751666666666" lon="10.150386666666666">
                        <ele>0</ele>
                        <time>2022-08-18T09:18:48Z</time>
                                                <extensions>
                            <sog>0.2</sog>
<cog>192.3</cog>
                        </extensions>
                    </trkpt>
                    <trkpt lat="54.366695" lon="10.150216666666667">
                        <ele>0</ele>
                        <time>2022-08-18T09:21:48Z</time>
                                                <extensions>
                            <sog>0.2</sog>
<cog>222.5</cog>
                        </extensions>
                    </trkpt>
                    <trkpt lat="54.366636666666665" lon="10.150023333333333">
                        <ele>0</ele>
                        <time>2022-08-18T09:24:50Z</time>
                                                <extensions>
                            <sog>0.1</sog>
<cog>209.1</cog>
                        </extensions>
                    </trkpt>
                    <trkpt lat="54.366393333333335" lon="10.150255">
                        <ele>0</ele>
                        <time>2022-08-18T09:27:50Z</time>
                                                <extensions>
                            <sog>0.1</sog>
<cog>140.6</cog>
                        </extensions>
                    </trkpt>
                    <trkpt lat="54.36629666666667" lon="10.150078333333333">
                        <ele>0</ele>
                        <time>2022-08-18T09:30:48Z</time>
                                                <extensions>
                            <sog>0.4</sog>
<cog>183.9</cog>
                        </extensions>
                    </trkpt>
                    <trkpt lat="54.366076666666665" lon="10.150183333333333">
                        <ele>0</ele>
                        <time>2022-08-18T09:36:49Z</time>
                                                <extensions>
                            <sog>0.1</sog>
<cog>236.0</cog>
                        </extensions>
                    </trkpt>
                    <trkpt lat="54.366686666666666" lon="10.150353333333333">
                        <ele>0</ele>
                        <time>2022-08-18T09:42:50Z</time>
                                                <extensions>
                            <sog>0.2</sog>
<cog>251.2</cog>
                        </extensions>
                    </trkpt>
                    <trkpt lat="54.3666" lon="10.150071666666665">
                        <ele>0</ele>
                        <time>2022-08-18T09:45:48Z</time>
                                                <extensions>
                            <sog>0.3</sog>
<cog>241.9</cog>
                        </extensions>
                    </trkpt>
                    <trkpt lat="54.36687166666666" lon="10.150385">
                        <ele>0</ele>
                        <time>2022-08-18T09:48:50Z</time>
                                                <extensions>
                            <sog>0.3</sog>
<cog>352.6</cog>
                        </extensions>
                    </trkpt>
                    <trkpt lat="54.36639666666667" lon="10.150273333333333">
                        <ele>0</ele>
                        <time>2022-08-18T09:54:48Z</time>
                                                <extensions>
                            <sog>0.2</sog>
<cog>255.2</cog>
                        </extensions>
                    </trkpt>
                    <trkpt lat="54.36634333333333" lon="10.150045">
                        <ele>0</ele>
                        <time>2022-08-18T09:57:50Z</time>
                                                <extensions>
                            <sog>0.4</sog>
<cog>333.2</cog>
                        </extensions>
                    </trkpt>
                    <trkpt lat="54.366295" lon="10.150688333333333">
                        <ele>0</ele>
                        <time>2022-08-18T10:00:49Z</time>
                                                <extensions>
                            <sog>0.6</sog>
<cog>142.4</cog>
                        </extensions>
                    </trkpt>
                    <trkpt lat="54.366295" lon="10.150688333333333">
                        <ele>0</ele>
                        <time>2022-08-18T10:00:49Z</time>
                                                <extensions>
                            <sog>0.6</sog>
<cog>142.4</cog>
                        </extensions>
                    </trkpt>
                    <trkpt lat="54.366355" lon="10.150786666666667">
                        <ele>0</ele>
                        <time>2022-08-18T10:03:49Z</time>
                                                <extensions>
                            <sog>0.1</sog>
<cog>345.3</cog>
                        </extensions>
                    </trkpt>
                    <trkpt lat="54.366499999999995" lon="10.150845">
                        <ele>0</ele>
                        <time>2022-08-18T10:06:49Z</time>
                                                <extensions>
                            <sog>0.3</sog>
<cog>27.4</cog>
                        </extensions>
                    </trkpt>
                    <trkpt lat="54.36658333333333" lon="10.150721666666668">
                        <ele>0</ele>
                        <time>2022-08-18T10:09:51Z</time>
                                                <extensions>
                            <sog>0.1</sog>
<cog>258.9</cog>
                        </extensions>
                    </trkpt>
                    <trkpt lat="54.36606333333334" lon="10.150533333333334">
                        <ele>0</ele>
                        <time>2022-08-18T10:18:49Z</time>
                                                <extensions>
                            <sog>0.4</sog>
<cog>56.1</cog>
                        </extensions>
                    </trkpt>
                    <trkpt lat="54.366146666666666" lon="10.150641666666667">
                        <ele>0</ele>
                        <time>2022-08-18T10:21:50Z</time>
                                                <extensions>
                            <sog>0.1</sog>
<cog>12.0</cog>
                        </extensions>
                    </trkpt>
                    <trkpt lat="54.366054999999996" lon="10.150545">
                        <ele>0</ele>
                        <time>2022-08-18T10:24:49Z</time>
                                                <extensions>
                            <sog>0.6</sog>
<cog>99.5</cog>
                        </extensions>
                    </trkpt>
                    <trkpt lat="54.36591833333333" lon="10.150731666666667">
                        <ele>0</ele>
                        <time>2022-08-18T10:30:48Z</time>
                                                <extensions>
                            <sog>0.3</sog>
<cog>244.4</cog>
                        </extensions>
                    </trkpt>
                    <trkpt lat="54.36586666666667" lon="10.150553333333333">
                        <ele>0</ele>
                        <time>2022-08-18T10:33:48Z</time>
                                                <extensions>
                            <sog>0.3</sog>
<cog>212.5</cog>
                        </extensions>
                    </trkpt>
                    <trkpt lat="54.365784999999995" lon="10.150478333333332">
                        <ele>0</ele>
                        <time>2022-08-18T10:36:48Z</time>
                                                <extensions>
                            <sog>0.4</sog>
<cog>50.2</cog>
                        </extensions>
                    </trkpt>
                    <trkpt lat="54.365685" lon="10.150306666666667">
                        <ele>0</ele>
                        <time>2022-08-18T10:39:48Z</time>
                                                <extensions>
                            <sog>0.6</sog>
<cog>211.8</cog>
                        </extensions>
                    </trkpt>
                    <trkpt lat="54.36552666666667" lon="10.150318333333333">
                        <ele>0</ele>
                        <time>2022-08-18T10:42:49Z</time>
                                                <extensions>
                            <sog>0.1</sog>
<cog>107.0</cog>
                        </extensions>
                    </trkpt>
                    <trkpt lat="54.365535" lon="10.150535">
                        <ele>0</ele>
                        <time>2022-08-18T10:45:48Z</time>
                                                <extensions>
                            <sog>0.2</sog>
<cog>48.3</cog>
                        </extensions>
                    </trkpt>
                    <trkpt lat="54.365433333333335" lon="10.150201666666668">
                        <ele>0</ele>
                        <time>2022-08-18T10:48:48Z</time>
                                                <extensions>
                            <sog>0.5</sog>
<cog>245.6</cog>
                        </extensions>
                    </trkpt>
                    <trkpt lat="54.36534666666667" lon="10.150013333333334">
                        <ele>0</ele>
                        <time>2022-08-18T10:54:48Z</time>
                                                <extensions>
                            <sog>0.5</sog>
<cog>236.4</cog>
                        </extensions>
                    </trkpt>
                    <trkpt lat="54.36503833333334" lon="10.149283333333333">
                        <ele>0</ele>
                        <time>2022-08-18T10:57:49Z</time>
                                                <extensions>
                            <sog>0.6</sog>
<cog>230.0</cog>
                        </extensions>
                    </trkpt>
                    <trkpt lat="54.36479666666666" lon="10.148788333333332">
                        <ele>0</ele>
                        <time>2022-08-18T11:00:48Z</time>
                                                <extensions>
                            <sog>1.2</sog>
<cog>277.5</cog>
                        </extensions>
                    </trkpt>
                    <trkpt lat="54.36479666666666" lon="10.148788333333332">
                        <ele>0</ele>
                        <time>2022-08-18T11:00:48Z</time>
                                                <extensions>
                            <sog>1.2</sog>
<cog>277.5</cog>
                        </extensions>
                    </trkpt>
                    <trkpt lat="54.36485166666667" lon="10.148225">
                        <ele>0</ele>
                        <time>2022-08-18T11:01:13Z</time>
                                                <extensions>
                            <sog>3.6</sog>
<cog>280.2</cog>
                        </extensions>
                    </trkpt>
                    <trkpt lat="54.36492" lon="10.147466666666666">
                        <ele>0</ele>
                        <time>2022-08-18T11:01:45Z</time>
                                                <extensions>
                            <sog>2.5</sog>
<cog>284.3</cog>
                        </extensions>
                    </trkpt>
                    <trkpt lat="54.365053333333336" lon="10.146505">
                        <ele>0</ele>
                        <time>2022-08-18T11:02:44Z</time>
                                                <extensions>
                            <sog>2.1</sog>
<cog>284.0</cog>
                        </extensions>
                    </trkpt>
                    <trkpt lat="54.36512666666667" lon="10.145990000000001">
                        <ele>0</ele>
                        <time>2022-08-18T11:03:15Z</time>
                                                <extensions>
                            <sog>2.2</sog>
<cog>283.3</cog>
                        </extensions>
                    </trkpt>
                    <trkpt lat="54.365188333333336" lon="10.145516666666667">
                        <ele>0</ele>
                        <time>2022-08-18T11:03:43Z</time>
                                                <extensions>
                            <sog>2.3</sog>
<cog>284.0</cog>
                        </extensions>
                    </trkpt>
                    <trkpt lat="54.365275" lon="10.144888333333334">
                        <ele>0</ele>
                        <time>2022-08-18T11:04:14Z</time>
                                                <extensions>
                            <sog>3.1</sog>
<cog>281.0</cog>
                        </extensions>
                    </trkpt>
                    <trkpt lat="54.365375" lon="10.144174999999999">
                        <ele>0</ele>
                        <time>2022-08-18T11:04:44Z</time>
                                                <extensions>
                            <sog>2.7</sog>
<cog>283.8</cog>
                        </extensions>
                    </trkpt>
                    <trkpt lat="54.365455" lon="10.143646666666665">
                        <ele>0</ele>
                        <time>2022-08-18T11:05:14Z</time>
                                                <extensions>
                            <sog>1.6</sog>
<cog>289.1</cog>
                        </extensions>
                    </trkpt>
                    <trkpt lat="54.36546333333333" lon="10.14348">
                        <ele>0</ele>
                        <time>2022-08-18T11:05:45Z</time>
                                                <extensions>
                            <sog>0.3</sog>
<cog>260.4</cog>
                        </extensions>
                    </trkpt>
                    <trkpt lat="54.36548166666667" lon="10.143475">
                        <ele>0</ele>
                        <time>2022-08-18T11:06:14Z</time>
                                                <extensions>
                            <sog>0.1</sog>
<cog>347.0</cog>
                        </extensions>
                    </trkpt>
                    <trkpt lat="54.365471666666664" lon="10.143466666666665">
                        <ele>0</ele>
                        <time>2022-08-18T11:07:13Z</time>
                                                <extensions>
                            <sog>0.1</sog>
<cog>347.0</cog>
                        </extensions>
                    </trkpt>
                    <trkpt lat="54.365474999999996" lon="10.14347">
                        <ele>0</ele>
                        <time>2022-08-18T11:07:44Z</time>
                                                <extensions>
                            <sog>0.1</sog>
<cog>347.0</cog>
                        </extensions>
                    </trkpt>
                    <trkpt lat="54.36546666666666" lon="10.143475">
                        <ele>0</ele>
                        <time>2022-08-18T11:08:14Z</time>
                                                <extensions>
                            <sog>0.1</sog>
<cog>347.0</cog>
                        </extensions>
                    </trkpt>
                    <trkpt lat="54.36550666666667" lon="10.143476666666666">
                        <ele>0</ele>
                        <time>2022-08-18T11:11:14Z</time>
                                                <extensions>
                            <sog>0.1</sog>
<cog>347.0</cog>
                        </extensions>
                    </trkpt>
                    <trkpt lat="54.365498333333335" lon="10.143476666666666">
                        <ele>0</ele>
                        <time>2022-08-18T11:14:15Z</time>
                                                <extensions>
                            <sog>0.0</sog>
<cog>347.0</cog>
                        </extensions>
                    </trkpt>
                    <trkpt lat="54.365471666666664" lon="10.143485">
                        <ele>0</ele>
                        <time>2022-08-18T11:17:16Z</time>
                                                <extensions>
                            <sog>0.1</sog>
<cog>347.0</cog>
                        </extensions>
                    </trkpt>
                    <trkpt lat="54.365451666666665" lon="10.143490000000002">
                        <ele>0</ele>
                        <time>2022-08-18T11:23:13Z</time>
                                                <extensions>
                            <sog>0.0</sog>
<cog>347.0</cog>
                        </extensions>
                    </trkpt>
                    <trkpt lat="54.365495" lon="10.143475">
                        <ele>0</ele>
                        <time>2022-08-18T11:29:15Z</time>
                                                <extensions>
                            <sog>0.0</sog>
<cog>347.0</cog>
                        </extensions>
                    </trkpt>
                    <trkpt lat="54.36556666666667" lon="10.142481666666667">
                        <ele>0</ele>
                        <time>2022-08-18T11:35:44Z</time>
                                                <extensions>
                            <sog>3.8</sog>
<cog>284.3</cog>
                        </extensions>
                    </trkpt>
                    <trkpt lat="54.365675" lon="10.141585">
                        <ele>0</ele>
                        <time>2022-08-18T11:36:14Z</time>
                                                <extensions>
                            <sog>3.9</sog>
<cog>280.2</cog>
                        </extensions>
                    </trkpt>
                    <trkpt lat="54.366" lon="10.139153333333333">
                        <ele>0</ele>
                        <time>2022-08-18T11:37:13Z</time>
                                                <extensions>
                            <sog>6.8</sog>
<cog>279.3</cog>
                        </extensions>
                    </trkpt>
                    <trkpt lat="54.36618166666666" lon="10.137554999999999">
                        <ele>0</ele>
                        <time>2022-08-18T11:37:45Z</time>
                                                <extensions>
                            <sog>7.3</sog>
<cog>283.3</cog>
                        </extensions>
                    </trkpt>
                    <trkpt lat="54.366465" lon="10.135888333333332">
                        <ele>0</ele>
                        <time>2022-08-18T11:38:14Z</time>
                                                <extensions>
                            <sog>8.1</sog>
<cog>287.1</cog>
                        </extensions>
                    </trkpt>
                    <trkpt lat="54.36678666666667" lon="10.134075">
                        <ele>0</ele>
                        <time>2022-08-18T11:38:44Z</time>
                                                <extensions>
                            <sog>8.2</sog>
<cog>286.4</cog>
                        </extensions>
                    </trkpt>
                    <trkpt lat="54.36712833333333" lon="10.132218333333332">
                        <ele>0</ele>
                        <time>2022-08-18T11:39:13Z</time>
                                                <extensions>
                            <sog>8.2</sog>
<cog>287.4</cog>
                        </extensions>
                    </trkpt>
                    <trkpt lat="54.367455" lon="10.130283333333333">
                        <ele>0</ele>
                        <time>2022-08-18T11:39:44Z</time>
                                                <extensions>
                            <sog>8.2</sog>
<cog>284.1</cog>
                        </extensions>
                    </trkpt>
                    <trkpt lat="54.36768666666667" lon="10.128451666666667">
                        <ele>0</ele>
                        <time>2022-08-18T11:40:13Z</time>
                                                <extensions>
                            <sog>8.4</sog>
<cog>279.8</cog>
                        </extensions>
                    </trkpt>
                    <trkpt lat="54.36799499999999" lon="10.12657">
                        <ele>0</ele>
                        <time>2022-08-18T11:40:44Z</time>
                                                <extensions>
                            <sog>6.3</sog>
<cog>285.7</cog>
                        </extensions>
                    </trkpt>
                    <trkpt lat="54.36821666666666" lon="10.125595">
                        <ele>0</ele>
                        <time>2022-08-18T11:41:13Z</time>
                                                <extensions>
                            <sog>3.5</sog>
<cog>292.6</cog>
                        </extensions>
                    </trkpt>
                    <trkpt lat="54.36839" lon="10.124641666666667">
                        <ele>0</ele>
                        <time>2022-08-18T11:41:43Z</time>
                                                <extensions>
                            <sog>5.2</sog>
<cog>280.9</cog>
                        </extensions>
                    </trkpt>
                    <trkpt lat="54.368579999999994" lon="10.123333333333333">
                        <ele>0</ele>
                        <time>2022-08-18T11:42:14Z</time>
                                                <extensions>
                            <sog>5.6</sog>
<cog>283.9</cog>
                        </extensions>
                    </trkpt>
                    <trkpt lat="54.368995000000005" lon="10.120675">
                        <ele>0</ele>
                        <time>2022-08-18T11:43:14Z</time>
                                                <extensions>
                            <sog>7.4</sog>
<cog>291.5</cog>
                        </extensions>
                    </trkpt>
                    <trkpt lat="54.36933166666667" lon="10.118886666666667">
                        <ele>0</ele>
                        <time>2022-08-18T11:43:44Z</time>
                                                <extensions>
                            <sog>8.2</sog>
<cog>285.4</cog>
                        </extensions>
                    </trkpt>
                    <trkpt lat="54.369605" lon="10.117093333333335">
                        <ele>0</ele>
                        <time>2022-08-18T11:44:13Z</time>
                                                <extensions>
                            <sog>8.1</sog>
<cog>285.7</cog>
                        </extensions>
                    </trkpt>
                    <trkpt lat="54.369915" lon="10.115131666666667">
                        <ele>0</ele>
                        <time>2022-08-18T11:44:44Z</time>
                                                <extensions>
                            <sog>8.2</sog>
<cog>284.6</cog>
                        </extensions>
                    </trkpt>
                    <trkpt lat="54.37020166666667" lon="10.113331666666665">
                        <ele>0</ele>
                        <time>2022-08-18T11:45:13Z</time>
                                                <extensions>
                            <sog>8.1</sog>
<cog>285.4</cog>
                        </extensions>
                    </trkpt>
                    <trkpt lat="54.37083666666667" lon="10.109485000000001">
                        <ele>0</ele>
                        <time>2022-08-18T11:46:14Z</time>
                                                <extensions>
                            <sog>8.3</sog>
<cog>284.9</cog>
                        </extensions>
                    </trkpt>
                    <trkpt lat="54.371136666666665" lon="10.107656666666665">
                        <ele>0</ele>
                        <time>2022-08-18T11:46:43Z</time>
                                                <extensions>
                            <sog>8.1</sog>
<cog>286.4</cog>
                        </extensions>
                    </trkpt>
                    <trkpt lat="54.37144" lon="10.105535">
                        <ele>0</ele>
                        <time>2022-08-18T11:47:17Z</time>
                                                <extensions>
                            <sog>8.1</sog>
<cog>281.3</cog>
                        </extensions>
                    </trkpt>
                    <trkpt lat="54.37188666666667" lon="10.102121666666667">
                        <ele>0</ele>
                        <time>2022-08-18T11:48:14Z</time>
                                                <extensions>
                            <sog>8.0</sog>
<cog>285.7</cog>
                        </extensions>
                    </trkpt>
                    <trkpt lat="54.360040000000005" lon="10.05637">
                        <ele>0</ele>
                        <time>2022-08-18T12:02:14Z</time>
                                                <extensions>
                            <sog>8.0</sog>
<cog>259.9</cog>
                        </extensions>
                    </trkpt>
                    <trkpt lat="54.35969" lon="10.052456666666666">
                        <ele>0</ele>
                        <time>2022-08-18T12:03:16Z</time>
                                                <extensions>
                            <sog>8.2</sog>
<cog>260.7</cog>
                        </extensions>
                    </trkpt>
                    <trkpt lat="54.360465" lon="10.041143333333334">
                        <ele>0</ele>
                        <time>2022-08-18T12:06:13Z</time>
                                                <extensions>
                            <sog>8.0</sog>
<cog>283.8</cog>
                        </extensions>
                    </trkpt>
                    <trkpt lat="54.36088666666667" lon="10.035401666666667">
                        <ele>0</ele>
                        <time>2022-08-18T12:07:45Z</time>
                                                <extensions>
                            <sog>8.0</sog>
<cog>277.8</cog>
                        </extensions>
                    </trkpt>
                    <trkpt lat="54.36095666666667" lon="10.033645">
                        <ele>0</ele>
                        <time>2022-08-18T12:08:13Z</time>
                                                <extensions>
                            <sog>7.9</sog>
<cog>272.8</cog>
                        </extensions>
                    </trkpt>
                    <trkpt lat="54.360861666666665" lon="10.028028333333333">
                        <ele>0</ele>
                        <time>2022-08-18T12:09:43Z</time>
                                                <extensions>
                            <sog>7.9</sog>
<cog>264.4</cog>
                        </extensions>
                    </trkpt>
                    <trkpt lat="54.36073666666667" lon="10.02611">
                        <ele>0</ele>
                        <time>2022-08-18T12:10:15Z</time>
                                                <extensions>
                            <sog>7.9</sog>
<cog>262.8</cog>
                        </extensions>
                    </trkpt>
                    <trkpt lat="54.359995000000005" lon="10.020691666666666">
                        <ele>0</ele>
                        <time>2022-08-18T12:11:44Z</time>
                                                <extensions>
                            <sog>7.1</sog>
<cog>253.9</cog>
                        </extensions>
                    </trkpt>
                    <trkpt lat="54.35964833333333" lon="10.01896">
                        <ele>0</ele>
                        <time>2022-08-18T12:12:13Z</time>
                                                <extensions>
                            <sog>9.7</sog>
<cog>245.6</cog>
                        </extensions>
                    </trkpt>
                    <trkpt lat="54.358716666666666" lon="10.015546666666667">
                        <ele>0</ele>
                        <time>2022-08-18T12:13:13Z</time>
                                                <extensions>
                            <sog>7.7</sog>
<cog>243.2</cog>
                        </extensions>
                    </trkpt>
                    <trkpt lat="54.343381666666666" lon="9.97186">
                        <ele>0</ele>
                        <time>2022-08-18T12:28:13Z</time>
                                                <extensions>
                            <sog>8.1</sog>
<cog>262.2</cog>
                        </extensions>
                    </trkpt>
                    <trkpt lat="54.341816666666666" lon="9.956553333333334">
                        <ele>0</ele>
                        <time>2022-08-18T12:32:13Z</time>
                                                <extensions>
                            <sog>8.2</sog>
<cog>260.6</cog>
                        </extensions>
                    </trkpt>
                    <trkpt lat="54.34161833333334" lon="9.954536666666666">
                        <ele>0</ele>
                        <time>2022-08-18T12:32:46Z</time>
                                                <extensions>
                            <sog>8.0</sog>
<cog>261.8</cog>
                        </extensions>
                    </trkpt>
                    <trkpt lat="54.341445" lon="9.952795">
                        <ele>0</ele>
                        <time>2022-08-18T12:33:13Z</time>
                                                <extensions>
                            <sog>8.0</sog>
<cog>261.1</cog>
                        </extensions>
                    </trkpt>
                    <trkpt lat="54.341325" lon="9.950833333333332">
                        <ele>0</ele>
                        <time>2022-08-18T12:33:44Z</time>
                                                <extensions>
                            <sog>8.1</sog>
<cog>264.2</cog>
                        </extensions>
                    </trkpt>
                    <trkpt lat="54.34103833333334" lon="9.945045">
                        <ele>0</ele>
                        <time>2022-08-18T12:35:15Z</time>
                                                <extensions>
                            <sog>8.2</sog>
<cog>264.8</cog>
                        </extensions>
                    </trkpt>
                    <trkpt lat="54.34095166666667" lon="9.943125">
                        <ele>0</ele>
                        <time>2022-08-18T12:35:45Z</time>
                                                <extensions>
                            <sog>8.1</sog>
<cog>269.0</cog>
                        </extensions>
                    </trkpt>
                    <trkpt lat="54.34101" lon="9.939281666666666">
                        <ele>0</ele>
                        <time>2022-08-18T12:36:44Z</time>
                                                <extensions>
                            <sog>8.2</sog>
<cog>273.9</cog>
                        </extensions>
                    </trkpt>
                    <trkpt lat="54.34112666666667" lon="9.937398333333334">
                        <ele>0</ele>
                        <time>2022-08-18T12:37:13Z</time>
                                                <extensions>
                            <sog>8.3</sog>
<cog>276.0</cog>
                        </extensions>
                    </trkpt>
                    <trkpt lat="54.341985" lon="9.92976">
                        <ele>0</ele>
                        <time>2022-08-18T12:39:14Z</time>
                                                <extensions>
                            <sog>8.0</sog>
<cog>286.4</cog>
                        </extensions>
                    </trkpt>
                    </trkseg>
                </trk>
</gpx>