<?xml version="1.0" encoding="UTF-8"?>
<gpx version="1.1" creator="AIS-to-GPX Converter" xmlns="http://www.topografix.com/GPX/1/1">
                <trk>
                    <name>anon0475</name>
                    <trkseg>
                                            <trkpt lat="53.87438833333333" lon="8.725846666666666">
                        <ele>0</ele>
                        <time>2022-08-18T00:20:58Z</time>
                                                <extensions>
                            <sog>9.2</sog>
<cog>322.3</cog>
                        </extensions>
                    </trkpt>
                    </trkseg>
                </trk>
</gpx>