<?xml version="1.0" encoding="UTF-8"?>
<gpx version="1.1" creator="AIS-to-GPX Converter" xmlns="http://www.topografix.com/GPX/1/1">
                <trk>
                    <name>anon0353</name>
                    <trkseg>
                                            <trkpt lat="54.6002" lon="11.289266666666666">
                        <ele>0</ele>
                        <time>2022-08-18T03:28:42Z</time>
                                                <extensions>
                            <sog>13.4</sog>
<cog>206.2</cog>
                        </extensions>
                    </trkpt>
                    <trkpt lat="54.58388333333333" lon="11.276066666666667">
                        <ele>0</ele>
                        <time>2022-08-18T03:33:32Z</time>
                                                <extensions>
                            <sog>13.4</sog>
<cog>204.4</cog>
                        </extensions>
                    </trkpt>
                    </trkseg>
                </trk>
</gpx>