<?xml version="1.0" encoding="UTF-8"?>
<gpx version="1.1" creator="AIS-to-GPX Converter" xmlns="http://www.topografix.com/GPX/1/1">
                <trk>
                    <name>anon0490</name>
                    <trkseg>
                                            <trkpt lat="54.734383333333334" lon="10.880483333333332">
                        <ele>0</ele>
                        <time>2022-08-18T05:37:19Z</time>
                                                <extensions>
                            <sog>17.0</sog>
<cog>357.0</cog>
                        </extensions>
                    </trkpt>
                    <trkpt lat="54.73461666666667" lon="10.880466666666667">
                        <ele>0</ele>
                        <time>2022-08-18T05:37:23Z</time>
                                                <extensions>
                            <sog>17.1</sog>
<cog>357.0</cog>
                        </extensions>
                    </trkpt>
                    <trkpt lat="54.73524999999999" lon="10.88045">
                        <ele>0</ele>
                        <time>2022-08-18T05:37:30Z</time>
                                                <extensions>
                            <sog>17.2</sog>
<cog>358.0</cog>
                        </extensions>
                    </trkpt>
                    <trkpt lat="54.73558333333334" lon="10.88045">
                        <ele>0</ele>
                        <time>2022-08-18T05:37:35Z</time>
                                                <extensions>
                            <sog>17.3</sog>
<cog>359.0</cog>
                        </extensions>
                    </trkpt>
                    <trkpt lat="54.73766666666667" lon="10.880500000000001">
                        <ele>0</ele>
                        <time>2022-08-18T05:38:00Z</time>
                                                <extensions>
                            <sog>17.3</sog>
<cog>0.0</cog>
                        </extensions>
                    </trkpt>
                    <trkpt lat="54.740233333333336" lon="10.880416666666667">
                        <ele>0</ele>
                        <time>2022-08-18T05:38:30Z</time>
                                                <extensions>
                            <sog>17.4</sog>
<cog>358.0</cog>
                        </extensions>
                    </trkpt>
                    <trkpt lat="54.742983333333335" lon="10.880066666666666">
                        <ele>0</ele>
                        <time>2022-08-18T05:39:06Z</time>
                                                <extensions>
                            <sog>16.8</sog>
<cog>355.0</cog>
                        </extensions>
                    </trkpt>
                    <trkpt lat="54.744816666666665" lon="10.879883333333334">
                        <ele>0</ele>
                        <time>2022-08-18T05:39:30Z</time>
                                                <extensions>
                            <sog>16.6</sog>
<cog>356.0</cog>
                        </extensions>
                    </trkpt>
                    <trkpt lat="54.745733333333334" lon="10.8798">
                        <ele>0</ele>
                        <time>2022-08-18T05:39:42Z</time>
                                                <extensions>
                            <sog>16.5</sog>
<cog>357.0</cog>
                        </extensions>
                    </trkpt>
                    <trkpt lat="54.74635" lon="10.879766666666665">
                        <ele>0</ele>
                        <time>2022-08-18T05:39:48Z</time>
                                                <extensions>
                            <sog>16.5</sog>
<cog>357.0</cog>
                        </extensions>
                    </trkpt>
                    <trkpt lat="54.74665" lon="10.879733333333332">
                        <ele>0</ele>
                        <time>2022-08-18T05:39:53Z</time>
                                                <extensions>
                            <sog>16.5</sog>
<cog>357.0</cog>
                        </extensions>
                    </trkpt>
                    <trkpt lat="54.74726666666666" lon="10.879683333333332">
                        <ele>0</ele>
                        <time>2022-08-18T05:40:00Z</time>
                                                <extensions>
                            <sog>16.6</sog>
<cog>357.0</cog>
                        </extensions>
                    </trkpt>
                    <trkpt lat="54.74818333333334" lon="10.8796">
                        <ele>0</ele>
                        <time>2022-08-18T05:40:12Z</time>
                                                <extensions>
                            <sog>16.7</sog>
<cog>356.0</cog>
                        </extensions>
                    </trkpt>
                    <trkpt lat="54.7485" lon="10.879566666666667">
                        <ele>0</ele>
                        <time>2022-08-18T05:40:19Z</time>
                                                <extensions>
                            <sog>16.7</sog>
<cog>356.0</cog>
                        </extensions>
                    </trkpt>
                    <trkpt lat="54.74975" lon="10.87945">
                        <ele>0</ele>
                        <time>2022-08-18T05:40:35Z</time>
                                                <extensions>
                            <sog>17.0</sog>
<cog>356.0</cog>
                        </extensions>
                    </trkpt>
                    <trkpt lat="54.75038333333334" lon="10.879383333333333">
                        <ele>0</ele>
                        <time>2022-08-18T05:40:42Z</time>
                                                <extensions>
                            <sog>17.0</sog>
<cog>357.0</cog>
                        </extensions>
                    </trkpt>
                    <trkpt lat="54.75266666666666" lon="10.879233333333334">
                        <ele>0</ele>
                        <time>2022-08-18T05:41:12Z</time>
                                                <extensions>
                            <sog>17.1</sog>
<cog>357.0</cog>
                        </extensions>
                    </trkpt>
                    <trkpt lat="54.756150000000005" lon="10.878916666666667">
                        <ele>0</ele>
                        <time>2022-08-18T05:41:54Z</time>
                                                <extensions>
                            <sog>17.0</sog>
<cog>356.0</cog>
                        </extensions>
                    </trkpt>
                    <trkpt lat="54.758633333333336" lon="10.878633333333333">
                        <ele>0</ele>
                        <time>2022-08-18T05:42:24Z</time>
                                                <extensions>
                            <sog>16.8</sog>
<cog>356.0</cog>
                        </extensions>
                    </trkpt>
                    <trkpt lat="54.7626" lon="10.878366666666667">
                        <ele>0</ele>
                        <time>2022-08-18T05:43:18Z</time>
                                                <extensions>
                            <sog>16.8</sog>
<cog>357.0</cog>
                        </extensions>
                    </trkpt>
                    <trkpt lat="54.765049999999995" lon="10.8781">
                        <ele>0</ele>
                        <time>2022-08-18T05:43:47Z</time>
                                                <extensions>
                            <sog>16.5</sog>
<cog>355.0</cog>
                        </extensions>
                    </trkpt>
                    <trkpt lat="54.76766666666666" lon="10.8776">
                        <ele>0</ele>
                        <time>2022-08-18T05:44:24Z</time>
                                                <extensions>
                            <sog>16.1</sog>
<cog>353.0</cog>
                        </extensions>
                    </trkpt>
                    <trkpt lat="54.769016666666666" lon="10.877366666666667">
                        <ele>0</ele>
                        <time>2022-08-18T05:44:42Z</time>
                                                <extensions>
                            <sog>16.1</sog>
<cog>354.0</cog>
                        </extensions>
                    </trkpt>
                    <trkpt lat="54.7699" lon="10.877283333333333">
                        <ele>0</ele>
                        <time>2022-08-18T05:44:54Z</time>
                                                <extensions>
                            <sog>16.2</sog>
<cog>355.0</cog>
                        </extensions>
                    </trkpt>
                    <trkpt lat="54.775416666666665" lon="10.876616666666667">
                        <ele>0</ele>
                        <time>2022-08-18T05:46:06Z</time>
                                                <extensions>
                            <sog>16.7</sog>
<cog>358.0</cog>
                        </extensions>
                    </trkpt>
                    <trkpt lat="54.77633333333333" lon="10.8766">
                        <ele>0</ele>
                        <time>2022-08-18T05:46:18Z</time>
                                                <extensions>
                            <sog>16.5</sog>
<cog>358.0</cog>
                        </extensions>
                    </trkpt>
                    <trkpt lat="54.77693333333333" lon="10.876566666666667">
                        <ele>0</ele>
                        <time>2022-08-18T05:46:24Z</time>
                                                <extensions>
                            <sog>16.5</sog>
<cog>358.0</cog>
                        </extensions>
                    </trkpt>
                    <trkpt lat="54.77755" lon="10.876533333333333">
                        <ele>0</ele>
                        <time>2022-08-18T05:46:36Z</time>
                                                <extensions>
                            <sog>16.4</sog>
<cog>358.0</cog>
                        </extensions>
                    </trkpt>
                    <trkpt lat="54.78185" lon="10.876149999999999">
                        <ele>0</ele>
                        <time>2022-08-18T05:47:31Z</time>
                                                <extensions>
                            <sog>16.8</sog>
<cog>357.0</cog>
                        </extensions>
                    </trkpt>
                    <trkpt lat="54.7827" lon="10.876066666666667">
                        <ele>0</ele>
                        <time>2022-08-18T05:47:42Z</time>
                                                <extensions>
                            <sog>16.8</sog>
<cog>356.0</cog>
                        </extensions>
                    </trkpt>
                    <trkpt lat="54.783649999999994" lon="10.875966666666667">
                        <ele>0</ele>
                        <time>2022-08-18T05:47:54Z</time>
                                                <extensions>
                            <sog>16.9</sog>
<cog>356.0</cog>
                        </extensions>
                    </trkpt>
                    <trkpt lat="54.78473333333333" lon="10.875850000000002">
                        <ele>0</ele>
                        <time>2022-08-18T05:48:06Z</time>
                                                <extensions>
                            <sog>16.9</sog>
<cog>356.0</cog>
                        </extensions>
                    </trkpt>
                    <trkpt lat="54.78665" lon="10.875666666666666">
                        <ele>0</ele>
                        <time>2022-08-18T05:48:30Z</time>
                                                <extensions>
                            <sog>16.9</sog>
<cog>356.0</cog>
                        </extensions>
                    </trkpt>
                    <trkpt lat="54.791216666666664" lon="10.875116666666665">
                        <ele>0</ele>
                        <time>2022-08-18T05:49:30Z</time>
                                                <extensions>
                            <sog>16.9</sog>
<cog>355.0</cog>
                        </extensions>
                    </trkpt>
                    <trkpt lat="54.79245" lon="10.87495">
                        <ele>0</ele>
                        <time>2022-08-18T05:49:47Z</time>
                                                <extensions>
                            <sog>16.8</sog>
<cog>355.0</cog>
                        </extensions>
                    </trkpt>
                    <trkpt lat="54.79495" lon="10.874716666666666">
                        <ele>0</ele>
                        <time>2022-08-18T05:50:17Z</time>
                                                <extensions>
                            <sog>16.8</sog>
<cog>357.0</cog>
                        </extensions>
                    </trkpt>
                    <trkpt lat="54.795883333333336" lon="10.87465">
                        <ele>0</ele>
                        <time>2022-08-18T05:50:30Z</time>
                                                <extensions>
                            <sog>16.9</sog>
<cog>357.0</cog>
                        </extensions>
                    </trkpt>
                    <trkpt lat="54.797133333333335" lon="10.87455">
                        <ele>0</ele>
                        <time>2022-08-18T05:50:47Z</time>
                                                <extensions>
                            <sog>16.9</sog>
<cog>357.0</cog>
                        </extensions>
                    </trkpt>
                    <trkpt lat="54.79774999999999" lon="10.874500000000001">
                        <ele>0</ele>
                        <time>2022-08-18T05:50:54Z</time>
                                                <extensions>
                            <sog>16.8</sog>
<cog>357.0</cog>
                        </extensions>
                    </trkpt>
                    <trkpt lat="54.79858333333333" lon="10.874416666666667">
                        <ele>0</ele>
                        <time>2022-08-18T05:51:05Z</time>
                                                <extensions>
                            <sog>16.8</sog>
<cog>356.0</cog>
                        </extensions>
                    </trkpt>
                    <trkpt lat="54.80055" lon="10.874216666666666">
                        <ele>0</ele>
                        <time>2022-08-18T05:51:30Z</time>
                                                <extensions>
                            <sog>16.8</sog>
<cog>356.0</cog>
                        </extensions>
                    </trkpt>
                    <trkpt lat="54.80085" lon="10.874166666666667">
                        <ele>0</ele>
                        <time>2022-08-18T05:51:36Z</time>
                                                <extensions>
                            <sog>16.8</sog>
<cog>356.0</cog>
                        </extensions>
                    </trkpt>
                    <trkpt lat="54.80181666666667" lon="10.87405">
                        <ele>0</ele>
                        <time>2022-08-18T05:51:47Z</time>
                                                <extensions>
                            <sog>16.7</sog>
<cog>355.0</cog>
                        </extensions>
                    </trkpt>
                    <trkpt lat="54.80246666666667" lon="10.873966666666666">
                        <ele>0</ele>
                        <time>2022-08-18T05:51:54Z</time>
                                                <extensions>
                            <sog>16.7</sog>
<cog>355.0</cog>
                        </extensions>
                    </trkpt>
                    <trkpt lat="54.80616666666666" lon="10.87345">
                        <ele>0</ele>
                        <time>2022-08-18T05:52:42Z</time>
                                                <extensions>
                            <sog>16.6</sog>
<cog>356.0</cog>
                        </extensions>
                    </trkpt>
                    <trkpt lat="54.80886666666667" lon="10.87325">
                        <ele>0</ele>
                        <time>2022-08-18T05:53:17Z</time>
                                                <extensions>
                            <sog>16.8</sog>
<cog>357.0</cog>
                        </extensions>
                    </trkpt>
                    <trkpt lat="54.8098" lon="10.8732">
                        <ele>0</ele>
                        <time>2022-08-18T05:53:29Z</time>
                                                <extensions>
                            <sog>16.7</sog>
<cog>358.0</cog>
                        </extensions>
                    </trkpt>
                    <trkpt lat="54.81165" lon="10.8732">
                        <ele>0</ele>
                        <time>2022-08-18T05:53:54Z</time>
                                                <extensions>
                            <sog>16.7</sog>
<cog>359.0</cog>
                        </extensions>
                    </trkpt>
                    <trkpt lat="54.812266666666666" lon="10.873183333333333">
                        <ele>0</ele>
                        <time>2022-08-18T05:54:00Z</time>
                                                <extensions>
                            <sog>16.7</sog>
<cog>359.0</cog>
                        </extensions>
                    </trkpt>
                    <trkpt lat="54.81445" lon="10.87315">
                        <ele>0</ele>
                        <time>2022-08-18T05:54:29Z</time>
                                                <extensions>
                            <sog>16.8</sog>
<cog>359.0</cog>
                        </extensions>
                    </trkpt>
                    <trkpt lat="54.81498333333333" lon="10.873133333333334">
                        <ele>0</ele>
                        <time>2022-08-18T05:54:36Z</time>
                                                <extensions>
                            <sog>16.8</sog>
<cog>359.0</cog>
                        </extensions>
                    </trkpt>
                    <trkpt lat="54.8153" lon="10.873133333333334">
                        <ele>0</ele>
                        <time>2022-08-18T05:54:41Z</time>
                                                <extensions>
                            <sog>16.8</sog>
<cog>359.0</cog>
                        </extensions>
                    </trkpt>
                    <trkpt lat="54.815933333333334" lon="10.873099999999999">
                        <ele>0</ele>
                        <time>2022-08-18T05:54:48Z</time>
                                                <extensions>
                            <sog>16.8</sog>
<cog>359.0</cog>
                        </extensions>
                    </trkpt>
                    <trkpt lat="54.8164" lon="10.873099999999999">
                        <ele>0</ele>
                        <time>2022-08-18T05:54:53Z</time>
                                                <extensions>
                            <sog>16.8</sog>
<cog>0.0</cog>
                        </extensions>
                    </trkpt>
                    <trkpt lat="54.81733333333333" lon="10.873099999999999">
                        <ele>0</ele>
                        <time>2022-08-18T05:55:06Z</time>
                                                <extensions>
                            <sog>16.8</sog>
<cog>0.0</cog>
                        </extensions>
                    </trkpt>
                    <trkpt lat="54.81765" lon="10.873099999999999">
                        <ele>0</ele>
                        <time>2022-08-18T05:55:12Z</time>
                                                <extensions>
                            <sog>16.8</sog>
<cog>0.0</cog>
                        </extensions>
                    </trkpt>
                    <trkpt lat="54.818266666666666" lon="10.873099999999999">
                        <ele>0</ele>
                        <time>2022-08-18T05:55:17Z</time>
                                                <extensions>
                            <sog>16.8</sog>
<cog>0.0</cog>
                        </extensions>
                    </trkpt>
                    <trkpt lat="54.81858333333333" lon="10.873099999999999">
                        <ele>0</ele>
                        <time>2022-08-18T05:55:23Z</time>
                                                <extensions>
                            <sog>16.8</sog>
<cog>0.0</cog>
                        </extensions>
                    </trkpt>
                    <trkpt lat="54.820116666666664" lon="10.873099999999999">
                        <ele>0</ele>
                        <time>2022-08-18T05:55:41Z</time>
                                                <extensions>
                            <sog>16.7</sog>
<cog>359.0</cog>
                        </extensions>
                    </trkpt>
                    <trkpt lat="54.82105" lon="10.873083333333334">
                        <ele>0</ele>
                        <time>2022-08-18T05:55:53Z</time>
                                                <extensions>
                            <sog>16.6</sog>
<cog>359.0</cog>
                        </extensions>
                    </trkpt>
                    <trkpt lat="54.824616666666664" lon="10.872883333333334">
                        <ele>0</ele>
                        <time>2022-08-18T05:56:41Z</time>
                                                <extensions>
                            <sog>16.5</sog>
<cog>357.0</cog>
                        </extensions>
                    </trkpt>
                    <trkpt lat="54.8249" lon="10.872866666666665">
                        <ele>0</ele>
                        <time>2022-08-18T05:56:48Z</time>
                                                <extensions>
                            <sog>16.5</sog>
<cog>357.0</cog>
                        </extensions>
                    </trkpt>
                    <trkpt lat="54.825466666666664" lon="10.872833333333334">
                        <ele>0</ele>
                        <time>2022-08-18T05:56:53Z</time>
                                                <extensions>
                            <sog>16.5</sog>
<cog>357.0</cog>
                        </extensions>
                    </trkpt>
                    <trkpt lat="54.82726666666667" lon="10.872683333333333">
                        <ele>0</ele>
                        <time>2022-08-18T05:57:18Z</time>
                                                <extensions>
                            <sog>16.4</sog>
<cog>357.0</cog>
                        </extensions>
                    </trkpt>
                    <trkpt lat="54.827866666666665" lon="10.872633333333333">
                        <ele>0</ele>
                        <time>2022-08-18T05:57:23Z</time>
                                                <extensions>
                            <sog>16.4</sog>
<cog>357.0</cog>
                        </extensions>
                    </trkpt>
                    <trkpt lat="54.82818333333333" lon="10.872616666666666">
                        <ele>0</ele>
                        <time>2022-08-18T05:57:29Z</time>
                                                <extensions>
                            <sog>16.4</sog>
<cog>357.0</cog>
                        </extensions>
                    </trkpt>
                    <trkpt lat="54.828783333333334" lon="10.872616666666666">
                        <ele>0</ele>
                        <time>2022-08-18T05:57:36Z</time>
                                                <extensions>
                            <sog>16.4</sog>
<cog>359.0</cog>
                        </extensions>
                    </trkpt>
                    <trkpt lat="54.8314" lon="10.872883333333334">
                        <ele>0</ele>
                        <time>2022-08-18T05:58:12Z</time>
                                                <extensions>
                            <sog>16.1</sog>
<cog>4.0</cog>
                        </extensions>
                    </trkpt>
                    <trkpt lat="54.83213333333333" lon="10.873033333333332">
                        <ele>0</ele>
                        <time>2022-08-18T05:58:24Z</time>
                                                <extensions>
                            <sog>16.0</sog>
<cog>6.0</cog>
                        </extensions>
                    </trkpt>
                    <trkpt lat="54.83271666666667" lon="10.873166666666666">
                        <ele>0</ele>
                        <time>2022-08-18T05:58:29Z</time>
                                                <extensions>
                            <sog>16.0</sog>
<cog>6.0</cog>
                        </extensions>
                    </trkpt>
                    <trkpt lat="54.841833333333334" lon="10.876216666666666">
                        <ele>0</ele>
                        <time>2022-08-18T06:00:36Z</time>
                                                <extensions>
                            <sog>16.2</sog>
<cog>12.0</cog>
                        </extensions>
                    </trkpt>
                    <trkpt lat="54.841833333333334" lon="10.876216666666666">
                        <ele>0</ele>
                        <time>2022-08-18T06:00:36Z</time>
                                                <extensions>
                            <sog>16.2</sog>
<cog>12.0</cog>
                        </extensions>
                    </trkpt>
                    </trkseg>
                </trk>
</gpx>