<?xml version="1.0" encoding="UTF-8"?>
<gpx version="1.1" creator="AIS-to-GPX Converter" xmlns="http://www.topografix.com/GPX/1/1">
                <trk>
                    <name>anon0205</name>
                    <trkseg>
                                            <trkpt lat="54.400191666666665" lon="10.214143333333334">
                        <ele>0</ele>
                        <time>2022-08-18T00:04:08Z</time>
                                                <extensions>
                            <sog>0.1</sog>
<cog>21.2</cog>
                        </extensions>
                    </trkpt>
                    <trkpt lat="54.400200000000005" lon="10.214146666666666">
                        <ele>0</ele>
                        <time>2022-08-18T00:07:09Z</time>
                                                <extensions>
                            <sog>0.1</sog>
<cog>11.2</cog>
                        </extensions>
                    </trkpt>
                    <trkpt lat="54.400195000000004" lon="10.214131666666667">
                        <ele>0</ele>
                        <time>2022-08-18T00:13:13Z</time>
                                                <extensions>
                            <sog>0.1</sog>
<cog>30.5</cog>
                        </extensions>
                    </trkpt>
                    <trkpt lat="54.40030333333333" lon="10.21417">
                        <ele>0</ele>
                        <time>2022-08-18T00:16:11Z</time>
                                                <extensions>
                            <sog>0.0</sog>
<cog>54.2</cog>
                        </extensions>
                    </trkpt>
                    <trkpt lat="54.400305" lon="10.214198333333334">
                        <ele>0</ele>
                        <time>2022-08-18T00:22:08Z</time>
                                                <extensions>
                            <sog>0.2</sog>
<cog>355.8</cog>
                        </extensions>
                    </trkpt>
                    <trkpt lat="54.40025666666667" lon="10.214161666666666">
                        <ele>0</ele>
                        <time>2022-08-18T00:31:08Z</time>
                                                <extensions>
                            <sog>0.1</sog>
<cog>354.7</cog>
                        </extensions>
                    </trkpt>
                    <trkpt lat="54.400234999999995" lon="10.21415">
                        <ele>0</ele>
                        <time>2022-08-18T00:34:09Z</time>
                                                <extensions>
                            <sog>0.1</sog>
<cog>7.8</cog>
                        </extensions>
                    </trkpt>
                    <trkpt lat="54.400198333333336" lon="10.214135">
                        <ele>0</ele>
                        <time>2022-08-18T00:40:10Z</time>
                                                <extensions>
                            <sog>0.0</sog>
<cog>327.9</cog>
                        </extensions>
                    </trkpt>
                    <trkpt lat="54.400191666666665" lon="10.214135">
                        <ele>0</ele>
                        <time>2022-08-18T00:43:09Z</time>
                                                <extensions>
                            <sog>0.0</sog>
<cog>355.6</cog>
                        </extensions>
                    </trkpt>
                    <trkpt lat="54.40022" lon="10.21413">
                        <ele>0</ele>
                        <time>2022-08-18T00:46:08Z</time>
                                                <extensions>
                            <sog>0.0</sog>
<cog>358.3</cog>
                        </extensions>
                    </trkpt>
                    <trkpt lat="54.400215" lon="10.214120000000001">
                        <ele>0</ele>
                        <time>2022-08-18T00:49:11Z</time>
                                                <extensions>
                            <sog>0.0</sog>
<cog>4.8</cog>
                        </extensions>
                    </trkpt>
                    <trkpt lat="54.40018833333333" lon="10.21413">
                        <ele>0</ele>
                        <time>2022-08-18T00:52:08Z</time>
                                                <extensions>
                            <sog>0.0</sog>
<cog>189.8</cog>
                        </extensions>
                    </trkpt>
                    <trkpt lat="54.40020666666667" lon="10.214106666666668">
                        <ele>0</ele>
                        <time>2022-08-18T00:55:09Z</time>
                                                <extensions>
                            <sog>0.0</sog>
<cog>357.4</cog>
                        </extensions>
                    </trkpt>
                    <trkpt lat="54.400205" lon="10.214121666666667">
                        <ele>0</ele>
                        <time>2022-08-18T00:58:08Z</time>
                                                <extensions>
                            <sog>0.0</sog>
<cog>306.5</cog>
                        </extensions>
                    </trkpt>
                    <trkpt lat="54.40020333333334" lon="10.214133333333333">
                        <ele>0</ele>
                        <time>2022-08-18T01:01:11Z</time>
                                                <extensions>
                            <sog>0.0</sog>
<cog>348.7</cog>
                        </extensions>
                    </trkpt>
                    <trkpt lat="54.40021333333333" lon="10.214113333333334">
                        <ele>0</ele>
                        <time>2022-08-18T01:04:10Z</time>
                                                <extensions>
                            <sog>0.0</sog>
<cog>344.0</cog>
                        </extensions>
                    </trkpt>
                    <trkpt lat="54.400218333333335" lon="10.214111666666668">
                        <ele>0</ele>
                        <time>2022-08-18T01:07:11Z</time>
                                                <extensions>
                            <sog>0.0</sog>
<cog>9.2</cog>
                        </extensions>
                    </trkpt>
                    <trkpt lat="54.40018833333333" lon="10.214094999999999">
                        <ele>0</ele>
                        <time>2022-08-18T01:10:08Z</time>
                                                <extensions>
                            <sog>0.1</sog>
<cog>358.9</cog>
                        </extensions>
                    </trkpt>
                    <trkpt lat="54.400189999999995" lon="10.214106666666668">
                        <ele>0</ele>
                        <time>2022-08-18T01:13:09Z</time>
                                                <extensions>
                            <sog>0.0</sog>
<cog>359.4</cog>
                        </extensions>
                    </trkpt>
                    <trkpt lat="54.400215" lon="10.214096666666668">
                        <ele>0</ele>
                        <time>2022-08-18T01:19:08Z</time>
                                                <extensions>
                            <sog>0.0</sog>
<cog>342.0</cog>
                        </extensions>
                    </trkpt>
                    <trkpt lat="54.400200000000005" lon="10.21409">
                        <ele>0</ele>
                        <time>2022-08-18T01:22:09Z</time>
                                                <extensions>
                            <sog>0.1</sog>
<cog>353.4</cog>
                        </extensions>
                    </trkpt>
                    <trkpt lat="54.400198333333336" lon="10.21411">
                        <ele>0</ele>
                        <time>2022-08-18T01:28:08Z</time>
                                                <extensions>
                            <sog>0.0</sog>
<cog>120.3</cog>
                        </extensions>
                    </trkpt>
                    <trkpt lat="54.400185" lon="10.214108333333334">
                        <ele>0</ele>
                        <time>2022-08-18T01:37:08Z</time>
                                                <extensions>
                            <sog>0.0</sog>
<cog>358.6</cog>
                        </extensions>
                    </trkpt>
                    <trkpt lat="54.400216666666665" lon="10.214071666666666">
                        <ele>0</ele>
                        <time>2022-08-18T01:40:09Z</time>
                                                <extensions>
                            <sog>0.0</sog>
<cog>325.1</cog>
                        </extensions>
                    </trkpt>
                    <trkpt lat="54.40020666666667" lon="10.214125">
                        <ele>0</ele>
                        <time>2022-08-18T01:49:09Z</time>
                                                <extensions>
                            <sog>0.0</sog>
<cog>24.4</cog>
                        </extensions>
                    </trkpt>
                    <trkpt lat="54.40023" lon="10.21409">
                        <ele>0</ele>
                        <time>2022-08-18T01:52:11Z</time>
                                                <extensions>
                            <sog>0.0</sog>
<cog>12.9</cog>
                        </extensions>
                    </trkpt>
                    <trkpt lat="54.40021" lon="10.214106666666668">
                        <ele>0</ele>
                        <time>2022-08-18T01:55:10Z</time>
                                                <extensions>
                            <sog>0.0</sog>
<cog>43.4</cog>
                        </extensions>
                    </trkpt>
                    <trkpt lat="54.40020166666667" lon="10.214118333333333">
                        <ele>0</ele>
                        <time>2022-08-18T01:58:10Z</time>
                                                <extensions>
                            <sog>0.0</sog>
<cog>123.3</cog>
                        </extensions>
                    </trkpt>
                    <trkpt lat="54.400191666666665" lon="10.214135">
                        <ele>0</ele>
                        <time>2022-08-18T02:04:11Z</time>
                                                <extensions>
                            <sog>0.0</sog>
<cog>59.4</cog>
                        </extensions>
                    </trkpt>
                    <trkpt lat="54.400191666666665" lon="10.214133333333333">
                        <ele>0</ele>
                        <time>2022-08-18T02:07:12Z</time>
                                                <extensions>
                            <sog>0.0</sog>
<cog>97.9</cog>
                        </extensions>
                    </trkpt>
                    <trkpt lat="54.400189999999995" lon="10.214123333333333">
                        <ele>0</ele>
                        <time>2022-08-18T02:13:12Z</time>
                                                <extensions>
                            <sog>0.0</sog>
<cog>253.9</cog>
                        </extensions>
                    </trkpt>
                    <trkpt lat="54.40020333333334" lon="10.214123333333333">
                        <ele>0</ele>
                        <time>2022-08-18T02:16:14Z</time>
                                                <extensions>
                            <sog>0.0</sog>
<cog>22.9</cog>
                        </extensions>
                    </trkpt>
                    <trkpt lat="54.40018833333333" lon="10.214141666666666">
                        <ele>0</ele>
                        <time>2022-08-18T02:31:14Z</time>
                                                <extensions>
                            <sog>0.0</sog>
<cog>266.2</cog>
                        </extensions>
                    </trkpt>
                    <trkpt lat="54.40021166666667" lon="10.214115">
                        <ele>0</ele>
                        <time>2022-08-18T02:34:16Z</time>
                                                <extensions>
                            <sog>0.0</sog>
<cog>1.9</cog>
                        </extensions>
                    </trkpt>
                    <trkpt lat="54.400216666666665" lon="10.214125">
                        <ele>0</ele>
                        <time>2022-08-18T02:43:16Z</time>
                                                <extensions>
                            <sog>0.1</sog>
<cog>2.5</cog>
                        </extensions>
                    </trkpt>
                    <trkpt lat="54.40021" lon="10.214126666666667">
                        <ele>0</ele>
                        <time>2022-08-18T02:46:15Z</time>
                                                <extensions>
                            <sog>0.0</sog>
<cog>51.1</cog>
                        </extensions>
                    </trkpt>
                    <trkpt lat="54.40022666666667" lon="10.214118333333333">
                        <ele>0</ele>
                        <time>2022-08-18T02:49:18Z</time>
                                                <extensions>
                            <sog>0.0</sog>
<cog>2.4</cog>
                        </extensions>
                    </trkpt>
                    <trkpt lat="54.40022666666667" lon="10.214126666666667">
                        <ele>0</ele>
                        <time>2022-08-18T02:52:16Z</time>
                                                <extensions>
                            <sog>0.0</sog>
<cog>31.9</cog>
                        </extensions>
                    </trkpt>
                    <trkpt lat="54.40020833333333" lon="10.214135">
                        <ele>0</ele>
                        <time>2022-08-18T02:58:17Z</time>
                                                <extensions>
                            <sog>0.0</sog>
<cog>66.0</cog>
                        </extensions>
                    </trkpt>
                    <trkpt lat="54.40019666666667" lon="10.214143333333334">
                        <ele>0</ele>
                        <time>2022-08-18T03:01:18Z</time>
                                                <extensions>
                            <sog>0.0</sog>
<cog>117.0</cog>
                        </extensions>
                    </trkpt>
                    <trkpt lat="54.400175" lon="10.214141666666666">
                        <ele>0</ele>
                        <time>2022-08-18T03:04:17Z</time>
                                                <extensions>
                            <sog>0.0</sog>
<cog>134.0</cog>
                        </extensions>
                    </trkpt>
                    <trkpt lat="54.40020833333333" lon="10.214116666666666">
                        <ele>0</ele>
                        <time>2022-08-18T03:16:19Z</time>
                                                <extensions>
                            <sog>0.0</sog>
<cog>62.9</cog>
                        </extensions>
                    </trkpt>
                    <trkpt lat="54.400200000000005" lon="10.214138333333333">
                        <ele>0</ele>
                        <time>2022-08-18T03:19:19Z</time>
                                                <extensions>
                            <sog>0.0</sog>
<cog>74.9</cog>
                        </extensions>
                    </trkpt>
                    <trkpt lat="54.400200000000005" lon="10.214173333333333">
                        <ele>0</ele>
                        <time>2022-08-18T03:22:19Z</time>
                                                <extensions>
                            <sog>0.1</sog>
<cog>144.4</cog>
                        </extensions>
                    </trkpt>
                    <trkpt lat="54.40020666666667" lon="10.214146666666666">
                        <ele>0</ele>
                        <time>2022-08-18T03:25:19Z</time>
                                                <extensions>
                            <sog>0.1</sog>
<cog>31.3</cog>
                        </extensions>
                    </trkpt>
                    <trkpt lat="54.40022333333333" lon="10.214120000000001">
                        <ele>0</ele>
                        <time>2022-08-18T03:31:22Z</time>
                                                <extensions>
                            <sog>0.0</sog>
<cog>39.1</cog>
                        </extensions>
                    </trkpt>
                    <trkpt lat="54.400185" lon="10.214191666666666">
                        <ele>0</ele>
                        <time>2022-08-18T03:34:21Z</time>
                                                <extensions>
                            <sog>0.0</sog>
<cog>87.5</cog>
                        </extensions>
                    </trkpt>
                    <trkpt lat="54.400125" lon="10.214138333333333">
                        <ele>0</ele>
                        <time>2022-08-18T03:40:22Z</time>
                                                <extensions>
                            <sog>0.0</sog>
<cog>133.5</cog>
                        </extensions>
                    </trkpt>
                    <trkpt lat="54.400165" lon="10.214125">
                        <ele>0</ele>
                        <time>2022-08-18T03:43:24Z</time>
                                                <extensions>
                            <sog>0.0</sog>
<cog>87.4</cog>
                        </extensions>
                    </trkpt>
                    <trkpt lat="54.40017833333333" lon="10.214111666666668">
                        <ele>0</ele>
                        <time>2022-08-18T03:46:22Z</time>
                                                <extensions>
                            <sog>0.0</sog>
<cog>90.3</cog>
                        </extensions>
                    </trkpt>
                    <trkpt lat="54.40018" lon="10.214158333333334">
                        <ele>0</ele>
                        <time>2022-08-18T03:49:23Z</time>
                                                <extensions>
                            <sog>0.0</sog>
<cog>26.5</cog>
                        </extensions>
                    </trkpt>
                    <trkpt lat="54.400218333333335" lon="10.214108333333334">
                        <ele>0</ele>
                        <time>2022-08-18T03:52:23Z</time>
                                                <extensions>
                            <sog>0.1</sog>
<cog>143.9</cog>
                        </extensions>
                    </trkpt>
                    <trkpt lat="54.400191666666665" lon="10.214136666666667">
                        <ele>0</ele>
                        <time>2022-08-18T03:55:23Z</time>
                                                <extensions>
                            <sog>0.0</sog>
<cog>112.7</cog>
                        </extensions>
                    </trkpt>
                    <trkpt lat="54.400173333333335" lon="10.214148333333332">
                        <ele>0</ele>
                        <time>2022-08-18T03:58:25Z</time>
                                                <extensions>
                            <sog>0.0</sog>
<cog>82.7</cog>
                        </extensions>
                    </trkpt>
                    <trkpt lat="54.40017666666667" lon="10.214138333333333">
                        <ele>0</ele>
                        <time>2022-08-18T04:01:22Z</time>
                                                <extensions>
                            <sog>0.0</sog>
<cog>46.5</cog>
                        </extensions>
                    </trkpt>
                    <trkpt lat="54.40018833333333" lon="10.214128333333333">
                        <ele>0</ele>
                        <time>2022-08-18T04:13:24Z</time>
                                                <extensions>
                            <sog>0.0</sog>
<cog>81.5</cog>
                        </extensions>
                    </trkpt>
                    <trkpt lat="54.40018666666666" lon="10.214136666666667">
                        <ele>0</ele>
                        <time>2022-08-18T04:16:23Z</time>
                                                <extensions>
                            <sog>0.0</sog>
<cog>49.0</cog>
                        </extensions>
                    </trkpt>
                    <trkpt lat="54.400171666666665" lon="10.21415">
                        <ele>0</ele>
                        <time>2022-08-18T04:19:22Z</time>
                                                <extensions>
                            <sog>0.0</sog>
<cog>83.6</cog>
                        </extensions>
                    </trkpt>
                    <trkpt lat="54.40016833333333" lon="10.214156666666666">
                        <ele>0</ele>
                        <time>2022-08-18T04:22:22Z</time>
                                                <extensions>
                            <sog>0.0</sog>
<cog>129.7</cog>
                        </extensions>
                    </trkpt>
                    <trkpt lat="54.40015666666667" lon="10.21416">
                        <ele>0</ele>
                        <time>2022-08-18T04:28:22Z</time>
                                                <extensions>
                            <sog>0.0</sog>
<cog>106.0</cog>
                        </extensions>
                    </trkpt>
                    <trkpt lat="54.400144999999995" lon="10.214165000000001">
                        <ele>0</ele>
                        <time>2022-08-18T04:31:22Z</time>
                                                <extensions>
                            <sog>0.0</sog>
<cog>134.0</cog>
                        </extensions>
                    </trkpt>
                    <trkpt lat="54.400153333333336" lon="10.214158333333334">
                        <ele>0</ele>
                        <time>2022-08-18T04:34:23Z</time>
                                                <extensions>
                            <sog>0.0</sog>
<cog>129.9</cog>
                        </extensions>
                    </trkpt>
                    <trkpt lat="54.40016666666667" lon="10.214153333333334">
                        <ele>0</ele>
                        <time>2022-08-18T04:37:22Z</time>
                                                <extensions>
                            <sog>0.0</sog>
<cog>146.2</cog>
                        </extensions>
                    </trkpt>
                    <trkpt lat="54.40018" lon="10.21416">
                        <ele>0</ele>
                        <time>2022-08-18T04:40:22Z</time>
                                                <extensions>
                            <sog>0.0</sog>
<cog>116.0</cog>
                        </extensions>
                    </trkpt>
                    <trkpt lat="54.40015666666667" lon="10.214155">
                        <ele>0</ele>
                        <time>2022-08-18T04:43:22Z</time>
                                                <extensions>
                            <sog>0.0</sog>
<cog>98.6</cog>
                        </extensions>
                    </trkpt>
                    <trkpt lat="54.400153333333336" lon="10.214163333333333">
                        <ele>0</ele>
                        <time>2022-08-18T04:52:22Z</time>
                                                <extensions>
                            <sog>0.0</sog>
<cog>100.0</cog>
                        </extensions>
                    </trkpt>
                    <trkpt lat="54.400191666666665" lon="10.214183333333333">
                        <ele>0</ele>
                        <time>2022-08-18T04:58:24Z</time>
                                                <extensions>
                            <sog>0.0</sog>
<cog>62.1</cog>
                        </extensions>
                    </trkpt>
                    <trkpt lat="54.40016" lon="10.214115">
                        <ele>0</ele>
                        <time>2022-08-18T05:04:24Z</time>
                                                <extensions>
                            <sog>0.0</sog>
<cog>109.5</cog>
                        </extensions>
                    </trkpt>
                    <trkpt lat="54.400200000000005" lon="10.214151666666668">
                        <ele>0</ele>
                        <time>2022-08-18T05:16:22Z</time>
                                                <extensions>
                            <sog>0.0</sog>
<cog>96.8</cog>
                        </extensions>
                    </trkpt>
                    <trkpt lat="54.40019666666667" lon="10.214141666666666">
                        <ele>0</ele>
                        <time>2022-08-18T05:19:23Z</time>
                                                <extensions>
                            <sog>0.0</sog>
<cog>114.2</cog>
                        </extensions>
                    </trkpt>
                    <trkpt lat="54.40020666666667" lon="10.214128333333333">
                        <ele>0</ele>
                        <time>2022-08-18T05:22:23Z</time>
                                                <extensions>
                            <sog>0.0</sog>
<cog>49.4</cog>
                        </extensions>
                    </trkpt>
                    <trkpt lat="54.40021" lon="10.214153333333334">
                        <ele>0</ele>
                        <time>2022-08-18T05:25:24Z</time>
                                                <extensions>
                            <sog>0.0</sog>
<cog>99.8</cog>
                        </extensions>
                    </trkpt>
                    <trkpt lat="54.40026666666667" lon="10.214158333333334">
                        <ele>0</ele>
                        <time>2022-08-18T05:34:22Z</time>
                                                <extensions>
                            <sog>0.1</sog>
<cog>66.9</cog>
                        </extensions>
                    </trkpt>
                    <trkpt lat="54.40031" lon="10.21418">
                        <ele>0</ele>
                        <time>2022-08-18T05:37:25Z</time>
                                                <extensions>
                            <sog>0.0</sog>
<cog>73.9</cog>
                        </extensions>
                    </trkpt>
                    <trkpt lat="54.40018166666667" lon="10.214178333333333">
                        <ele>0</ele>
                        <time>2022-08-18T05:40:23Z</time>
                                                <extensions>
                            <sog>0.0</sog>
<cog>100.1</cog>
                        </extensions>
                    </trkpt>
                    <trkpt lat="54.40018" lon="10.214173333333333">
                        <ele>0</ele>
                        <time>2022-08-18T05:43:23Z</time>
                                                <extensions>
                            <sog>0.1</sog>
<cog>68.1</cog>
                        </extensions>
                    </trkpt>
                    <trkpt lat="54.40022833333333" lon="10.214196666666668">
                        <ele>0</ele>
                        <time>2022-08-18T05:46:22Z</time>
                                                <extensions>
                            <sog>0.1</sog>
<cog>80.0</cog>
                        </extensions>
                    </trkpt>
                    <trkpt lat="54.400216666666665" lon="10.21418">
                        <ele>0</ele>
                        <time>2022-08-18T05:49:22Z</time>
                                                <extensions>
                            <sog>0.1</sog>
<cog>52.7</cog>
                        </extensions>
                    </trkpt>
                    <trkpt lat="54.400216666666665" lon="10.214161666666666">
                        <ele>0</ele>
                        <time>2022-08-18T05:52:23Z</time>
                                                <extensions>
                            <sog>0.0</sog>
<cog>69.8</cog>
                        </extensions>
                    </trkpt>
                    <trkpt lat="54.40022333333333" lon="10.214141666666666">
                        <ele>0</ele>
                        <time>2022-08-18T05:55:22Z</time>
                                                <extensions>
                            <sog>0.0</sog>
<cog>94.7</cog>
                        </extensions>
                    </trkpt>
                    <trkpt lat="54.40020666666667" lon="10.214156666666666">
                        <ele>0</ele>
                        <time>2022-08-18T05:58:23Z</time>
                                                <extensions>
                            <sog>0.1</sog>
<cog>40.5</cog>
                        </extensions>
                    </trkpt>
                    <trkpt lat="54.400205" lon="10.214165000000001">
                        <ele>0</ele>
                        <time>2022-08-18T06:04:25Z</time>
                                                <extensions>
                            <sog>0.0</sog>
<cog>47.1</cog>
                        </extensions>
                    </trkpt>
                    <trkpt lat="54.400198333333336" lon="10.214143333333334">
                        <ele>0</ele>
                        <time>2022-08-18T06:07:22Z</time>
                                                <extensions>
                            <sog>0.0</sog>
<cog>43.2</cog>
                        </extensions>
                    </trkpt>
                    <trkpt lat="54.40019666666667" lon="10.21411">
                        <ele>0</ele>
                        <time>2022-08-18T06:19:22Z</time>
                                                <extensions>
                            <sog>0.0</sog>
<cog>119.7</cog>
                        </extensions>
                    </trkpt>
                    <trkpt lat="54.40018" lon="10.214136666666667">
                        <ele>0</ele>
                        <time>2022-08-18T06:22:22Z</time>
                                                <extensions>
                            <sog>0.0</sog>
<cog>127.4</cog>
                        </extensions>
                    </trkpt>
                    <trkpt lat="54.40017666666667" lon="10.214135">
                        <ele>0</ele>
                        <time>2022-08-18T06:25:23Z</time>
                                                <extensions>
                            <sog>0.0</sog>
<cog>31.4</cog>
                        </extensions>
                    </trkpt>
                    <trkpt lat="54.40016666666667" lon="10.21417">
                        <ele>0</ele>
                        <time>2022-08-18T06:31:23Z</time>
                                                <extensions>
                            <sog>0.0</sog>
<cog>142.4</cog>
                        </extensions>
                    </trkpt>
                    <trkpt lat="54.400185" lon="10.214131666666667">
                        <ele>0</ele>
                        <time>2022-08-18T06:34:22Z</time>
                                                <extensions>
                            <sog>0.0</sog>
<cog>128.3</cog>
                        </extensions>
                    </trkpt>
                    <trkpt lat="54.40018666666666" lon="10.214158333333334">
                        <ele>0</ele>
                        <time>2022-08-18T06:37:22Z</time>
                                                <extensions>
                            <sog>0.0</sog>
<cog>23.3</cog>
                        </extensions>
                    </trkpt>
                    <trkpt lat="54.400215" lon="10.214133333333333">
                        <ele>0</ele>
                        <time>2022-08-18T06:40:23Z</time>
                                                <extensions>
                            <sog>0.0</sog>
<cog>29.9</cog>
                        </extensions>
                    </trkpt>
                    <trkpt lat="54.40018" lon="10.214146666666666">
                        <ele>0</ele>
                        <time>2022-08-18T06:43:23Z</time>
                                                <extensions>
                            <sog>0.0</sog>
<cog>71.4</cog>
                        </extensions>
                    </trkpt>
                    <trkpt lat="54.40022666666667" lon="10.214146666666666">
                        <ele>0</ele>
                        <time>2022-08-18T06:46:24Z</time>
                                                <extensions>
                            <sog>0.0</sog>
<cog>66.6</cog>
                        </extensions>
                    </trkpt>
                    <trkpt lat="54.40018" lon="10.214139999999999">
                        <ele>0</ele>
                        <time>2022-08-18T06:49:23Z</time>
                                                <extensions>
                            <sog>0.0</sog>
<cog>71.8</cog>
                        </extensions>
                    </trkpt>
                    <trkpt lat="54.40017666666667" lon="10.214166666666667">
                        <ele>0</ele>
                        <time>2022-08-18T06:52:25Z</time>
                                                <extensions>
                            <sog>0.0</sog>
<cog>114.7</cog>
                        </extensions>
                    </trkpt>
                    <trkpt lat="54.400198333333336" lon="10.214178333333333">
                        <ele>0</ele>
                        <time>2022-08-18T06:55:22Z</time>
                                                <extensions>
                            <sog>0.1</sog>
<cog>138.5</cog>
                        </extensions>
                    </trkpt>
                    <trkpt lat="54.40021166666667" lon="10.214161666666666">
                        <ele>0</ele>
                        <time>2022-08-18T06:58:23Z</time>
                                                <extensions>
                            <sog>0.0</sog>
<cog>138.5</cog>
                        </extensions>
                    </trkpt>
                    <trkpt lat="54.400189999999995" lon="10.21416">
                        <ele>0</ele>
                        <time>2022-08-18T07:01:22Z</time>
                                                <extensions>
                            <sog>0.1</sog>
<cog>142.8</cog>
                        </extensions>
                    </trkpt>
                    <trkpt lat="54.40018833333333" lon="10.214151666666668">
                        <ele>0</ele>
                        <time>2022-08-18T07:04:23Z</time>
                                                <extensions>
                            <sog>0.0</sog>
<cog>79.7</cog>
                        </extensions>
                    </trkpt>
                    <trkpt lat="54.400215" lon="10.214156666666666">
                        <ele>0</ele>
                        <time>2022-08-18T07:07:22Z</time>
                                                <extensions>
                            <sog>0.0</sog>
<cog>118.4</cog>
                        </extensions>
                    </trkpt>
                    <trkpt lat="54.400191666666665" lon="10.214155">
                        <ele>0</ele>
                        <time>2022-08-18T07:10:24Z</time>
                                                <extensions>
                            <sog>0.0</sog>
<cog>76.1</cog>
                        </extensions>
                    </trkpt>
                    <trkpt lat="54.400198333333336" lon="10.214156666666666">
                        <ele>0</ele>
                        <time>2022-08-18T07:13:22Z</time>
                                                <extensions>
                            <sog>0.0</sog>
<cog>93.0</cog>
                        </extensions>
                    </trkpt>
                    <trkpt lat="54.40018166666667" lon="10.214156666666666">
                        <ele>0</ele>
                        <time>2022-08-18T07:16:22Z</time>
                                                <extensions>
                            <sog>0.0</sog>
<cog>122.5</cog>
                        </extensions>
                    </trkpt>
                    <trkpt lat="54.40016" lon="10.214155">
                        <ele>0</ele>
                        <time>2022-08-18T07:19:25Z</time>
                                                <extensions>
                            <sog>0.0</sog>
<cog>118.7</cog>
                        </extensions>
                    </trkpt>
                    <trkpt lat="54.40015666666667" lon="10.214156666666666">
                        <ele>0</ele>
                        <time>2022-08-18T07:22:22Z</time>
                                                <extensions>
                            <sog>0.1</sog>
<cog>130.9</cog>
                        </extensions>
                    </trkpt>
                    <trkpt lat="54.40016666666667" lon="10.214173333333333">
                        <ele>0</ele>
                        <time>2022-08-18T07:28:23Z</time>
                                                <extensions>
                            <sog>0.0</sog>
<cog>64.6</cog>
                        </extensions>
                    </trkpt>
                    <trkpt lat="54.40015833333334" lon="10.214161666666666">
                        <ele>0</ele>
                        <time>2022-08-18T07:31:22Z</time>
                                                <extensions>
                            <sog>0.0</sog>
<cog>81.9</cog>
                        </extensions>
                    </trkpt>
                    <trkpt lat="54.400185" lon="10.214171666666665">
                        <ele>0</ele>
                        <time>2022-08-18T07:37:23Z</time>
                                                <extensions>
                            <sog>0.1</sog>
<cog>67.9</cog>
                        </extensions>
                    </trkpt>
                    <trkpt lat="54.40018166666667" lon="10.21418">
                        <ele>0</ele>
                        <time>2022-08-18T07:43:24Z</time>
                                                <extensions>
                            <sog>0.0</sog>
<cog>112.2</cog>
                        </extensions>
                    </trkpt>
                    <trkpt lat="54.400173333333335" lon="10.214176666666667">
                        <ele>0</ele>
                        <time>2022-08-18T07:46:22Z</time>
                                                <extensions>
                            <sog>0.0</sog>
<cog>75.0</cog>
                        </extensions>
                    </trkpt>
                    <trkpt lat="54.40025666666667" lon="10.214176666666667">
                        <ele>0</ele>
                        <time>2022-08-18T07:52:22Z</time>
                                                <extensions>
                            <sog>0.0</sog>
<cog>72.6</cog>
                        </extensions>
                    </trkpt>
                    <trkpt lat="54.40014" lon="10.214229999999999">
                        <ele>0</ele>
                        <time>2022-08-18T08:01:24Z</time>
                                                <extensions>
                            <sog>0.1</sog>
<cog>57.3</cog>
                        </extensions>
                    </trkpt>
                    <trkpt lat="54.40022333333333" lon="10.21417">
                        <ele>0</ele>
                        <time>2022-08-18T08:10:24Z</time>
                                                <extensions>
                            <sog>0.0</sog>
<cog>72.4</cog>
                        </extensions>
                    </trkpt>
                    <trkpt lat="54.400175" lon="10.21418">
                        <ele>0</ele>
                        <time>2022-08-18T08:13:24Z</time>
                                                <extensions>
                            <sog>0.1</sog>
<cog>75.5</cog>
                        </extensions>
                    </trkpt>
                    <trkpt lat="54.400205" lon="10.214163333333333">
                        <ele>0</ele>
                        <time>2022-08-18T08:16:23Z</time>
                                                <extensions>
                            <sog>0.1</sog>
<cog>31.3</cog>
                        </extensions>
                    </trkpt>
                    <trkpt lat="54.40018166666667" lon="10.214156666666666">
                        <ele>0</ele>
                        <time>2022-08-18T08:19:23Z</time>
                                                <extensions>
                            <sog>0.0</sog>
<cog>76.1</cog>
                        </extensions>
                    </trkpt>
                    <trkpt lat="54.40018666666666" lon="10.214155">
                        <ele>0</ele>
                        <time>2022-08-18T08:22:24Z</time>
                                                <extensions>
                            <sog>0.1</sog>
<cog>119.9</cog>
                        </extensions>
                    </trkpt>
                    <trkpt lat="54.40015833333334" lon="10.214203333333334">
                        <ele>0</ele>
                        <time>2022-08-18T08:31:23Z</time>
                                                <extensions>
                            <sog>0.0</sog>
<cog>83.6</cog>
                        </extensions>
                    </trkpt>
                    <trkpt lat="54.400171666666665" lon="10.214166666666667">
                        <ele>0</ele>
                        <time>2022-08-18T08:34:22Z</time>
                                                <extensions>
                            <sog>0.0</sog>
<cog>82.5</cog>
                        </extensions>
                    </trkpt>
                    <trkpt lat="54.400198333333336" lon="10.214173333333333">
                        <ele>0</ele>
                        <time>2022-08-18T08:37:22Z</time>
                                                <extensions>
                            <sog>0.1</sog>
<cog>84.7</cog>
                        </extensions>
                    </trkpt>
                    <trkpt lat="54.40022333333333" lon="10.21419">
                        <ele>0</ele>
                        <time>2022-08-18T08:40:23Z</time>
                                                <extensions>
                            <sog>0.0</sog>
<cog>80.0</cog>
                        </extensions>
                    </trkpt>
                    <trkpt lat="54.40018833333333" lon="10.214191666666666">
                        <ele>0</ele>
                        <time>2022-08-18T08:46:25Z</time>
                                                <extensions>
                            <sog>0.0</sog>
<cog>83.5</cog>
                        </extensions>
                    </trkpt>
                    <trkpt lat="54.40016" lon="10.21419">
                        <ele>0</ele>
                        <time>2022-08-18T08:49:22Z</time>
                                                <extensions>
                            <sog>0.0</sog>
<cog>73.5</cog>
                        </extensions>
                    </trkpt>
                    <trkpt lat="54.400185" lon="10.21418">
                        <ele>0</ele>
                        <time>2022-08-18T08:52:22Z</time>
                                                <extensions>
                            <sog>0.0</sog>
<cog>88.4</cog>
                        </extensions>
                    </trkpt>
                    <trkpt lat="54.400189999999995" lon="10.214158333333334">
                        <ele>0</ele>
                        <time>2022-08-18T08:58:22Z</time>
                                                <extensions>
                            <sog>0.0</sog>
<cog>45.9</cog>
                        </extensions>
                    </trkpt>
                    <trkpt lat="54.40021333333333" lon="10.214145">
                        <ele>0</ele>
                        <time>2022-08-18T09:04:23Z</time>
                                                <extensions>
                            <sog>0.1</sog>
<cog>51.5</cog>
                        </extensions>
                    </trkpt>
                    <trkpt lat="54.400191666666665" lon="10.214143333333334">
                        <ele>0</ele>
                        <time>2022-08-18T09:07:24Z</time>
                                                <extensions>
                            <sog>0.0</sog>
<cog>47.0</cog>
                        </extensions>
                    </trkpt>
                    <trkpt lat="54.400175" lon="10.214151666666668">
                        <ele>0</ele>
                        <time>2022-08-18T09:10:22Z</time>
                                                <extensions>
                            <sog>0.0</sog>
<cog>115.3</cog>
                        </extensions>
                    </trkpt>
                    <trkpt lat="54.40018" lon="10.214201666666666">
                        <ele>0</ele>
                        <time>2022-08-18T09:13:23Z</time>
                                                <extensions>
                            <sog>0.0</sog>
<cog>79.2</cog>
                        </extensions>
                    </trkpt>
                    <trkpt lat="54.400185" lon="10.214139999999999">
                        <ele>0</ele>
                        <time>2022-08-18T09:16:26Z</time>
                                                <extensions>
                            <sog>0.0</sog>
<cog>40.7</cog>
                        </extensions>
                    </trkpt>
                    <trkpt lat="54.400173333333335" lon="10.214148333333332">
                        <ele>0</ele>
                        <time>2022-08-18T09:19:23Z</time>
                                                <extensions>
                            <sog>0.0</sog>
<cog>106.3</cog>
                        </extensions>
                    </trkpt>
                    <trkpt lat="54.400189999999995" lon="10.214161666666666">
                        <ele>0</ele>
                        <time>2022-08-18T09:22:24Z</time>
                                                <extensions>
                            <sog>0.0</sog>
<cog>85.7</cog>
                        </extensions>
                    </trkpt>
                    <trkpt lat="54.40022666666667" lon="10.21416">
                        <ele>0</ele>
                        <time>2022-08-18T09:28:22Z</time>
                                                <extensions>
                            <sog>0.0</sog>
<cog>58.5</cog>
                        </extensions>
                    </trkpt>
                    <trkpt lat="54.400225" lon="10.214161666666666">
                        <ele>0</ele>
                        <time>2022-08-18T09:31:25Z</time>
                                                <extensions>
                            <sog>0.0</sog>
<cog>76.9</cog>
                        </extensions>
                    </trkpt>
                    <trkpt lat="54.40020333333334" lon="10.214188333333334">
                        <ele>0</ele>
                        <time>2022-08-18T09:34:23Z</time>
                                                <extensions>
                            <sog>0.1</sog>
<cog>129.6</cog>
                        </extensions>
                    </trkpt>
                    <trkpt lat="54.400189999999995" lon="10.214186666666667">
                        <ele>0</ele>
                        <time>2022-08-18T09:37:25Z</time>
                                                <extensions>
                            <sog>0.1</sog>
<cog>112.6</cog>
                        </extensions>
                    </trkpt>
                    <trkpt lat="54.400189999999995" lon="10.214155">
                        <ele>0</ele>
                        <time>2022-08-18T09:40:23Z</time>
                                                <extensions>
                            <sog>0.1</sog>
<cog>126.2</cog>
                        </extensions>
                    </trkpt>
                    <trkpt lat="54.400171666666665" lon="10.214156666666666">
                        <ele>0</ele>
                        <time>2022-08-18T09:43:22Z</time>
                                                <extensions>
                            <sog>0.0</sog>
<cog>106.2</cog>
                        </extensions>
                    </trkpt>
                    <trkpt lat="54.40017" lon="10.214161666666666">
                        <ele>0</ele>
                        <time>2022-08-18T09:46:23Z</time>
                                                <extensions>
                            <sog>0.1</sog>
<cog>141.2</cog>
                        </extensions>
                    </trkpt>
                    <trkpt lat="54.40016166666667" lon="10.214171666666665">
                        <ele>0</ele>
                        <time>2022-08-18T09:49:26Z</time>
                                                <extensions>
                            <sog>0.0</sog>
<cog>123.1</cog>
                        </extensions>
                    </trkpt>
                    <trkpt lat="54.400185" lon="10.214163333333333">
                        <ele>0</ele>
                        <time>2022-08-18T09:52:23Z</time>
                                                <extensions>
                            <sog>0.1</sog>
<cog>123.7</cog>
                        </extensions>
                    </trkpt>
                    <trkpt lat="54.40016666666667" lon="10.214156666666666">
                        <ele>0</ele>
                        <time>2022-08-18T09:55:24Z</time>
                                                <extensions>
                            <sog>0.0</sog>
<cog>75.1</cog>
                        </extensions>
                    </trkpt>
                    <trkpt lat="54.40015833333334" lon="10.214146666666666">
                        <ele>0</ele>
                        <time>2022-08-18T09:58:22Z</time>
                                                <extensions>
                            <sog>0.1</sog>
<cog>148.1</cog>
                        </extensions>
                    </trkpt>
                    <trkpt lat="54.40014" lon="10.214121666666667">
                        <ele>0</ele>
                        <time>2022-08-18T10:04:24Z</time>
                                                <extensions>
                            <sog>0.0</sog>
<cog>149.8</cog>
                        </extensions>
                    </trkpt>
                    <trkpt lat="54.40018833333333" lon="10.214103333333332">
                        <ele>0</ele>
                        <time>2022-08-18T10:10:23Z</time>
                                                <extensions>
                            <sog>0.0</sog>
<cog>23.2</cog>
                        </extensions>
                    </trkpt>
                    <trkpt lat="54.400191666666665" lon="10.214143333333334">
                        <ele>0</ele>
                        <time>2022-08-18T10:13:24Z</time>
                                                <extensions>
                            <sog>0.0</sog>
<cog>150.5</cog>
                        </extensions>
                    </trkpt>
                    <trkpt lat="54.40017" lon="10.21408">
                        <ele>0</ele>
                        <time>2022-08-18T10:19:24Z</time>
                                                <extensions>
                            <sog>0.0</sog>
<cog>19.7</cog>
                        </extensions>
                    </trkpt>
                    <trkpt lat="54.40018166666667" lon="10.21416">
                        <ele>0</ele>
                        <time>2022-08-18T10:25:27Z</time>
                                                <extensions>
                            <sog>0.1</sog>
<cog>2.7</cog>
                        </extensions>
                    </trkpt>
                    <trkpt lat="54.40018666666666" lon="10.214141666666666">
                        <ele>0</ele>
                        <time>2022-08-18T10:28:27Z</time>
                                                <extensions>
                            <sog>0.0</sog>
<cog>14.5</cog>
                        </extensions>
                    </trkpt>
                    <trkpt lat="54.400175" lon="10.214126666666667">
                        <ele>0</ele>
                        <time>2022-08-18T10:34:29Z</time>
                                                <extensions>
                            <sog>0.1</sog>
<cog>139.3</cog>
                        </extensions>
                    </trkpt>
                    <trkpt lat="54.400155000000005" lon="10.214101666666666">
                        <ele>0</ele>
                        <time>2022-08-18T10:40:28Z</time>
                                                <extensions>
                            <sog>0.0</sog>
<cog>184.8</cog>
                        </extensions>
                    </trkpt>
                    <trkpt lat="54.400200000000005" lon="10.214096666666668">
                        <ele>0</ele>
                        <time>2022-08-18T10:43:28Z</time>
                                                <extensions>
                            <sog>0.0</sog>
<cog>77.8</cog>
                        </extensions>
                    </trkpt>
                    <trkpt lat="54.400189999999995" lon="10.214138333333333">
                        <ele>0</ele>
                        <time>2022-08-18T10:46:28Z</time>
                                                <extensions>
                            <sog>0.0</sog>
<cog>94.1</cog>
                        </extensions>
                    </trkpt>
                    <trkpt lat="54.400165" lon="10.214135">
                        <ele>0</ele>
                        <time>2022-08-18T10:52:30Z</time>
                                                <extensions>
                            <sog>0.0</sog>
<cog>42.4</cog>
                        </extensions>
                    </trkpt>
                    <trkpt lat="54.40020166666667" lon="10.214141666666666">
                        <ele>0</ele>
                        <time>2022-08-18T10:55:30Z</time>
                                                <extensions>
                            <sog>0.0</sog>
<cog>80.5</cog>
                        </extensions>
                    </trkpt>
                    <trkpt lat="54.40018" lon="10.214145">
                        <ele>0</ele>
                        <time>2022-08-18T10:58:31Z</time>
                                                <extensions>
                            <sog>0.0</sog>
<cog>64.0</cog>
                        </extensions>
                    </trkpt>
                    <trkpt lat="54.400173333333335" lon="10.214156666666666">
                        <ele>0</ele>
                        <time>2022-08-18T11:01:31Z</time>
                                                <extensions>
                            <sog>0.0</sog>
<cog>87.5</cog>
                        </extensions>
                    </trkpt>
                    <trkpt lat="54.40016166666667" lon="10.214156666666666">
                        <ele>0</ele>
                        <time>2022-08-18T11:04:31Z</time>
                                                <extensions>
                            <sog>0.0</sog>
<cog>54.8</cog>
                        </extensions>
                    </trkpt>
                    <trkpt lat="54.40018166666667" lon="10.214153333333334">
                        <ele>0</ele>
                        <time>2022-08-18T11:19:35Z</time>
                                                <extensions>
                            <sog>0.0</sog>
<cog>39.7</cog>
                        </extensions>
                    </trkpt>
                    <trkpt lat="54.400191666666665" lon="10.214171666666665">
                        <ele>0</ele>
                        <time>2022-08-18T11:22:33Z</time>
                                                <extensions>
                            <sog>0.0</sog>
<cog>55.4</cog>
                        </extensions>
                    </trkpt>
                    <trkpt lat="54.40019333333333" lon="10.214184999999999">
                        <ele>0</ele>
                        <time>2022-08-18T11:25:34Z</time>
                                                <extensions>
                            <sog>0.0</sog>
<cog>41.0</cog>
                        </extensions>
                    </trkpt>
                    <trkpt lat="54.400198333333336" lon="10.214181666666667">
                        <ele>0</ele>
                        <time>2022-08-18T11:28:35Z</time>
                                                <extensions>
                            <sog>0.1</sog>
<cog>32.6</cog>
                        </extensions>
                    </trkpt>
                    <trkpt lat="54.40022166666667" lon="10.214141666666666">
                        <ele>0</ele>
                        <time>2022-08-18T11:40:36Z</time>
                                                <extensions>
                            <sog>0.0</sog>
<cog>21.3</cog>
                        </extensions>
                    </trkpt>
                    <trkpt lat="54.400195000000004" lon="10.214153333333334">
                        <ele>0</ele>
                        <time>2022-08-18T11:43:37Z</time>
                                                <extensions>
                            <sog>0.0</sog>
<cog>76.3</cog>
                        </extensions>
                    </trkpt>
                    <trkpt lat="54.400261666666665" lon="10.214191666666666">
                        <ele>0</ele>
                        <time>2022-08-18T11:49:39Z</time>
                                                <extensions>
                            <sog>0.1</sog>
<cog>20.0</cog>
                        </extensions>
                    </trkpt>
                    <trkpt lat="54.40022333333333" lon="10.214139999999999">
                        <ele>0</ele>
                        <time>2022-08-18T11:52:39Z</time>
                                                <extensions>
                            <sog>0.0</sog>
<cog>35.0</cog>
                        </extensions>
                    </trkpt>
                    <trkpt lat="54.40018166666667" lon="10.214141666666666">
                        <ele>0</ele>
                        <time>2022-08-18T11:55:41Z</time>
                                                <extensions>
                            <sog>0.0</sog>
<cog>41.2</cog>
                        </extensions>
                    </trkpt>
                    <trkpt lat="54.400236666666665" lon="10.214118333333333">
                        <ele>0</ele>
                        <time>2022-08-18T12:01:40Z</time>
                                                <extensions>
                            <sog>0.0</sog>
<cog>10.5</cog>
                        </extensions>
                    </trkpt>
                    <trkpt lat="54.40019666666667" lon="10.214139999999999">
                        <ele>0</ele>
                        <time>2022-08-18T12:07:43Z</time>
                                                <extensions>
                            <sog>0.0</sog>
<cog>35.2</cog>
                        </extensions>
                    </trkpt>
                    <trkpt lat="54.40020833333333" lon="10.214135">
                        <ele>0</ele>
                        <time>2022-08-18T12:13:42Z</time>
                                                <extensions>
                            <sog>0.0</sog>
<cog>358.9</cog>
                        </extensions>
                    </trkpt>
                    <trkpt lat="54.40022166666667" lon="10.214195">
                        <ele>0</ele>
                        <time>2022-08-18T12:25:43Z</time>
                                                <extensions>
                            <sog>0.0</sog>
<cog>49.1</cog>
                        </extensions>
                    </trkpt>
                    <trkpt lat="54.40020166666667" lon="10.214139999999999">
                        <ele>0</ele>
                        <time>2022-08-18T12:31:42Z</time>
                                                <extensions>
                            <sog>0.0</sog>
<cog>90.0</cog>
                        </extensions>
                    </trkpt>
                    <trkpt lat="54.40018833333333" lon="10.214113333333334">
                        <ele>0</ele>
                        <time>2022-08-18T12:34:44Z</time>
                                                <extensions>
                            <sog>0.0</sog>
<cog>19.5</cog>
                        </extensions>
                    </trkpt>
                    <trkpt lat="54.400189999999995" lon="10.214101666666666">
                        <ele>0</ele>
                        <time>2022-08-18T12:55:44Z</time>
                                                <extensions>
                            <sog>0.0</sog>
<cog>276.0</cog>
                        </extensions>
                    </trkpt>
                    <trkpt lat="54.40019666666667" lon="10.21411">
                        <ele>0</ele>
                        <time>2022-08-18T13:04:44Z</time>
                                                <extensions>
                            <sog>0.0</sog>
<cog>338.0</cog>
                        </extensions>
                    </trkpt>
                    <trkpt lat="54.400205" lon="10.214123333333333">
                        <ele>0</ele>
                        <time>2022-08-18T13:07:44Z</time>
                                                <extensions>
                            <sog>0.0</sog>
<cog>311.0</cog>
                        </extensions>
                    </trkpt>
                    <trkpt lat="54.40016" lon="10.214158333333334">
                        <ele>0</ele>
                        <time>2022-08-18T13:10:42Z</time>
                                                <extensions>
                            <sog>0.0</sog>
<cog>298.7</cog>
                        </extensions>
                    </trkpt>
                    <trkpt lat="54.40018" lon="10.214126666666667">
                        <ele>0</ele>
                        <time>2022-08-18T13:22:44Z</time>
                                                <extensions>
                            <sog>0.0</sog>
<cog>316.8</cog>
                        </extensions>
                    </trkpt>
                    <trkpt lat="54.40014833333333" lon="10.214135">
                        <ele>0</ele>
                        <time>2022-08-18T13:52:43Z</time>
                                                <extensions>
                            <sog>0.0</sog>
<cog>182.9</cog>
                        </extensions>
                    </trkpt>
                    <trkpt lat="54.400144999999995" lon="10.214175000000001">
                        <ele>0</ele>
                        <time>2022-08-18T13:58:43Z</time>
                                                <extensions>
                            <sog>0.0</sog>
<cog>126.6</cog>
                        </extensions>
                    </trkpt>
                    <trkpt lat="54.400216666666665" lon="10.214111666666668">
                        <ele>0</ele>
                        <time>2022-08-18T14:28:44Z</time>
                                                <extensions>
                            <sog>0.0</sog>
<cog>232.0</cog>
                        </extensions>
                    </trkpt>
                    <trkpt lat="54.400200000000005" lon="10.214113333333334">
                        <ele>0</ele>
                        <time>2022-08-18T14:31:45Z</time>
                                                <extensions>
                            <sog>0.0</sog>
<cog>357.2</cog>
                        </extensions>
                    </trkpt>
                    <trkpt lat="54.40017666666667" lon="10.214165000000001">
                        <ele>0</ele>
                        <time>2022-08-18T14:43:43Z</time>
                                                <extensions>
                            <sog>0.0</sog>
<cog>226.4</cog>
                        </extensions>
                    </trkpt>
                    <trkpt lat="54.400165" lon="10.214151666666668">
                        <ele>0</ele>
                        <time>2022-08-18T15:01:43Z</time>
                                                <extensions>
                            <sog>0.0</sog>
<cog>135.9</cog>
                        </extensions>
                    </trkpt>
                    <trkpt lat="54.40027166666666" lon="10.21417">
                        <ele>0</ele>
                        <time>2022-08-18T15:04:46Z</time>
                                                <extensions>
                            <sog>0.0</sog>
<cog>178.7</cog>
                        </extensions>
                    </trkpt>
                    <trkpt lat="54.40019333333333" lon="10.214143333333334">
                        <ele>0</ele>
                        <time>2022-08-18T15:40:46Z</time>
                                                <extensions>
                            <sog>0.0</sog>
<cog>160.9</cog>
                        </extensions>
                    </trkpt>
                    <trkpt lat="54.40017666666667" lon="10.214151666666668">
                        <ele>0</ele>
                        <time>2022-08-18T15:43:47Z</time>
                                                <extensions>
                            <sog>0.0</sog>
<cog>40.7</cog>
                        </extensions>
                    </trkpt>
                    <trkpt lat="54.40016666666667" lon="10.214158333333334">
                        <ele>0</ele>
                        <time>2022-08-18T15:49:47Z</time>
                                                <extensions>
                            <sog>0.0</sog>
<cog>352.3</cog>
                        </extensions>
                    </trkpt>
                    <trkpt lat="54.400173333333335" lon="10.214121666666667">
                        <ele>0</ele>
                        <time>2022-08-18T16:13:48Z</time>
                                                <extensions>
                            <sog>0.0</sog>
<cog>11.6</cog>
                        </extensions>
                    </trkpt>
                    <trkpt lat="54.40017666666667" lon="10.21415">
                        <ele>0</ele>
                        <time>2022-08-18T16:46:52Z</time>
                                                <extensions>
                            <sog>0.0</sog>
<cog>349.3</cog>
                        </extensions>
                    </trkpt>
                    <trkpt lat="54.40017666666667" lon="10.214118333333333">
                        <ele>0</ele>
                        <time>2022-08-18T17:04:50Z</time>
                                                <extensions>
                            <sog>0.0</sog>
<cog>282.1</cog>
                        </extensions>
                    </trkpt>
                    <trkpt lat="54.400215" lon="10.214083333333333">
                        <ele>0</ele>
                        <time>2022-08-18T17:16:50Z</time>
                                                <extensions>
                            <sog>0.0</sog>
<cog>262.9</cog>
                        </extensions>
                    </trkpt>
                    <trkpt lat="54.40015666666667" lon="10.213995">
                        <ele>0</ele>
                        <time>2022-08-18T17:34:52Z</time>
                                                <extensions>
                            <sog>0.0</sog>
<cog>214.1</cog>
                        </extensions>
                    </trkpt>
                    <trkpt lat="54.40015833333334" lon="10.214138333333333">
                        <ele>0</ele>
                        <time>2022-08-18T17:55:56Z</time>
                                                <extensions>
                            <sog>0.0</sog>
<cog>36.7</cog>
                        </extensions>
                    </trkpt>
                    <trkpt lat="54.400185" lon="10.214151666666668">
                        <ele>0</ele>
                        <time>2022-08-18T18:16:58Z</time>
                                                <extensions>
                            <sog>0.0</sog>
<cog>101.5</cog>
                        </extensions>
                    </trkpt>
                    <trkpt lat="54.400185" lon="10.214156666666666">
                        <ele>0</ele>
                        <time>2022-08-18T18:25:59Z</time>
                                                <extensions>
                            <sog>0.0</sog>
<cog>118.9</cog>
                        </extensions>
                    </trkpt>
                    <trkpt lat="54.400173333333335" lon="10.214139999999999">
                        <ele>0</ele>
                        <time>2022-08-18T18:31:59Z</time>
                                                <extensions>
                            <sog>0.0</sog>
<cog>86.1</cog>
                        </extensions>
                    </trkpt>
                    <trkpt lat="54.40018" lon="10.214178333333333">
                        <ele>0</ele>
                        <time>2022-08-18T18:50:04Z</time>
                                                <extensions>
                            <sog>0.1</sog>
<cog>144.5</cog>
                        </extensions>
                    </trkpt>
                    <trkpt lat="54.40018833333333" lon="10.214135">
                        <ele>0</ele>
                        <time>2022-08-18T19:02:05Z</time>
                                                <extensions>
                            <sog>0.0</sog>
<cog>163.5</cog>
                        </extensions>
                    </trkpt>
                    <trkpt lat="54.400198333333336" lon="10.21418">
                        <ele>0</ele>
                        <time>2022-08-18T19:14:07Z</time>
                                                <extensions>
                            <sog>0.1</sog>
<cog>151.8</cog>
                        </extensions>
                    </trkpt>
                    <trkpt lat="54.40016833333333" lon="10.214168333333333">
                        <ele>0</ele>
                        <time>2022-08-18T19:20:10Z</time>
                                                <extensions>
                            <sog>0.1</sog>
<cog>159.6</cog>
                        </extensions>
                    </trkpt>
                    <trkpt lat="54.40024166666667" lon="10.214126666666667">
                        <ele>0</ele>
                        <time>2022-08-18T19:29:11Z</time>
                                                <extensions>
                            <sog>0.0</sog>
<cog>148.0</cog>
                        </extensions>
                    </trkpt>
                    <trkpt lat="54.40017" lon="10.214146666666666">
                        <ele>0</ele>
                        <time>2022-08-18T19:38:14Z</time>
                                                <extensions>
                            <sog>0.1</sog>
<cog>151.2</cog>
                        </extensions>
                    </trkpt>
                    <trkpt lat="54.40016833333333" lon="10.21418">
                        <ele>0</ele>
                        <time>2022-08-18T19:41:15Z</time>
                                                <extensions>
                            <sog>0.0</sog>
<cog>100.9</cog>
                        </extensions>
                    </trkpt>
                    <trkpt lat="54.40016333333333" lon="10.214178333333333">
                        <ele>0</ele>
                        <time>2022-08-18T19:44:16Z</time>
                                                <extensions>
                            <sog>0.0</sog>
<cog>138.2</cog>
                        </extensions>
                    </trkpt>
                    <trkpt lat="54.400215" lon="10.214141666666666">
                        <ele>0</ele>
                        <time>2022-08-18T20:02:20Z</time>
                                                <extensions>
                            <sog>0.0</sog>
<cog>149.5</cog>
                        </extensions>
                    </trkpt>
                    <trkpt lat="54.400144999999995" lon="10.214176666666667">
                        <ele>0</ele>
                        <time>2022-08-18T20:05:20Z</time>
                                                <extensions>
                            <sog>0.1</sog>
<cog>127.0</cog>
                        </extensions>
                    </trkpt>
                    <trkpt lat="54.40015833333334" lon="10.214156666666666">
                        <ele>0</ele>
                        <time>2022-08-18T20:11:26Z</time>
                                                <extensions>
                            <sog>0.0</sog>
<cog>135.7</cog>
                        </extensions>
                    </trkpt>
                    <trkpt lat="54.400144999999995" lon="10.214131666666667">
                        <ele>0</ele>
                        <time>2022-08-18T20:14:23Z</time>
                                                <extensions>
                            <sog>0.0</sog>
<cog>147.8</cog>
                        </extensions>
                    </trkpt>
                    <trkpt lat="54.40016333333333" lon="10.21415">
                        <ele>0</ele>
                        <time>2022-08-18T20:26:26Z</time>
                                                <extensions>
                            <sog>0.0</sog>
<cog>49.3</cog>
                        </extensions>
                    </trkpt>
                    <trkpt lat="54.40016" lon="10.214143333333334">
                        <ele>0</ele>
                        <time>2022-08-18T20:35:26Z</time>
                                                <extensions>
                            <sog>0.0</sog>
<cog>148.2</cog>
                        </extensions>
                    </trkpt>
                    <trkpt lat="54.400171666666665" lon="10.214151666666668">
                        <ele>0</ele>
                        <time>2022-08-18T20:38:27Z</time>
                                                <extensions>
                            <sog>0.0</sog>
<cog>104.3</cog>
                        </extensions>
                    </trkpt>
                    <trkpt lat="54.40016166666667" lon="10.214151666666668">
                        <ele>0</ele>
                        <time>2022-08-18T20:41:26Z</time>
                                                <extensions>
                            <sog>0.0</sog>
<cog>63.0</cog>
                        </extensions>
                    </trkpt>
                    <trkpt lat="54.40019666666667" lon="10.214155">
                        <ele>0</ele>
                        <time>2022-08-18T20:50:28Z</time>
                                                <extensions>
                            <sog>0.0</sog>
<cog>65.4</cog>
                        </extensions>
                    </trkpt>
                    <trkpt lat="54.400189999999995" lon="10.214141666666666">
                        <ele>0</ele>
                        <time>2022-08-18T20:53:29Z</time>
                                                <extensions>
                            <sog>0.0</sog>
<cog>89.7</cog>
                        </extensions>
                    </trkpt>
                    <trkpt lat="54.400240000000004" lon="10.214158333333334">
                        <ele>0</ele>
                        <time>2022-08-18T20:56:29Z</time>
                                                <extensions>
                            <sog>0.0</sog>
<cog>91.0</cog>
                        </extensions>
                    </trkpt>
                    <trkpt lat="54.40025666666667" lon="10.214181666666667">
                        <ele>0</ele>
                        <time>2022-08-18T21:02:31Z</time>
                                                <extensions>
                            <sog>0.0</sog>
<cog>78.2</cog>
                        </extensions>
                    </trkpt>
                    <trkpt lat="54.400315" lon="10.214218333333333">
                        <ele>0</ele>
                        <time>2022-08-18T21:08:32Z</time>
                                                <extensions>
                            <sog>0.0</sog>
<cog>28.1</cog>
                        </extensions>
                    </trkpt>
                    <trkpt lat="54.400225" lon="10.214161666666666">
                        <ele>0</ele>
                        <time>2022-08-18T21:11:30Z</time>
                                                <extensions>
                            <sog>0.1</sog>
<cog>16.9</cog>
                        </extensions>
                    </trkpt>
                    <trkpt lat="54.40020333333334" lon="10.214153333333334">
                        <ele>0</ele>
                        <time>2022-08-18T21:14:32Z</time>
                                                <extensions>
                            <sog>0.1</sog>
<cog>19.7</cog>
                        </extensions>
                    </trkpt>
                    <trkpt lat="54.40024666666667" lon="10.214133333333333">
                        <ele>0</ele>
                        <time>2022-08-18T21:20:31Z</time>
                                                <extensions>
                            <sog>0.0</sog>
<cog>26.4</cog>
                        </extensions>
                    </trkpt>
                    <trkpt lat="54.40020166666667" lon="10.214138333333333">
                        <ele>0</ele>
                        <time>2022-08-18T21:23:32Z</time>
                                                <extensions>
                            <sog>0.0</sog>
<cog>146.9</cog>
                        </extensions>
                    </trkpt>
                    <trkpt lat="54.40020166666667" lon="10.214125">
                        <ele>0</ele>
                        <time>2022-08-18T21:26:32Z</time>
                                                <extensions>
                            <sog>0.0</sog>
<cog>132.3</cog>
                        </extensions>
                    </trkpt>
                    <trkpt lat="54.40017833333333" lon="10.214120000000001">
                        <ele>0</ele>
                        <time>2022-08-18T21:32:33Z</time>
                                                <extensions>
                            <sog>0.0</sog>
<cog>275.3</cog>
                        </extensions>
                    </trkpt>
                    <trkpt lat="54.40017833333333" lon="10.214120000000001">
                        <ele>0</ele>
                        <time>2022-08-18T21:38:32Z</time>
                                                <extensions>
                            <sog>0.0</sog>
<cog>169.6</cog>
                        </extensions>
                    </trkpt>
                    <trkpt lat="54.40018833333333" lon="10.21413">
                        <ele>0</ele>
                        <time>2022-08-18T21:41:31Z</time>
                                                <extensions>
                            <sog>0.0</sog>
<cog>116.2</cog>
                        </extensions>
                    </trkpt>
                    <trkpt lat="54.400195000000004" lon="10.214073333333333">
                        <ele>0</ele>
                        <time>2022-08-18T21:44:31Z</time>
                                                <extensions>
                            <sog>0.0</sog>
<cog>174.0</cog>
                        </extensions>
                    </trkpt>
                    <trkpt lat="54.40018" lon="10.214105">
                        <ele>0</ele>
                        <time>2022-08-18T21:47:31Z</time>
                                                <extensions>
                            <sog>0.0</sog>
<cog>358.7</cog>
                        </extensions>
                    </trkpt>
                    <trkpt lat="54.400189999999995" lon="10.214091666666667">
                        <ele>0</ele>
                        <time>2022-08-18T21:53:30Z</time>
                                                <extensions>
                            <sog>0.0</sog>
<cog>322.1</cog>
                        </extensions>
                    </trkpt>
                    <trkpt lat="54.400189999999995" lon="10.214098333333334">
                        <ele>0</ele>
                        <time>2022-08-18T21:56:31Z</time>
                                                <extensions>
                            <sog>0.0</sog>
<cog>356.4</cog>
                        </extensions>
                    </trkpt>
                    <trkpt lat="54.40019333333333" lon="10.214094999999999">
                        <ele>0</ele>
                        <time>2022-08-18T22:02:31Z</time>
                                                <extensions>
                            <sog>0.0</sog>
<cog>1.5</cog>
                        </extensions>
                    </trkpt>
                    <trkpt lat="54.400218333333335" lon="10.214098333333334">
                        <ele>0</ele>
                        <time>2022-08-18T22:05:31Z</time>
                                                <extensions>
                            <sog>0.0</sog>
<cog>355.3</cog>
                        </extensions>
                    </trkpt>
                    <trkpt lat="54.40017666666667" lon="10.21416">
                        <ele>0</ele>
                        <time>2022-08-18T22:08:31Z</time>
                                                <extensions>
                            <sog>0.0</sog>
<cog>94.4</cog>
                        </extensions>
                    </trkpt>
                    <trkpt lat="54.40019666666667" lon="10.214103333333332">
                        <ele>0</ele>
                        <time>2022-08-18T22:11:31Z</time>
                                                <extensions>
                            <sog>0.0</sog>
<cog>46.8</cog>
                        </extensions>
                    </trkpt>
                    <trkpt lat="54.40018333333333" lon="10.21411">
                        <ele>0</ele>
                        <time>2022-08-18T22:14:32Z</time>
                                                <extensions>
                            <sog>0.0</sog>
<cog>4.5</cog>
                        </extensions>
                    </trkpt>
                    <trkpt lat="54.400200000000005" lon="10.214108333333334">
                        <ele>0</ele>
                        <time>2022-08-18T22:20:33Z</time>
                                                <extensions>
                            <sog>0.1</sog>
<cog>355.5</cog>
                        </extensions>
                    </trkpt>
                    <trkpt lat="54.400218333333335" lon="10.214106666666668">
                        <ele>0</ele>
                        <time>2022-08-18T22:26:31Z</time>
                                                <extensions>
                            <sog>0.0</sog>
<cog>12.0</cog>
                        </extensions>
                    </trkpt>
                    <trkpt lat="54.40021166666667" lon="10.214116666666666">
                        <ele>0</ele>
                        <time>2022-08-18T22:29:30Z</time>
                                                <extensions>
                            <sog>0.0</sog>
<cog>4.1</cog>
                        </extensions>
                    </trkpt>
                    <trkpt lat="54.40018" lon="10.214156666666666">
                        <ele>0</ele>
                        <time>2022-08-18T22:41:31Z</time>
                                                <extensions>
                            <sog>0.0</sog>
<cog>102.1</cog>
                        </extensions>
                    </trkpt>
                    <trkpt lat="54.40020166666667" lon="10.214143333333334">
                        <ele>0</ele>
                        <time>2022-08-18T22:44:31Z</time>
                                                <extensions>
                            <sog>0.0</sog>
<cog>53.4</cog>
                        </extensions>
                    </trkpt>
                    <trkpt lat="54.40018833333333" lon="10.214151666666668">
                        <ele>0</ele>
                        <time>2022-08-18T22:47:33Z</time>
                                                <extensions>
                            <sog>0.0</sog>
<cog>63.5</cog>
                        </extensions>
                    </trkpt>
                    <trkpt lat="54.40021166666667" lon="10.214128333333333">
                        <ele>0</ele>
                        <time>2022-08-18T22:50:33Z</time>
                                                <extensions>
                            <sog>0.0</sog>
<cog>47.0</cog>
                        </extensions>
                    </trkpt>
                    <trkpt lat="54.400200000000005" lon="10.214155">
                        <ele>0</ele>
                        <time>2022-08-18T22:53:31Z</time>
                                                <extensions>
                            <sog>0.0</sog>
<cog>65.7</cog>
                        </extensions>
                    </trkpt>
                    <trkpt lat="54.40027" lon="10.214078333333333">
                        <ele>0</ele>
                        <time>2022-08-18T22:56:32Z</time>
                                                <extensions>
                            <sog>0.1</sog>
<cog>7.3</cog>
                        </extensions>
                    </trkpt>
                    <trkpt lat="54.40017666666667" lon="10.214136666666667">
                        <ele>0</ele>
                        <time>2022-08-18T22:59:30Z</time>
                                                <extensions>
                            <sog>0.0</sog>
<cog>121.1</cog>
                        </extensions>
                    </trkpt>
                    <trkpt lat="54.400195000000004" lon="10.214203333333334">
                        <ele>0</ele>
                        <time>2022-08-18T23:05:31Z</time>
                                                <extensions>
                            <sog>0.1</sog>
<cog>73.0</cog>
                        </extensions>
                    </trkpt>
                    <trkpt lat="54.40020666666667" lon="10.21417">
                        <ele>0</ele>
                        <time>2022-08-18T23:08:31Z</time>
                                                <extensions>
                            <sog>0.1</sog>
<cog>88.8</cog>
                        </extensions>
                    </trkpt>
                    <trkpt lat="54.400195000000004" lon="10.21415">
                        <ele>0</ele>
                        <time>2022-08-18T23:11:30Z</time>
                                                <extensions>
                            <sog>0.0</sog>
<cog>34.5</cog>
                        </extensions>
                    </trkpt>
                    <trkpt lat="54.400175" lon="10.21416">
                        <ele>0</ele>
                        <time>2022-08-18T23:17:31Z</time>
                                                <extensions>
                            <sog>0.0</sog>
<cog>89.4</cog>
                        </extensions>
                    </trkpt>
                    <trkpt lat="54.40018166666667" lon="10.214181666666667">
                        <ele>0</ele>
                        <time>2022-08-18T23:20:32Z</time>
                                                <extensions>
                            <sog>0.1</sog>
<cog>51.0</cog>
                        </extensions>
                    </trkpt>
                    <trkpt lat="54.400200000000005" lon="10.214171666666665">
                        <ele>0</ele>
                        <time>2022-08-18T23:23:32Z</time>
                                                <extensions>
                            <sog>0.1</sog>
<cog>72.1</cog>
                        </extensions>
                    </trkpt>
                    <trkpt lat="54.40019333333333" lon="10.214165000000001">
                        <ele>0</ele>
                        <time>2022-08-18T23:26:30Z</time>
                                                <extensions>
                            <sog>0.0</sog>
<cog>71.6</cog>
                        </extensions>
                    </trkpt>
                    <trkpt lat="54.40018666666666" lon="10.214178333333333">
                        <ele>0</ele>
                        <time>2022-08-18T23:29:31Z</time>
                                                <extensions>
                            <sog>0.1</sog>
<cog>66.0</cog>
                        </extensions>
                    </trkpt>
                    <trkpt lat="54.400205" lon="10.214151666666668">
                        <ele>0</ele>
                        <time>2022-08-18T23:32:32Z</time>
                                                <extensions>
                            <sog>0.1</sog>
<cog>31.3</cog>
                        </extensions>
                    </trkpt>
                    <trkpt lat="54.400215" lon="10.214163333333333">
                        <ele>0</ele>
                        <time>2022-08-18T23:38:30Z</time>
                                                <extensions>
                            <sog>0.0</sog>
<cog>89.8</cog>
                        </extensions>
                    </trkpt>
                    <trkpt lat="54.40020833333333" lon="10.214173333333333">
                        <ele>0</ele>
                        <time>2022-08-18T23:47:31Z</time>
                                                <extensions>
                            <sog>0.1</sog>
<cog>29.9</cog>
                        </extensions>
                    </trkpt>
                    <trkpt lat="54.400198333333336" lon="10.214168333333333">
                        <ele>0</ele>
                        <time>2022-08-18T23:50:31Z</time>
                                                <extensions>
                            <sog>0.1</sog>
<cog>27.5</cog>
                        </extensions>
                    </trkpt>
                    <trkpt lat="54.400189999999995" lon="10.214148333333332">
                        <ele>0</ele>
                        <time>2022-08-18T23:53:30Z</time>
                                                <extensions>
                            <sog>0.1</sog>
<cog>16.4</cog>
                        </extensions>
                    </trkpt>
                    <trkpt lat="54.400189999999995" lon="10.214158333333334">
                        <ele>0</ele>
                        <time>2022-08-18T23:59:31Z</time>
                                                <extensions>
                            <sog>0.0</sog>
<cog>35.9</cog>
                        </extensions>
                    </trkpt>
                    </trkseg>
                </trk>
</gpx>