<?xml version="1.0" encoding="UTF-8"?>
<gpx version="1.1" creator="AIS-to-GPX Converter" xmlns="http://www.topografix.com/GPX/1/1">
                <trk>
                    <name>anon0041</name>
                    <trkseg>
                                            <trkpt lat="54.402325000000005" lon="10.217125000000001">
                        <ele>0</ele>
                        <time>2022-08-18T00:16:37Z</time>
                        <extensions>
    <sog>0.0</sog>
</extensions>
                    </trkpt>
                    <trkpt lat="54.40232833333334" lon="10.217126666666667">
                        <ele>0</ele>
                        <time>2022-08-18T00:19:37Z</time>
                        <extensions>
    <sog>0.0</sog>
</extensions>
                    </trkpt>
                    <trkpt lat="54.40231333333334" lon="10.217108333333334">
                        <ele>0</ele>
                        <time>2022-08-18T00:25:37Z</time>
                        <extensions>
    <sog>0.0</sog>
</extensions>
                    </trkpt>
                    <trkpt lat="54.402315" lon="10.217101666666668">
                        <ele>0</ele>
                        <time>2022-08-18T00:28:39Z</time>
                        <extensions>
    <sog>0.0</sog>
</extensions>
                    </trkpt>
                    <trkpt lat="54.402318333333334" lon="10.21711">
                        <ele>0</ele>
                        <time>2022-08-18T00:34:38Z</time>
                        <extensions>
    <sog>0.0</sog>
</extensions>
                    </trkpt>
                    <trkpt lat="54.402315" lon="10.217116666666668">
                        <ele>0</ele>
                        <time>2022-08-18T00:40:37Z</time>
                        <extensions>
    <sog>0.0</sog>
</extensions>
                    </trkpt>
                    <trkpt lat="54.402318333333334" lon="10.217098333333333">
                        <ele>0</ele>
                        <time>2022-08-18T00:55:37Z</time>
                        <extensions>
    <sog>0.0</sog>
</extensions>
                    </trkpt>
                    <trkpt lat="54.40232" lon="10.217115">
                        <ele>0</ele>
                        <time>2022-08-18T01:01:37Z</time>
                        <extensions>
    <sog>0.0</sog>
</extensions>
                    </trkpt>
                    <trkpt lat="54.402345" lon="10.217099999999999">
                        <ele>0</ele>
                        <time>2022-08-18T01:37:37Z</time>
                        <extensions>
    <sog>0.0</sog>
</extensions>
                    </trkpt>
                    <trkpt lat="54.40232666666667" lon="10.217113333333334">
                        <ele>0</ele>
                        <time>2022-08-18T01:58:37Z</time>
                        <extensions>
    <sog>0.0</sog>
</extensions>
                    </trkpt>
                    <trkpt lat="54.40231166666667" lon="10.217105">
                        <ele>0</ele>
                        <time>2022-08-18T02:10:37Z</time>
                        <extensions>
    <sog>0.0</sog>
</extensions>
                    </trkpt>
                    <trkpt lat="54.402318333333334" lon="10.217103333333334">
                        <ele>0</ele>
                        <time>2022-08-18T02:28:37Z</time>
                        <extensions>
    <sog>0.0</sog>
</extensions>
                    </trkpt>
                    <trkpt lat="54.402318333333334" lon="10.217098333333333">
                        <ele>0</ele>
                        <time>2022-08-18T02:37:37Z</time>
                        <extensions>
    <sog>0.0</sog>
</extensions>
                    </trkpt>
                    <trkpt lat="54.40231666666667" lon="10.217093333333334">
                        <ele>0</ele>
                        <time>2022-08-18T02:58:38Z</time>
                        <extensions>
    <sog>0.0</sog>
</extensions>
                    </trkpt>
                    <trkpt lat="54.40230666666666" lon="10.217108333333334">
                        <ele>0</ele>
                        <time>2022-08-18T03:04:37Z</time>
                        <extensions>
    <sog>0.0</sog>
</extensions>
                    </trkpt>
                    <trkpt lat="54.40230666666666" lon="10.217098333333333">
                        <ele>0</ele>
                        <time>2022-08-18T04:01:39Z</time>
                        <extensions>
    <sog>0.0</sog>
</extensions>
                    </trkpt>
                    <trkpt lat="54.40231166666667" lon="10.217084999999999">
                        <ele>0</ele>
                        <time>2022-08-18T04:40:42Z</time>
                        <extensions>
    <sog>0.0</sog>
</extensions>
                    </trkpt>
                    <trkpt lat="54.402301666666666" lon="10.217103333333334">
                        <ele>0</ele>
                        <time>2022-08-18T04:43:37Z</time>
                        <extensions>
    <sog>0.0</sog>
</extensions>
                    </trkpt>
                    <trkpt lat="54.40231166666667" lon="10.217121666666666">
                        <ele>0</ele>
                        <time>2022-08-18T05:25:38Z</time>
                        <extensions>
    <sog>0.0</sog>
</extensions>
                    </trkpt>
                    <trkpt lat="54.40231333333334" lon="10.217103333333334">
                        <ele>0</ele>
                        <time>2022-08-18T05:31:39Z</time>
                        <extensions>
    <sog>0.0</sog>
</extensions>
                    </trkpt>
                    <trkpt lat="54.40230833333333" lon="10.217101666666668">
                        <ele>0</ele>
                        <time>2022-08-18T05:55:38Z</time>
                        <extensions>
    <sog>0.0</sog>
</extensions>
                    </trkpt>
                    <trkpt lat="54.40231000000001" lon="10.217081666666667">
                        <ele>0</ele>
                        <time>2022-08-18T06:07:38Z</time>
                        <extensions>
    <sog>0.0</sog>
</extensions>
                    </trkpt>
                    <trkpt lat="54.40231666666667" lon="10.217103333333334">
                        <ele>0</ele>
                        <time>2022-08-18T06:22:38Z</time>
                        <extensions>
    <sog>0.0</sog>
</extensions>
                    </trkpt>
                    <trkpt lat="54.404665" lon="10.213208333333334">
                        <ele>0</ele>
                        <time>2022-08-18T07:52:39Z</time>
                                                <extensions>
                            <sog>5.1</sog>
<cog>306.2</cog>
                        </extensions>
                    </trkpt>
                    <trkpt lat="54.40502" lon="10.212203333333333">
                        <ele>0</ele>
                        <time>2022-08-18T07:53:09Z</time>
                                                <extensions>
                            <sog>5.1</sog>
<cog>313.6</cog>
                        </extensions>
                    </trkpt>
                    <trkpt lat="54.40775" lon="10.208656666666666">
                        <ele>0</ele>
                        <time>2022-08-18T07:55:39Z</time>
                                                <extensions>
                            <sog>4.5</sog>
<cog>327.9</cog>
                        </extensions>
                    </trkpt>
                    <trkpt lat="54.40830833333334" lon="10.208013333333334">
                        <ele>0</ele>
                        <time>2022-08-18T07:56:09Z</time>
                                                <extensions>
                            <sog>5.0</sog>
<cog>318.0</cog>
                        </extensions>
                    </trkpt>
                    <trkpt lat="54.40878" lon="10.207218333333334">
                        <ele>0</ele>
                        <time>2022-08-18T07:56:39Z</time>
                                                <extensions>
                            <sog>4.7</sog>
<cog>311.4</cog>
                        </extensions>
                    </trkpt>
                    <trkpt lat="54.40925333333333" lon="10.206343333333333">
                        <ele>0</ele>
                        <time>2022-08-18T07:57:11Z</time>
                                                <extensions>
                            <sog>4.6</sog>
<cog>313.3</cog>
                        </extensions>
                    </trkpt>
                    <trkpt lat="54.410245" lon="10.205025000000001">
                        <ele>0</ele>
                        <time>2022-08-18T07:58:09Z</time>
                                                <extensions>
                            <sog>4.7</sog>
<cog>326.4</cog>
                        </extensions>
                    </trkpt>
                    <trkpt lat="54.41077333333333" lon="10.204366666666665">
                        <ele>0</ele>
                        <time>2022-08-18T07:58:39Z</time>
                                                <extensions>
                            <sog>4.6</sog>
<cog>321.8</cog>
                        </extensions>
                    </trkpt>
                    <trkpt lat="54.41132" lon="10.203751666666667">
                        <ele>0</ele>
                        <time>2022-08-18T07:59:09Z</time>
                                                <extensions>
                            <sog>4.7</sog>
<cog>332.7</cog>
                        </extensions>
                    </trkpt>
                    <trkpt lat="54.41247166666667" lon="10.202723333333333">
                        <ele>0</ele>
                        <time>2022-08-18T08:00:09Z</time>
                                                <extensions>
                            <sog>4.7</sog>
<cog>321.9</cog>
                        </extensions>
                    </trkpt>
                    <trkpt lat="54.41247166666667" lon="10.202723333333333">
                        <ele>0</ele>
                        <time>2022-08-18T08:00:09Z</time>
                                                <extensions>
                            <sog>4.7</sog>
<cog>321.9</cog>
                        </extensions>
                    </trkpt>
                    <trkpt lat="54.414093333333334" lon="10.200798333333333">
                        <ele>0</ele>
                        <time>2022-08-18T08:01:40Z</time>
                                                <extensions>
                            <sog>4.8</sog>
<cog>311.1</cog>
                        </extensions>
                    </trkpt>
                    <trkpt lat="54.41452666666667" lon="10.199995">
                        <ele>0</ele>
                        <time>2022-08-18T08:02:09Z</time>
                                                <extensions>
                            <sog>4.8</sog>
<cog>299.6</cog>
                        </extensions>
                    </trkpt>
                    <trkpt lat="54.415531666666666" lon="10.198533333333334">
                        <ele>0</ele>
                        <time>2022-08-18T08:03:09Z</time>
                                                <extensions>
                            <sog>4.6</sog>
<cog>317.8</cog>
                        </extensions>
                    </trkpt>
                    <trkpt lat="54.416055" lon="10.197763333333334">
                        <ele>0</ele>
                        <time>2022-08-18T08:03:40Z</time>
                                                <extensions>
                            <sog>4.7</sog>
<cog>315.7</cog>
                        </extensions>
                    </trkpt>
                    <trkpt lat="54.416540000000005" lon="10.196975">
                        <ele>0</ele>
                        <time>2022-08-18T08:04:10Z</time>
                                                <extensions>
                            <sog>4.9</sog>
<cog>319.2</cog>
                        </extensions>
                    </trkpt>
                    <trkpt lat="54.417006666666666" lon="10.196208333333335">
                        <ele>0</ele>
                        <time>2022-08-18T08:04:39Z</time>
                                                <extensions>
                            <sog>4.7</sog>
<cog>307.4</cog>
                        </extensions>
                    </trkpt>
                    <trkpt lat="54.41752666666666" lon="10.195468333333334">
                        <ele>0</ele>
                        <time>2022-08-18T08:05:09Z</time>
                                                <extensions>
                            <sog>4.8</sog>
<cog>321.8</cog>
                        </extensions>
                    </trkpt>
                    <trkpt lat="54.41807333333334" lon="10.194773333333334">
                        <ele>0</ele>
                        <time>2022-08-18T08:05:39Z</time>
                                                <extensions>
                            <sog>4.8</sog>
<cog>323.3</cog>
                        </extensions>
                    </trkpt>
                    <trkpt lat="54.418620000000004" lon="10.194008333333333">
                        <ele>0</ele>
                        <time>2022-08-18T08:06:10Z</time>
                                                <extensions>
                            <sog>4.9</sog>
<cog>323.6</cog>
                        </extensions>
                    </trkpt>
                    <trkpt lat="54.41919333333333" lon="10.193315">
                        <ele>0</ele>
                        <time>2022-08-18T08:06:41Z</time>
                                                <extensions>
                            <sog>5.2</sog>
<cog>317.5</cog>
                        </extensions>
                    </trkpt>
                    <trkpt lat="54.41959166666666" lon="10.19246">
                        <ele>0</ele>
                        <time>2022-08-18T08:07:09Z</time>
                                                <extensions>
                            <sog>5.0</sog>
<cog>310.2</cog>
                        </extensions>
                    </trkpt>
                    <trkpt lat="54.42004166666666" lon="10.191468333333335">
                        <ele>0</ele>
                        <time>2022-08-18T08:07:41Z</time>
                                                <extensions>
                            <sog>5.0</sog>
<cog>298.9</cog>
                        </extensions>
                    </trkpt>
                    <trkpt lat="54.423075000000004" lon="10.186918333333333">
                        <ele>0</ele>
                        <time>2022-08-18T08:10:39Z</time>
                                                <extensions>
                            <sog>4.9</sog>
<cog>318.8</cog>
                        </extensions>
                    </trkpt>
                    <trkpt lat="54.42422333333333" lon="10.185553333333333">
                        <ele>0</ele>
                        <time>2022-08-18T08:11:39Z</time>
                                                <extensions>
                            <sog>4.9</sog>
<cog>323.4</cog>
                        </extensions>
                    </trkpt>
                    <trkpt lat="54.42460666666667" lon="10.184551666666666">
                        <ele>0</ele>
                        <time>2022-08-18T08:12:09Z</time>
                                                <extensions>
                            <sog>5.2</sog>
<cog>295.8</cog>
                        </extensions>
                    </trkpt>
                    <trkpt lat="54.427794999999996" lon="10.178076666666668">
                        <ele>0</ele>
                        <time>2022-08-18T08:15:41Z</time>
                                                <extensions>
                            <sog>4.9</sog>
<cog>303.7</cog>
                        </extensions>
                    </trkpt>
                    <trkpt lat="54.42818" lon="10.177111666666667">
                        <ele>0</ele>
                        <time>2022-08-18T08:16:10Z</time>
                                                <extensions>
                            <sog>5.0</sog>
<cog>301.1</cog>
                        </extensions>
                    </trkpt>
                    <trkpt lat="54.42857333333333" lon="10.176158333333332">
                        <ele>0</ele>
                        <time>2022-08-18T08:16:39Z</time>
                                                <extensions>
                            <sog>5.2</sog>
<cog>299.5</cog>
                        </extensions>
                    </trkpt>
                    <trkpt lat="54.429044999999995" lon="10.17516">
                        <ele>0</ele>
                        <time>2022-08-18T08:17:11Z</time>
                                                <extensions>
                            <sog>5.3</sog>
<cog>296.8</cog>
                        </extensions>
                    </trkpt>
                    <trkpt lat="54.429395" lon="10.174305">
                        <ele>0</ele>
                        <time>2022-08-18T08:17:39Z</time>
                                                <extensions>
                            <sog>3.7</sog>
<cog>301.5</cog>
                        </extensions>
                    </trkpt>
                    <trkpt lat="54.431351666666664" lon="10.173883333333333">
                        <ele>0</ele>
                        <time>2022-08-18T08:19:39Z</time>
                                                <extensions>
                            <sog>4.5</sog>
<cog>351.6</cog>
                        </extensions>
                    </trkpt>
                    <trkpt lat="54.43329833333333" lon="10.172936666666667">
                        <ele>0</ele>
                        <time>2022-08-18T08:21:09Z</time>
                                                <extensions>
                            <sog>4.8</sog>
<cog>329.6</cog>
                        </extensions>
                    </trkpt>
                    <trkpt lat="54.434870000000004" lon="10.172596666666667">
                        <ele>0</ele>
                        <time>2022-08-18T08:22:41Z</time>
                                                <extensions>
                            <sog>2.3</sog>
<cog>0.9</cog>
                        </extensions>
                    </trkpt>
                    <trkpt lat="54.435446666666664" lon="10.172661666666666">
                        <ele>0</ele>
                        <time>2022-08-18T08:23:39Z</time>
                                                <extensions>
                            <sog>1.7</sog>
<cog>358.9</cog>
                        </extensions>
                    </trkpt>
                    <trkpt lat="54.434650000000005" lon="10.175471666666665">
                        <ele>0</ele>
                        <time>2022-08-18T08:39:16Z</time>
                                                <extensions>
                            <sog>4.5</sog>
<cog>92.6</cog>
                        </extensions>
                    </trkpt>
                    <trkpt lat="54.434338333333336" lon="10.17755">
                        <ele>0</ele>
                        <time>2022-08-18T08:40:14Z</time>
                                                <extensions>
                            <sog>4.8</sog>
<cog>96.2</cog>
                        </extensions>
                    </trkpt>
                    <trkpt lat="54.4345" lon="10.178686666666666">
                        <ele>0</ele>
                        <time>2022-08-18T08:40:46Z</time>
                                                <extensions>
                            <sog>4.0</sog>
<cog>65.9</cog>
                        </extensions>
                    </trkpt>
                    <trkpt lat="54.434828333333336" lon="10.179551666666667">
                        <ele>0</ele>
                        <time>2022-08-18T08:41:14Z</time>
                                                <extensions>
                            <sog>4.7</sog>
<cog>48.8</cog>
                        </extensions>
                    </trkpt>
                    <trkpt lat="54.435285" lon="10.180353333333333">
                        <ele>0</ele>
                        <time>2022-08-18T08:41:44Z</time>
                                                <extensions>
                            <sog>5.0</sog>
<cog>42.4</cog>
                        </extensions>
                    </trkpt>
                    <trkpt lat="54.43576666666667" lon="10.181093333333333">
                        <ele>0</ele>
                        <time>2022-08-18T08:42:14Z</time>
                                                <extensions>
                            <sog>4.1</sog>
<cog>39.7</cog>
                        </extensions>
                    </trkpt>
                    <trkpt lat="54.436726666666665" lon="10.182628333333334">
                        <ele>0</ele>
                        <time>2022-08-18T08:43:14Z</time>
                                                <extensions>
                            <sog>4.1</sog>
<cog>46.7</cog>
                        </extensions>
                    </trkpt>
                    <trkpt lat="54.43861666666667" lon="10.185853333333334">
                        <ele>0</ele>
                        <time>2022-08-18T08:45:15Z</time>
                                                <extensions>
                            <sog>5.4</sog>
<cog>48.2</cog>
                        </extensions>
                    </trkpt>
                    <trkpt lat="54.439425" lon="10.18756">
                        <ele>0</ele>
                        <time>2022-08-18T08:46:14Z</time>
                                                <extensions>
                            <sog>4.9</sog>
<cog>45.4</cog>
                        </extensions>
                    </trkpt>
                    <trkpt lat="54.43992" lon="10.188561666666667">
                        <ele>0</ele>
                        <time>2022-08-18T08:46:48Z</time>
                                                <extensions>
                            <sog>5.2</sog>
<cog>52.7</cog>
                        </extensions>
                    </trkpt>
                    <trkpt lat="54.44028333333333" lon="10.189381666666666">
                        <ele>0</ele>
                        <time>2022-08-18T08:47:15Z</time>
                                                <extensions>
                            <sog>4.9</sog>
<cog>50.8</cog>
                        </extensions>
                    </trkpt>
                    <trkpt lat="54.44112333333333" lon="10.191263333333334">
                        <ele>0</ele>
                        <time>2022-08-18T08:48:17Z</time>
                                                <extensions>
                            <sog>5.1</sog>
<cog>48.6</cog>
                        </extensions>
                    </trkpt>
                    <trkpt lat="54.44289166666667" lon="10.194619999999999">
                        <ele>0</ele>
                        <time>2022-08-18T08:50:15Z</time>
                                                <extensions>
                            <sog>4.7</sog>
<cog>45.9</cog>
                        </extensions>
                    </trkpt>
                    <trkpt lat="54.443396666666665" lon="10.195381666666666">
                        <ele>0</ele>
                        <time>2022-08-18T08:50:45Z</time>
                                                <extensions>
                            <sog>4.3</sog>
<cog>39.2</cog>
                        </extensions>
                    </trkpt>
                    <trkpt lat="54.44390666666666" lon="10.196158333333333">
                        <ele>0</ele>
                        <time>2022-08-18T08:51:15Z</time>
                                                <extensions>
                            <sog>4.5</sog>
<cog>43.3</cog>
                        </extensions>
                    </trkpt>
                    <trkpt lat="54.445638333333335" lon="10.197941666666667">
                        <ele>0</ele>
                        <time>2022-08-18T08:52:45Z</time>
                                                <extensions>
                            <sog>4.7</sog>
<cog>23.5</cog>
                        </extensions>
                    </trkpt>
                    <trkpt lat="54.44751" lon="10.199401666666667">
                        <ele>0</ele>
                        <time>2022-08-18T08:54:17Z</time>
                                                <extensions>
                            <sog>4.6</sog>
<cog>30.2</cog>
                        </extensions>
                    </trkpt>
                    <trkpt lat="54.44806666666667" lon="10.199881666666666">
                        <ele>0</ele>
                        <time>2022-08-18T08:54:45Z</time>
                                                <extensions>
                            <sog>4.9</sog>
<cog>23.3</cog>
                        </extensions>
                    </trkpt>
                    <trkpt lat="54.44869333333334" lon="10.200376666666667">
                        <ele>0</ele>
                        <time>2022-08-18T08:55:16Z</time>
                                                <extensions>
                            <sog>5.0</sog>
<cog>21.8</cog>
                        </extensions>
                    </trkpt>
                    <trkpt lat="54.45052833333333" lon="10.201598333333333">
                        <ele>0</ele>
                        <time>2022-08-18T08:56:44Z</time>
                                                <extensions>
                            <sog>5.5</sog>
<cog>26.1</cog>
                        </extensions>
                    </trkpt>
                    <trkpt lat="54.45179333333333" lon="10.202535000000001">
                        <ele>0</ele>
                        <time>2022-08-18T08:57:46Z</time>
                                                <extensions>
                            <sog>4.5</sog>
<cog>27.6</cog>
                        </extensions>
                    </trkpt>
                    <trkpt lat="54.45296833333334" lon="10.203448333333334">
                        <ele>0</ele>
                        <time>2022-08-18T08:58:44Z</time>
                                                <extensions>
                            <sog>4.5</sog>
<cog>16.5</cog>
                        </extensions>
                    </trkpt>
                    <trkpt lat="54.45359166666666" lon="10.20387">
                        <ele>0</ele>
                        <time>2022-08-18T08:59:14Z</time>
                                                <extensions>
                            <sog>5.3</sog>
<cog>15.9</cog>
                        </extensions>
                    </trkpt>
                    <trkpt lat="54.459765" lon="10.202111666666667">
                        <ele>0</ele>
                        <time>2022-08-18T09:04:16Z</time>
                                                <extensions>
                            <sog>5.5</sog>
<cog>335.3</cog>
                        </extensions>
                    </trkpt>
                    </trkseg>
                </trk>
</gpx>