<?xml version="1.0" encoding="UTF-8"?>
<gpx version="1.1" creator="AIS-to-GPX Converter" xmlns="http://www.topografix.com/GPX/1/1">
                <trk>
                    <name>anon0502</name>
                    <trkseg>
                                            <trkpt lat="54.755131666666664" lon="10.792513333333334">
                        <ele>0</ele>
                        <time>2022-08-18T22:01:55Z</time>
                                                <extensions>
                            <sog>11.1</sog>
<cog>205.0</cog>
                        </extensions>
                    </trkpt>
                    <trkpt lat="54.75136666666666" lon="10.789430000000001">
                        <ele>0</ele>
                        <time>2022-08-18T22:03:15Z</time>
                                                <extensions>
                            <sog>11.2</sog>
<cog>205.0</cog>
                        </extensions>
                    </trkpt>
                    <trkpt lat="54.75040333333333" lon="10.78864">
                        <ele>0</ele>
                        <time>2022-08-18T22:03:37Z</time>
                                                <extensions>
                            <sog>11.1</sog>
<cog>205.0</cog>
                        </extensions>
                    </trkpt>
                    <trkpt lat="54.74388666666667" lon="10.783335">
                        <ele>0</ele>
                        <time>2022-08-18T22:05:55Z</time>
                                                <extensions>
                            <sog>11.2</sog>
<cog>205.0</cog>
                        </extensions>
                    </trkpt>
                    <trkpt lat="54.74022166666667" lon="10.780286666666665">
                        <ele>0</ele>
                        <time>2022-08-18T22:07:15Z</time>
                                                <extensions>
                            <sog>11.2</sog>
<cog>206.0</cog>
                        </extensions>
                    </trkpt>
                    <trkpt lat="54.717035" lon="10.771898333333333">
                        <ele>0</ele>
                        <time>2022-08-18T22:14:55Z</time>
                                                <extensions>
                            <sog>11.3</sog>
<cog>189.0</cog>
                        </extensions>
                    </trkpt>
                    <trkpt lat="54.70815833333334" lon="10.76955">
                        <ele>0</ele>
                        <time>2022-08-18T22:17:47Z</time>
                                                <extensions>
                            <sog>11.5</sog>
<cog>189.0</cog>
                        </extensions>
                    </trkpt>
                    <trkpt lat="54.703446666666665" lon="10.7683">
                        <ele>0</ele>
                        <time>2022-08-18T22:19:16Z</time>
                                                <extensions>
                            <sog>11.4</sog>
<cog>188.0</cog>
                        </extensions>
                    </trkpt>
                    <trkpt lat="54.67749333333334" lon="10.771513333333333">
                        <ele>0</ele>
                        <time>2022-08-18T22:27:45Z</time>
                                                <extensions>
                            <sog>10.8</sog>
<cog>158.0</cog>
                        </extensions>
                    </trkpt>
                    </trkseg>
                </trk>
</gpx>