<?xml version="1.0" encoding="UTF-8"?>
<gpx version="1.1" creator="AIS-to-GPX Converter" xmlns="http://www.topografix.com/GPX/1/1">
                <trk>
                    <name>anon0022</name>
                    <trkseg>
                                            <trkpt lat="54.340158333333335" lon="10.157251666666667">
                        <ele>0</ele>
                        <time>2022-08-18T15:34:11Z</time>
                                                <extensions>
                            <sog>0.2</sog>
<cog>0.0</cog>
                        </extensions>
                    </trkpt>
                    <trkpt lat="54.34014666666667" lon="10.157248333333333">
                        <ele>0</ele>
                        <time>2022-08-18T15:37:11Z</time>
                                                <extensions>
                            <sog>0.0</sog>
<cog>0.0</cog>
                        </extensions>
                    </trkpt>
                    <trkpt lat="54.34015" lon="10.157268333333333">
                        <ele>0</ele>
                        <time>2022-08-18T15:40:08Z</time>
                                                <extensions>
                            <sog>0.0</sog>
<cog>0.0</cog>
                        </extensions>
                    </trkpt>
                    <trkpt lat="54.340151666666664" lon="10.157251666666667">
                        <ele>0</ele>
                        <time>2022-08-18T15:43:03Z</time>
                                                <extensions>
                            <sog>0.0</sog>
<cog>0.0</cog>
                        </extensions>
                    </trkpt>
                    <trkpt lat="54.340151666666664" lon="10.157251666666667">
                        <ele>0</ele>
                        <time>2022-08-18T15:43:03Z</time>
                                                <extensions>
                            <sog>0.0</sog>
<cog>0.0</cog>
                        </extensions>
                    </trkpt>
                    <trkpt lat="54.340145" lon="10.157271666666666">
                        <ele>0</ele>
                        <time>2022-08-18T15:46:07Z</time>
                                                <extensions>
                            <sog>0.0</sog>
<cog>0.0</cog>
                        </extensions>
                    </trkpt>
                    <trkpt lat="54.34015333333333" lon="10.157248333333333">
                        <ele>0</ele>
                        <time>2022-08-18T15:49:08Z</time>
                                                <extensions>
                            <sog>0.0</sog>
<cog>0.0</cog>
                        </extensions>
                    </trkpt>
                    <trkpt lat="54.34014" lon="10.15724">
                        <ele>0</ele>
                        <time>2022-08-18T15:52:08Z</time>
                                                <extensions>
                            <sog>0.0</sog>
<cog>0.0</cog>
                        </extensions>
                    </trkpt>
                    <trkpt lat="54.34015" lon="10.15725">
                        <ele>0</ele>
                        <time>2022-08-18T15:55:09Z</time>
                                                <extensions>
                            <sog>0.0</sog>
<cog>0.0</cog>
                        </extensions>
                    </trkpt>
                    <trkpt lat="54.34014" lon="10.15721">
                        <ele>0</ele>
                        <time>2022-08-18T15:58:06Z</time>
                                                <extensions>
                            <sog>0.0</sog>
<cog>0.0</cog>
                        </extensions>
                    </trkpt>
                    <trkpt lat="54.340135000000004" lon="10.157215">
                        <ele>0</ele>
                        <time>2022-08-18T16:01:04Z</time>
                                                <extensions>
                            <sog>0.0</sog>
<cog>0.0</cog>
                        </extensions>
                    </trkpt>
                    <trkpt lat="54.34013" lon="10.15723">
                        <ele>0</ele>
                        <time>2022-08-18T16:04:08Z</time>
                                                <extensions>
                            <sog>0.0</sog>
<cog>0.0</cog>
                        </extensions>
                    </trkpt>
                    <trkpt lat="54.34014333333334" lon="10.157238333333334">
                        <ele>0</ele>
                        <time>2022-08-18T16:07:10Z</time>
                                                <extensions>
                            <sog>0.0</sog>
<cog>0.0</cog>
                        </extensions>
                    </trkpt>
                    <trkpt lat="54.34014" lon="10.157255">
                        <ele>0</ele>
                        <time>2022-08-18T16:10:11Z</time>
                                                <extensions>
                            <sog>0.0</sog>
<cog>0.0</cog>
                        </extensions>
                    </trkpt>
                    <trkpt lat="54.340136666666666" lon="10.15726">
                        <ele>0</ele>
                        <time>2022-08-18T16:13:11Z</time>
                                                <extensions>
                            <sog>0.1</sog>
<cog>0.0</cog>
                        </extensions>
                    </trkpt>
                    <trkpt lat="54.34012" lon="10.157266666666667">
                        <ele>0</ele>
                        <time>2022-08-18T16:16:10Z</time>
                                                <extensions>
                            <sog>0.0</sog>
<cog>0.0</cog>
                        </extensions>
                    </trkpt>
                    <trkpt lat="54.340113333333335" lon="10.157278333333332">
                        <ele>0</ele>
                        <time>2022-08-18T16:22:02Z</time>
                                                <extensions>
                            <sog>0.0</sog>
<cog>0.0</cog>
                        </extensions>
                    </trkpt>
                    <trkpt lat="54.34012333333333" lon="10.157273333333334">
                        <ele>0</ele>
                        <time>2022-08-18T16:25:04Z</time>
                                                <extensions>
                            <sog>0.0</sog>
<cog>0.0</cog>
                        </extensions>
                    </trkpt>
                    <trkpt lat="54.34011833333333" lon="10.157271666666666">
                        <ele>0</ele>
                        <time>2022-08-18T16:28:05Z</time>
                                                <extensions>
                            <sog>0.0</sog>
<cog>0.0</cog>
                        </extensions>
                    </trkpt>
                    <trkpt lat="54.34013166666667" lon="10.15724">
                        <ele>0</ele>
                        <time>2022-08-18T16:31:11Z</time>
                                                <extensions>
                            <sog>0.0</sog>
<cog>0.0</cog>
                        </extensions>
                    </trkpt>
                    <trkpt lat="54.34013" lon="10.157546666666667">
                        <ele>0</ele>
                        <time>2022-08-18T16:34:10Z</time>
                                                <extensions>
                            <sog>0.8</sog>
<cog>90.1</cog>
                        </extensions>
                    </trkpt>
                    <trkpt lat="54.34015333333333" lon="10.159768333333334">
                        <ele>0</ele>
                        <time>2022-08-18T16:37:10Z</time>
                                                <extensions>
                            <sog>6.1</sog>
<cog>30.4</cog>
                        </extensions>
                    </trkpt>
                    <trkpt lat="54.34023" lon="10.159838333333333">
                        <ele>0</ele>
                        <time>2022-08-18T16:37:13Z</time>
                                                <extensions>
                            <sog>6.3</sog>
<cog>27.7</cog>
                        </extensions>
                    </trkpt>
                    <trkpt lat="54.34079666666666" lon="10.160305">
                        <ele>0</ele>
                        <time>2022-08-18T16:37:33Z</time>
                                                <extensions>
                            <sog>7.1</sog>
<cog>24.5</cog>
                        </extensions>
                    </trkpt>
                    <trkpt lat="54.34264833333334" lon="10.161638333333334">
                        <ele>0</ele>
                        <time>2022-08-18T16:38:33Z</time>
                                                <extensions>
                            <sog>7.1</sog>
<cog>20.7</cog>
                        </extensions>
                    </trkpt>
                    <trkpt lat="54.34449333333334" lon="10.162838333333333">
                        <ele>0</ele>
                        <time>2022-08-18T16:39:33Z</time>
                                                <extensions>
                            <sog>7.1</sog>
<cog>22.9</cog>
                        </extensions>
                    </trkpt>
                    <trkpt lat="54.34572166666667" lon="10.163665">
                        <ele>0</ele>
                        <time>2022-08-18T16:40:13Z</time>
                                                <extensions>
                            <sog>7.1</sog>
<cog>21.1</cog>
                        </extensions>
                    </trkpt>
                    <trkpt lat="54.34634666666667" lon="10.164058333333333">
                        <ele>0</ele>
                        <time>2022-08-18T16:40:33Z</time>
                                                <extensions>
                            <sog>7.1</sog>
<cog>19.6</cog>
                        </extensions>
                    </trkpt>
                    <trkpt lat="54.347595" lon="10.164803333333333">
                        <ele>0</ele>
                        <time>2022-08-18T16:41:13Z</time>
                                                <extensions>
                            <sog>7.1</sog>
<cog>19.9</cog>
                        </extensions>
                    </trkpt>
                    <trkpt lat="54.34821833333333" lon="10.165204999999998">
                        <ele>0</ele>
                        <time>2022-08-18T16:41:33Z</time>
                                                <extensions>
                            <sog>7.1</sog>
<cog>22.3</cog>
                        </extensions>
                    </trkpt>
                    <trkpt lat="54.34931166666667" lon="10.165973333333334">
                        <ele>0</ele>
                        <time>2022-08-18T16:42:09Z</time>
                                                <extensions>
                            <sog>7.0</sog>
<cog>22.9</cog>
                        </extensions>
                    </trkpt>
                    <trkpt lat="54.35021833333334" lon="10.166556666666667">
                        <ele>0</ele>
                        <time>2022-08-18T16:42:39Z</time>
                                                <extensions>
                            <sog>7.0</sog>
<cog>21.4</cog>
                        </extensions>
                    </trkpt>
                    <trkpt lat="54.35116333333334" lon="10.16715">
                        <ele>0</ele>
                        <time>2022-08-18T16:43:09Z</time>
                                                <extensions>
                            <sog>7.0</sog>
<cog>18.7</cog>
                        </extensions>
                    </trkpt>
                    <trkpt lat="54.35207833333333" lon="10.167711666666666">
                        <ele>0</ele>
                        <time>2022-08-18T16:43:39Z</time>
                                                <extensions>
                            <sog>7.1</sog>
<cog>21.1</cog>
                        </extensions>
                    </trkpt>
                    <trkpt lat="54.353005" lon="10.168383333333333">
                        <ele>0</ele>
                        <time>2022-08-18T16:44:09Z</time>
                                                <extensions>
                            <sog>7.1</sog>
<cog>24.5</cog>
                        </extensions>
                    </trkpt>
                    <trkpt lat="54.353925" lon="10.168943333333335">
                        <ele>0</ele>
                        <time>2022-08-18T16:44:39Z</time>
                                                <extensions>
                            <sog>7.1</sog>
<cog>19.5</cog>
                        </extensions>
                    </trkpt>
                    <trkpt lat="54.35487333333333" lon="10.169543333333333">
                        <ele>0</ele>
                        <time>2022-08-18T16:45:09Z</time>
                                                <extensions>
                            <sog>7.1</sog>
<cog>19.0</cog>
                        </extensions>
                    </trkpt>
                    <trkpt lat="54.35581" lon="10.170028333333333">
                        <ele>0</ele>
                        <time>2022-08-18T16:45:39Z</time>
                                                <extensions>
                            <sog>7.1</sog>
<cog>19.4</cog>
                        </extensions>
                    </trkpt>
                    <trkpt lat="54.356748333333336" lon="10.170653333333332">
                        <ele>0</ele>
                        <time>2022-08-18T16:46:09Z</time>
                                                <extensions>
                            <sog>7.1</sog>
<cog>22.2</cog>
                        </extensions>
                    </trkpt>
                    <trkpt lat="54.35753833333333" lon="10.171185000000001">
                        <ele>0</ele>
                        <time>2022-08-18T16:46:35Z</time>
                                                <extensions>
                            <sog>7.2</sog>
<cog>21.0</cog>
                        </extensions>
                    </trkpt>
                    <trkpt lat="54.360395000000004" lon="10.17305">
                        <ele>0</ele>
                        <time>2022-08-18T16:48:07Z</time>
                                                <extensions>
                            <sog>7.2</sog>
<cog>23.7</cog>
                        </extensions>
                    </trkpt>
                    <trkpt lat="54.36125166666667" lon="10.173671666666667">
                        <ele>0</ele>
                        <time>2022-08-18T16:48:35Z</time>
                                                <extensions>
                            <sog>7.1</sog>
<cog>22.4</cog>
                        </extensions>
                    </trkpt>
                    <trkpt lat="54.362245" lon="10.174323333333332">
                        <ele>0</ele>
                        <time>2022-08-18T16:49:07Z</time>
                                                <extensions>
                            <sog>7.2</sog>
<cog>21.5</cog>
                        </extensions>
                    </trkpt>
                    <trkpt lat="54.36312" lon="10.17491">
                        <ele>0</ele>
                        <time>2022-08-18T16:49:35Z</time>
                                                <extensions>
                            <sog>7.2</sog>
<cog>21.5</cog>
                        </extensions>
                    </trkpt>
                    <trkpt lat="54.364108333333334" lon="10.175636666666666">
                        <ele>0</ele>
                        <time>2022-08-18T16:50:07Z</time>
                                                <extensions>
                            <sog>7.3</sog>
<cog>22.1</cog>
                        </extensions>
                    </trkpt>
                    <trkpt lat="54.364961666666666" lon="10.176341666666668">
                        <ele>0</ele>
                        <time>2022-08-18T16:50:35Z</time>
                                                <extensions>
                            <sog>7.3</sog>
<cog>28.4</cog>
                        </extensions>
                    </trkpt>
                    <trkpt lat="54.36591" lon="10.177241666666667">
                        <ele>0</ele>
                        <time>2022-08-18T16:51:07Z</time>
                                                <extensions>
                            <sog>7.3</sog>
<cog>28.0</cog>
                        </extensions>
                    </trkpt>
                    <trkpt lat="54.36673166666667" lon="10.178063333333334">
                        <ele>0</ele>
                        <time>2022-08-18T16:51:35Z</time>
                                                <extensions>
                            <sog>7.3</sog>
<cog>29.8</cog>
                        </extensions>
                    </trkpt>
                    <trkpt lat="54.36766333333333" lon="10.179016666666666">
                        <ele>0</ele>
                        <time>2022-08-18T16:52:07Z</time>
                                                <extensions>
                            <sog>7.3</sog>
<cog>33.5</cog>
                        </extensions>
                    </trkpt>
                    <trkpt lat="54.368493333333326" lon="10.179891666666666">
                        <ele>0</ele>
                        <time>2022-08-18T16:52:36Z</time>
                                                <extensions>
                            <sog>7.4</sog>
<cog>32.6</cog>
                        </extensions>
                    </trkpt>
                    <trkpt lat="54.36941" lon="10.180841666666668">
                        <ele>0</ele>
                        <time>2022-08-18T16:53:07Z</time>
                                                <extensions>
                            <sog>7.3</sog>
<cog>31.9</cog>
                        </extensions>
                    </trkpt>
                    <trkpt lat="54.37024666666667" lon="10.181678333333334">
                        <ele>0</ele>
                        <time>2022-08-18T16:53:36Z</time>
                                                <extensions>
                            <sog>7.3</sog>
<cog>28.8</cog>
                        </extensions>
                    </trkpt>
                    <trkpt lat="54.37107666666667" lon="10.182565">
                        <ele>0</ele>
                        <time>2022-08-18T16:54:04Z</time>
                                                <extensions>
                            <sog>7.3</sog>
<cog>32.7</cog>
                        </extensions>
                    </trkpt>
                    <trkpt lat="54.37198" lon="10.183486666666665">
                        <ele>0</ele>
                        <time>2022-08-18T16:54:36Z</time>
                                                <extensions>
                            <sog>7.3</sog>
<cog>31.0</cog>
                        </extensions>
                    </trkpt>
                    <trkpt lat="54.37455333333333" lon="10.184104999999999">
                        <ele>0</ele>
                        <time>2022-08-18T16:56:04Z</time>
                                                <extensions>
                            <sog>6.9</sog>
<cog>326.3</cog>
                        </extensions>
                    </trkpt>
                    <trkpt lat="54.37617" lon="10.182406666666667">
                        <ele>0</ele>
                        <time>2022-08-18T16:57:04Z</time>
                                                <extensions>
                            <sog>6.8</sog>
<cog>337.3</cog>
                        </extensions>
                    </trkpt>
                    <trkpt lat="54.37800333333333" lon="10.181548333333334">
                        <ele>0</ele>
                        <time>2022-08-18T16:58:04Z</time>
                                                <extensions>
                            <sog>6.8</sog>
<cog>357.8</cog>
                        </extensions>
                    </trkpt>
                    <trkpt lat="54.378775000000005" lon="10.182648333333333">
                        <ele>0</ele>
                        <time>2022-08-18T16:58:39Z</time>
                                                <extensions>
                            <sog>6.2</sog>
<cog>76.4</cog>
                        </extensions>
                    </trkpt>
                    <trkpt lat="54.37891666666667" lon="10.183786666666666">
                        <ele>0</ele>
                        <time>2022-08-18T16:59:06Z</time>
                                                <extensions>
                            <sog>5.8</sog>
<cog>68.8</cog>
                        </extensions>
                    </trkpt>
                    <trkpt lat="54.37961833333333" lon="10.185325">
                        <ele>0</ele>
                        <time>2022-08-18T16:59:39Z</time>
                                                <extensions>
                            <sog>7.9</sog>
<cog>50.0</cog>
                        </extensions>
                    </trkpt>
                    <trkpt lat="54.380271666666665" lon="10.186588333333333">
                        <ele>0</ele>
                        <time>2022-08-18T17:00:06Z</time>
                                                <extensions>
                            <sog>7.8</sog>
<cog>49.2</cog>
                        </extensions>
                    </trkpt>
                    <trkpt lat="54.380271666666665" lon="10.186588333333333">
                        <ele>0</ele>
                        <time>2022-08-18T17:00:06Z</time>
                                                <extensions>
                            <sog>7.8</sog>
<cog>49.2</cog>
                        </extensions>
                    </trkpt>
                    <trkpt lat="54.38108333333333" lon="10.188101666666666">
                        <ele>0</ele>
                        <time>2022-08-18T17:00:39Z</time>
                                                <extensions>
                            <sog>7.8</sog>
<cog>44.9</cog>
                        </extensions>
                    </trkpt>
                    <trkpt lat="54.38108333333333" lon="10.188101666666666">
                        <ele>0</ele>
                        <time>2022-08-18T17:00:39Z</time>
                                                <extensions>
                            <sog>7.8</sog>
<cog>44.9</cog>
                        </extensions>
                    </trkpt>
                    <trkpt lat="54.38179" lon="10.189263333333335">
                        <ele>0</ele>
                        <time>2022-08-18T17:01:06Z</time>
                                                <extensions>
                            <sog>7.7</sog>
<cog>40.6</cog>
                        </extensions>
                    </trkpt>
                    <trkpt lat="54.382666666666665" lon="10.190641666666666">
                        <ele>0</ele>
                        <time>2022-08-18T17:01:39Z</time>
                                                <extensions>
                            <sog>7.8</sog>
<cog>38.9</cog>
                        </extensions>
                    </trkpt>
                    <trkpt lat="54.383405" lon="10.191758333333333">
                        <ele>0</ele>
                        <time>2022-08-18T17:02:06Z</time>
                                                <extensions>
                            <sog>7.8</sog>
<cog>41.9</cog>
                        </extensions>
                    </trkpt>
                    <trkpt lat="54.384305000000005" lon="10.19312">
                        <ele>0</ele>
                        <time>2022-08-18T17:02:39Z</time>
                                                <extensions>
                            <sog>7.8</sog>
<cog>41.3</cog>
                        </extensions>
                    </trkpt>
                    <trkpt lat="54.385045" lon="10.194226666666667">
                        <ele>0</ele>
                        <time>2022-08-18T17:03:06Z</time>
                                                <extensions>
                            <sog>7.9</sog>
<cog>40.6</cog>
                        </extensions>
                    </trkpt>
                    <trkpt lat="54.386878333333335" lon="10.196238333333334">
                        <ele>0</ele>
                        <time>2022-08-18T17:04:06Z</time>
                                                <extensions>
                            <sog>7.6</sog>
<cog>27.7</cog>
                        </extensions>
                    </trkpt>
                    <trkpt lat="54.387905" lon="10.197098333333335">
                        <ele>0</ele>
                        <time>2022-08-18T17:04:38Z</time>
                                                <extensions>
                            <sog>7.4</sog>
<cog>26.2</cog>
                        </extensions>
                    </trkpt>
                    <trkpt lat="54.388754999999996" lon="10.197840000000001">
                        <ele>0</ele>
                        <time>2022-08-18T17:05:06Z</time>
                                                <extensions>
                            <sog>7.3</sog>
<cog>27.3</cog>
                        </extensions>
                    </trkpt>
                    <trkpt lat="54.39060333333334" lon="10.199346666666665">
                        <ele>0</ele>
                        <time>2022-08-18T17:06:05Z</time>
                                                <extensions>
                            <sog>7.5</sog>
<cog>27.1</cog>
                        </extensions>
                    </trkpt>
                    <trkpt lat="54.392495000000004" lon="10.200848333333333">
                        <ele>0</ele>
                        <time>2022-08-18T17:07:05Z</time>
                                                <extensions>
                            <sog>7.5</sog>
<cog>23.5</cog>
                        </extensions>
                    </trkpt>
                    <trkpt lat="54.393543333333334" lon="10.201645000000001">
                        <ele>0</ele>
                        <time>2022-08-18T17:07:38Z</time>
                                                <extensions>
                            <sog>7.4</sog>
<cog>25.4</cog>
                        </extensions>
                    </trkpt>
                    <trkpt lat="54.394396666666665" lon="10.202318333333332">
                        <ele>0</ele>
                        <time>2022-08-18T17:08:05Z</time>
                                                <extensions>
                            <sog>7.5</sog>
<cog>23.7</cog>
                        </extensions>
                    </trkpt>
                    <trkpt lat="54.39546333333333" lon="10.203068333333333">
                        <ele>0</ele>
                        <time>2022-08-18T17:08:38Z</time>
                                                <extensions>
                            <sog>7.5</sog>
<cog>19.7</cog>
                        </extensions>
                    </trkpt>
                    <trkpt lat="54.39636666666667" lon="10.203563333333333">
                        <ele>0</ele>
                        <time>2022-08-18T17:09:05Z</time>
                                                <extensions>
                            <sog>7.6</sog>
<cog>17.9</cog>
                        </extensions>
                    </trkpt>
                    <trkpt lat="54.400240000000004" lon="10.206798333333333">
                        <ele>0</ele>
                        <time>2022-08-18T17:11:09Z</time>
                                                <extensions>
                            <sog>7.1</sog>
<cog>52.2</cog>
                        </extensions>
                    </trkpt>
                    <trkpt lat="54.40075" lon="10.208083333333333">
                        <ele>0</ele>
                        <time>2022-08-18T17:11:38Z</time>
                                                <extensions>
                            <sog>6.9</sog>
<cog>60.5</cog>
                        </extensions>
                    </trkpt>
                    <trkpt lat="54.40123833333334" lon="10.209551666666666">
                        <ele>0</ele>
                        <time>2022-08-18T17:12:09Z</time>
                                                <extensions>
                            <sog>6.7</sog>
<cog>58.9</cog>
                        </extensions>
                    </trkpt>
                    <trkpt lat="54.40167666666667" lon="10.210841666666665">
                        <ele>0</ele>
                        <time>2022-08-18T17:12:38Z</time>
                                                <extensions>
                            <sog>6.1</sog>
<cog>60.4</cog>
                        </extensions>
                    </trkpt>
                    <trkpt lat="54.402026666666664" lon="10.211948333333334">
                        <ele>0</ele>
                        <time>2022-08-18T17:13:09Z</time>
                                                <extensions>
                            <sog>4.3</sog>
<cog>62.8</cog>
                        </extensions>
                    </trkpt>
                    <trkpt lat="54.40257666666666" lon="10.213671666666666">
                        <ele>0</ele>
                        <time>2022-08-18T17:14:09Z</time>
                                                <extensions>
                            <sog>4.0</sog>
<cog>60.9</cog>
                        </extensions>
                    </trkpt>
                    <trkpt lat="54.403115" lon="10.215383333333333">
                        <ele>0</ele>
                        <time>2022-08-18T17:15:09Z</time>
                                                <extensions>
                            <sog>4.1</sog>
<cog>62.8</cog>
                        </extensions>
                    </trkpt>
                    <trkpt lat="54.40353" lon="10.216821666666668">
                        <ele>0</ele>
                        <time>2022-08-18T17:16:09Z</time>
                                                <extensions>
                            <sog>2.3</sog>
<cog>57.6</cog>
                        </extensions>
                    </trkpt>
                    <trkpt lat="54.40364" lon="10.217083333333333">
                        <ele>0</ele>
                        <time>2022-08-18T17:16:38Z</time>
                                                <extensions>
                            <sog>1.1</sog>
<cog>54.6</cog>
                        </extensions>
                    </trkpt>
                    <trkpt lat="54.40367666666667" lon="10.216936666666667">
                        <ele>0</ele>
                        <time>2022-08-18T17:31:32Z</time>
                                                <extensions>
                            <sog>0.0</sog>
<cog>223.2</cog>
                        </extensions>
                    </trkpt>
                    <trkpt lat="54.40369" lon="10.216958333333334">
                        <ele>0</ele>
                        <time>2022-08-18T17:58:38Z</time>
                                                <extensions>
                            <sog>0.0</sog>
<cog>325.7</cog>
                        </extensions>
                    </trkpt>
                    <trkpt lat="54.40369" lon="10.216958333333334">
                        <ele>0</ele>
                        <time>2022-08-18T18:01:38Z</time>
                                                <extensions>
                            <sog>0.0</sog>
<cog>325.7</cog>
                        </extensions>
                    </trkpt>
                    <trkpt lat="54.403668333333336" lon="10.216953333333333">
                        <ele>0</ele>
                        <time>2022-08-18T18:07:41Z</time>
                                                <extensions>
                            <sog>0.0</sog>
<cog>325.7</cog>
                        </extensions>
                    </trkpt>
                    <trkpt lat="54.403675" lon="10.216951666666667">
                        <ele>0</ele>
                        <time>2022-08-18T18:31:41Z</time>
                                                <extensions>
                            <sog>0.0</sog>
<cog>325.7</cog>
                        </extensions>
                    </trkpt>
                    <trkpt lat="54.403685" lon="10.216926666666666">
                        <ele>0</ele>
                        <time>2022-08-18T18:34:36Z</time>
                                                <extensions>
                            <sog>0.0</sog>
<cog>325.7</cog>
                        </extensions>
                    </trkpt>
                    <trkpt lat="54.403663333333334" lon="10.216918333333332">
                        <ele>0</ele>
                        <time>2022-08-18T18:40:37Z</time>
                                                <extensions>
                            <sog>0.0</sog>
<cog>325.7</cog>
                        </extensions>
                    </trkpt>
                    <trkpt lat="54.40368333333333" lon="10.216925">
                        <ele>0</ele>
                        <time>2022-08-18T18:49:32Z</time>
                                                <extensions>
                            <sog>0.0</sog>
<cog>325.7</cog>
                        </extensions>
                    </trkpt>
                    <trkpt lat="54.40367166666667" lon="10.216903333333333">
                        <ele>0</ele>
                        <time>2022-08-18T19:01:33Z</time>
                                                <extensions>
                            <sog>0.0</sog>
<cog>325.7</cog>
                        </extensions>
                    </trkpt>
                    <trkpt lat="54.40369666666666" lon="10.216955">
                        <ele>0</ele>
                        <time>2022-08-18T19:10:39Z</time>
                                                <extensions>
                            <sog>0.0</sog>
<cog>325.7</cog>
                        </extensions>
                    </trkpt>
                    <trkpt lat="54.403688333333335" lon="10.21694">
                        <ele>0</ele>
                        <time>2022-08-18T19:22:40Z</time>
                                                <extensions>
                            <sog>0.0</sog>
<cog>325.7</cog>
                        </extensions>
                    </trkpt>
                    <trkpt lat="54.40369166666667" lon="10.216926666666666">
                        <ele>0</ele>
                        <time>2022-08-18T19:40:40Z</time>
                                                <extensions>
                            <sog>0.0</sog>
<cog>325.7</cog>
                        </extensions>
                    </trkpt>
                    <trkpt lat="54.403749999999995" lon="10.216968333333334">
                        <ele>0</ele>
                        <time>2022-08-18T19:52:35Z</time>
                                                <extensions>
                            <sog>0.0</sog>
<cog>325.7</cog>
                        </extensions>
                    </trkpt>
                    <trkpt lat="54.40373833333333" lon="10.216945">
                        <ele>0</ele>
                        <time>2022-08-18T19:55:36Z</time>
                                                <extensions>
                            <sog>0.0</sog>
<cog>325.7</cog>
                        </extensions>
                    </trkpt>
                    <trkpt lat="54.403713333333336" lon="10.216985">
                        <ele>0</ele>
                        <time>2022-08-18T21:10:33Z</time>
                                                <extensions>
                            <sog>0.0</sog>
<cog>325.7</cog>
                        </extensions>
                    </trkpt>
                    <trkpt lat="54.40370666666667" lon="10.216968333333334">
                        <ele>0</ele>
                        <time>2022-08-18T21:13:37Z</time>
                                                <extensions>
                            <sog>0.0</sog>
<cog>325.7</cog>
                        </extensions>
                    </trkpt>
                    <trkpt lat="54.403713333333336" lon="10.216946666666667">
                        <ele>0</ele>
                        <time>2022-08-18T21:22:35Z</time>
                                                <extensions>
                            <sog>0.0</sog>
<cog>325.7</cog>
                        </extensions>
                    </trkpt>
                    <trkpt lat="54.403688333333335" lon="10.216931666666666">
                        <ele>0</ele>
                        <time>2022-08-18T21:40:37Z</time>
                                                <extensions>
                            <sog>0.0</sog>
<cog>325.7</cog>
                        </extensions>
                    </trkpt>
                    <trkpt lat="54.403675" lon="10.216916666666666">
                        <ele>0</ele>
                        <time>2022-08-18T21:46:36Z</time>
                                                <extensions>
                            <sog>0.0</sog>
<cog>325.7</cog>
                        </extensions>
                    </trkpt>
                    <trkpt lat="54.40369666666666" lon="10.216961666666666">
                        <ele>0</ele>
                        <time>2022-08-18T21:49:37Z</time>
                                                <extensions>
                            <sog>0.0</sog>
<cog>325.7</cog>
                        </extensions>
                    </trkpt>
                    <trkpt lat="54.40369666666666" lon="10.216938333333333">
                        <ele>0</ele>
                        <time>2022-08-18T22:07:41Z</time>
                                                <extensions>
                            <sog>0.0</sog>
<cog>325.7</cog>
                        </extensions>
                    </trkpt>
                    <trkpt lat="54.40369166666667" lon="10.216933333333333">
                        <ele>0</ele>
                        <time>2022-08-18T22:16:32Z</time>
                                                <extensions>
                            <sog>0.0</sog>
<cog>325.7</cog>
                        </extensions>
                    </trkpt>
                    <trkpt lat="54.403688333333335" lon="10.21695">
                        <ele>0</ele>
                        <time>2022-08-18T22:22:40Z</time>
                                                <extensions>
                            <sog>0.0</sog>
<cog>325.7</cog>
                        </extensions>
                    </trkpt>
                    <trkpt lat="54.403715000000005" lon="10.216948333333333">
                        <ele>0</ele>
                        <time>2022-08-18T22:37:33Z</time>
                                                <extensions>
                            <sog>0.0</sog>
<cog>325.7</cog>
                        </extensions>
                    </trkpt>
                    <trkpt lat="54.403704999999995" lon="10.216935000000001">
                        <ele>0</ele>
                        <time>2022-08-18T22:40:38Z</time>
                                                <extensions>
                            <sog>0.0</sog>
<cog>325.7</cog>
                        </extensions>
                    </trkpt>
                    <trkpt lat="54.403708333333334" lon="10.21693">
                        <ele>0</ele>
                        <time>2022-08-18T22:43:38Z</time>
                                                <extensions>
                            <sog>0.0</sog>
<cog>325.7</cog>
                        </extensions>
                    </trkpt>
                    <trkpt lat="54.40369333333333" lon="10.216946666666667">
                        <ele>0</ele>
                        <time>2022-08-18T22:52:38Z</time>
                                                <extensions>
                            <sog>0.0</sog>
<cog>325.7</cog>
                        </extensions>
                    </trkpt>
                    <trkpt lat="54.403688333333335" lon="10.216945">
                        <ele>0</ele>
                        <time>2022-08-18T23:13:36Z</time>
                                                <extensions>
                            <sog>0.0</sog>
<cog>325.7</cog>
                        </extensions>
                    </trkpt>
                    <trkpt lat="54.403681666666664" lon="10.216953333333333">
                        <ele>0</ele>
                        <time>2022-08-18T23:19:39Z</time>
                                                <extensions>
                            <sog>0.0</sog>
<cog>325.7</cog>
                        </extensions>
                    </trkpt>
                    <trkpt lat="54.4037" lon="10.216961666666666">
                        <ele>0</ele>
                        <time>2022-08-18T23:22:36Z</time>
                                                <extensions>
                            <sog>0.0</sog>
<cog>325.7</cog>
                        </extensions>
                    </trkpt>
                    <trkpt lat="54.403681666666664" lon="10.21693">
                        <ele>0</ele>
                        <time>2022-08-18T23:34:39Z</time>
                                                <extensions>
                            <sog>0.0</sog>
<cog>325.7</cog>
                        </extensions>
                    </trkpt>
                    <trkpt lat="54.40365833333333" lon="10.21696">
                        <ele>0</ele>
                        <time>2022-08-18T23:40:34Z</time>
                                                <extensions>
                            <sog>0.1</sog>
<cog>325.7</cog>
                        </extensions>
                    </trkpt>
                    <trkpt lat="54.40367333333334" lon="10.216936666666667">
                        <ele>0</ele>
                        <time>2022-08-18T23:52:32Z</time>
                                                <extensions>
                            <sog>0.0</sog>
<cog>325.7</cog>
                        </extensions>
                    </trkpt>
                    </trkseg>
                </trk>
</gpx>