<?xml version="1.0" encoding="UTF-8"?>
<gpx version="1.1" creator="AIS-to-GPX Converter" xmlns="http://www.topografix.com/GPX/1/1">
                <trk>
                    <name>anon0510</name>
                    <trkseg>
                                            <trkpt lat="54.98965" lon="11.011628333333334">
                        <ele>0</ele>
                        <time>2022-08-18T02:39:57Z</time>
                                                <extensions>
                            <sog>11.5</sog>
<cog>203.3</cog>
                        </extensions>
                    </trkpt>
                    <trkpt lat="54.91811833333334" lon="10.893845">
                        <ele>0</ele>
                        <time>2022-08-18T03:09:38Z</time>
                                                <extensions>
                            <sog>11.8</sog>
<cog>215.2</cog>
                        </extensions>
                    </trkpt>
                    <trkpt lat="54.913925" lon="10.889906666666667">
                        <ele>0</ele>
                        <time>2022-08-18T03:11:08Z</time>
                                                <extensions>
                            <sog>11.4</sog>
<cog>202.2</cog>
                        </extensions>
                    </trkpt>
                    <trkpt lat="54.910935" lon="10.888155000000001">
                        <ele>0</ele>
                        <time>2022-08-18T03:12:08Z</time>
                                                <extensions>
                            <sog>11.3</sog>
<cog>195.5</cog>
                        </extensions>
                    </trkpt>
                    <trkpt lat="54.909411666666664" lon="10.887506666666667">
                        <ele>0</ele>
                        <time>2022-08-18T03:12:38Z</time>
                                                <extensions>
                            <sog>11.3</sog>
<cog>193.2</cog>
                        </extensions>
                    </trkpt>
                    <trkpt lat="54.897088333333336" lon="10.881849999999998">
                        <ele>0</ele>
                        <time>2022-08-18T03:16:38Z</time>
                                                <extensions>
                            <sog>11.5</sog>
<cog>195.7</cog>
                        </extensions>
                    </trkpt>
                    <trkpt lat="54.86278" lon="10.86752">
                        <ele>0</ele>
                        <time>2022-08-18T03:27:38Z</time>
                                                <extensions>
                            <sog>11.6</sog>
<cog>190.3</cog>
                        </extensions>
                    </trkpt>
                    <trkpt lat="54.86114666666666" lon="10.866951666666667">
                        <ele>0</ele>
                        <time>2022-08-18T03:28:08Z</time>
                                                <extensions>
                            <sog>11.6</sog>
<cog>191.7</cog>
                        </extensions>
                    </trkpt>
                    <trkpt lat="54.85961333333333" lon="10.866385000000001">
                        <ele>0</ele>
                        <time>2022-08-18T03:28:38Z</time>
                                                <extensions>
                            <sog>11.7</sog>
<cog>192.3</cog>
                        </extensions>
                    </trkpt>
                    <trkpt lat="54.85648333333334" lon="10.865201666666668">
                        <ele>0</ele>
                        <time>2022-08-18T03:29:37Z</time>
                                                <extensions>
                            <sog>11.7</sog>
<cog>192.4</cog>
                        </extensions>
                    </trkpt>
                    <trkpt lat="54.85478166666667" lon="10.86456">
                        <ele>0</ele>
                        <time>2022-08-18T03:30:08Z</time>
                                                <extensions>
                            <sog>11.8</sog>
<cog>192.3</cog>
                        </extensions>
                    </trkpt>
                    <trkpt lat="54.85328666666667" lon="10.864015">
                        <ele>0</ele>
                        <time>2022-08-18T03:30:37Z</time>
                                                <extensions>
                            <sog>11.8</sog>
<cog>191.8</cog>
                        </extensions>
                    </trkpt>
                    <trkpt lat="54.850055" lon="10.863008333333333">
                        <ele>0</ele>
                        <time>2022-08-18T03:31:37Z</time>
                                                <extensions>
                            <sog>11.8</sog>
<cog>188.8</cog>
                        </extensions>
                    </trkpt>
                    <trkpt lat="54.84735333333333" lon="10.862223333333333">
                        <ele>0</ele>
                        <time>2022-08-18T03:32:27Z</time>
                                                <extensions>
                            <sog>11.8</sog>
<cog>190.1</cog>
                        </extensions>
                    </trkpt>
                    <trkpt lat="54.845733333333335" lon="10.861690000000001">
                        <ele>0</ele>
                        <time>2022-08-18T03:32:57Z</time>
                                                <extensions>
                            <sog>11.9</sog>
<cog>191.0</cog>
                        </extensions>
                    </trkpt>
                    <trkpt lat="54.845195" lon="10.861501666666667">
                        <ele>0</ele>
                        <time>2022-08-18T03:33:07Z</time>
                                                <extensions>
                            <sog>11.9</sog>
<cog>191.5</cog>
                        </extensions>
                    </trkpt>
                    <trkpt lat="54.840338333333335" lon="10.859448333333335">
                        <ele>0</ele>
                        <time>2022-08-18T03:34:37Z</time>
                                                <extensions>
                            <sog>12.1</sog>
<cog>194.9</cog>
                        </extensions>
                    </trkpt>
                    <trkpt lat="54.83709833333333" lon="10.857961666666666">
                        <ele>0</ele>
                        <time>2022-08-18T03:35:37Z</time>
                                                <extensions>
                            <sog>12.0</sog>
<cog>194.3</cog>
                        </extensions>
                    </trkpt>
                    <trkpt lat="54.835431666666665" lon="10.857235">
                        <ele>0</ele>
                        <time>2022-08-18T03:36:08Z</time>
                                                <extensions>
                            <sog>12.0</sog>
<cog>193.0</cog>
                        </extensions>
                    </trkpt>
                    <trkpt lat="54.83118" lon="10.856325">
                        <ele>0</ele>
                        <time>2022-08-18T03:37:27Z</time>
                                                <extensions>
                            <sog>11.6</sog>
<cog>182.0</cog>
                        </extensions>
                    </trkpt>
                    <trkpt lat="54.830643333333335" lon="10.856304999999999">
                        <ele>0</ele>
                        <time>2022-08-18T03:37:37Z</time>
                                                <extensions>
                            <sog>11.6</sog>
<cog>181.1</cog>
                        </extensions>
                    </trkpt>
                    <trkpt lat="54.830106666666666" lon="10.856293333333333">
                        <ele>0</ele>
                        <time>2022-08-18T03:37:47Z</time>
                                                <extensions>
                            <sog>11.6</sog>
<cog>180.7</cog>
                        </extensions>
                    </trkpt>
                    <trkpt lat="54.82794833333333" lon="10.85628">
                        <ele>0</ele>
                        <time>2022-08-18T03:38:27Z</time>
                                                <extensions>
                            <sog>11.7</sog>
<cog>180.0</cog>
                        </extensions>
                    </trkpt>
                    <trkpt lat="54.824695" lon="10.856251666666667">
                        <ele>0</ele>
                        <time>2022-08-18T03:39:27Z</time>
                                                <extensions>
                            <sog>11.8</sog>
<cog>181.2</cog>
                        </extensions>
                    </trkpt>
                    <trkpt lat="54.824151666666666" lon="10.85622">
                        <ele>0</ele>
                        <time>2022-08-18T03:39:37Z</time>
                                                <extensions>
                            <sog>11.8</sog>
<cog>181.8</cog>
                        </extensions>
                    </trkpt>
                    <trkpt lat="54.820285" lon="10.85582">
                        <ele>0</ele>
                        <time>2022-08-18T03:40:48Z</time>
                                                <extensions>
                            <sog>11.8</sog>
<cog>183.9</cog>
                        </extensions>
                    </trkpt>
                    <trkpt lat="54.81979333333334" lon="10.85576">
                        <ele>0</ele>
                        <time>2022-08-18T03:40:57Z</time>
                                                <extensions>
                            <sog>11.8</sog>
<cog>184.0</cog>
                        </extensions>
                    </trkpt>
                    <trkpt lat="54.817501666666665" lon="10.855465">
                        <ele>0</ele>
                        <time>2022-08-18T03:41:38Z</time>
                                                <extensions>
                            <sog>11.8</sog>
<cog>184.2</cog>
                        </extensions>
                    </trkpt>
                    <trkpt lat="54.816465" lon="10.855336666666666">
                        <ele>0</ele>
                        <time>2022-08-18T03:41:57Z</time>
                                                <extensions>
                            <sog>11.8</sog>
<cog>184.0</cog>
                        </extensions>
                    </trkpt>
                    <trkpt lat="54.813790000000004" lon="10.854999999999999">
                        <ele>0</ele>
                        <time>2022-08-18T03:42:48Z</time>
                                                <extensions>
                            <sog>11.8</sog>
<cog>184.9</cog>
                        </extensions>
                    </trkpt>
                    <trkpt lat="54.81324" lon="10.854909999999999">
                        <ele>0</ele>
                        <time>2022-08-18T03:42:57Z</time>
                                                <extensions>
                            <sog>11.9</sog>
<cog>185.1</cog>
                        </extensions>
                    </trkpt>
                    <trkpt lat="54.81046" lon="10.854641666666668">
                        <ele>0</ele>
                        <time>2022-08-18T03:43:48Z</time>
                                                <extensions>
                            <sog>11.8</sog>
<cog>181.6</cog>
                        </extensions>
                    </trkpt>
                    <trkpt lat="54.80997166666667" lon="10.854626666666666">
                        <ele>0</ele>
                        <time>2022-08-18T03:43:57Z</time>
                                                <extensions>
                            <sog>11.7</sog>
<cog>180.9</cog>
                        </extensions>
                    </trkpt>
                    <trkpt lat="54.80883333333334" lon="10.854623333333333">
                        <ele>0</ele>
                        <time>2022-08-18T03:44:18Z</time>
                                                <extensions>
                            <sog>11.7</sog>
<cog>179.7</cog>
                        </extensions>
                    </trkpt>
                    <trkpt lat="54.80775166666667" lon="10.854659999999999">
                        <ele>0</ele>
                        <time>2022-08-18T03:44:38Z</time>
                                                <extensions>
                            <sog>11.7</sog>
<cog>178.4</cog>
                        </extensions>
                    </trkpt>
                    <trkpt lat="54.80672833333333" lon="10.854735">
                        <ele>0</ele>
                        <time>2022-08-18T03:44:57Z</time>
                                                <extensions>
                            <sog>11.7</sog>
<cog>177.3</cog>
                        </extensions>
                    </trkpt>
                    <trkpt lat="54.804581666666664" lon="10.854976666666666">
                        <ele>0</ele>
                        <time>2022-08-18T03:45:37Z</time>
                                                <extensions>
                            <sog>11.7</sog>
<cog>175.8</cog>
                        </extensions>
                    </trkpt>
                    <trkpt lat="54.80399166666667" lon="10.855056666666666">
                        <ele>0</ele>
                        <time>2022-08-18T03:45:48Z</time>
                                                <extensions>
                            <sog>11.7</sog>
<cog>175.5</cog>
                        </extensions>
                    </trkpt>
                    <trkpt lat="54.803506666666664" lon="10.855123333333333">
                        <ele>0</ele>
                        <time>2022-08-18T03:45:57Z</time>
                                                <extensions>
                            <sog>11.7</sog>
<cog>175.4</cog>
                        </extensions>
                    </trkpt>
                    <trkpt lat="54.801399999999994" lon="10.855369999999999">
                        <ele>0</ele>
                        <time>2022-08-18T03:46:37Z</time>
                                                <extensions>
                            <sog>11.7</sog>
<cog>176.5</cog>
                        </extensions>
                    </trkpt>
                    <trkpt lat="54.800695000000005" lon="10.855435">
                        <ele>0</ele>
                        <time>2022-08-18T03:46:48Z</time>
                                                <extensions>
                            <sog>11.7</sog>
<cog>176.9</cog>
                        </extensions>
                    </trkpt>
                    <trkpt lat="54.800205" lon="10.855476666666668">
                        <ele>0</ele>
                        <time>2022-08-18T03:46:57Z</time>
                                                <extensions>
                            <sog>11.8</sog>
<cog>177.1</cog>
                        </extensions>
                    </trkpt>
                    <trkpt lat="54.79911666666667" lon="10.855553333333335">
                        <ele>0</ele>
                        <time>2022-08-18T03:47:18Z</time>
                                                <extensions>
                            <sog>11.8</sog>
<cog>177.7</cog>
                        </extensions>
                    </trkpt>
                    <trkpt lat="54.79808" lon="10.855608333333333">
                        <ele>0</ele>
                        <time>2022-08-18T03:47:37Z</time>
                                                <extensions>
                            <sog>11.8</sog>
<cog>178.2</cog>
                        </extensions>
                    </trkpt>
                    <trkpt lat="54.79698333333333" lon="10.855648333333333">
                        <ele>0</ele>
                        <time>2022-08-18T03:47:57Z</time>
                                                <extensions>
                            <sog>11.8</sog>
<cog>178.8</cog>
                        </extensions>
                    </trkpt>
                    <trkpt lat="54.796434999999995" lon="10.855661666666666">
                        <ele>0</ele>
                        <time>2022-08-18T03:48:08Z</time>
                                                <extensions>
                            <sog>11.9</sog>
<cog>179.0</cog>
                        </extensions>
                    </trkpt>
                    <trkpt lat="54.795833333333334" lon="10.855673333333334">
                        <ele>0</ele>
                        <time>2022-08-18T03:48:18Z</time>
                                                <extensions>
                            <sog>11.9</sog>
<cog>179.3</cog>
                        </extensions>
                    </trkpt>
                    <trkpt lat="54.79478833333334" lon="10.855673333333334">
                        <ele>0</ele>
                        <time>2022-08-18T03:48:37Z</time>
                                                <extensions>
                            <sog>11.9</sog>
<cog>180.0</cog>
                        </extensions>
                    </trkpt>
                    <trkpt lat="54.79418166666667" lon="10.855671666666666">
                        <ele>0</ele>
                        <time>2022-08-18T03:48:48Z</time>
                                                <extensions>
                            <sog>11.9</sog>
<cog>180.0</cog>
                        </extensions>
                    </trkpt>
                    <trkpt lat="54.793686666666666" lon="10.855671666666666">
                        <ele>0</ele>
                        <time>2022-08-18T03:48:57Z</time>
                                                <extensions>
                            <sog>11.9</sog>
<cog>179.9</cog>
                        </extensions>
                    </trkpt>
                    <trkpt lat="54.79308" lon="10.855673333333334">
                        <ele>0</ele>
                        <time>2022-08-18T03:49:08Z</time>
                                                <extensions>
                            <sog>11.9</sog>
<cog>179.8</cog>
                        </extensions>
                    </trkpt>
                    <trkpt lat="54.79197833333333" lon="10.855701666666667">
                        <ele>0</ele>
                        <time>2022-08-18T03:49:28Z</time>
                                                <extensions>
                            <sog>11.9</sog>
<cog>178.7</cog>
                        </extensions>
                    </trkpt>
                    <trkpt lat="54.79088166666667" lon="10.855778333333335">
                        <ele>0</ele>
                        <time>2022-08-18T03:49:48Z</time>
                                                <extensions>
                            <sog>11.8</sog>
<cog>177.3</cog>
                        </extensions>
                    </trkpt>
                    <trkpt lat="54.79039" lon="10.855826666666667">
                        <ele>0</ele>
                        <time>2022-08-18T03:49:57Z</time>
                                                <extensions>
                            <sog>11.8</sog>
<cog>176.7</cog>
                        </extensions>
                    </trkpt>
                    <trkpt lat="54.788705" lon="10.85604">
                        <ele>0</ele>
                        <time>2022-08-18T03:50:28Z</time>
                                                <extensions>
                            <sog>11.8</sog>
<cog>175.4</cog>
                        </extensions>
                    </trkpt>
                    <trkpt lat="54.788106666666664" lon="10.856121666666667">
                        <ele>0</ele>
                        <time>2022-08-18T03:50:38Z</time>
                                                <extensions>
                            <sog>11.8</sog>
<cog>175.3</cog>
                        </extensions>
                    </trkpt>
                    <trkpt lat="54.78767333333334" lon="10.856183333333332">
                        <ele>0</ele>
                        <time>2022-08-18T03:50:47Z</time>
                                                <extensions>
                            <sog>11.8</sog>
<cog>175.3</cog>
                        </extensions>
                    </trkpt>
                    <trkpt lat="54.787130000000005" lon="10.856261666666667">
                        <ele>0</ele>
                        <time>2022-08-18T03:50:57Z</time>
                                                <extensions>
                            <sog>11.8</sog>
<cog>175.2</cog>
                        </extensions>
                    </trkpt>
                    <trkpt lat="54.784911666666666" lon="10.856648333333334">
                        <ele>0</ele>
                        <time>2022-08-18T03:51:38Z</time>
                                                <extensions>
                            <sog>11.7</sog>
<cog>174.0</cog>
                        </extensions>
                    </trkpt>
                    <trkpt lat="54.783829999999995" lon="10.856821666666667">
                        <ele>0</ele>
                        <time>2022-08-18T03:51:57Z</time>
                                                <extensions>
                            <sog>11.7</sog>
<cog>174.8</cog>
                        </extensions>
                    </trkpt>
                    <trkpt lat="54.782203333333335" lon="10.857023333333332">
                        <ele>0</ele>
                        <time>2022-08-18T03:52:28Z</time>
                                                <extensions>
                            <sog>11.8</sog>
<cog>176.3</cog>
                        </extensions>
                    </trkpt>
                    <trkpt lat="54.78165833333333" lon="10.857073333333334">
                        <ele>0</ele>
                        <time>2022-08-18T03:52:38Z</time>
                                                <extensions>
                            <sog>11.8</sog>
<cog>176.9</cog>
                        </extensions>
                    </trkpt>
                    <trkpt lat="54.78116833333333" lon="10.85711">
                        <ele>0</ele>
                        <time>2022-08-18T03:52:47Z</time>
                                                <extensions>
                            <sog>11.8</sog>
<cog>177.4</cog>
                        </extensions>
                    </trkpt>
                    <trkpt lat="54.78062333333333" lon="10.857143333333333">
                        <ele>0</ele>
                        <time>2022-08-18T03:52:57Z</time>
                                                <extensions>
                            <sog>11.8</sog>
<cog>177.9</cog>
                        </extensions>
                    </trkpt>
                    <trkpt lat="54.780076666666666" lon="10.857168333333334">
                        <ele>0</ele>
                        <time>2022-08-18T03:53:07Z</time>
                                                <extensions>
                            <sog>11.8</sog>
<cog>178.4</cog>
                        </extensions>
                    </trkpt>
                    <trkpt lat="54.77833" lon="10.85721">
                        <ele>0</ele>
                        <time>2022-08-18T03:53:38Z</time>
                                                <extensions>
                            <sog>11.8</sog>
<cog>179.5</cog>
                        </extensions>
                    </trkpt>
                    <trkpt lat="54.777346666666666" lon="10.857213333333334">
                        <ele>0</ele>
                        <time>2022-08-18T03:53:57Z</time>
                                                <extensions>
                            <sog>11.8</sog>
<cog>179.9</cog>
                        </extensions>
                    </trkpt>
                    <trkpt lat="54.7768" lon="10.857215">
                        <ele>0</ele>
                        <time>2022-08-18T03:54:07Z</time>
                                                <extensions>
                            <sog>11.8</sog>
<cog>179.9</cog>
                        </extensions>
                    </trkpt>
                    <trkpt lat="54.77565333333334" lon="10.857216666666666">
                        <ele>0</ele>
                        <time>2022-08-18T03:54:28Z</time>
                                                <extensions>
                            <sog>11.8</sog>
<cog>179.9</cog>
                        </extensions>
                    </trkpt>
                    <trkpt lat="54.774076666666666" lon="10.857255">
                        <ele>0</ele>
                        <time>2022-08-18T03:54:57Z</time>
                                                <extensions>
                            <sog>11.8</sog>
<cog>178.7</cog>
                        </extensions>
                    </trkpt>
                    <trkpt lat="54.772396666666666" lon="10.857384999999999">
                        <ele>0</ele>
                        <time>2022-08-18T03:55:28Z</time>
                                                <extensions>
                            <sog>11.7</sog>
<cog>176.5</cog>
                        </extensions>
                    </trkpt>
                    <trkpt lat="54.771854999999995" lon="10.857446666666668">
                        <ele>0</ele>
                        <time>2022-08-18T03:55:37Z</time>
                                                <extensions>
                            <sog>11.7</sog>
<cog>176.2</cog>
                        </extensions>
                    </trkpt>
                    <trkpt lat="54.77082666666667" lon="10.857566666666665">
                        <ele>0</ele>
                        <time>2022-08-18T03:55:57Z</time>
                                                <extensions>
                            <sog>11.7</sog>
<cog>176.1</cog>
                        </extensions>
                    </trkpt>
                    <trkpt lat="54.769686666666665" lon="10.857693333333334">
                        <ele>0</ele>
                        <time>2022-08-18T03:56:18Z</time>
                                                <extensions>
                            <sog>11.8</sog>
<cog>176.3</cog>
                        </extensions>
                    </trkpt>
                    <trkpt lat="54.76914333333333" lon="10.857745">
                        <ele>0</ele>
                        <time>2022-08-18T03:56:28Z</time>
                                                <extensions>
                            <sog>11.8</sog>
<cog>176.7</cog>
                        </extensions>
                    </trkpt>
                    <trkpt lat="54.76865333333333" lon="10.857788333333334">
                        <ele>0</ele>
                        <time>2022-08-18T03:56:37Z</time>
                                                <extensions>
                            <sog>11.7</sog>
<cog>177.0</cog>
                        </extensions>
                    </trkpt>
                    <trkpt lat="54.76751333333333" lon="10.857861666666668">
                        <ele>0</ele>
                        <time>2022-08-18T03:56:57Z</time>
                                                <extensions>
                            <sog>11.7</sog>
<cog>178.0</cog>
                        </extensions>
                    </trkpt>
                    <trkpt lat="54.76588166666667" lon="10.857906666666667">
                        <ele>0</ele>
                        <time>2022-08-18T03:57:28Z</time>
                                                <extensions>
                            <sog>11.8</sog>
<cog>179.5</cog>
                        </extensions>
                    </trkpt>
                    <trkpt lat="54.765391666666666" lon="10.857901666666667">
                        <ele>0</ele>
                        <time>2022-08-18T03:57:37Z</time>
                                                <extensions>
                            <sog>11.8</sog>
<cog>180.2</cog>
                        </extensions>
                    </trkpt>
                    <trkpt lat="54.76484666666667" lon="10.857891666666665">
                        <ele>0</ele>
                        <time>2022-08-18T03:57:47Z</time>
                                                <extensions>
                            <sog>11.8</sog>
<cog>180.5</cog>
                        </extensions>
                    </trkpt>
                    <trkpt lat="54.76430333333334" lon="10.85788">
                        <ele>0</ele>
                        <time>2022-08-18T03:57:57Z</time>
                                                <extensions>
                            <sog>11.8</sog>
<cog>180.5</cog>
                        </extensions>
                    </trkpt>
                    <trkpt lat="54.763758333333335" lon="10.857871666666666">
                        <ele>0</ele>
                        <time>2022-08-18T03:58:07Z</time>
                                                <extensions>
                            <sog>11.8</sog>
<cog>180.3</cog>
                        </extensions>
                    </trkpt>
                    <trkpt lat="54.76315833333333" lon="10.857868333333332">
                        <ele>0</ele>
                        <time>2022-08-18T03:58:18Z</time>
                                                <extensions>
                            <sog>11.8</sog>
<cog>180.1</cog>
                        </extensions>
                    </trkpt>
                    <trkpt lat="54.76157833333333" lon="10.857881666666666">
                        <ele>0</ele>
                        <time>2022-08-18T03:58:47Z</time>
                                                <extensions>
                            <sog>11.8</sog>
<cog>179.4</cog>
                        </extensions>
                    </trkpt>
                    <trkpt lat="54.76049" lon="10.857921666666666">
                        <ele>0</ele>
                        <time>2022-08-18T03:59:07Z</time>
                                                <extensions>
                            <sog>11.7</sog>
<cog>178.5</cog>
                        </extensions>
                    </trkpt>
                    <trkpt lat="54.75989333333334" lon="10.857956666666666">
                        <ele>0</ele>
                        <time>2022-08-18T03:59:18Z</time>
                                                <extensions>
                            <sog>11.7</sog>
<cog>177.8</cog>
                        </extensions>
                    </trkpt>
                    <trkpt lat="54.75935166666667" lon="10.858005">
                        <ele>0</ele>
                        <time>2022-08-18T03:59:28Z</time>
                                                <extensions>
                            <sog>11.7</sog>
<cog>177.0</cog>
                        </extensions>
                    </trkpt>
                    <trkpt lat="54.757241666666665" lon="10.858241666666666">
                        <ele>0</ele>
                        <time>2022-08-18T04:00:07Z</time>
                                                <extensions>
                            <sog>11.7</sog>
<cog>176.4</cog>
                        </extensions>
                    </trkpt>
                    <trkpt lat="54.757241666666665" lon="10.858241666666666">
                        <ele>0</ele>
                        <time>2022-08-18T04:00:07Z</time>
                                                <extensions>
                            <sog>11.7</sog>
<cog>176.4</cog>
                        </extensions>
                    </trkpt>
                    <trkpt lat="54.756591666666665" lon="10.858306666666666">
                        <ele>0</ele>
                        <time>2022-08-18T04:00:18Z</time>
                                                <extensions>
                            <sog>11.7</sog>
<cog>176.7</cog>
                        </extensions>
                    </trkpt>
                    <trkpt lat="54.756591666666665" lon="10.858306666666666">
                        <ele>0</ele>
                        <time>2022-08-18T04:00:18Z</time>
                                                <extensions>
                            <sog>11.7</sog>
<cog>176.7</cog>
                        </extensions>
                    </trkpt>
                    <trkpt lat="54.756103333333336" lon="10.858351666666666">
                        <ele>0</ele>
                        <time>2022-08-18T04:00:28Z</time>
                                                <extensions>
                            <sog>11.7</sog>
<cog>176.9</cog>
                        </extensions>
                    </trkpt>
                    <trkpt lat="54.756103333333336" lon="10.858351666666666">
                        <ele>0</ele>
                        <time>2022-08-18T04:00:28Z</time>
                                                <extensions>
                            <sog>11.7</sog>
<cog>176.9</cog>
                        </extensions>
                    </trkpt>
                    <trkpt lat="54.755073333333335" lon="10.85844">
                        <ele>0</ele>
                        <time>2022-08-18T04:00:47Z</time>
                                                <extensions>
                            <sog>11.7</sog>
<cog>177.2</cog>
                        </extensions>
                    </trkpt>
                    <trkpt lat="54.755073333333335" lon="10.85844">
                        <ele>0</ele>
                        <time>2022-08-18T04:00:47Z</time>
                                                <extensions>
                            <sog>11.7</sog>
<cog>177.2</cog>
                        </extensions>
                    </trkpt>
                    <trkpt lat="54.75398666666667" lon="10.858521666666666">
                        <ele>0</ele>
                        <time>2022-08-18T04:01:07Z</time>
                                                <extensions>
                            <sog>11.8</sog>
<cog>177.4</cog>
                        </extensions>
                    </trkpt>
                    <trkpt lat="54.75338833333333" lon="10.85856">
                        <ele>0</ele>
                        <time>2022-08-18T04:01:18Z</time>
                                                <extensions>
                            <sog>11.8</sog>
<cog>177.8</cog>
                        </extensions>
                    </trkpt>
                    <trkpt lat="54.752896666666665" lon="10.858586666666667">
                        <ele>0</ele>
                        <time>2022-08-18T04:01:28Z</time>
                                                <extensions>
                            <sog>11.8</sog>
<cog>178.2</cog>
                        </extensions>
                    </trkpt>
                    <trkpt lat="54.750710000000005" lon="10.858640000000001">
                        <ele>0</ele>
                        <time>2022-08-18T04:02:07Z</time>
                                                <extensions>
                            <sog>11.8</sog>
<cog>179.8</cog>
                        </extensions>
                    </trkpt>
                    <trkpt lat="54.74852166666667" lon="10.858596666666667">
                        <ele>0</ele>
                        <time>2022-08-18T04:02:47Z</time>
                                                <extensions>
                            <sog>11.8</sog>
<cog>180.5</cog>
                        </extensions>
                    </trkpt>
                    <trkpt lat="54.74742666666667" lon="10.858591666666666">
                        <ele>0</ele>
                        <time>2022-08-18T04:03:07Z</time>
                                                <extensions>
                            <sog>11.8</sog>
<cog>179.9</cog>
                        </extensions>
                    </trkpt>
                    <trkpt lat="54.746935" lon="10.858596666666667">
                        <ele>0</ele>
                        <time>2022-08-18T04:03:16Z</time>
                                                <extensions>
                            <sog>11.8</sog>
<cog>179.7</cog>
                        </extensions>
                    </trkpt>
                    <trkpt lat="54.74633333333334" lon="10.858606666666667">
                        <ele>0</ele>
                        <time>2022-08-18T04:03:27Z</time>
                                                <extensions>
                            <sog>11.8</sog>
<cog>179.4</cog>
                        </extensions>
                    </trkpt>
                    <trkpt lat="54.745733333333334" lon="10.858621666666666">
                        <ele>0</ele>
                        <time>2022-08-18T04:03:37Z</time>
                                                <extensions>
                            <sog>11.8</sog>
<cog>179.2</cog>
                        </extensions>
                    </trkpt>
                    <trkpt lat="54.7436" lon="10.85872">
                        <ele>0</ele>
                        <time>2022-08-18T04:04:16Z</time>
                                                <extensions>
                            <sog>11.8</sog>
<cog>177.9</cog>
                        </extensions>
                    </trkpt>
                    <trkpt lat="54.743055" lon="10.858758333333332">
                        <ele>0</ele>
                        <time>2022-08-18T04:04:27Z</time>
                                                <extensions>
                            <sog>11.8</sog>
<cog>177.6</cog>
                        </extensions>
                    </trkpt>
                    <trkpt lat="54.74250833333333" lon="10.858803333333332">
                        <ele>0</ele>
                        <time>2022-08-18T04:04:37Z</time>
                                                <extensions>
                            <sog>11.8</sog>
<cog>177.1</cog>
                        </extensions>
                    </trkpt>
                    <trkpt lat="54.741965" lon="10.858855">
                        <ele>0</ele>
                        <time>2022-08-18T04:04:47Z</time>
                                                <extensions>
                            <sog>11.8</sog>
<cog>176.7</cog>
                        </extensions>
                    </trkpt>
                    <trkpt lat="54.74088" lon="10.858963333333332">
                        <ele>0</ele>
                        <time>2022-08-18T04:05:07Z</time>
                                                <extensions>
                            <sog>11.8</sog>
<cog>176.8</cog>
                        </extensions>
                    </trkpt>
                    <trkpt lat="54.740336666666664" lon="10.859011666666667">
                        <ele>0</ele>
                        <time>2022-08-18T04:05:16Z</time>
                                                <extensions>
                            <sog>11.8</sog>
<cog>177.0</cog>
                        </extensions>
                    </trkpt>
                    <trkpt lat="54.73919333333333" lon="10.859096666666666">
                        <ele>0</ele>
                        <time>2022-08-18T04:05:37Z</time>
                                                <extensions>
                            <sog>11.8</sog>
<cog>177.6</cog>
                        </extensions>
                    </trkpt>
                    <trkpt lat="54.738704999999996" lon="10.859125">
                        <ele>0</ele>
                        <time>2022-08-18T04:05:47Z</time>
                                                <extensions>
                            <sog>11.8</sog>
<cog>178.1</cog>
                        </extensions>
                    </trkpt>
                    <trkpt lat="54.73810666666667" lon="10.859146666666668">
                        <ele>0</ele>
                        <time>2022-08-18T04:05:58Z</time>
                                                <extensions>
                            <sog>11.8</sog>
<cog>178.8</cog>
                        </extensions>
                    </trkpt>
                    <trkpt lat="54.73712666666667" lon="10.859138333333334">
                        <ele>0</ele>
                        <time>2022-08-18T04:06:16Z</time>
                                                <extensions>
                            <sog>11.8</sog>
<cog>180.6</cog>
                        </extensions>
                    </trkpt>
                    <trkpt lat="54.73598166666667" lon="10.859078333333334">
                        <ele>0</ele>
                        <time>2022-08-18T04:06:37Z</time>
                                                <extensions>
                            <sog>11.8</sog>
<cog>182.1</cog>
                        </extensions>
                    </trkpt>
                    <trkpt lat="54.73478166666666" lon="10.858971666666667">
                        <ele>0</ele>
                        <time>2022-08-18T04:06:58Z</time>
                                                <extensions>
                            <sog>11.8</sog>
<cog>182.8</cog>
                        </extensions>
                    </trkpt>
                    <trkpt lat="54.733801666666665" lon="10.858929999999999">
                        <ele>0</ele>
                        <time>2022-08-18T04:07:16Z</time>
                                                <extensions>
                            <sog>11.8</sog>
<cog>180.8</cog>
                        </extensions>
                    </trkpt>
                    <trkpt lat="54.73267" lon="10.85898">
                        <ele>0</ele>
                        <time>2022-08-18T04:07:37Z</time>
                                                <extensions>
                            <sog>11.6</sog>
<cog>177.7</cog>
                        </extensions>
                    </trkpt>
                    <trkpt lat="54.73218833333333" lon="10.859028333333333">
                        <ele>0</ele>
                        <time>2022-08-18T04:07:47Z</time>
                                                <extensions>
                            <sog>11.6</sog>
<cog>176.5</cog>
                        </extensions>
                    </trkpt>
                    <trkpt lat="54.73160333333333" lon="10.85911">
                        <ele>0</ele>
                        <time>2022-08-18T04:07:58Z</time>
                                                <extensions>
                            <sog>11.5</sog>
<cog>175.4</cog>
                        </extensions>
                    </trkpt>
                    <trkpt lat="54.73107166666667" lon="10.859191666666668">
                        <ele>0</ele>
                        <time>2022-08-18T04:08:08Z</time>
                                                <extensions>
                            <sog>11.5</sog>
<cog>174.8</cog>
                        </extensions>
                    </trkpt>
                    <trkpt lat="54.730648333333335" lon="10.859268333333334">
                        <ele>0</ele>
                        <time>2022-08-18T04:08:16Z</time>
                                                <extensions>
                            <sog>11.5</sog>
<cog>174.0</cog>
                        </extensions>
                    </trkpt>
                    <trkpt lat="54.73007" lon="10.859396666666667">
                        <ele>0</ele>
                        <time>2022-08-18T04:08:27Z</time>
                                                <extensions>
                            <sog>11.4</sog>
<cog>172.5</cog>
                        </extensions>
                    </trkpt>
                    <trkpt lat="54.72955" lon="10.859536666666665">
                        <ele>0</ele>
                        <time>2022-08-18T04:08:37Z</time>
                                                <extensions>
                            <sog>11.4</sog>
<cog>171.2</cog>
                        </extensions>
                    </trkpt>
                    <trkpt lat="54.729031666666664" lon="10.859694999999999">
                        <ele>0</ele>
                        <time>2022-08-18T04:08:47Z</time>
                                                <extensions>
                            <sog>11.4</sog>
<cog>169.8</cog>
                        </extensions>
                    </trkpt>
                    <trkpt lat="54.728413333333336" lon="10.859906666666665">
                        <ele>0</ele>
                        <time>2022-08-18T04:08:58Z</time>
                                                <extensions>
                            <sog>11.3</sog>
<cog>168.7</cog>
                        </extensions>
                    </trkpt>
                    <trkpt lat="54.72795166666666" lon="10.860071666666666">
                        <ele>0</ele>
                        <time>2022-08-18T04:09:08Z</time>
                                                <extensions>
                            <sog>11.3</sog>
<cog>168.3</cog>
                        </extensions>
                    </trkpt>
                    <trkpt lat="54.727489999999996" lon="10.860244999999999">
                        <ele>0</ele>
                        <time>2022-08-18T04:09:16Z</time>
                                                <extensions>
                            <sog>11.3</sog>
<cog>167.8</cog>
                        </extensions>
                    </trkpt>
                    <trkpt lat="54.726465" lon="10.860621666666667">
                        <ele>0</ele>
                        <time>2022-08-18T04:09:37Z</time>
                                                <extensions>
                            <sog>11.3</sog>
<cog>168.2</cog>
                        </extensions>
                    </trkpt>
                    <trkpt lat="54.72595" lon="10.860798333333333">
                        <ele>0</ele>
                        <time>2022-08-18T04:09:47Z</time>
                                                <extensions>
                            <sog>11.3</sog>
<cog>168.8</cog>
                        </extensions>
                    </trkpt>
                    <trkpt lat="54.725381666666664" lon="10.860975">
                        <ele>0</ele>
                        <time>2022-08-18T04:09:58Z</time>
                                                <extensions>
                            <sog>11.4</sog>
<cog>169.9</cog>
                        </extensions>
                    </trkpt>
                    <trkpt lat="54.724441666666664" lon="10.861205">
                        <ele>0</ele>
                        <time>2022-08-18T04:10:16Z</time>
                                                <extensions>
                            <sog>11.4</sog>
<cog>172.4</cog>
                        </extensions>
                    </trkpt>
                    <trkpt lat="54.72381" lon="10.861320000000001">
                        <ele>0</ele>
                        <time>2022-08-18T04:10:27Z</time>
                                                <extensions>
                            <sog>11.4</sog>
<cog>174.1</cog>
                        </extensions>
                    </trkpt>
                    <trkpt lat="54.72280333333333" lon="10.861448333333334">
                        <ele>0</ele>
                        <time>2022-08-18T04:10:47Z</time>
                                                <extensions>
                            <sog>11.5</sog>
<cog>176.1</cog>
                        </extensions>
                    </trkpt>
                    <trkpt lat="54.72222" lon="10.861495">
                        <ele>0</ele>
                        <time>2022-08-18T04:10:58Z</time>
                                                <extensions>
                            <sog>11.5</sog>
<cog>177.3</cog>
                        </extensions>
                    </trkpt>
                    <trkpt lat="54.720666666666666" lon="10.861531666666668">
                        <ele>0</ele>
                        <time>2022-08-18T04:11:27Z</time>
                                                <extensions>
                            <sog>11.6</sog>
<cog>179.8</cog>
                        </extensions>
                    </trkpt>
                    <trkpt lat="54.72012666666667" lon="10.861528333333332">
                        <ele>0</ele>
                        <time>2022-08-18T04:11:37Z</time>
                                                <extensions>
                            <sog>11.6</sog>
<cog>180.2</cog>
                        </extensions>
                    </trkpt>
                    <trkpt lat="54.71958666666667" lon="10.861518333333333">
                        <ele>0</ele>
                        <time>2022-08-18T04:11:47Z</time>
                                                <extensions>
                            <sog>11.7</sog>
<cog>180.5</cog>
                        </extensions>
                    </trkpt>
                    <trkpt lat="54.71899" lon="10.861508333333335">
                        <ele>0</ele>
                        <time>2022-08-18T04:11:58Z</time>
                                                <extensions>
                            <sog>11.7</sog>
<cog>180.5</cog>
                        </extensions>
                    </trkpt>
                    <trkpt lat="54.71686833333333" lon="10.861486666666668">
                        <ele>0</ele>
                        <time>2022-08-18T04:12:37Z</time>
                                                <extensions>
                            <sog>11.8</sog>
<cog>180.3</cog>
                        </extensions>
                    </trkpt>
                    <trkpt lat="54.71572333333334" lon="10.86148">
                        <ele>0</ele>
                        <time>2022-08-18T04:12:58Z</time>
                                                <extensions>
                            <sog>11.8</sog>
<cog>179.9</cog>
                        </extensions>
                    </trkpt>
                    <trkpt lat="54.715180000000004" lon="10.86149">
                        <ele>0</ele>
                        <time>2022-08-18T04:13:08Z</time>
                                                <extensions>
                            <sog>11.8</sog>
<cog>179.2</cog>
                        </extensions>
                    </trkpt>
                    <trkpt lat="54.71414666666667" lon="10.861563333333333">
                        <ele>0</ele>
                        <time>2022-08-18T04:13:28Z</time>
                                                <extensions>
                            <sog>11.7</sog>
<cog>177.1</cog>
                        </extensions>
                    </trkpt>
                    <trkpt lat="54.71366" lon="10.861615">
                        <ele>0</ele>
                        <time>2022-08-18T04:13:37Z</time>
                                                <extensions>
                            <sog>11.7</sog>
<cog>176.5</cog>
                        </extensions>
                    </trkpt>
                    <trkpt lat="54.71246833333333" lon="10.861761666666666">
                        <ele>0</ele>
                        <time>2022-08-18T04:13:57Z</time>
                                                <extensions>
                            <sog>11.8</sog>
<cog>175.7</cog>
                        </extensions>
                    </trkpt>
                    <trkpt lat="54.71192333333333" lon="10.861828333333333">
                        <ele>0</ele>
                        <time>2022-08-18T04:14:08Z</time>
                                                <extensions>
                            <sog>11.8</sog>
<cog>175.9</cog>
                        </extensions>
                    </trkpt>
                    <trkpt lat="54.711435" lon="10.861885000000001">
                        <ele>0</ele>
                        <time>2022-08-18T04:14:17Z</time>
                                                <extensions>
                            <sog>11.8</sog>
<cog>176.0</cog>
                        </extensions>
                    </trkpt>
                    <trkpt lat="54.710836666666665" lon="10.861948333333334">
                        <ele>0</ele>
                        <time>2022-08-18T04:14:28Z</time>
                                                <extensions>
                            <sog>11.8</sog>
<cog>176.4</cog>
                        </extensions>
                    </trkpt>
                    <trkpt lat="54.709255" lon="10.862066666666667">
                        <ele>0</ele>
                        <time>2022-08-18T04:14:57Z</time>
                                                <extensions>
                            <sog>11.8</sog>
<cog>178.3</cog>
                        </extensions>
                    </trkpt>
                    <trkpt lat="54.70865333333334" lon="10.862088333333332">
                        <ele>0</ele>
                        <time>2022-08-18T04:15:08Z</time>
                                                <extensions>
                            <sog>11.8</sog>
<cog>178.8</cog>
                        </extensions>
                    </trkpt>
                    <trkpt lat="54.70756166666667" lon="10.862145">
                        <ele>0</ele>
                        <time>2022-08-18T04:15:28Z</time>
                                                <extensions>
                            <sog>11.8</sog>
<cog>177.9</cog>
                        </extensions>
                    </trkpt>
                    <trkpt lat="54.707073333333334" lon="10.862186666666666">
                        <ele>0</ele>
                        <time>2022-08-18T04:15:37Z</time>
                                                <extensions>
                            <sog>11.8</sog>
<cog>177.1</cog>
                        </extensions>
                    </trkpt>
                    <trkpt lat="54.70647666666667" lon="10.862253333333333">
                        <ele>0</ele>
                        <time>2022-08-18T04:15:47Z</time>
                                                <extensions>
                            <sog>11.7</sog>
<cog>176.2</cog>
                        </extensions>
                    </trkpt>
                    <trkpt lat="54.70599166666667" lon="10.862321666666666">
                        <ele>0</ele>
                        <time>2022-08-18T04:15:57Z</time>
                                                <extensions>
                            <sog>11.7</sog>
<cog>175.4</cog>
                        </extensions>
                    </trkpt>
                    <trkpt lat="54.70278166666667" lon="10.862973333333334">
                        <ele>0</ele>
                        <time>2022-08-18T04:16:57Z</time>
                                                <extensions>
                            <sog>11.6</sog>
<cog>173.1</cog>
                        </extensions>
                    </trkpt>
                    <trkpt lat="54.70214333333333" lon="10.863125">
                        <ele>0</ele>
                        <time>2022-08-18T04:17:08Z</time>
                                                <extensions>
                            <sog>11.6</sog>
<cog>171.9</cog>
                        </extensions>
                    </trkpt>
                    <trkpt lat="54.701148333333336" lon="10.863443333333333">
                        <ele>0</ele>
                        <time>2022-08-18T04:17:28Z</time>
                                                <extensions>
                            <sog>11.5</sog>
<cog>168.6</cog>
                        </extensions>
                    </trkpt>
                    <trkpt lat="54.700633333333336" lon="10.863641666666666">
                        <ele>0</ele>
                        <time>2022-08-18T04:17:38Z</time>
                                                <extensions>
                            <sog>11.4</sog>
<cog>167.3</cog>
                        </extensions>
                    </trkpt>
                    <trkpt lat="54.699664999999996" lon="10.86406">
                        <ele>0</ele>
                        <time>2022-08-18T04:17:57Z</time>
                                                <extensions>
                            <sog>11.3</sog>
<cog>164.9</cog>
                        </extensions>
                    </trkpt>
                    <trkpt lat="54.69912" lon="10.864356666666668">
                        <ele>0</ele>
                        <time>2022-08-18T04:18:08Z</time>
                                                <extensions>
                            <sog>11.2</sog>
<cog>162.2</cog>
                        </extensions>
                    </trkpt>
                    <trkpt lat="54.69774833333334" lon="10.865321666666667">
                        <ele>0</ele>
                        <time>2022-08-18T04:18:38Z</time>
                                                <extensions>
                            <sog>11.0</sog>
<cog>156.4</cog>
                        </extensions>
                    </trkpt>
                    <trkpt lat="54.69678666666667" lon="10.866093333333334">
                        <ele>0</ele>
                        <time>2022-08-18T04:18:57Z</time>
                                                <extensions>
                            <sog>10.9</sog>
<cog>154.0</cog>
                        </extensions>
                    </trkpt>
                    <trkpt lat="54.69638333333333" lon="10.866443333333333">
                        <ele>0</ele>
                        <time>2022-08-18T04:19:07Z</time>
                                                <extensions>
                            <sog>10.9</sog>
<cog>153.4</cog>
                        </extensions>
                    </trkpt>
                    <trkpt lat="54.69469" lon="10.868473333333332">
                        <ele>0</ele>
                        <time>2022-08-18T04:19:51Z</time>
                                                <extensions>
                            <sog>9.9</sog>
<cog>135.5</cog>
                        </extensions>
                    </trkpt>
                    <trkpt lat="54.69435" lon="10.869103333333333">
                        <ele>0</ele>
                        <time>2022-08-18T04:20:01Z</time>
                                                <extensions>
                            <sog>9.8</sog>
<cog>132.9</cog>
                        </extensions>
                    </trkpt>
                    <trkpt lat="54.69417166666666" lon="10.869454999999999">
                        <ele>0</ele>
                        <time>2022-08-18T04:20:07Z</time>
                                                <extensions>
                            <sog>9.7</sog>
<cog>131.2</cog>
                        </extensions>
                    </trkpt>
                    <trkpt lat="54.692885000000004" lon="10.872663333333332">
                        <ele>0</ele>
                        <time>2022-08-18T04:20:58Z</time>
                                                <extensions>
                            <sog>9.6</sog>
<cog>122.5</cog>
                        </extensions>
                    </trkpt>
                    <trkpt lat="54.69119166666667" lon="10.877131666666665">
                        <ele>0</ele>
                        <time>2022-08-18T04:22:07Z</time>
                                                <extensions>
                            <sog>10.0</sog>
<cog>124.6</cog>
                        </extensions>
                    </trkpt>
                    <trkpt lat="54.68213166666667" lon="10.898653333333334">
                        <ele>0</ele>
                        <time>2022-08-18T04:27:28Z</time>
                                                <extensions>
                            <sog>10.5</sog>
<cog>121.7</cog>
                        </extensions>
                    </trkpt>
                    <trkpt lat="54.66886833333333" lon="10.93444">
                        <ele>0</ele>
                        <time>2022-08-18T04:35:48Z</time>
                                                <extensions>
                            <sog>10.8</sog>
<cog>121.3</cog>
                        </extensions>
                    </trkpt>
                    <trkpt lat="54.667339999999996" lon="10.938765">
                        <ele>0</ele>
                        <time>2022-08-18T04:36:48Z</time>
                                                <extensions>
                            <sog>10.8</sog>
<cog>121.6</cog>
                        </extensions>
                    </trkpt>
                    <trkpt lat="54.664986666666664" lon="10.945283333333332">
                        <ele>0</ele>
                        <time>2022-08-18T04:38:17Z</time>
                                                <extensions>
                            <sog>10.8</sog>
<cog>122.5</cog>
                        </extensions>
                    </trkpt>
                    </trkseg>
                </trk>
</gpx>