<?xml version="1.0" encoding="UTF-8"?>
<gpx version="1.1" creator="AIS-to-GPX Converter" xmlns="http://www.topografix.com/GPX/1/1">
                <trk>
                    <name>anon0407</name>
                    <trkseg>
                                            <trkpt lat="54.338546666666666" lon="9.962843333333332">
                        <ele>0</ele>
                        <time>2022-08-18T00:05:39Z</time>
                                                <extensions>
                            <sog>0.0</sog>
<cog>219.6</cog>
                        </extensions>
                    </trkpt>
                    <trkpt lat="54.338550000000005" lon="9.962728333333333">
                        <ele>0</ele>
                        <time>2022-08-18T00:32:39Z</time>
                                                <extensions>
                            <sog>0.0</sog>
<cog>236.7</cog>
                        </extensions>
                    </trkpt>
                    <trkpt lat="54.338550000000005" lon="9.962723333333335">
                        <ele>0</ele>
                        <time>2022-08-18T00:47:40Z</time>
                                                <extensions>
                            <sog>0.0</sog>
<cog>78.1</cog>
                        </extensions>
                    </trkpt>
                    <trkpt lat="54.33853166666667" lon="9.962741666666666">
                        <ele>0</ele>
                        <time>2022-08-18T00:50:38Z</time>
                                                <extensions>
                            <sog>0.0</sog>
<cog>57.3</cog>
                        </extensions>
                    </trkpt>
                    <trkpt lat="54.338555" lon="9.962668333333333">
                        <ele>0</ele>
                        <time>2022-08-18T01:32:40Z</time>
                                                <extensions>
                            <sog>0.0</sog>
<cog>0.0</cog>
                        </extensions>
                    </trkpt>
                    <trkpt lat="54.33855333333334" lon="9.962671666666667">
                        <ele>0</ele>
                        <time>2022-08-18T01:35:39Z</time>
                                                <extensions>
                            <sog>0.0</sog>
<cog>60.8</cog>
                        </extensions>
                    </trkpt>
                    <trkpt lat="54.3386" lon="9.962733333333334">
                        <ele>0</ele>
                        <time>2022-08-18T01:44:38Z</time>
                                                <extensions>
                            <sog>0.0</sog>
<cog>220.0</cog>
                        </extensions>
                    </trkpt>
                    <trkpt lat="54.33855166666667" lon="9.962773333333333">
                        <ele>0</ele>
                        <time>2022-08-18T02:05:39Z</time>
                                                <extensions>
                            <sog>0.0</sog>
<cog>225.3</cog>
                        </extensions>
                    </trkpt>
                    <trkpt lat="54.33855333333334" lon="9.962703333333334">
                        <ele>0</ele>
                        <time>2022-08-18T02:41:37Z</time>
                                                <extensions>
                            <sog>0.0</sog>
<cog>135.5</cog>
                        </extensions>
                    </trkpt>
                    <trkpt lat="54.33852" lon="9.96269">
                        <ele>0</ele>
                        <time>2022-08-18T02:59:37Z</time>
                                                <extensions>
                            <sog>0.0</sog>
<cog>70.7</cog>
                        </extensions>
                    </trkpt>
                    <trkpt lat="54.33853333333333" lon="9.962738333333334">
                        <ele>0</ele>
                        <time>2022-08-18T03:11:37Z</time>
                                                <extensions>
                            <sog>0.0</sog>
<cog>59.3</cog>
                        </extensions>
                    </trkpt>
                    <trkpt lat="54.338515" lon="9.962721666666665">
                        <ele>0</ele>
                        <time>2022-08-18T03:20:39Z</time>
                                                <extensions>
                            <sog>0.0</sog>
<cog>233.4</cog>
                        </extensions>
                    </trkpt>
                    <trkpt lat="54.338535" lon="9.962638333333333">
                        <ele>0</ele>
                        <time>2022-08-18T03:29:37Z</time>
                                                <extensions>
                            <sog>0.0</sog>
<cog>0.0</cog>
                        </extensions>
                    </trkpt>
                    <trkpt lat="54.338515" lon="9.96269">
                        <ele>0</ele>
                        <time>2022-08-18T03:32:36Z</time>
                                                <extensions>
                            <sog>0.0</sog>
<cog>79.3</cog>
                        </extensions>
                    </trkpt>
                    <trkpt lat="54.33853166666667" lon="9.962768333333335">
                        <ele>0</ele>
                        <time>2022-08-18T04:17:37Z</time>
                                                <extensions>
                            <sog>0.0</sog>
<cog>17.7</cog>
                        </extensions>
                    </trkpt>
                    <trkpt lat="54.338539999999995" lon="9.96277">
                        <ele>0</ele>
                        <time>2022-08-18T04:20:39Z</time>
                                                <extensions>
                            <sog>0.0</sog>
<cog>130.2</cog>
                        </extensions>
                    </trkpt>
                    <trkpt lat="54.33852666666667" lon="9.962768333333335">
                        <ele>0</ele>
                        <time>2022-08-18T04:23:36Z</time>
                                                <extensions>
                            <sog>0.0</sog>
<cog>283.4</cog>
                        </extensions>
                    </trkpt>
                    <trkpt lat="54.338523333333335" lon="9.962753333333334">
                        <ele>0</ele>
                        <time>2022-08-18T04:32:39Z</time>
                                                <extensions>
                            <sog>0.0</sog>
<cog>108.1</cog>
                        </extensions>
                    </trkpt>
                    <trkpt lat="54.33857" lon="9.962828333333333">
                        <ele>0</ele>
                        <time>2022-08-18T04:35:37Z</time>
                                                <extensions>
                            <sog>0.0</sog>
<cog>18.6</cog>
                        </extensions>
                    </trkpt>
                    <trkpt lat="54.338528333333336" lon="9.962683333333333">
                        <ele>0</ele>
                        <time>2022-08-18T05:20:36Z</time>
                                                <extensions>
                            <sog>0.0</sog>
<cog>0.0</cog>
                        </extensions>
                    </trkpt>
                    <trkpt lat="54.338546666666666" lon="9.962648333333334">
                        <ele>0</ele>
                        <time>2022-08-18T05:32:36Z</time>
                                                <extensions>
                            <sog>0.0</sog>
<cog>175.5</cog>
                        </extensions>
                    </trkpt>
                    <trkpt lat="54.338521666666665" lon="9.96269">
                        <ele>0</ele>
                        <time>2022-08-18T05:35:36Z</time>
                                                <extensions>
                            <sog>0.0</sog>
<cog>301.9</cog>
                        </extensions>
                    </trkpt>
                    <trkpt lat="54.33856166666667" lon="9.96272">
                        <ele>0</ele>
                        <time>2022-08-18T05:38:37Z</time>
                                                <extensions>
                            <sog>0.0</sog>
<cog>72.1</cog>
                        </extensions>
                    </trkpt>
                    <trkpt lat="54.33856" lon="9.962708333333333">
                        <ele>0</ele>
                        <time>2022-08-18T06:14:35Z</time>
                                                <extensions>
                            <sog>0.1</sog>
<cog>332.8</cog>
                        </extensions>
                    </trkpt>
                    <trkpt lat="54.34162166666667" lon="9.963706666666667">
                        <ele>0</ele>
                        <time>2022-08-18T07:49:04Z</time>
                                                <extensions>
                            <sog>3.4</sog>
<cog>322.5</cog>
                        </extensions>
                    </trkpt>
                    <trkpt lat="54.341955" lon="9.962986666666666">
                        <ele>0</ele>
                        <time>2022-08-18T07:49:35Z</time>
                                                <extensions>
                            <sog>3.7</sog>
<cog>300.3</cog>
                        </extensions>
                    </trkpt>
                    <trkpt lat="54.34209333333333" lon="9.962196666666667">
                        <ele>0</ele>
                        <time>2022-08-18T07:50:05Z</time>
                                                <extensions>
                            <sog>3.7</sog>
<cog>275.0</cog>
                        </extensions>
                    </trkpt>
                    <trkpt lat="54.342108333333336" lon="9.961243333333334">
                        <ele>0</ele>
                        <time>2022-08-18T07:50:35Z</time>
                                                <extensions>
                            <sog>4.0</sog>
<cog>274.3</cog>
                        </extensions>
                    </trkpt>
                    <trkpt lat="54.34214333333333" lon="9.960325000000001">
                        <ele>0</ele>
                        <time>2022-08-18T07:51:04Z</time>
                                                <extensions>
                            <sog>3.9</sog>
<cog>272.5</cog>
                        </extensions>
                    </trkpt>
                    <trkpt lat="54.34218" lon="9.959373333333334">
                        <ele>0</ele>
                        <time>2022-08-18T07:51:34Z</time>
                                                <extensions>
                            <sog>4.0</sog>
<cog>271.9</cog>
                        </extensions>
                    </trkpt>
                    <trkpt lat="54.342189999999995" lon="9.958400000000001">
                        <ele>0</ele>
                        <time>2022-08-18T07:52:04Z</time>
                                                <extensions>
                            <sog>4.1</sog>
<cog>268.2</cog>
                        </extensions>
                    </trkpt>
                    <trkpt lat="54.342189999999995" lon="9.957411666666667">
                        <ele>0</ele>
                        <time>2022-08-18T07:52:34Z</time>
                                                <extensions>
                            <sog>4.0</sog>
<cog>270.1</cog>
                        </extensions>
                    </trkpt>
                    <trkpt lat="54.34218833333333" lon="9.956503333333334">
                        <ele>0</ele>
                        <time>2022-08-18T07:53:04Z</time>
                                                <extensions>
                            <sog>3.9</sog>
<cog>268.2</cog>
                        </extensions>
                    </trkpt>
                    <trkpt lat="54.34216" lon="9.955545">
                        <ele>0</ele>
                        <time>2022-08-18T07:53:34Z</time>
                                                <extensions>
                            <sog>3.9</sog>
<cog>268.3</cog>
                        </extensions>
                    </trkpt>
                    <trkpt lat="54.34213833333333" lon="9.954623333333332">
                        <ele>0</ele>
                        <time>2022-08-18T07:54:04Z</time>
                                                <extensions>
                            <sog>3.9</sog>
<cog>266.0</cog>
                        </extensions>
                    </trkpt>
                    <trkpt lat="54.34211666666667" lon="9.953665">
                        <ele>0</ele>
                        <time>2022-08-18T07:54:35Z</time>
                                                <extensions>
                            <sog>3.8</sog>
<cog>267.7</cog>
                        </extensions>
                    </trkpt>
                    <trkpt lat="54.34207166666667" lon="9.952743333333332">
                        <ele>0</ele>
                        <time>2022-08-18T07:55:05Z</time>
                                                <extensions>
                            <sog>3.8</sog>
<cog>263.3</cog>
                        </extensions>
                    </trkpt>
                    <trkpt lat="54.34191166666667" lon="9.950918333333334">
                        <ele>0</ele>
                        <time>2022-08-18T07:56:05Z</time>
                                                <extensions>
                            <sog>4.0</sog>
<cog>263.8</cog>
                        </extensions>
                    </trkpt>
                    <trkpt lat="54.341786666666664" lon="9.949096666666666">
                        <ele>0</ele>
                        <time>2022-08-18T07:57:03Z</time>
                                                <extensions>
                            <sog>3.8</sog>
<cog>261.9</cog>
                        </extensions>
                    </trkpt>
                    <trkpt lat="54.34171666666667" lon="9.948128333333333">
                        <ele>0</ele>
                        <time>2022-08-18T07:57:36Z</time>
                                                <extensions>
                            <sog>3.5</sog>
<cog>262.4</cog>
                        </extensions>
                    </trkpt>
                    <trkpt lat="54.34163" lon="9.947316666666667">
                        <ele>0</ele>
                        <time>2022-08-18T07:58:04Z</time>
                                                <extensions>
                            <sog>3.9</sog>
<cog>260.4</cog>
                        </extensions>
                    </trkpt>
                    <trkpt lat="54.34153166666667" lon="9.946366666666668">
                        <ele>0</ele>
                        <time>2022-08-18T07:58:34Z</time>
                                                <extensions>
                            <sog>4.0</sog>
<cog>260.9</cog>
                        </extensions>
                    </trkpt>
                    <trkpt lat="54.34143666666667" lon="9.94538">
                        <ele>0</ele>
                        <time>2022-08-18T07:59:05Z</time>
                                                <extensions>
                            <sog>4.0</sog>
<cog>260.6</cog>
                        </extensions>
                    </trkpt>
                    <trkpt lat="54.341335" lon="9.94446">
                        <ele>0</ele>
                        <time>2022-08-18T07:59:34Z</time>
                                                <extensions>
                            <sog>4.1</sog>
<cog>260.3</cog>
                        </extensions>
                    </trkpt>
                    <trkpt lat="54.341231666666665" lon="9.943523333333333">
                        <ele>0</ele>
                        <time>2022-08-18T08:00:04Z</time>
                                                <extensions>
                            <sog>4.1</sog>
<cog>259.6</cog>
                        </extensions>
                    </trkpt>
                    <trkpt lat="54.341231666666665" lon="9.943523333333333">
                        <ele>0</ele>
                        <time>2022-08-18T08:00:04Z</time>
                                                <extensions>
                            <sog>4.1</sog>
<cog>259.6</cog>
                        </extensions>
                    </trkpt>
                    <trkpt lat="54.34106333333333" lon="9.941615">
                        <ele>0</ele>
                        <time>2022-08-18T08:01:03Z</time>
                                                <extensions>
                            <sog>3.9</sog>
<cog>265.3</cog>
                        </extensions>
                    </trkpt>
                    <trkpt lat="54.341065" lon="9.939726666666667">
                        <ele>0</ele>
                        <time>2022-08-18T08:02:04Z</time>
                                                <extensions>
                            <sog>3.9</sog>
<cog>273.9</cog>
                        </extensions>
                    </trkpt>
                    <trkpt lat="54.341121666666666" lon="9.938811666666668">
                        <ele>0</ele>
                        <time>2022-08-18T08:02:35Z</time>
                                                <extensions>
                            <sog>3.9</sog>
<cog>278.6</cog>
                        </extensions>
                    </trkpt>
                    <trkpt lat="54.34119666666666" lon="9.937911666666668">
                        <ele>0</ele>
                        <time>2022-08-18T08:03:04Z</time>
                                                <extensions>
                            <sog>4.0</sog>
<cog>277.9</cog>
                        </extensions>
                    </trkpt>
                    <trkpt lat="54.34128166666667" lon="9.936925">
                        <ele>0</ele>
                        <time>2022-08-18T08:03:35Z</time>
                                                <extensions>
                            <sog>3.9</sog>
<cog>277.6</cog>
                        </extensions>
                    </trkpt>
                    <trkpt lat="54.34148166666667" lon="9.934410000000002">
                        <ele>0</ele>
                        <time>2022-08-18T08:05:03Z</time>
                                                <extensions>
                            <sog>4.1</sog>
<cog>280.0</cog>
                        </extensions>
                    </trkpt>
                    <trkpt lat="54.341784999999994" lon="9.931563333333335">
                        <ele>0</ele>
                        <time>2022-08-18T08:06:34Z</time>
                                                <extensions>
                            <sog>3.9</sog>
<cog>282.7</cog>
                        </extensions>
                    </trkpt>
                    <trkpt lat="54.34200333333333" lon="9.929693333333335">
                        <ele>0</ele>
                        <time>2022-08-18T08:07:34Z</time>
                                                <extensions>
                            <sog>5.5</sog>
<cog>282.8</cog>
                        </extensions>
                    </trkpt>
                    <trkpt lat="54.34218666666666" lon="9.928255">
                        <ele>0</ele>
                        <time>2022-08-18T08:08:04Z</time>
                                                <extensions>
                            <sog>6.3</sog>
<cog>282.5</cog>
                        </extensions>
                    </trkpt>
                    <trkpt lat="54.34236" lon="9.927225">
                        <ele>0</ele>
                        <time>2022-08-18T08:08:35Z</time>
                                                <extensions>
                            <sog>1.0</sog>
<cog>287.8</cog>
                        </extensions>
                    </trkpt>
                    <trkpt lat="54.34239" lon="9.927106666666667">
                        <ele>0</ele>
                        <time>2022-08-18T08:09:04Z</time>
                                                <extensions>
                            <sog>3.8</sog>
<cog>285.6</cog>
                        </extensions>
                    </trkpt>
                    <trkpt lat="54.342639999999996" lon="9.925828333333333">
                        <ele>0</ele>
                        <time>2022-08-18T08:09:34Z</time>
                                                <extensions>
                            <sog>6.6</sog>
<cog>293.4</cog>
                        </extensions>
                    </trkpt>
                    <trkpt lat="54.343041666666664" lon="9.924261666666666">
                        <ele>0</ele>
                        <time>2022-08-18T08:10:04Z</time>
                                                <extensions>
                            <sog>7.1</sog>
<cog>295.3</cog>
                        </extensions>
                    </trkpt>
                    <trkpt lat="54.34368" lon="9.921976666666666">
                        <ele>0</ele>
                        <time>2022-08-18T08:11:03Z</time>
                                                <extensions>
                            <sog>3.3</sog>
<cog>295.3</cog>
                        </extensions>
                    </trkpt>
                    <trkpt lat="54.34858333333333" lon="9.906228333333333">
                        <ele>0</ele>
                        <time>2022-08-18T08:19:03Z</time>
                                                <extensions>
                            <sog>4.1</sog>
<cog>300.5</cog>
                        </extensions>
                    </trkpt>
                    <trkpt lat="54.34885833333333" lon="9.905331666666665">
                        <ele>0</ele>
                        <time>2022-08-18T08:19:34Z</time>
                                                <extensions>
                            <sog>4.1</sog>
<cog>299.2</cog>
                        </extensions>
                    </trkpt>
                    <trkpt lat="54.34995" lon="9.901966666666668">
                        <ele>0</ele>
                        <time>2022-08-18T08:21:33Z</time>
                                                <extensions>
                            <sog>4.1</sog>
<cog>298.2</cog>
                        </extensions>
                    </trkpt>
                    <trkpt lat="54.350516666666664" lon="9.900303333333333">
                        <ele>0</ele>
                        <time>2022-08-18T08:22:32Z</time>
                                                <extensions>
                            <sog>4.1</sog>
<cog>300.6</cog>
                        </extensions>
                    </trkpt>
                    <trkpt lat="54.35251166666667" lon="9.894341666666666">
                        <ele>0</ele>
                        <time>2022-08-18T08:26:03Z</time>
                                                <extensions>
                            <sog>4.0</sog>
<cog>297.4</cog>
                        </extensions>
                    </trkpt>
                    </trkseg>
                </trk>
</gpx>