<?xml version="1.0" encoding="UTF-8"?>
<gpx version="1.1" creator="AIS-to-GPX Converter" xmlns="http://www.topografix.com/GPX/1/1">
                <trk>
                    <name>anon0333</name>
                    <trkseg>
                                            <trkpt lat="54.38411333333333" lon="10.161493333333334">
                        <ele>0</ele>
                        <time>2022-08-18T14:32:22Z</time>
                        <extensions>
    <sog>0.0</sog>
</extensions>
                    </trkpt>
                    <trkpt lat="54.384123333333335" lon="10.161505">
                        <ele>0</ele>
                        <time>2022-08-18T14:35:22Z</time>
                        <extensions>
    <sog>0.0</sog>
</extensions>
                    </trkpt>
                    <trkpt lat="54.38410666666667" lon="10.161481666666667">
                        <ele>0</ele>
                        <time>2022-08-18T14:38:22Z</time>
                        <extensions>
    <sog>0.0</sog>
</extensions>
                    </trkpt>
                    </trkseg>
                </trk>
</gpx>