<?xml version="1.0" encoding="UTF-8"?>
<gpx version="1.1" creator="AIS-to-GPX Converter" xmlns="http://www.topografix.com/GPX/1/1">
                <trk>
                    <name>anon0196</name>
                    <trkseg>
                                            <trkpt lat="54.37273166666667" lon="10.164860000000001">
                        <ele>0</ele>
                        <time>2022-08-18T07:35:39Z</time>
                                                <extensions>
                            <sog>4.4</sog>
<cog>57.2</cog>
                        </extensions>
                    </trkpt>
                    <trkpt lat="54.37313666666667" lon="10.165728333333334">
                        <ele>0</ele>
                        <time>2022-08-18T07:36:09Z</time>
                                                <extensions>
                            <sog>4.4</sog>
<cog>52.5</cog>
                        </extensions>
                    </trkpt>
                    <trkpt lat="54.373415" lon="10.166565">
                        <ele>0</ele>
                        <time>2022-08-18T07:36:39Z</time>
                                                <extensions>
                            <sog>4.5</sog>
<cog>57.3</cog>
                        </extensions>
                    </trkpt>
                    <trkpt lat="54.373718333333336" lon="10.167403333333334">
                        <ele>0</ele>
                        <time>2022-08-18T07:37:08Z</time>
                                                <extensions>
                            <sog>4.4</sog>
<cog>52.4</cog>
                        </extensions>
                    </trkpt>
                    <trkpt lat="54.37408333333334" lon="10.16823">
                        <ele>0</ele>
                        <time>2022-08-18T07:37:39Z</time>
                                                <extensions>
                            <sog>4.4</sog>
<cog>57.6</cog>
                        </extensions>
                    </trkpt>
                    <trkpt lat="54.374435" lon="10.16915">
                        <ele>0</ele>
                        <time>2022-08-18T07:38:08Z</time>
                                                <extensions>
                            <sog>4.4</sog>
<cog>55.8</cog>
                        </extensions>
                    </trkpt>
                    <trkpt lat="54.374856666666666" lon="10.170053333333334">
                        <ele>0</ele>
                        <time>2022-08-18T07:38:39Z</time>
                                                <extensions>
                            <sog>4.4</sog>
<cog>45.4</cog>
                        </extensions>
                    </trkpt>
                    <trkpt lat="54.375281666666666" lon="10.170723333333333">
                        <ele>0</ele>
                        <time>2022-08-18T07:39:08Z</time>
                                                <extensions>
                            <sog>4.3</sog>
<cog>33.4</cog>
                        </extensions>
                    </trkpt>
                    <trkpt lat="54.37591" lon="10.171339999999999">
                        <ele>0</ele>
                        <time>2022-08-18T07:39:40Z</time>
                                                <extensions>
                            <sog>4.4</sog>
<cog>26.3</cog>
                        </extensions>
                    </trkpt>
                    <trkpt lat="54.37652833333333" lon="10.171623333333335">
                        <ele>0</ele>
                        <time>2022-08-18T07:40:10Z</time>
                                                <extensions>
                            <sog>4.3</sog>
<cog>12.0</cog>
                        </extensions>
                    </trkpt>
                    <trkpt lat="54.377208333333336" lon="10.171568333333333">
                        <ele>0</ele>
                        <time>2022-08-18T07:40:40Z</time>
                                                <extensions>
                            <sog>4.3</sog>
<cog>7.1</cog>
                        </extensions>
                    </trkpt>
                    <trkpt lat="54.37778333333333" lon="10.171571666666667">
                        <ele>0</ele>
                        <time>2022-08-18T07:41:08Z</time>
                                                <extensions>
                            <sog>4.3</sog>
<cog>7.1</cog>
                        </extensions>
                    </trkpt>
                    <trkpt lat="54.37896" lon="10.171773333333334">
                        <ele>0</ele>
                        <time>2022-08-18T07:42:08Z</time>
                                                <extensions>
                            <sog>4.4</sog>
<cog>4.3</cog>
                        </extensions>
                    </trkpt>
                    <trkpt lat="54.37952" lon="10.171706666666667">
                        <ele>0</ele>
                        <time>2022-08-18T07:42:39Z</time>
                                                <extensions>
                            <sog>4.4</sog>
<cog>339.3</cog>
                        </extensions>
                    </trkpt>
                    <trkpt lat="54.380023333333334" lon="10.171346666666667">
                        <ele>0</ele>
                        <time>2022-08-18T07:43:09Z</time>
                                                <extensions>
                            <sog>4.4</sog>
<cog>334.1</cog>
                        </extensions>
                    </trkpt>
                    <trkpt lat="54.38092166666667" lon="10.170596666666667">
                        <ele>0</ele>
                        <time>2022-08-18T07:44:09Z</time>
                                                <extensions>
                            <sog>4.0</sog>
<cog>338.4</cog>
                        </extensions>
                    </trkpt>
                    <trkpt lat="54.381409999999995" lon="10.170183333333334">
                        <ele>0</ele>
                        <time>2022-08-18T07:44:38Z</time>
                                                <extensions>
                            <sog>4.0</sog>
<cog>336.9</cog>
                        </extensions>
                    </trkpt>
                    <trkpt lat="54.38192333333333" lon="10.169806666666666">
                        <ele>0</ele>
                        <time>2022-08-18T07:45:08Z</time>
                                                <extensions>
                            <sog>3.9</sog>
<cog>339.4</cog>
                        </extensions>
                    </trkpt>
                    <trkpt lat="54.382425" lon="10.169488333333334">
                        <ele>0</ele>
                        <time>2022-08-18T07:45:38Z</time>
                                                <extensions>
                            <sog>4.0</sog>
<cog>336.9</cog>
                        </extensions>
                    </trkpt>
                    <trkpt lat="54.38394166666667" lon="10.168276666666666">
                        <ele>0</ele>
                        <time>2022-08-18T07:47:08Z</time>
                                                <extensions>
                            <sog>3.6</sog>
<cog>336.9</cog>
                        </extensions>
                    </trkpt>
                    <trkpt lat="54.38442" lon="10.167923333333333">
                        <ele>0</ele>
                        <time>2022-08-18T07:47:38Z</time>
                                                <extensions>
                            <sog>3.1</sog>
<cog>334.0</cog>
                        </extensions>
                    </trkpt>
                    <trkpt lat="54.384771666666666" lon="10.167631666666667">
                        <ele>0</ele>
                        <time>2022-08-18T07:48:08Z</time>
                                                <extensions>
                            <sog>2.4</sog>
<cog>325.9</cog>
                        </extensions>
                    </trkpt>
                    <trkpt lat="54.38497333333333" lon="10.167336666666667">
                        <ele>0</ele>
                        <time>2022-08-18T07:48:38Z</time>
                                                <extensions>
                            <sog>1.9</sog>
<cog>290.6</cog>
                        </extensions>
                    </trkpt>
                    <trkpt lat="54.384933333333336" lon="10.166781666666667">
                        <ele>0</ele>
                        <time>2022-08-18T07:49:08Z</time>
                                                <extensions>
                            <sog>2.0</sog>
<cog>255.0</cog>
                        </extensions>
                    </trkpt>
                    <trkpt lat="54.38492166666666" lon="10.166371666666667">
                        <ele>0</ele>
                        <time>2022-08-18T07:49:38Z</time>
                                                <extensions>
                            <sog>1.5</sog>
<cog>279.0</cog>
                        </extensions>
                    </trkpt>
                    <trkpt lat="54.384971666666665" lon="10.166015">
                        <ele>0</ele>
                        <time>2022-08-18T07:50:08Z</time>
                                                <extensions>
                            <sog>2.8</sog>
<cog>262.0</cog>
                        </extensions>
                    </trkpt>
                    <trkpt lat="54.384998333333336" lon="10.165851666666667">
                        <ele>0</ele>
                        <time>2022-08-18T07:50:39Z</time>
                                                <extensions>
                            <sog>0.1</sog>
<cog>236.9</cog>
                        </extensions>
                    </trkpt>
                    <trkpt lat="54.384948333333334" lon="10.166065">
                        <ele>0</ele>
                        <time>2022-08-18T07:51:08Z</time>
                                                <extensions>
                            <sog>2.1</sog>
<cog>87.6</cog>
                        </extensions>
                    </trkpt>
                    <trkpt lat="54.38500833333333" lon="10.167565">
                        <ele>0</ele>
                        <time>2022-08-18T07:52:08Z</time>
                                                <extensions>
                            <sog>4.4</sog>
<cog>99.4</cog>
                        </extensions>
                    </trkpt>
                    <trkpt lat="54.38492166666666" lon="10.168598333333334">
                        <ele>0</ele>
                        <time>2022-08-18T07:52:38Z</time>
                                                <extensions>
                            <sog>4.7</sog>
<cog>105.1</cog>
                        </extensions>
                    </trkpt>
                    <trkpt lat="54.384785" lon="10.1697">
                        <ele>0</ele>
                        <time>2022-08-18T07:53:09Z</time>
                                                <extensions>
                            <sog>4.8</sog>
<cog>105.4</cog>
                        </extensions>
                    </trkpt>
                    <trkpt lat="54.384620000000005" lon="10.17079">
                        <ele>0</ele>
                        <time>2022-08-18T07:53:38Z</time>
                                                <extensions>
                            <sog>4.9</sog>
<cog>106.6</cog>
                        </extensions>
                    </trkpt>
                    <trkpt lat="54.38440333333333" lon="10.17189">
                        <ele>0</ele>
                        <time>2022-08-18T07:54:08Z</time>
                                                <extensions>
                            <sog>4.8</sog>
<cog>109.0</cog>
                        </extensions>
                    </trkpt>
                    <trkpt lat="54.38419" lon="10.173096666666668">
                        <ele>0</ele>
                        <time>2022-08-18T07:54:41Z</time>
                                                <extensions>
                            <sog>4.8</sog>
<cog>107.5</cog>
                        </extensions>
                    </trkpt>
                    <trkpt lat="54.38400166666667" lon="10.175358333333332">
                        <ele>0</ele>
                        <time>2022-08-18T07:55:39Z</time>
                                                <extensions>
                            <sog>4.9</sog>
<cog>86.2</cog>
                        </extensions>
                    </trkpt>
                    <trkpt lat="54.383895" lon="10.176475">
                        <ele>0</ele>
                        <time>2022-08-18T07:56:08Z</time>
                                                <extensions>
                            <sog>4.9</sog>
<cog>86.6</cog>
                        </extensions>
                    </trkpt>
                    <trkpt lat="54.383945000000004" lon="10.178785">
                        <ele>0</ele>
                        <time>2022-08-18T07:57:08Z</time>
                                                <extensions>
                            <sog>4.8</sog>
<cog>90.5</cog>
                        </extensions>
                    </trkpt>
                    <trkpt lat="54.38398333333334" lon="10.179926666666667">
                        <ele>0</ele>
                        <time>2022-08-18T07:57:39Z</time>
                                                <extensions>
                            <sog>4.7</sog>
<cog>86.8</cog>
                        </extensions>
                    </trkpt>
                    <trkpt lat="54.383985" lon="10.181075">
                        <ele>0</ele>
                        <time>2022-08-18T07:58:08Z</time>
                                                <extensions>
                            <sog>4.8</sog>
<cog>89.2</cog>
                        </extensions>
                    </trkpt>
                    <trkpt lat="54.384055" lon="10.182216666666667">
                        <ele>0</ele>
                        <time>2022-08-18T07:58:39Z</time>
                                                <extensions>
                            <sog>4.8</sog>
<cog>77.9</cog>
                        </extensions>
                    </trkpt>
                    <trkpt lat="54.38433333333333" lon="10.184296666666667">
                        <ele>0</ele>
                        <time>2022-08-18T07:59:39Z</time>
                                                <extensions>
                            <sog>4.7</sog>
<cog>74.6</cog>
                        </extensions>
                    </trkpt>
                    <trkpt lat="54.38448" lon="10.185323333333335">
                        <ele>0</ele>
                        <time>2022-08-18T08:00:09Z</time>
                                                <extensions>
                            <sog>4.7</sog>
<cog>73.2</cog>
                        </extensions>
                    </trkpt>
                    <trkpt lat="54.38448" lon="10.185323333333335">
                        <ele>0</ele>
                        <time>2022-08-18T08:00:09Z</time>
                                                <extensions>
                            <sog>4.7</sog>
<cog>73.2</cog>
                        </extensions>
                    </trkpt>
                    <trkpt lat="54.38469333333333" lon="10.186278333333332">
                        <ele>0</ele>
                        <time>2022-08-18T08:00:38Z</time>
                                                <extensions>
                            <sog>4.9</sog>
<cog>64.6</cog>
                        </extensions>
                    </trkpt>
                    <trkpt lat="54.38469333333333" lon="10.186278333333332">
                        <ele>0</ele>
                        <time>2022-08-18T08:00:38Z</time>
                                                <extensions>
                            <sog>4.9</sog>
<cog>64.6</cog>
                        </extensions>
                    </trkpt>
                    <trkpt lat="54.38501" lon="10.187315">
                        <ele>0</ele>
                        <time>2022-08-18T08:01:09Z</time>
                                                <extensions>
                            <sog>4.9</sog>
<cog>61.3</cog>
                        </extensions>
                    </trkpt>
                    <trkpt lat="54.385668333333335" lon="10.189201666666666">
                        <ele>0</ele>
                        <time>2022-08-18T08:02:08Z</time>
                                                <extensions>
                            <sog>5.0</sog>
<cog>57.4</cog>
                        </extensions>
                    </trkpt>
                    <trkpt lat="54.385981666666666" lon="10.190211666666666">
                        <ele>0</ele>
                        <time>2022-08-18T08:02:38Z</time>
                                                <extensions>
                            <sog>4.9</sog>
<cog>54.6</cog>
                        </extensions>
                    </trkpt>
                    <trkpt lat="54.38646333333334" lon="10.191173333333333">
                        <ele>0</ele>
                        <time>2022-08-18T08:03:08Z</time>
                                                <extensions>
                            <sog>5.0</sog>
<cog>52.4</cog>
                        </extensions>
                    </trkpt>
                    <trkpt lat="54.386935" lon="10.192153333333332">
                        <ele>0</ele>
                        <time>2022-08-18T08:03:39Z</time>
                                                <extensions>
                            <sog>5.2</sog>
<cog>50.1</cog>
                        </extensions>
                    </trkpt>
                    <trkpt lat="54.387370000000004" lon="10.193143333333333">
                        <ele>0</ele>
                        <time>2022-08-18T08:04:08Z</time>
                                                <extensions>
                            <sog>4.8</sog>
<cog>52.8</cog>
                        </extensions>
                    </trkpt>
                    <trkpt lat="54.387836666666665" lon="10.194076666666666">
                        <ele>0</ele>
                        <time>2022-08-18T08:04:38Z</time>
                                                <extensions>
                            <sog>4.9</sog>
<cog>56.9</cog>
                        </extensions>
                    </trkpt>
                    <trkpt lat="54.38829833333333" lon="10.195086666666667">
                        <ele>0</ele>
                        <time>2022-08-18T08:05:10Z</time>
                                                <extensions>
                            <sog>4.9</sog>
<cog>57.5</cog>
                        </extensions>
                    </trkpt>
                    <trkpt lat="54.388635" lon="10.19602">
                        <ele>0</ele>
                        <time>2022-08-18T08:05:38Z</time>
                                                <extensions>
                            <sog>4.9</sog>
<cog>54.6</cog>
                        </extensions>
                    </trkpt>
                    <trkpt lat="54.38910666666666" lon="10.196936666666666">
                        <ele>0</ele>
                        <time>2022-08-18T08:06:09Z</time>
                                                <extensions>
                            <sog>4.8</sog>
<cog>53.4</cog>
                        </extensions>
                    </trkpt>
                    <trkpt lat="54.38957833333333" lon="10.197621666666667">
                        <ele>0</ele>
                        <time>2022-08-18T08:06:39Z</time>
                                                <extensions>
                            <sog>4.6</sog>
<cog>45.3</cog>
                        </extensions>
                    </trkpt>
                    <trkpt lat="54.390006666666665" lon="10.19835">
                        <ele>0</ele>
                        <time>2022-08-18T08:07:09Z</time>
                                                <extensions>
                            <sog>4.6</sog>
<cog>45.6</cog>
                        </extensions>
                    </trkpt>
                    <trkpt lat="54.390526666666666" lon="10.199151666666667">
                        <ele>0</ele>
                        <time>2022-08-18T08:07:40Z</time>
                                                <extensions>
                            <sog>4.8</sog>
<cog>41.3</cog>
                        </extensions>
                    </trkpt>
                    <trkpt lat="54.39098666666666" lon="10.199853333333333">
                        <ele>0</ele>
                        <time>2022-08-18T08:08:08Z</time>
                                                <extensions>
                            <sog>4.6</sog>
<cog>39.9</cog>
                        </extensions>
                    </trkpt>
                    <trkpt lat="54.391439999999996" lon="10.200633333333334">
                        <ele>0</ele>
                        <time>2022-08-18T08:08:38Z</time>
                                                <extensions>
                            <sog>4.5</sog>
<cog>37.6</cog>
                        </extensions>
                    </trkpt>
                    <trkpt lat="54.391975" lon="10.201366666666667">
                        <ele>0</ele>
                        <time>2022-08-18T08:09:09Z</time>
                                                <extensions>
                            <sog>4.7</sog>
<cog>44.9</cog>
                        </extensions>
                    </trkpt>
                    <trkpt lat="54.39244166666666" lon="10.20203">
                        <ele>0</ele>
                        <time>2022-08-18T08:09:38Z</time>
                                                <extensions>
                            <sog>4.8</sog>
<cog>41.4</cog>
                        </extensions>
                    </trkpt>
                    <trkpt lat="54.392986666666665" lon="10.20281">
                        <ele>0</ele>
                        <time>2022-08-18T08:10:09Z</time>
                                                <extensions>
                            <sog>4.9</sog>
<cog>34.8</cog>
                        </extensions>
                    </trkpt>
                    <trkpt lat="54.39351666666666" lon="10.203405">
                        <ele>0</ele>
                        <time>2022-08-18T08:10:39Z</time>
                                                <extensions>
                            <sog>4.5</sog>
<cog>32.6</cog>
                        </extensions>
                    </trkpt>
                    <trkpt lat="54.39412" lon="10.204046666666667">
                        <ele>0</ele>
                        <time>2022-08-18T08:11:09Z</time>
                                                <extensions>
                            <sog>4.6</sog>
<cog>30.5</cog>
                        </extensions>
                    </trkpt>
                    <trkpt lat="54.394711666666666" lon="10.204566666666667">
                        <ele>0</ele>
                        <time>2022-08-18T08:11:39Z</time>
                                                <extensions>
                            <sog>4.8</sog>
<cog>25.4</cog>
                        </extensions>
                    </trkpt>
                    <trkpt lat="54.39535166666667" lon="10.205066666666665">
                        <ele>0</ele>
                        <time>2022-08-18T08:12:09Z</time>
                                                <extensions>
                            <sog>4.8</sog>
<cog>27.6</cog>
                        </extensions>
                    </trkpt>
                    <trkpt lat="54.39588333333334" lon="10.205620000000001">
                        <ele>0</ele>
                        <time>2022-08-18T08:12:38Z</time>
                                                <extensions>
                            <sog>4.7</sog>
<cog>27.5</cog>
                        </extensions>
                    </trkpt>
                    <trkpt lat="54.396458333333335" lon="10.206128333333334">
                        <ele>0</ele>
                        <time>2022-08-18T08:13:08Z</time>
                                                <extensions>
                            <sog>4.7</sog>
<cog>27.0</cog>
                        </extensions>
                    </trkpt>
                    <trkpt lat="54.397065" lon="10.206591666666666">
                        <ele>0</ele>
                        <time>2022-08-18T08:13:40Z</time>
                                                <extensions>
                            <sog>4.7</sog>
<cog>28.3</cog>
                        </extensions>
                    </trkpt>
                    <trkpt lat="54.39754833333333" lon="10.207040000000001">
                        <ele>0</ele>
                        <time>2022-08-18T08:14:08Z</time>
                                                <extensions>
                            <sog>4.6</sog>
<cog>25.3</cog>
                        </extensions>
                    </trkpt>
                    <trkpt lat="54.39807333333333" lon="10.207488333333334">
                        <ele>0</ele>
                        <time>2022-08-18T08:14:38Z</time>
                                                <extensions>
                            <sog>4.6</sog>
<cog>29.8</cog>
                        </extensions>
                    </trkpt>
                    <trkpt lat="54.398648333333334" lon="10.208098333333334">
                        <ele>0</ele>
                        <time>2022-08-18T08:15:09Z</time>
                                                <extensions>
                            <sog>4.7</sog>
<cog>32.0</cog>
                        </extensions>
                    </trkpt>
                    <trkpt lat="54.399325" lon="10.208483333333334">
                        <ele>0</ele>
                        <time>2022-08-18T08:15:38Z</time>
                                                <extensions>
                            <sog>4.6</sog>
<cog>21.9</cog>
                        </extensions>
                    </trkpt>
                    <trkpt lat="54.39992333333333" lon="10.208926666666667">
                        <ele>0</ele>
                        <time>2022-08-18T08:16:08Z</time>
                                                <extensions>
                            <sog>4.7</sog>
<cog>28.6</cog>
                        </extensions>
                    </trkpt>
                    <trkpt lat="54.40043166666667" lon="10.209655">
                        <ele>0</ele>
                        <time>2022-08-18T08:16:39Z</time>
                                                <extensions>
                            <sog>4.6</sog>
<cog>31.4</cog>
                        </extensions>
                    </trkpt>
                    <trkpt lat="54.40096833333334" lon="10.210201666666668">
                        <ele>0</ele>
                        <time>2022-08-18T08:17:09Z</time>
                                                <extensions>
                            <sog>4.7</sog>
<cog>30.8</cog>
                        </extensions>
                    </trkpt>
                    <trkpt lat="54.40143666666667" lon="10.210781666666666">
                        <ele>0</ele>
                        <time>2022-08-18T08:17:38Z</time>
                                                <extensions>
                            <sog>4.9</sog>
<cog>37.4</cog>
                        </extensions>
                    </trkpt>
                    <trkpt lat="54.401935" lon="10.211516666666666">
                        <ele>0</ele>
                        <time>2022-08-18T08:18:09Z</time>
                                                <extensions>
                            <sog>4.9</sog>
<cog>46.3</cog>
                        </extensions>
                    </trkpt>
                    <trkpt lat="54.402429999999995" lon="10.212228333333334">
                        <ele>0</ele>
                        <time>2022-08-18T08:18:38Z</time>
                                                <extensions>
                            <sog>4.7</sog>
<cog>54.2</cog>
                        </extensions>
                    </trkpt>
                    <trkpt lat="54.402770000000004" lon="10.213123333333334">
                        <ele>0</ele>
                        <time>2022-08-18T08:19:09Z</time>
                                                <extensions>
                            <sog>5.0</sog>
<cog>71.7</cog>
                        </extensions>
                    </trkpt>
                    <trkpt lat="54.403038333333335" lon="10.214041666666667">
                        <ele>0</ele>
                        <time>2022-08-18T08:19:38Z</time>
                                                <extensions>
                            <sog>4.3</sog>
<cog>68.9</cog>
                        </extensions>
                    </trkpt>
                    <trkpt lat="54.40325666666667" lon="10.215033333333334">
                        <ele>0</ele>
                        <time>2022-08-18T08:20:09Z</time>
                                                <extensions>
                            <sog>3.9</sog>
<cog>64.1</cog>
                        </extensions>
                    </trkpt>
                    <trkpt lat="54.403565" lon="10.215866666666667">
                        <ele>0</ele>
                        <time>2022-08-18T08:20:40Z</time>
                                                <extensions>
                            <sog>3.5</sog>
<cog>61.7</cog>
                        </extensions>
                    </trkpt>
                    <trkpt lat="54.40376833333333" lon="10.216376666666667">
                        <ele>0</ele>
                        <time>2022-08-18T08:21:11Z</time>
                                                <extensions>
                            <sog>2.4</sog>
<cog>62.1</cog>
                        </extensions>
                    </trkpt>
                    <trkpt lat="54.403771666666664" lon="10.217541666666667">
                        <ele>0</ele>
                        <time>2022-08-18T08:22:08Z</time>
                                                <extensions>
                            <sog>2.2</sog>
<cog>108.6</cog>
                        </extensions>
                    </trkpt>
                    <trkpt lat="54.40358666666667" lon="10.218126666666667">
                        <ele>0</ele>
                        <time>2022-08-18T08:22:38Z</time>
                                                <extensions>
                            <sog>2.1</sog>
<cog>106.9</cog>
                        </extensions>
                    </trkpt>
                    <trkpt lat="54.40338666666666" lon="10.218915">
                        <ele>0</ele>
                        <time>2022-08-18T08:23:39Z</time>
                                                <extensions>
                            <sog>0.7</sog>
<cog>136.6</cog>
                        </extensions>
                    </trkpt>
                    <trkpt lat="54.403151666666666" lon="10.218241666666668">
                        <ele>0</ele>
                        <time>2022-08-18T08:26:08Z</time>
                                                <extensions>
                            <sog>1.3</sog>
<cog>209.0</cog>
                        </extensions>
                    </trkpt>
                    <trkpt lat="54.403164999999994" lon="10.218143333333334">
                        <ele>0</ele>
                        <time>2022-08-18T08:29:10Z</time>
                                                <extensions>
                            <sog>0.0</sog>
<cog>211.1</cog>
                        </extensions>
                    </trkpt>
                    <trkpt lat="54.40320166666667" lon="10.218141666666666">
                        <ele>0</ele>
                        <time>2022-08-18T08:32:09Z</time>
                                                <extensions>
                            <sog>0.0</sog>
<cog>211.1</cog>
                        </extensions>
                    </trkpt>
                    <trkpt lat="54.4032" lon="10.218135">
                        <ele>0</ele>
                        <time>2022-08-18T08:35:10Z</time>
                                                <extensions>
                            <sog>0.0</sog>
<cog>211.1</cog>
                        </extensions>
                    </trkpt>
                    <trkpt lat="54.40322833333333" lon="10.218128333333334">
                        <ele>0</ele>
                        <time>2022-08-18T08:38:08Z</time>
                                                <extensions>
                            <sog>0.0</sog>
<cog>211.1</cog>
                        </extensions>
                    </trkpt>
                    <trkpt lat="54.40325" lon="10.218079999999999">
                        <ele>0</ele>
                        <time>2022-08-18T08:41:10Z</time>
                                                <extensions>
                            <sog>0.0</sog>
<cog>211.1</cog>
                        </extensions>
                    </trkpt>
                    <trkpt lat="54.40327666666667" lon="10.218124999999999">
                        <ele>0</ele>
                        <time>2022-08-18T08:44:08Z</time>
                                                <extensions>
                            <sog>0.0</sog>
<cog>211.1</cog>
                        </extensions>
                    </trkpt>
                    <trkpt lat="54.40333666666667" lon="10.218043333333332">
                        <ele>0</ele>
                        <time>2022-08-18T08:50:08Z</time>
                                                <extensions>
                            <sog>0.0</sog>
<cog>211.1</cog>
                        </extensions>
                    </trkpt>
                    <trkpt lat="54.40336" lon="10.21801">
                        <ele>0</ele>
                        <time>2022-08-18T08:53:08Z</time>
                                                <extensions>
                            <sog>0.0</sog>
<cog>211.1</cog>
                        </extensions>
                    </trkpt>
                    <trkpt lat="54.403353333333335" lon="10.217998333333332">
                        <ele>0</ele>
                        <time>2022-08-18T08:56:08Z</time>
                                                <extensions>
                            <sog>0.0</sog>
<cog>211.1</cog>
                        </extensions>
                    </trkpt>
                    <trkpt lat="54.40335833333334" lon="10.217998333333332">
                        <ele>0</ele>
                        <time>2022-08-18T09:02:09Z</time>
                                                <extensions>
                            <sog>0.0</sog>
<cog>211.1</cog>
                        </extensions>
                    </trkpt>
                    <trkpt lat="54.40336166666667" lon="10.217998333333332">
                        <ele>0</ele>
                        <time>2022-08-18T09:05:09Z</time>
                                                <extensions>
                            <sog>0.0</sog>
<cog>211.1</cog>
                        </extensions>
                    </trkpt>
                    <trkpt lat="54.40335666666667" lon="10.217991666666668">
                        <ele>0</ele>
                        <time>2022-08-18T09:08:09Z</time>
                                                <extensions>
                            <sog>0.0</sog>
<cog>211.1</cog>
                        </extensions>
                    </trkpt>
                    <trkpt lat="54.40331333333334" lon="10.21802">
                        <ele>0</ele>
                        <time>2022-08-18T09:14:10Z</time>
                                                <extensions>
                            <sog>0.0</sog>
<cog>211.1</cog>
                        </extensions>
                    </trkpt>
                    <trkpt lat="54.40329333333333" lon="10.218055">
                        <ele>0</ele>
                        <time>2022-08-18T09:17:08Z</time>
                                                <extensions>
                            <sog>0.0</sog>
<cog>211.1</cog>
                        </extensions>
                    </trkpt>
                    <trkpt lat="54.40334" lon="10.218096666666666">
                        <ele>0</ele>
                        <time>2022-08-18T09:20:09Z</time>
                                                <extensions>
                            <sog>0.1</sog>
<cog>211.1</cog>
                        </extensions>
                    </trkpt>
                    <trkpt lat="54.403490000000005" lon="10.218145">
                        <ele>0</ele>
                        <time>2022-08-18T09:26:08Z</time>
                                                <extensions>
                            <sog>0.0</sog>
<cog>211.1</cog>
                        </extensions>
                    </trkpt>
                    <trkpt lat="54.403551666666665" lon="10.218193333333334">
                        <ele>0</ele>
                        <time>2022-08-18T09:29:09Z</time>
                                                <extensions>
                            <sog>0.0</sog>
<cog>211.1</cog>
                        </extensions>
                    </trkpt>
                    <trkpt lat="54.40354166666667" lon="10.218169999999999">
                        <ele>0</ele>
                        <time>2022-08-18T09:32:09Z</time>
                                                <extensions>
                            <sog>0.0</sog>
<cog>211.1</cog>
                        </extensions>
                    </trkpt>
                    <trkpt lat="54.403576666666666" lon="10.218166666666667">
                        <ele>0</ele>
                        <time>2022-08-18T09:38:09Z</time>
                                                <extensions>
                            <sog>0.0</sog>
<cog>211.1</cog>
                        </extensions>
                    </trkpt>
                    <trkpt lat="54.403620000000004" lon="10.21828">
                        <ele>0</ele>
                        <time>2022-08-18T09:41:09Z</time>
                                                <extensions>
                            <sog>0.0</sog>
<cog>211.1</cog>
                        </extensions>
                    </trkpt>
                    <trkpt lat="54.403553333333335" lon="10.218285">
                        <ele>0</ele>
                        <time>2022-08-18T09:44:10Z</time>
                                                <extensions>
                            <sog>0.0</sog>
<cog>211.1</cog>
                        </extensions>
                    </trkpt>
                    <trkpt lat="54.40331666666667" lon="10.218395">
                        <ele>0</ele>
                        <time>2022-08-18T09:50:08Z</time>
                                                <extensions>
                            <sog>0.0</sog>
<cog>211.1</cog>
                        </extensions>
                    </trkpt>
                    <trkpt lat="54.40330166666667" lon="10.218471666666666">
                        <ele>0</ele>
                        <time>2022-08-18T09:56:08Z</time>
                                                <extensions>
                            <sog>0.0</sog>
<cog>211.1</cog>
                        </extensions>
                    </trkpt>
                    <trkpt lat="54.40331166666667" lon="10.218503333333333">
                        <ele>0</ele>
                        <time>2022-08-18T09:59:11Z</time>
                                                <extensions>
                            <sog>0.0</sog>
<cog>211.1</cog>
                        </extensions>
                    </trkpt>
                    <trkpt lat="54.403305" lon="10.218558333333334">
                        <ele>0</ele>
                        <time>2022-08-18T10:02:08Z</time>
                                                <extensions>
                            <sog>0.0</sog>
<cog>211.1</cog>
                        </extensions>
                    </trkpt>
                    <trkpt lat="54.40327833333333" lon="10.218566666666668">
                        <ele>0</ele>
                        <time>2022-08-18T10:05:09Z</time>
                                                <extensions>
                            <sog>0.0</sog>
<cog>211.1</cog>
                        </extensions>
                    </trkpt>
                    <trkpt lat="54.403254999999994" lon="10.218553333333334">
                        <ele>0</ele>
                        <time>2022-08-18T10:08:09Z</time>
                                                <extensions>
                            <sog>0.0</sog>
<cog>211.1</cog>
                        </extensions>
                    </trkpt>
                    <trkpt lat="54.403236666666665" lon="10.218561666666666">
                        <ele>0</ele>
                        <time>2022-08-18T10:14:12Z</time>
                                                <extensions>
                            <sog>0.0</sog>
<cog>211.1</cog>
                        </extensions>
                    </trkpt>
                    <trkpt lat="54.40329333333333" lon="10.218456666666667">
                        <ele>0</ele>
                        <time>2022-08-18T10:17:09Z</time>
                                                <extensions>
                            <sog>0.0</sog>
<cog>211.1</cog>
                        </extensions>
                    </trkpt>
                    <trkpt lat="54.403335" lon="10.218443333333333">
                        <ele>0</ele>
                        <time>2022-08-18T10:20:10Z</time>
                                                <extensions>
                            <sog>0.0</sog>
<cog>211.1</cog>
                        </extensions>
                    </trkpt>
                    <trkpt lat="54.40343166666666" lon="10.218351666666667">
                        <ele>0</ele>
                        <time>2022-08-18T10:23:10Z</time>
                                                <extensions>
                            <sog>0.0</sog>
<cog>211.1</cog>
                        </extensions>
                    </trkpt>
                    <trkpt lat="54.403405" lon="10.218355">
                        <ele>0</ele>
                        <time>2022-08-18T10:26:12Z</time>
                                                <extensions>
                            <sog>0.0</sog>
<cog>211.1</cog>
                        </extensions>
                    </trkpt>
                    <trkpt lat="54.403281666666665" lon="10.218255">
                        <ele>0</ele>
                        <time>2022-08-18T10:32:12Z</time>
                                                <extensions>
                            <sog>0.0</sog>
<cog>325.6</cog>
                        </extensions>
                    </trkpt>
                    <trkpt lat="54.40347166666666" lon="10.217501666666667">
                        <ele>0</ele>
                        <time>2022-08-18T10:35:13Z</time>
                                                <extensions>
                            <sog>0.0</sog>
<cog>325.6</cog>
                        </extensions>
                    </trkpt>
                    <trkpt lat="54.40337833333333" lon="10.217414999999999">
                        <ele>0</ele>
                        <time>2022-08-18T10:38:16Z</time>
                                                <extensions>
                            <sog>0.1</sog>
<cog>287.9</cog>
                        </extensions>
                    </trkpt>
                    <trkpt lat="54.40345333333333" lon="10.217351666666667">
                        <ele>0</ele>
                        <time>2022-08-18T10:41:13Z</time>
                                                <extensions>
                            <sog>0.0</sog>
<cog>287.9</cog>
                        </extensions>
                    </trkpt>
                    <trkpt lat="54.40331166666667" lon="10.217628333333332">
                        <ele>0</ele>
                        <time>2022-08-18T10:44:14Z</time>
                                                <extensions>
                            <sog>0.0</sog>
<cog>287.9</cog>
                        </extensions>
                    </trkpt>
                    <trkpt lat="54.403151666666666" lon="10.218088333333332">
                        <ele>0</ele>
                        <time>2022-08-18T10:50:15Z</time>
                                                <extensions>
                            <sog>0.2</sog>
<cog>131.6</cog>
                        </extensions>
                    </trkpt>
                    <trkpt lat="54.402965" lon="10.218716666666667">
                        <ele>0</ele>
                        <time>2022-08-18T10:53:15Z</time>
                                                <extensions>
                            <sog>0.0</sog>
<cog>131.6</cog>
                        </extensions>
                    </trkpt>
                    <trkpt lat="54.40189" lon="10.220863333333334">
                        <ele>0</ele>
                        <time>2022-08-18T10:54:46Z</time>
                                                <extensions>
                            <sog>2.0</sog>
<cog>124.6</cog>
                        </extensions>
                    </trkpt>
                    <trkpt lat="54.401936666666664" lon="10.220313333333333">
                        <ele>0</ele>
                        <time>2022-08-18T10:55:16Z</time>
                                                <extensions>
                            <sog>0.1</sog>
<cog>126.1</cog>
                        </extensions>
                    </trkpt>
                    <trkpt lat="54.40204000000001" lon="10.220325">
                        <ele>0</ele>
                        <time>2022-08-18T10:55:47Z</time>
                                                <extensions>
                            <sog>0.2</sog>
<cog>234.1</cog>
                        </extensions>
                    </trkpt>
                    <trkpt lat="54.402185" lon="10.220521666666667">
                        <ele>0</ele>
                        <time>2022-08-18T10:56:16Z</time>
                                                <extensions>
                            <sog>0.5</sog>
<cog>137.9</cog>
                        </extensions>
                    </trkpt>
                    <trkpt lat="54.40266666666666" lon="10.219903333333333">
                        <ele>0</ele>
                        <time>2022-08-18T10:56:46Z</time>
                                                <extensions>
                            <sog>1.6</sog>
<cog>131.6</cog>
                        </extensions>
                    </trkpt>
                    <trkpt lat="54.40275166666667" lon="10.219838333333334">
                        <ele>0</ele>
                        <time>2022-08-18T10:57:19Z</time>
                                                <extensions>
                            <sog>0.0</sog>
<cog>126.1</cog>
                        </extensions>
                    </trkpt>
                    <trkpt lat="54.40289166666666" lon="10.219573333333333">
                        <ele>0</ele>
                        <time>2022-08-18T10:57:46Z</time>
                                                <extensions>
                            <sog>0.1</sog>
<cog>126.1</cog>
                        </extensions>
                    </trkpt>
                    <trkpt lat="54.403016666666666" lon="10.2193">
                        <ele>0</ele>
                        <time>2022-08-18T10:58:16Z</time>
                                                <extensions>
                            <sog>0.0</sog>
<cog>126.1</cog>
                        </extensions>
                    </trkpt>
                    <trkpt lat="54.40313166666667" lon="10.218995">
                        <ele>0</ele>
                        <time>2022-08-18T10:58:46Z</time>
                                                <extensions>
                            <sog>0.0</sog>
<cog>126.1</cog>
                        </extensions>
                    </trkpt>
                    <trkpt lat="54.40331333333334" lon="10.217936666666667">
                        <ele>0</ele>
                        <time>2022-08-18T11:01:16Z</time>
                                                <extensions>
                            <sog>0.2</sog>
<cog>274.6</cog>
                        </extensions>
                    </trkpt>
                    <trkpt lat="54.403215" lon="10.217488333333334">
                        <ele>0</ele>
                        <time>2022-08-18T11:01:47Z</time>
                                                <extensions>
                            <sog>0.7</sog>
<cog>274.6</cog>
                        </extensions>
                    </trkpt>
                    <trkpt lat="54.403263333333335" lon="10.217486666666668">
                        <ele>0</ele>
                        <time>2022-08-18T11:02:47Z</time>
                                                <extensions>
                            <sog>0.1</sog>
<cog>274.6</cog>
                        </extensions>
                    </trkpt>
                    <trkpt lat="54.40338333333333" lon="10.217426666666666">
                        <ele>0</ele>
                        <time>2022-08-18T11:03:17Z</time>
                                                <extensions>
                            <sog>0.4</sog>
<cog>274.6</cog>
                        </extensions>
                    </trkpt>
                    <trkpt lat="54.40342833333333" lon="10.217438333333332">
                        <ele>0</ele>
                        <time>2022-08-18T11:04:16Z</time>
                                                <extensions>
                            <sog>0.0</sog>
<cog>18.1</cog>
                        </extensions>
                    </trkpt>
                    <trkpt lat="54.403241666666666" lon="10.218336666666666">
                        <ele>0</ele>
                        <time>2022-08-18T11:05:46Z</time>
                                                <extensions>
                            <sog>0.0</sog>
<cog>112.3</cog>
                        </extensions>
                    </trkpt>
                    <trkpt lat="54.40325333333333" lon="10.218313333333333">
                        <ele>0</ele>
                        <time>2022-08-18T11:06:17Z</time>
                                                <extensions>
                            <sog>0.0</sog>
<cog>112.3</cog>
                        </extensions>
                    </trkpt>
                    <trkpt lat="54.403295" lon="10.218126666666667">
                        <ele>0</ele>
                        <time>2022-08-18T11:06:47Z</time>
                                                <extensions>
                            <sog>0.0</sog>
<cog>112.3</cog>
                        </extensions>
                    </trkpt>
                    <trkpt lat="54.40331166666667" lon="10.218075">
                        <ele>0</ele>
                        <time>2022-08-18T11:07:17Z</time>
                                                <extensions>
                            <sog>0.0</sog>
<cog>112.3</cog>
                        </extensions>
                    </trkpt>
                    <trkpt lat="54.40333" lon="10.218008333333334">
                        <ele>0</ele>
                        <time>2022-08-18T11:07:48Z</time>
                                                <extensions>
                            <sog>0.0</sog>
<cog>112.3</cog>
                        </extensions>
                    </trkpt>
                    <trkpt lat="54.40260833333333" lon="10.220035">
                        <ele>0</ele>
                        <time>2022-08-18T11:09:48Z</time>
                                                <extensions>
                            <sog>0.0</sog>
<cog>115.6</cog>
                        </extensions>
                    </trkpt>
                    <trkpt lat="54.40115333333333" lon="10.2234">
                        <ele>0</ele>
                        <time>2022-08-18T11:11:20Z</time>
                                                <extensions>
                            <sog>2.2</sog>
<cog>127.0</cog>
                        </extensions>
                    </trkpt>
                    <trkpt lat="54.400935" lon="10.223823333333334">
                        <ele>0</ele>
                        <time>2022-08-18T11:11:48Z</time>
                                                <extensions>
                            <sog>0.9</sog>
<cog>130.9</cog>
                        </extensions>
                    </trkpt>
                    <trkpt lat="54.40164333333333" lon="10.222815">
                        <ele>0</ele>
                        <time>2022-08-18T11:12:49Z</time>
                                                <extensions>
                            <sog>0.4</sog>
<cog>129.1</cog>
                        </extensions>
                    </trkpt>
                    <trkpt lat="54.40197833333333" lon="10.222669999999999">
                        <ele>0</ele>
                        <time>2022-08-18T11:13:49Z</time>
                                                <extensions>
                            <sog>0.8</sog>
<cog>119.8</cog>
                        </extensions>
                    </trkpt>
                    <trkpt lat="54.40195166666667" lon="10.223035000000001">
                        <ele>0</ele>
                        <time>2022-08-18T11:14:48Z</time>
                                                <extensions>
                            <sog>1.2</sog>
<cog>118.0</cog>
                        </extensions>
                    </trkpt>
                    <trkpt lat="54.401860000000006" lon="10.223688333333333">
                        <ele>0</ele>
                        <time>2022-08-18T11:15:20Z</time>
                                                <extensions>
                            <sog>1.1</sog>
<cog>117.3</cog>
                        </extensions>
                    </trkpt>
                    <trkpt lat="54.40191333333333" lon="10.223553333333333">
                        <ele>0</ele>
                        <time>2022-08-18T11:15:48Z</time>
                                                <extensions>
                            <sog>0.6</sog>
<cog>117.3</cog>
                        </extensions>
                    </trkpt>
                    <trkpt lat="54.40224" lon="10.222100000000001">
                        <ele>0</ele>
                        <time>2022-08-18T11:17:19Z</time>
                                                <extensions>
                            <sog>1.4</sog>
<cog>4.3</cog>
                        </extensions>
                    </trkpt>
                    <trkpt lat="54.403355000000005" lon="10.21875">
                        <ele>0</ele>
                        <time>2022-08-18T11:19:20Z</time>
                                                <extensions>
                            <sog>0.8</sog>
<cog>18.1</cog>
                        </extensions>
                    </trkpt>
                    <trkpt lat="54.402924999999996" lon="10.219821666666666">
                        <ele>0</ele>
                        <time>2022-08-18T11:19:49Z</time>
                                                <extensions>
                            <sog>1.9</sog>
<cog>26.8</cog>
                        </extensions>
                    </trkpt>
                    <trkpt lat="54.402836666666666" lon="10.219285000000001">
                        <ele>0</ele>
                        <time>2022-08-18T11:20:49Z</time>
                                                <extensions>
                            <sog>0.0</sog>
<cog>316.7</cog>
                        </extensions>
                    </trkpt>
                    <trkpt lat="54.40235499999999" lon="10.220281666666667">
                        <ele>0</ele>
                        <time>2022-08-18T11:21:19Z</time>
                                                <extensions>
                            <sog>0.2</sog>
<cog>94.0</cog>
                        </extensions>
                    </trkpt>
                    <trkpt lat="54.40231166666667" lon="10.220148333333333">
                        <ele>0</ele>
                        <time>2022-08-18T11:21:49Z</time>
                                                <extensions>
                            <sog>0.0</sog>
<cog>94.0</cog>
                        </extensions>
                    </trkpt>
                    <trkpt lat="54.40239333333333" lon="10.22036">
                        <ele>0</ele>
                        <time>2022-08-18T11:22:49Z</time>
                                                <extensions>
                            <sog>0.5</sog>
<cog>117.9</cog>
                        </extensions>
                    </trkpt>
                    <trkpt lat="54.40239" lon="10.220455">
                        <ele>0</ele>
                        <time>2022-08-18T11:23:20Z</time>
                                                <extensions>
                            <sog>0.8</sog>
<cog>116.6</cog>
                        </extensions>
                    </trkpt>
                    <trkpt lat="54.40280333333333" lon="10.21937">
                        <ele>0</ele>
                        <time>2022-08-18T11:24:20Z</time>
                                                <extensions>
                            <sog>0.0</sog>
<cog>334.2</cog>
                        </extensions>
                    </trkpt>
                    <trkpt lat="54.403175000000005" lon="10.218358333333333">
                        <ele>0</ele>
                        <time>2022-08-18T11:24:50Z</time>
                                                <extensions>
                            <sog>4.2</sog>
<cog>301.7</cog>
                        </extensions>
                    </trkpt>
                    <trkpt lat="54.40333333333333" lon="10.217944999999999">
                        <ele>0</ele>
                        <time>2022-08-18T11:25:50Z</time>
                                                <extensions>
                            <sog>0.0</sog>
<cog>301.1</cog>
                        </extensions>
                    </trkpt>
                    <trkpt lat="54.40342833333333" lon="10.217691666666667">
                        <ele>0</ele>
                        <time>2022-08-18T11:26:20Z</time>
                                                <extensions>
                            <sog>0.0</sog>
<cog>301.1</cog>
                        </extensions>
                    </trkpt>
                    <trkpt lat="54.40351833333333" lon="10.217428333333334">
                        <ele>0</ele>
                        <time>2022-08-18T11:26:52Z</time>
                                                <extensions>
                            <sog>0.0</sog>
<cog>301.1</cog>
                        </extensions>
                    </trkpt>
                    <trkpt lat="54.40351833333333" lon="10.217418333333335">
                        <ele>0</ele>
                        <time>2022-08-18T11:27:20Z</time>
                                                <extensions>
                            <sog>0.0</sog>
<cog>301.1</cog>
                        </extensions>
                    </trkpt>
                    <trkpt lat="54.40352666666667" lon="10.217395">
                        <ele>0</ele>
                        <time>2022-08-18T11:27:53Z</time>
                                                <extensions>
                            <sog>0.0</sog>
<cog>301.1</cog>
                        </extensions>
                    </trkpt>
                    <trkpt lat="54.40352166666666" lon="10.217403333333333">
                        <ele>0</ele>
                        <time>2022-08-18T11:28:20Z</time>
                                                <extensions>
                            <sog>0.0</sog>
<cog>301.1</cog>
                        </extensions>
                    </trkpt>
                    <trkpt lat="54.40281166666667" lon="10.219033333333334">
                        <ele>0</ele>
                        <time>2022-08-18T11:29:52Z</time>
                                                <extensions>
                            <sog>3.7</sog>
<cog>25.6</cog>
                        </extensions>
                    </trkpt>
                    <trkpt lat="54.39755" lon="10.23651">
                        <ele>0</ele>
                        <time>2022-08-18T11:31:20Z</time>
                                                <extensions>
                            <sog>40.1</sog>
<cog>116.8</cog>
                        </extensions>
                    </trkpt>
                    <trkpt lat="54.397545" lon="10.236836666666667">
                        <ele>0</ele>
                        <time>2022-08-18T11:31:50Z</time>
                                                <extensions>
                            <sog>11.6</sog>
<cog>304.0</cog>
                        </extensions>
                    </trkpt>
                    <trkpt lat="54.39957166666667" lon="10.230398333333333">
                        <ele>0</ele>
                        <time>2022-08-18T11:32:51Z</time>
                                                <extensions>
                            <sog>4.8</sog>
<cog>298.9</cog>
                        </extensions>
                    </trkpt>
                    <trkpt lat="54.40018666666666" lon="10.228483333333333">
                        <ele>0</ele>
                        <time>2022-08-18T11:33:21Z</time>
                                                <extensions>
                            <sog>3.4</sog>
<cog>299.6</cog>
                        </extensions>
                    </trkpt>
                    <trkpt lat="54.401156666666665" lon="10.225480000000001">
                        <ele>0</ele>
                        <time>2022-08-18T11:34:21Z</time>
                                                <extensions>
                            <sog>3.6</sog>
<cog>298.5</cog>
                        </extensions>
                    </trkpt>
                    <trkpt lat="54.40227166666667" lon="10.22181">
                        <ele>0</ele>
                        <time>2022-08-18T11:35:52Z</time>
                                                <extensions>
                            <sog>11.0</sog>
<cog>293.1</cog>
                        </extensions>
                    </trkpt>
                    <trkpt lat="54.403295" lon="10.217376666666667">
                        <ele>0</ele>
                        <time>2022-08-18T11:36:21Z</time>
                                                <extensions>
                            <sog>3.4</sog>
<cog>289.5</cog>
                        </extensions>
                    </trkpt>
                    <trkpt lat="54.40518" lon="10.21006">
                        <ele>0</ele>
                        <time>2022-08-18T11:36:51Z</time>
                                                <extensions>
                            <sog>21.4</sog>
<cog>295.9</cog>
                        </extensions>
                    </trkpt>
                    <trkpt lat="54.40377" lon="10.215731666666667">
                        <ele>0</ele>
                        <time>2022-08-18T11:37:22Z</time>
                                                <extensions>
                            <sog>9.7</sog>
<cog>116.7</cog>
                        </extensions>
                    </trkpt>
                    <trkpt lat="54.402804999999994" lon="10.219541666666666">
                        <ele>0</ele>
                        <time>2022-08-18T11:37:51Z</time>
                                                <extensions>
                            <sog>1.9</sog>
<cog>108.8</cog>
                        </extensions>
                    </trkpt>
                    <trkpt lat="54.40361666666667" lon="10.218365">
                        <ele>0</ele>
                        <time>2022-08-18T11:39:23Z</time>
                                                <extensions>
                            <sog>0.0</sog>
<cog>291.8</cog>
                        </extensions>
                    </trkpt>
                    <trkpt lat="54.403575000000004" lon="10.217846666666667">
                        <ele>0</ele>
                        <time>2022-08-18T11:40:52Z</time>
                                                <extensions>
                            <sog>0.0</sog>
<cog>291.4</cog>
                        </extensions>
                    </trkpt>
                    <trkpt lat="54.40351666666666" lon="10.217875">
                        <ele>0</ele>
                        <time>2022-08-18T11:41:52Z</time>
                                                <extensions>
                            <sog>0.0</sog>
<cog>291.4</cog>
                        </extensions>
                    </trkpt>
                    <trkpt lat="54.403285" lon="10.217938333333333">
                        <ele>0</ele>
                        <time>2022-08-18T11:43:53Z</time>
                                                <extensions>
                            <sog>0.0</sog>
<cog>87.1</cog>
                        </extensions>
                    </trkpt>
                    <trkpt lat="54.403225" lon="10.218045">
                        <ele>0</ele>
                        <time>2022-08-18T11:44:22Z</time>
                                                <extensions>
                            <sog>0.0</sog>
<cog>48.3</cog>
                        </extensions>
                    </trkpt>
                    <trkpt lat="54.40328833333333" lon="10.218053333333334">
                        <ele>0</ele>
                        <time>2022-08-18T11:44:54Z</time>
                                                <extensions>
                            <sog>1.1</sog>
<cog>38.6</cog>
                        </extensions>
                    </trkpt>
                    <trkpt lat="54.40327666666667" lon="10.218265">
                        <ele>0</ele>
                        <time>2022-08-18T11:45:25Z</time>
                                                <extensions>
                            <sog>0.0</sog>
<cog>27.9</cog>
                        </extensions>
                    </trkpt>
                    <trkpt lat="54.40322333333334" lon="10.218250000000001">
                        <ele>0</ele>
                        <time>2022-08-18T11:45:52Z</time>
                                                <extensions>
                            <sog>0.0</sog>
<cog>27.9</cog>
                        </extensions>
                    </trkpt>
                    <trkpt lat="54.40317666666667" lon="10.21824">
                        <ele>0</ele>
                        <time>2022-08-18T11:46:22Z</time>
                                                <extensions>
                            <sog>0.0</sog>
<cog>27.9</cog>
                        </extensions>
                    </trkpt>
                    <trkpt lat="54.40314166666667" lon="10.218195">
                        <ele>0</ele>
                        <time>2022-08-18T11:46:52Z</time>
                                                <extensions>
                            <sog>0.0</sog>
<cog>27.9</cog>
                        </extensions>
                    </trkpt>
                    <trkpt lat="54.40312166666667" lon="10.218183333333334">
                        <ele>0</ele>
                        <time>2022-08-18T11:47:24Z</time>
                                                <extensions>
                            <sog>0.0</sog>
<cog>27.9</cog>
                        </extensions>
                    </trkpt>
                    <trkpt lat="54.40311833333333" lon="10.218175">
                        <ele>0</ele>
                        <time>2022-08-18T11:48:23Z</time>
                                                <extensions>
                            <sog>0.0</sog>
<cog>27.9</cog>
                        </extensions>
                    </trkpt>
                    <trkpt lat="54.40316166666666" lon="10.218365">
                        <ele>0</ele>
                        <time>2022-08-18T11:51:26Z</time>
                                                <extensions>
                            <sog>0.1</sog>
<cog>37.1</cog>
                        </extensions>
                    </trkpt>
                    <trkpt lat="54.40316666666667" lon="10.218446666666667">
                        <ele>0</ele>
                        <time>2022-08-18T11:54:24Z</time>
                                                <extensions>
                            <sog>0.0</sog>
<cog>37.1</cog>
                        </extensions>
                    </trkpt>
                    <trkpt lat="54.40316666666667" lon="10.218373333333334">
                        <ele>0</ele>
                        <time>2022-08-18T11:57:25Z</time>
                                                <extensions>
                            <sog>0.0</sog>
<cog>37.1</cog>
                        </extensions>
                    </trkpt>
                    <trkpt lat="54.40324833333333" lon="10.218268333333333">
                        <ele>0</ele>
                        <time>2022-08-18T12:06:27Z</time>
                                                <extensions>
                            <sog>0.0</sog>
<cog>347.3</cog>
                        </extensions>
                    </trkpt>
                    <trkpt lat="54.40325333333333" lon="10.218386666666667">
                        <ele>0</ele>
                        <time>2022-08-18T12:09:26Z</time>
                                                <extensions>
                            <sog>0.0</sog>
<cog>347.3</cog>
                        </extensions>
                    </trkpt>
                    <trkpt lat="54.403283333333334" lon="10.218591666666667">
                        <ele>0</ele>
                        <time>2022-08-18T12:15:28Z</time>
                                                <extensions>
                            <sog>0.0</sog>
<cog>357.1</cog>
                        </extensions>
                    </trkpt>
                    <trkpt lat="54.40341166666666" lon="10.217748333333333">
                        <ele>0</ele>
                        <time>2022-08-18T12:20:28Z</time>
                                                <extensions>
                            <sog>0.0</sog>
<cog>278.9</cog>
                        </extensions>
                    </trkpt>
                    <trkpt lat="54.40338833333333" lon="10.217776666666667">
                        <ele>0</ele>
                        <time>2022-08-18T12:21:00Z</time>
                                                <extensions>
                            <sog>0.0</sog>
<cog>278.9</cog>
                        </extensions>
                    </trkpt>
                    <trkpt lat="54.403385" lon="10.21778">
                        <ele>0</ele>
                        <time>2022-08-18T12:21:29Z</time>
                                                <extensions>
                            <sog>0.0</sog>
<cog>278.9</cog>
                        </extensions>
                    </trkpt>
                    <trkpt lat="54.40336333333333" lon="10.217801666666666">
                        <ele>0</ele>
                        <time>2022-08-18T12:21:59Z</time>
                                                <extensions>
                            <sog>0.0</sog>
<cog>278.9</cog>
                        </extensions>
                    </trkpt>
                    <trkpt lat="54.403325" lon="10.218063333333333">
                        <ele>0</ele>
                        <time>2022-08-18T12:24:58Z</time>
                                                <extensions>
                            <sog>0.6</sog>
<cog>278.9</cog>
                        </extensions>
                    </trkpt>
                    <trkpt lat="54.403569999999995" lon="10.218278333333334">
                        <ele>0</ele>
                        <time>2022-08-18T12:27:58Z</time>
                                                <extensions>
                            <sog>0.0</sog>
<cog>164.9</cog>
                        </extensions>
                    </trkpt>
                    <trkpt lat="54.40365333333333" lon="10.218166666666667">
                        <ele>0</ele>
                        <time>2022-08-18T12:30:59Z</time>
                                                <extensions>
                            <sog>0.1</sog>
<cog>164.9</cog>
                        </extensions>
                    </trkpt>
                    <trkpt lat="54.40361333333333" lon="10.21805">
                        <ele>0</ele>
                        <time>2022-08-18T12:36:59Z</time>
                                                <extensions>
                            <sog>0.0</sog>
<cog>302.4</cog>
                        </extensions>
                    </trkpt>
                    <trkpt lat="54.403546666666664" lon="10.218143333333334">
                        <ele>0</ele>
                        <time>2022-08-18T12:39:58Z</time>
                                                <extensions>
                            <sog>0.0</sog>
<cog>302.4</cog>
                        </extensions>
                    </trkpt>
                    <trkpt lat="54.40347" lon="10.21807">
                        <ele>0</ele>
                        <time>2022-08-18T12:43:00Z</time>
                                                <extensions>
                            <sog>0.0</sog>
<cog>302.4</cog>
                        </extensions>
                    </trkpt>
                    <trkpt lat="54.403485" lon="10.21771">
                        <ele>0</ele>
                        <time>2022-08-18T12:45:58Z</time>
                                                <extensions>
                            <sog>0.0</sog>
<cog>302.4</cog>
                        </extensions>
                    </trkpt>
                    <trkpt lat="54.40350166666666" lon="10.217538333333332">
                        <ele>0</ele>
                        <time>2022-08-18T12:51:58Z</time>
                                                <extensions>
                            <sog>0.0</sog>
<cog>327.2</cog>
                        </extensions>
                    </trkpt>
                    <trkpt lat="54.40347333333333" lon="10.217485">
                        <ele>0</ele>
                        <time>2022-08-18T12:54:58Z</time>
                                                <extensions>
                            <sog>0.0</sog>
<cog>327.2</cog>
                        </extensions>
                    </trkpt>
                    <trkpt lat="54.40345" lon="10.217443333333334">
                        <ele>0</ele>
                        <time>2022-08-18T12:57:58Z</time>
                                                <extensions>
                            <sog>0.0</sog>
<cog>159.8</cog>
                        </extensions>
                    </trkpt>
                    <trkpt lat="54.40329" lon="10.217921666666665">
                        <ele>0</ele>
                        <time>2022-08-18T13:00:58Z</time>
                                                <extensions>
                            <sog>0.0</sog>
<cog>78.2</cog>
                        </extensions>
                    </trkpt>
                    <trkpt lat="54.40329" lon="10.217921666666665">
                        <ele>0</ele>
                        <time>2022-08-18T13:00:58Z</time>
                                                <extensions>
                            <sog>0.0</sog>
<cog>78.2</cog>
                        </extensions>
                    </trkpt>
                    <trkpt lat="54.40338666666666" lon="10.217981666666667">
                        <ele>0</ele>
                        <time>2022-08-18T13:03:58Z</time>
                                                <extensions>
                            <sog>0.0</sog>
<cog>78.2</cog>
                        </extensions>
                    </trkpt>
                    <trkpt lat="54.40329" lon="10.218078333333333">
                        <ele>0</ele>
                        <time>2022-08-18T13:05:28Z</time>
                                                <extensions>
                            <sog>0.0</sog>
<cog>275.4</cog>
                        </extensions>
                    </trkpt>
                    <trkpt lat="54.40319833333333" lon="10.218081666666667">
                        <ele>0</ele>
                        <time>2022-08-18T13:06:28Z</time>
                                                <extensions>
                            <sog>0.1</sog>
<cog>275.4</cog>
                        </extensions>
                    </trkpt>
                    <trkpt lat="54.403185" lon="10.218038333333334">
                        <ele>0</ele>
                        <time>2022-08-18T13:07:29Z</time>
                                                <extensions>
                            <sog>0.0</sog>
<cog>275.4</cog>
                        </extensions>
                    </trkpt>
                    <trkpt lat="54.403205" lon="10.217998333333332">
                        <ele>0</ele>
                        <time>2022-08-18T13:08:28Z</time>
                                                <extensions>
                            <sog>0.0</sog>
<cog>275.4</cog>
                        </extensions>
                    </trkpt>
                    <trkpt lat="54.403220000000005" lon="10.217881666666667">
                        <ele>0</ele>
                        <time>2022-08-18T13:11:29Z</time>
                                                <extensions>
                            <sog>0.0</sog>
<cog>275.4</cog>
                        </extensions>
                    </trkpt>
                    <trkpt lat="54.40326666666667" lon="10.21783">
                        <ele>0</ele>
                        <time>2022-08-18T13:14:29Z</time>
                                                <extensions>
                            <sog>0.0</sog>
<cog>322.5</cog>
                        </extensions>
                    </trkpt>
                    <trkpt lat="54.40326166666667" lon="10.217865">
                        <ele>0</ele>
                        <time>2022-08-18T13:17:29Z</time>
                                                <extensions>
                            <sog>0.0</sog>
<cog>322.5</cog>
                        </extensions>
                    </trkpt>
                    <trkpt lat="54.40325333333333" lon="10.217525">
                        <ele>0</ele>
                        <time>2022-08-18T13:19:30Z</time>
                                                <extensions>
                            <sog>0.0</sog>
<cog>146.9</cog>
                        </extensions>
                    </trkpt>
                    <trkpt lat="54.403303333333334" lon="10.217571666666666">
                        <ele>0</ele>
                        <time>2022-08-18T13:20:29Z</time>
                                                <extensions>
                            <sog>0.0</sog>
<cog>146.9</cog>
                        </extensions>
                    </trkpt>
                    <trkpt lat="54.403305" lon="10.217575">
                        <ele>0</ele>
                        <time>2022-08-18T13:20:58Z</time>
                                                <extensions>
                            <sog>0.0</sog>
<cog>146.9</cog>
                        </extensions>
                    </trkpt>
                    <trkpt lat="54.403305" lon="10.21758">
                        <ele>0</ele>
                        <time>2022-08-18T13:21:29Z</time>
                                                <extensions>
                            <sog>0.0</sog>
<cog>146.9</cog>
                        </extensions>
                    </trkpt>
                    <trkpt lat="54.40328833333333" lon="10.217663333333332">
                        <ele>0</ele>
                        <time>2022-08-18T13:21:58Z</time>
                                                <extensions>
                            <sog>0.0</sog>
<cog>146.9</cog>
                        </extensions>
                    </trkpt>
                    <trkpt lat="54.40338" lon="10.217746666666667">
                        <ele>0</ele>
                        <time>2022-08-18T13:25:58Z</time>
                                                <extensions>
                            <sog>0.0</sog>
<cog>145.7</cog>
                        </extensions>
                    </trkpt>
                    <trkpt lat="54.403285" lon="10.217513333333333">
                        <ele>0</ele>
                        <time>2022-08-18T13:27:00Z</time>
                                                <extensions>
                            <sog>0.1</sog>
<cog>9.6</cog>
                        </extensions>
                    </trkpt>
                    <trkpt lat="54.40322666666667" lon="10.217363333333333">
                        <ele>0</ele>
                        <time>2022-08-18T13:27:31Z</time>
                                                <extensions>
                            <sog>0.0</sog>
<cog>42.2</cog>
                        </extensions>
                    </trkpt>
                    <trkpt lat="54.40321166666667" lon="10.2173">
                        <ele>0</ele>
                        <time>2022-08-18T13:27:58Z</time>
                                                <extensions>
                            <sog>0.7</sog>
<cog>93.6</cog>
                        </extensions>
                    </trkpt>
                    <trkpt lat="54.403164999999994" lon="10.217146666666668">
                        <ele>0</ele>
                        <time>2022-08-18T13:28:28Z</time>
                                                <extensions>
                            <sog>0.3</sog>
<cog>100.9</cog>
                        </extensions>
                    </trkpt>
                    <trkpt lat="54.403215" lon="10.216708333333335">
                        <ele>0</ele>
                        <time>2022-08-18T13:29:29Z</time>
                                                <extensions>
                            <sog>0.5</sog>
<cog>39.7</cog>
                        </extensions>
                    </trkpt>
                    <trkpt lat="54.403398333333335" lon="10.217279999999999">
                        <ele>0</ele>
                        <time>2022-08-18T13:30:29Z</time>
                                                <extensions>
                            <sog>0.8</sog>
<cog>33.0</cog>
                        </extensions>
                    </trkpt>
                    <trkpt lat="54.403263333333335" lon="10.217388333333334">
                        <ele>0</ele>
                        <time>2022-08-18T13:30:58Z</time>
                                                <extensions>
                            <sog>0.3</sog>
<cog>127.8</cog>
                        </extensions>
                    </trkpt>
                    <trkpt lat="54.403389999999995" lon="10.217068333333334">
                        <ele>0</ele>
                        <time>2022-08-18T13:32:28Z</time>
                                                <extensions>
                            <sog>0.2</sog>
<cog>209.1</cog>
                        </extensions>
                    </trkpt>
                    </trkseg>
                </trk>
</gpx>