<?xml version="1.0" encoding="UTF-8"?>
<gpx version="1.1" creator="AIS-to-GPX Converter" xmlns="http://www.topografix.com/GPX/1/1">
                <trk>
                    <name>anon0459</name>
                    <trkseg>
                                            <trkpt lat="53.83782166666666" lon="8.79893">
                        <ele>0</ele>
                        <time>2022-08-18T00:17:34Z</time>
                                                <extensions>
                            <sog>12.7</sog>
<cog>93.3</cog>
                        </extensions>
                    </trkpt>
                    <trkpt lat="53.837740000000004" lon="8.80201">
                        <ele>0</ele>
                        <time>2022-08-18T00:18:05Z</time>
                                                <extensions>
                            <sog>12.7</sog>
<cog>92.3</cog>
                        </extensions>
                    </trkpt>
                    <trkpt lat="53.836755000000004" lon="8.83383">
                        <ele>0</ele>
                        <time>2022-08-18T00:23:25Z</time>
                                                <extensions>
                            <sog>13.0</sog>
<cog>93.5</cog>
                        </extensions>
                    </trkpt>
                    <trkpt lat="53.836729999999996" lon="8.834948333333333">
                        <ele>0</ele>
                        <time>2022-08-18T00:23:35Z</time>
                                                <extensions>
                            <sog>13.0</sog>
<cog>91.1</cog>
                        </extensions>
                    </trkpt>
                    <trkpt lat="53.83667666666667" lon="8.836675000000001">
                        <ele>0</ele>
                        <time>2022-08-18T00:23:52Z</time>
                                                <extensions>
                            <sog>13.0</sog>
<cog>94.9</cog>
                        </extensions>
                    </trkpt>
                    <trkpt lat="53.836666666666666" lon="8.836878333333335">
                        <ele>0</ele>
                        <time>2022-08-18T00:23:54Z</time>
                                                <extensions>
                            <sog>13.0</sog>
<cog>93.9</cog>
                        </extensions>
                    </trkpt>
                    <trkpt lat="53.83666" lon="8.837286666666667">
                        <ele>0</ele>
                        <time>2022-08-18T00:23:58Z</time>
                                                <extensions>
                            <sog>13.0</sog>
<cog>89.4</cog>
                        </extensions>
                    </trkpt>
                    <trkpt lat="53.83666166666667" lon="8.837591666666667">
                        <ele>0</ele>
                        <time>2022-08-18T00:24:02Z</time>
                                                <extensions>
                            <sog>13.0</sog>
<cog>90.8</cog>
                        </extensions>
                    </trkpt>
                    <trkpt lat="53.83665333333333" lon="8.838">
                        <ele>0</ele>
                        <time>2022-08-18T00:24:06Z</time>
                                                <extensions>
                            <sog>13.0</sog>
<cog>92.5</cog>
                        </extensions>
                    </trkpt>
                    <trkpt lat="53.83664833333333" lon="8.839931666666667">
                        <ele>0</ele>
                        <time>2022-08-18T00:24:25Z</time>
                                                <extensions>
                            <sog>12.9</sog>
<cog>89.8</cog>
                        </extensions>
                    </trkpt>
                    <trkpt lat="53.83665" lon="8.840336666666667">
                        <ele>0</ele>
                        <time>2022-08-18T00:24:28Z</time>
                                                <extensions>
                            <sog>12.9</sog>
<cog>89.0</cog>
                        </extensions>
                    </trkpt>
                    <trkpt lat="53.836670000000005" lon="8.841041666666666">
                        <ele>0</ele>
                        <time>2022-08-18T00:24:35Z</time>
                                                <extensions>
                            <sog>12.8</sog>
<cog>85.2</cog>
                        </extensions>
                    </trkpt>
                    <trkpt lat="53.83681833333333" lon="8.844056666666667">
                        <ele>0</ele>
                        <time>2022-08-18T00:25:06Z</time>
                                                <extensions>
                            <sog>12.9</sog>
<cog>85.1</cog>
                        </extensions>
                    </trkpt>
                    <trkpt lat="53.836906666666664" lon="8.845981666666667">
                        <ele>0</ele>
                        <time>2022-08-18T00:25:25Z</time>
                                                <extensions>
                            <sog>13.0</sog>
<cog>84.9</cog>
                        </extensions>
                    </trkpt>
                    <trkpt lat="53.836999999999996" lon="8.848221666666666">
                        <ele>0</ele>
                        <time>2022-08-18T00:25:46Z</time>
                                                <extensions>
                            <sog>13.0</sog>
<cog>85.5</cog>
                        </extensions>
                    </trkpt>
                    <trkpt lat="53.83708" lon="8.850156666666667">
                        <ele>0</ele>
                        <time>2022-08-18T00:26:06Z</time>
                                                <extensions>
                            <sog>13.0</sog>
<cog>84.2</cog>
                        </extensions>
                    </trkpt>
                    <trkpt lat="53.837136666666666" lon="8.85107">
                        <ele>0</ele>
                        <time>2022-08-18T00:26:14Z</time>
                                                <extensions>
                            <sog>13.0</sog>
<cog>84.6</cog>
                        </extensions>
                    </trkpt>
                    <trkpt lat="53.83727" lon="8.853198333333333">
                        <ele>0</ele>
                        <time>2022-08-18T00:26:35Z</time>
                                                <extensions>
                            <sog>13.0</sog>
<cog>83.2</cog>
                        </extensions>
                    </trkpt>
                    <trkpt lat="53.8374" lon="8.85523">
                        <ele>0</ele>
                        <time>2022-08-18T00:26:55Z</time>
                                                <extensions>
                            <sog>13.1</sog>
<cog>83.5</cog>
                        </extensions>
                    </trkpt>
                    <trkpt lat="53.83746" lon="8.856148333333334">
                        <ele>0</ele>
                        <time>2022-08-18T00:27:04Z</time>
                                                <extensions>
                            <sog>13.1</sog>
<cog>83.4</cog>
                        </extensions>
                    </trkpt>
                    <trkpt lat="53.837525" lon="8.85717">
                        <ele>0</ele>
                        <time>2022-08-18T00:27:14Z</time>
                                                <extensions>
                            <sog>13.1</sog>
<cog>83.8</cog>
                        </extensions>
                    </trkpt>
                    <trkpt lat="53.837595" lon="8.85819">
                        <ele>0</ele>
                        <time>2022-08-18T00:27:25Z</time>
                                                <extensions>
                            <sog>13.1</sog>
<cog>83.4</cog>
                        </extensions>
                    </trkpt>
                    <trkpt lat="53.837743333333336" lon="8.860436666666667">
                        <ele>0</ele>
                        <time>2022-08-18T00:27:46Z</time>
                                                <extensions>
                            <sog>13.1</sog>
<cog>83.2</cog>
                        </extensions>
                    </trkpt>
                    <trkpt lat="53.837801666666664" lon="8.861356666666667">
                        <ele>0</ele>
                        <time>2022-08-18T00:27:55Z</time>
                                                <extensions>
                            <sog>13.1</sog>
<cog>83.6</cog>
                        </extensions>
                    </trkpt>
                    <trkpt lat="53.83793" lon="8.8633">
                        <ele>0</ele>
                        <time>2022-08-18T00:28:14Z</time>
                                                <extensions>
                            <sog>13.1</sog>
<cog>83.8</cog>
                        </extensions>
                    </trkpt>
                    <trkpt lat="53.83807" lon="8.865451666666667">
                        <ele>0</ele>
                        <time>2022-08-18T00:28:35Z</time>
                                                <extensions>
                            <sog>13.1</sog>
<cog>83.0</cog>
                        </extensions>
                    </trkpt>
                    <trkpt lat="53.83813166666666" lon="8.866478333333333">
                        <ele>0</ele>
                        <time>2022-08-18T00:28:46Z</time>
                                                <extensions>
                            <sog>13.2</sog>
<cog>84.1</cog>
                        </extensions>
                    </trkpt>
                    <trkpt lat="53.83826833333333" lon="8.868428333333332">
                        <ele>0</ele>
                        <time>2022-08-18T00:29:04Z</time>
                                                <extensions>
                            <sog>13.3</sog>
<cog>83.1</cog>
                        </extensions>
                    </trkpt>
                    <trkpt lat="53.838335" lon="8.869456666666668">
                        <ele>0</ele>
                        <time>2022-08-18T00:29:14Z</time>
                                                <extensions>
                            <sog>13.2</sog>
<cog>83.2</cog>
                        </extensions>
                    </trkpt>
                    <trkpt lat="53.838676666666665" lon="8.874598333333333">
                        <ele>0</ele>
                        <time>2022-08-18T00:30:04Z</time>
                                                <extensions>
                            <sog>13.1</sog>
<cog>85.3</cog>
                        </extensions>
                    </trkpt>
                    <trkpt lat="53.83873666666667" lon="8.875628333333333">
                        <ele>0</ele>
                        <time>2022-08-18T00:30:14Z</time>
                                                <extensions>
                            <sog>13.1</sog>
<cog>83.8</cog>
                        </extensions>
                    </trkpt>
                    <trkpt lat="53.838875" lon="8.877886666666665">
                        <ele>0</ele>
                        <time>2022-08-18T00:30:36Z</time>
                                                <extensions>
                            <sog>13.1</sog>
<cog>84.1</cog>
                        </extensions>
                    </trkpt>
                    <trkpt lat="53.83926833333333" lon="8.884021666666666">
                        <ele>0</ele>
                        <time>2022-08-18T00:31:36Z</time>
                                                <extensions>
                            <sog>13.0</sog>
<cog>83.7</cog>
                        </extensions>
                    </trkpt>
                    <trkpt lat="53.83954333333334" lon="8.887984999999999">
                        <ele>0</ele>
                        <time>2022-08-18T00:32:15Z</time>
                                                <extensions>
                            <sog>13.0</sog>
<cog>83.0</cog>
                        </extensions>
                    </trkpt>
                    <trkpt lat="53.841585" lon="8.914276666666666">
                        <ele>0</ele>
                        <time>2022-08-18T00:36:36Z</time>
                                                <extensions>
                            <sog>12.8</sog>
<cog>81.7</cog>
                        </extensions>
                    </trkpt>
                    <trkpt lat="53.84206833333334" lon="8.920248333333332">
                        <ele>0</ele>
                        <time>2022-08-18T00:37:36Z</time>
                                                <extensions>
                            <sog>12.8</sog>
<cog>81.8</cog>
                        </extensions>
                    </trkpt>
                    <trkpt lat="53.842571666666664" lon="8.925036666666667">
                        <ele>0</ele>
                        <time>2022-08-18T00:38:25Z</time>
                                                <extensions>
                            <sog>12.9</sog>
<cog>78.4</cog>
                        </extensions>
                    </trkpt>
                    <trkpt lat="53.84625666666667" lon="8.955778333333335">
                        <ele>0</ele>
                        <time>2022-08-18T00:43:35Z</time>
                                                <extensions>
                            <sog>12.8</sog>
<cog>79.4</cog>
                        </extensions>
                    </trkpt>
                    <trkpt lat="53.846334999999996" lon="8.956468333333333">
                        <ele>0</ele>
                        <time>2022-08-18T00:43:42Z</time>
                                                <extensions>
                            <sog>12.8</sog>
<cog>78.7</cog>
                        </extensions>
                    </trkpt>
                    <trkpt lat="53.846401666666665" lon="8.957058333333332">
                        <ele>0</ele>
                        <time>2022-08-18T00:43:49Z</time>
                                                <extensions>
                            <sog>12.8</sog>
<cog>79.3</cog>
                        </extensions>
                    </trkpt>
                    <trkpt lat="53.84691" lon="8.961726666666667">
                        <ele>0</ele>
                        <time>2022-08-18T00:44:35Z</time>
                                                <extensions>
                            <sog>12.9</sog>
<cog>78.5</cog>
                        </extensions>
                    </trkpt>
                    <trkpt lat="53.84724333333334" lon="8.96472">
                        <ele>0</ele>
                        <time>2022-08-18T00:45:05Z</time>
                                                <extensions>
                            <sog>13.0</sog>
<cog>79.3</cog>
                        </extensions>
                    </trkpt>
                    <trkpt lat="53.847565" lon="8.967711666666666">
                        <ele>0</ele>
                        <time>2022-08-18T00:45:35Z</time>
                                                <extensions>
                            <sog>12.9</sog>
<cog>80.4</cog>
                        </extensions>
                    </trkpt>
                    <trkpt lat="53.847875" lon="8.970601666666665">
                        <ele>0</ele>
                        <time>2022-08-18T00:46:04Z</time>
                                                <extensions>
                            <sog>12.9</sog>
<cog>79.6</cog>
                        </extensions>
                    </trkpt>
                    <trkpt lat="53.87319333333333" lon="9.086118333333333">
                        <ele>0</ele>
                        <time>2022-08-18T01:09:38Z</time>
                                                <extensions>
                            <sog>6.6</sog>
<cog>68.9</cog>
                        </extensions>
                    </trkpt>
                    <trkpt lat="53.874535" lon="9.091916666666666">
                        <ele>0</ele>
                        <time>2022-08-18T01:11:36Z</time>
                                                <extensions>
                            <sog>6.7</sog>
<cog>68.2</cog>
                        </extensions>
                    </trkpt>
                    <trkpt lat="53.875335" lon="9.095893333333333">
                        <ele>0</ele>
                        <time>2022-08-18T01:12:55Z</time>
                                                <extensions>
                            <sog>6.7</sog>
<cog>71.6</cog>
                        </extensions>
                    </trkpt>
                    <trkpt lat="53.876515000000005" lon="9.10208">
                        <ele>0</ele>
                        <time>2022-08-18T01:14:55Z</time>
                                                <extensions>
                            <sog>6.9</sog>
<cog>74.6</cog>
                        </extensions>
                    </trkpt>
                    <trkpt lat="53.876875000000005" lon="9.10529">
                        <ele>0</ele>
                        <time>2022-08-18T01:15:55Z</time>
                                                <extensions>
                            <sog>6.9</sog>
<cog>82.4</cog>
                        </extensions>
                    </trkpt>
                    <trkpt lat="53.84614" lon="9.324863333333333">
                        <ele>0</ele>
                        <time>2022-08-18T01:55:41Z</time>
                                                <extensions>
                            <sog>15.2</sog>
<cog>132.8</cog>
                        </extensions>
                    </trkpt>
                    <trkpt lat="53.83888666666667" lon="9.337833333333332">
                        <ele>0</ele>
                        <time>2022-08-18T01:58:11Z</time>
                                                <extensions>
                            <sog>15.2</sog>
<cog>133.3</cog>
                        </extensions>
                    </trkpt>
                    </trkseg>
                </trk>
</gpx>