<?xml version="1.0" encoding="UTF-8"?>
<gpx version="1.1" creator="AIS-to-GPX Converter" xmlns="http://www.topografix.com/GPX/1/1">
                <trk>
                    <name>anon0214</name>
                    <trkseg>
                                            <trkpt lat="54.42516333333333" lon="10.208490000000001">
                        <ele>0</ele>
                        <time>2022-08-18T09:50:16Z</time>
                                                <extensions>
                            <sog>6.5</sog>
<cog>198.1</cog>
                        </extensions>
                    </trkpt>
                    <trkpt lat="54.413689999999995" lon="10.207410000000001">
                        <ele>0</ele>
                        <time>2022-08-18T09:56:46Z</time>
                                                <extensions>
                            <sog>6.4</sog>
<cog>168.0</cog>
                        </extensions>
                    </trkpt>
                    <trkpt lat="54.41030833333333" lon="10.208811666666666">
                        <ele>0</ele>
                        <time>2022-08-18T09:58:46Z</time>
                                                <extensions>
                            <sog>6.0</sog>
<cog>166.8</cog>
                        </extensions>
                    </trkpt>
                    <trkpt lat="54.404288333333334" lon="10.211801666666666">
                        <ele>0</ele>
                        <time>2022-08-18T10:02:16Z</time>
                                                <extensions>
                            <sog>6.6</sog>
<cog>162.9</cog>
                        </extensions>
                    </trkpt>
                    <trkpt lat="54.40016166666667" lon="10.211504999999999">
                        <ele>0</ele>
                        <time>2022-08-18T10:06:46Z</time>
                                                <extensions>
                            <sog>2.9</sog>
<cog>178.3</cog>
                        </extensions>
                    </trkpt>
                    <trkpt lat="54.39936333333333" lon="10.212436666666667">
                        <ele>0</ele>
                        <time>2022-08-18T13:27:03Z</time>
                        <extensions>
    <sog>0.1</sog>
</extensions>
                    </trkpt>
                    <trkpt lat="54.39933" lon="10.212520000000001">
                        <ele>0</ele>
                        <time>2022-08-18T13:39:02Z</time>
                        <extensions>
    <sog>0.2</sog>
</extensions>
                    </trkpt>
                    </trkseg>
                </trk>
</gpx>