<?xml version="1.0" encoding="UTF-8"?>
<gpx version="1.1" creator="AIS-to-GPX Converter" xmlns="http://www.topografix.com/GPX/1/1">
                <trk>
                    <name>anon0052</name>
                    <trkseg>
                                            <trkpt lat="54.448211666666666" lon="10.228711666666667">
                        <ele>0</ele>
                        <time>2022-08-18T11:24:05Z</time>
                                                <extensions>
                            <sog>6.9</sog>
<cog>212.3</cog>
                        </extensions>
                    </trkpt>
                    <trkpt lat="54.42124333333334" lon="10.224979999999999">
                        <ele>0</ele>
                        <time>2022-08-18T11:40:05Z</time>
                                                <extensions>
                            <sog>6.7</sog>
<cog>209.0</cog>
                        </extensions>
                    </trkpt>
                    <trkpt lat="54.419070000000005" lon="10.222166666666668">
                        <ele>0</ele>
                        <time>2022-08-18T11:41:35Z</time>
                                                <extensions>
                            <sog>6.9</sog>
<cog>225.4</cog>
                        </extensions>
                    </trkpt>
                    <trkpt lat="54.41283" lon="10.215223333333334">
                        <ele>0</ele>
                        <time>2022-08-18T11:45:35Z</time>
                                                <extensions>
                            <sog>6.8</sog>
<cog>210.9</cog>
                        </extensions>
                    </trkpt>
                    <trkpt lat="54.41106833333333" lon="10.213946666666667">
                        <ele>0</ele>
                        <time>2022-08-18T11:46:35Z</time>
                                                <extensions>
                            <sog>6.7</sog>
<cog>197.8</cog>
                        </extensions>
                    </trkpt>
                    <trkpt lat="54.41022833333333" lon="10.213574999999999">
                        <ele>0</ele>
                        <time>2022-08-18T11:47:05Z</time>
                                                <extensions>
                            <sog>6.5</sog>
<cog>191.3</cog>
                        </extensions>
                    </trkpt>
                    <trkpt lat="54.40755166666667" lon="10.212505">
                        <ele>0</ele>
                        <time>2022-08-18T11:48:35Z</time>
                                                <extensions>
                            <sog>6.8</sog>
<cog>192.8</cog>
                        </extensions>
                    </trkpt>
                    <trkpt lat="54.4057" lon="10.2118">
                        <ele>0</ele>
                        <time>2022-08-18T11:49:35Z</time>
                                                <extensions>
                            <sog>6.7</sog>
<cog>195.2</cog>
                        </extensions>
                    </trkpt>
                    <trkpt lat="54.40472666666667" lon="10.211936666666666">
                        <ele>0</ele>
                        <time>2022-08-18T11:50:07Z</time>
                                                <extensions>
                            <sog>6.6</sog>
<cog>164.6</cog>
                        </extensions>
                    </trkpt>
                    <trkpt lat="54.403933333333335" lon="10.212421666666668">
                        <ele>0</ele>
                        <time>2022-08-18T11:50:35Z</time>
                                                <extensions>
                            <sog>6.7</sog>
<cog>154.2</cog>
                        </extensions>
                    </trkpt>
                    <trkpt lat="54.40181666666667" lon="10.21457">
                        <ele>0</ele>
                        <time>2022-08-18T11:52:05Z</time>
                                                <extensions>
                            <sog>4.1</sog>
<cog>160.2</cog>
                        </extensions>
                    </trkpt>
                    <trkpt lat="54.401515" lon="10.213835">
                        <ele>0</ele>
                        <time>2022-08-18T11:52:37Z</time>
                                                <extensions>
                            <sog>3.5</sog>
<cog>248.8</cog>
                        </extensions>
                    </trkpt>
                    <trkpt lat="54.401136666666666" lon="10.212551666666666">
                        <ele>0</ele>
                        <time>2022-08-18T11:53:35Z</time>
                                                <extensions>
                            <sog>3.2</sog>
<cog>234.0</cog>
                        </extensions>
                    </trkpt>
                    <trkpt lat="54.400841666666665" lon="10.212016666666667">
                        <ele>0</ele>
                        <time>2022-08-18T11:54:04Z</time>
                                                <extensions>
                            <sog>3.2</sog>
<cog>221.5</cog>
                        </extensions>
                    </trkpt>
                    <trkpt lat="54.40045833333333" lon="10.211546666666667">
                        <ele>0</ele>
                        <time>2022-08-18T11:54:36Z</time>
                                                <extensions>
                            <sog>3.2</sog>
<cog>210.0</cog>
                        </extensions>
                    </trkpt>
                    <trkpt lat="54.39993166666667" lon="10.211526666666666">
                        <ele>0</ele>
                        <time>2022-08-18T11:55:35Z</time>
                                                <extensions>
                            <sog>1.4</sog>
<cog>37.2</cog>
                        </extensions>
                    </trkpt>
                    <trkpt lat="54.39995333333333" lon="10.211581666666666">
                        <ele>0</ele>
                        <time>2022-08-18T11:56:07Z</time>
                                                <extensions>
                            <sog>0.2</sog>
<cog>50.2</cog>
                        </extensions>
                    </trkpt>
                    <trkpt lat="54.39995" lon="10.21159">
                        <ele>0</ele>
                        <time>2022-08-18T11:56:38Z</time>
                                                <extensions>
                            <sog>0.2</sog>
<cog>50.2</cog>
                        </extensions>
                    </trkpt>
                    <trkpt lat="54.39994333333333" lon="10.211575">
                        <ele>0</ele>
                        <time>2022-08-18T11:57:35Z</time>
                                                <extensions>
                            <sog>0.1</sog>
<cog>50.2</cog>
                        </extensions>
                    </trkpt>
                    <trkpt lat="54.39995166666667" lon="10.211581666666666">
                        <ele>0</ele>
                        <time>2022-08-18T11:58:35Z</time>
                                                <extensions>
                            <sog>0.1</sog>
<cog>50.2</cog>
                        </extensions>
                    </trkpt>
                    <trkpt lat="54.39996333333333" lon="10.211558333333333">
                        <ele>0</ele>
                        <time>2022-08-18T12:04:36Z</time>
                                                <extensions>
                            <sog>0.0</sog>
<cog>50.2</cog>
                        </extensions>
                    </trkpt>
                    <trkpt lat="54.39995833333333" lon="10.21158">
                        <ele>0</ele>
                        <time>2022-08-18T12:07:36Z</time>
                                                <extensions>
                            <sog>0.1</sog>
<cog>50.2</cog>
                        </extensions>
                    </trkpt>
                    <trkpt lat="54.399966666666664" lon="10.211594999999999">
                        <ele>0</ele>
                        <time>2022-08-18T12:13:36Z</time>
                                                <extensions>
                            <sog>0.0</sog>
<cog>50.2</cog>
                        </extensions>
                    </trkpt>
                    <trkpt lat="54.39996" lon="10.211575">
                        <ele>0</ele>
                        <time>2022-08-18T12:16:34Z</time>
                                                <extensions>
                            <sog>0.0</sog>
<cog>50.2</cog>
                        </extensions>
                    </trkpt>
                    <trkpt lat="54.399964999999995" lon="10.211556666666667">
                        <ele>0</ele>
                        <time>2022-08-18T12:19:35Z</time>
                                                <extensions>
                            <sog>0.0</sog>
<cog>50.2</cog>
                        </extensions>
                    </trkpt>
                    <trkpt lat="54.39998" lon="10.211578333333334">
                        <ele>0</ele>
                        <time>2022-08-18T12:22:35Z</time>
                                                <extensions>
                            <sog>0.0</sog>
<cog>50.2</cog>
                        </extensions>
                    </trkpt>
                    <trkpt lat="54.39997" lon="10.211566666666666">
                        <ele>0</ele>
                        <time>2022-08-18T12:25:35Z</time>
                                                <extensions>
                            <sog>0.0</sog>
<cog>50.2</cog>
                        </extensions>
                    </trkpt>
                    <trkpt lat="54.39995833333333" lon="10.211549999999999">
                        <ele>0</ele>
                        <time>2022-08-18T12:34:35Z</time>
                                                <extensions>
                            <sog>0.0</sog>
<cog>50.2</cog>
                        </extensions>
                    </trkpt>
                    <trkpt lat="54.39995666666667" lon="10.211541666666667">
                        <ele>0</ele>
                        <time>2022-08-18T12:37:35Z</time>
                                                <extensions>
                            <sog>0.0</sog>
<cog>50.2</cog>
                        </extensions>
                    </trkpt>
                    <trkpt lat="54.39997" lon="10.211568333333334">
                        <ele>0</ele>
                        <time>2022-08-18T12:40:34Z</time>
                                                <extensions>
                            <sog>0.0</sog>
<cog>50.2</cog>
                        </extensions>
                    </trkpt>
                    <trkpt lat="54.399973333333335" lon="10.211573333333332">
                        <ele>0</ele>
                        <time>2022-08-18T12:43:35Z</time>
                                                <extensions>
                            <sog>0.0</sog>
<cog>50.2</cog>
                        </extensions>
                    </trkpt>
                    <trkpt lat="54.39997166666667" lon="10.211596666666667">
                        <ele>0</ele>
                        <time>2022-08-18T12:46:34Z</time>
                                                <extensions>
                            <sog>0.0</sog>
<cog>50.2</cog>
                        </extensions>
                    </trkpt>
                    <trkpt lat="54.39995333333333" lon="10.211568333333334">
                        <ele>0</ele>
                        <time>2022-08-18T12:49:37Z</time>
                                                <extensions>
                            <sog>0.1</sog>
<cog>50.2</cog>
                        </extensions>
                    </trkpt>
                    <trkpt lat="54.39997833333334" lon="10.211576666666668">
                        <ele>0</ele>
                        <time>2022-08-18T12:52:37Z</time>
                                                <extensions>
                            <sog>0.0</sog>
<cog>50.2</cog>
                        </extensions>
                    </trkpt>
                    <trkpt lat="54.399945" lon="10.211573333333332">
                        <ele>0</ele>
                        <time>2022-08-18T12:58:34Z</time>
                                                <extensions>
                            <sog>0.0</sog>
<cog>50.2</cog>
                        </extensions>
                    </trkpt>
                    <trkpt lat="54.399955" lon="10.2116">
                        <ele>0</ele>
                        <time>2022-08-18T13:01:36Z</time>
                                                <extensions>
                            <sog>0.0</sog>
<cog>50.2</cog>
                        </extensions>
                    </trkpt>
                    <trkpt lat="54.39995" lon="10.211588333333333">
                        <ele>0</ele>
                        <time>2022-08-18T13:04:34Z</time>
                                                <extensions>
                            <sog>0.0</sog>
<cog>50.2</cog>
                        </extensions>
                    </trkpt>
                    <trkpt lat="54.39995166666667" lon="10.211598333333335">
                        <ele>0</ele>
                        <time>2022-08-18T13:10:34Z</time>
                                                <extensions>
                            <sog>0.0</sog>
<cog>50.2</cog>
                        </extensions>
                    </trkpt>
                    <trkpt lat="54.399948333333334" lon="10.211586666666667">
                        <ele>0</ele>
                        <time>2022-08-18T13:16:34Z</time>
                                                <extensions>
                            <sog>0.0</sog>
<cog>50.2</cog>
                        </extensions>
                    </trkpt>
                    <trkpt lat="54.39995333333333" lon="10.21157">
                        <ele>0</ele>
                        <time>2022-08-18T13:22:37Z</time>
                                                <extensions>
                            <sog>0.0</sog>
<cog>50.2</cog>
                        </extensions>
                    </trkpt>
                    <trkpt lat="54.39997" lon="10.21157">
                        <ele>0</ele>
                        <time>2022-08-18T13:28:35Z</time>
                                                <extensions>
                            <sog>0.0</sog>
<cog>50.2</cog>
                        </extensions>
                    </trkpt>
                    <trkpt lat="54.39995833333333" lon="10.21158">
                        <ele>0</ele>
                        <time>2022-08-18T13:31:34Z</time>
                                                <extensions>
                            <sog>0.0</sog>
<cog>50.2</cog>
                        </extensions>
                    </trkpt>
                    <trkpt lat="54.399955" lon="10.211573333333332">
                        <ele>0</ele>
                        <time>2022-08-18T13:34:35Z</time>
                                                <extensions>
                            <sog>0.0</sog>
<cog>50.2</cog>
                        </extensions>
                    </trkpt>
                    <trkpt lat="54.399975000000005" lon="10.21157">
                        <ele>0</ele>
                        <time>2022-08-18T13:37:35Z</time>
                                                <extensions>
                            <sog>0.1</sog>
<cog>50.2</cog>
                        </extensions>
                    </trkpt>
                    <trkpt lat="54.39995833333333" lon="10.211581666666666">
                        <ele>0</ele>
                        <time>2022-08-18T13:40:35Z</time>
                                                <extensions>
                            <sog>0.0</sog>
<cog>50.2</cog>
                        </extensions>
                    </trkpt>
                    <trkpt lat="54.39996833333333" lon="10.211596666666667">
                        <ele>0</ele>
                        <time>2022-08-18T13:46:36Z</time>
                                                <extensions>
                            <sog>0.0</sog>
<cog>50.2</cog>
                        </extensions>
                    </trkpt>
                    <trkpt lat="54.399985" lon="10.211586666666667">
                        <ele>0</ele>
                        <time>2022-08-18T13:52:34Z</time>
                                                <extensions>
                            <sog>0.0</sog>
<cog>50.2</cog>
                        </extensions>
                    </trkpt>
                    <trkpt lat="54.399955" lon="10.211575">
                        <ele>0</ele>
                        <time>2022-08-18T13:58:35Z</time>
                                                <extensions>
                            <sog>0.0</sog>
<cog>50.2</cog>
                        </extensions>
                    </trkpt>
                    <trkpt lat="54.39998" lon="10.211565">
                        <ele>0</ele>
                        <time>2022-08-18T14:04:35Z</time>
                                                <extensions>
                            <sog>0.0</sog>
<cog>50.2</cog>
                        </extensions>
                    </trkpt>
                    <trkpt lat="54.39996333333333" lon="10.211598333333335">
                        <ele>0</ele>
                        <time>2022-08-18T14:07:35Z</time>
                                                <extensions>
                            <sog>0.0</sog>
<cog>50.2</cog>
                        </extensions>
                    </trkpt>
                    <trkpt lat="54.399966666666664" lon="10.211566666666666">
                        <ele>0</ele>
                        <time>2022-08-18T14:10:34Z</time>
                                                <extensions>
                            <sog>0.0</sog>
<cog>50.2</cog>
                        </extensions>
                    </trkpt>
                    <trkpt lat="54.39996333333333" lon="10.211616666666666">
                        <ele>0</ele>
                        <time>2022-08-18T14:16:35Z</time>
                                                <extensions>
                            <sog>0.0</sog>
<cog>50.2</cog>
                        </extensions>
                    </trkpt>
                    <trkpt lat="54.39996333333333" lon="10.211606666666666">
                        <ele>0</ele>
                        <time>2022-08-18T14:28:35Z</time>
                                                <extensions>
                            <sog>0.0</sog>
<cog>50.2</cog>
                        </extensions>
                    </trkpt>
                    <trkpt lat="54.39995166666667" lon="10.211631666666667">
                        <ele>0</ele>
                        <time>2022-08-18T14:34:35Z</time>
                                                <extensions>
                            <sog>0.0</sog>
<cog>50.2</cog>
                        </extensions>
                    </trkpt>
                    <trkpt lat="54.39995833333333" lon="10.211604999999999">
                        <ele>0</ele>
                        <time>2022-08-18T14:40:35Z</time>
                                                <extensions>
                            <sog>0.0</sog>
<cog>50.2</cog>
                        </extensions>
                    </trkpt>
                    <trkpt lat="54.39996" lon="10.211583333333333">
                        <ele>0</ele>
                        <time>2022-08-18T14:52:35Z</time>
                                                <extensions>
                            <sog>0.0</sog>
<cog>50.2</cog>
                        </extensions>
                    </trkpt>
                    <trkpt lat="54.39997166666667" lon="10.211591666666667">
                        <ele>0</ele>
                        <time>2022-08-18T14:58:35Z</time>
                                                <extensions>
                            <sog>0.0</sog>
<cog>50.2</cog>
                        </extensions>
                    </trkpt>
                    <trkpt lat="54.39995666666667" lon="10.211578333333334">
                        <ele>0</ele>
                        <time>2022-08-18T15:01:39Z</time>
                                                <extensions>
                            <sog>0.0</sog>
<cog>50.2</cog>
                        </extensions>
                    </trkpt>
                    <trkpt lat="54.39995666666667" lon="10.211585000000001">
                        <ele>0</ele>
                        <time>2022-08-18T15:04:37Z</time>
                                                <extensions>
                            <sog>0.0</sog>
<cog>50.2</cog>
                        </extensions>
                    </trkpt>
                    <trkpt lat="54.39998666666667" lon="10.211586666666667">
                        <ele>0</ele>
                        <time>2022-08-18T15:16:34Z</time>
                                                <extensions>
                            <sog>0.0</sog>
<cog>50.2</cog>
                        </extensions>
                    </trkpt>
                    <trkpt lat="54.399966666666664" lon="10.2116">
                        <ele>0</ele>
                        <time>2022-08-18T15:19:36Z</time>
                                                <extensions>
                            <sog>0.0</sog>
<cog>50.2</cog>
                        </extensions>
                    </trkpt>
                    <trkpt lat="54.399964999999995" lon="10.211575">
                        <ele>0</ele>
                        <time>2022-08-18T15:22:35Z</time>
                                                <extensions>
                            <sog>0.0</sog>
<cog>50.2</cog>
                        </extensions>
                    </trkpt>
                    <trkpt lat="54.399973333333335" lon="10.211566666666666">
                        <ele>0</ele>
                        <time>2022-08-18T15:28:36Z</time>
                                                <extensions>
                            <sog>0.0</sog>
<cog>50.2</cog>
                        </extensions>
                    </trkpt>
                    <trkpt lat="54.39995833333333" lon="10.211559999999999">
                        <ele>0</ele>
                        <time>2022-08-18T15:34:34Z</time>
                                                <extensions>
                            <sog>0.0</sog>
<cog>50.2</cog>
                        </extensions>
                    </trkpt>
                    <trkpt lat="54.39995833333333" lon="10.211583333333333">
                        <ele>0</ele>
                        <time>2022-08-18T15:37:37Z</time>
                                                <extensions>
                            <sog>0.0</sog>
<cog>50.2</cog>
                        </extensions>
                    </trkpt>
                    <trkpt lat="54.39995333333333" lon="10.211548333333333">
                        <ele>0</ele>
                        <time>2022-08-18T15:40:34Z</time>
                                                <extensions>
                            <sog>0.0</sog>
<cog>50.2</cog>
                        </extensions>
                    </trkpt>
                    <trkpt lat="54.39994333333333" lon="10.211559999999999">
                        <ele>0</ele>
                        <time>2022-08-18T15:43:35Z</time>
                                                <extensions>
                            <sog>0.0</sog>
<cog>50.2</cog>
                        </extensions>
                    </trkpt>
                    <trkpt lat="54.39996" lon="10.211553333333335">
                        <ele>0</ele>
                        <time>2022-08-18T15:58:35Z</time>
                                                <extensions>
                            <sog>0.0</sog>
<cog>50.2</cog>
                        </extensions>
                    </trkpt>
                    <trkpt lat="54.39995166666667" lon="10.211548333333333">
                        <ele>0</ele>
                        <time>2022-08-18T16:04:36Z</time>
                                                <extensions>
                            <sog>0.0</sog>
<cog>50.2</cog>
                        </extensions>
                    </trkpt>
                    <trkpt lat="54.39996" lon="10.211533333333334">
                        <ele>0</ele>
                        <time>2022-08-18T16:10:36Z</time>
                                                <extensions>
                            <sog>0.0</sog>
<cog>50.2</cog>
                        </extensions>
                    </trkpt>
                    <trkpt lat="54.39995" lon="10.211576666666668">
                        <ele>0</ele>
                        <time>2022-08-18T16:16:35Z</time>
                                                <extensions>
                            <sog>0.0</sog>
<cog>50.2</cog>
                        </extensions>
                    </trkpt>
                    <trkpt lat="54.39995833333333" lon="10.211561666666666">
                        <ele>0</ele>
                        <time>2022-08-18T16:19:35Z</time>
                                                <extensions>
                            <sog>0.0</sog>
<cog>50.2</cog>
                        </extensions>
                    </trkpt>
                    <trkpt lat="54.39995333333333" lon="10.211576666666668">
                        <ele>0</ele>
                        <time>2022-08-18T16:22:35Z</time>
                                                <extensions>
                            <sog>0.0</sog>
<cog>50.2</cog>
                        </extensions>
                    </trkpt>
                    <trkpt lat="54.39997833333334" lon="10.211568333333334">
                        <ele>0</ele>
                        <time>2022-08-18T18:12:49Z</time>
                        <extensions>
    <sog>0.0</sog>
</extensions>
                    </trkpt>
                    <trkpt lat="54.39998166666667" lon="10.211566666666666">
                        <ele>0</ele>
                        <time>2022-08-18T18:13:20Z</time>
                        <extensions>
    <sog>0.0</sog>
</extensions>
                    </trkpt>
                    <trkpt lat="54.39998333333333" lon="10.211573333333332">
                        <ele>0</ele>
                        <time>2022-08-18T18:13:49Z</time>
                        <extensions>
    <sog>0.0</sog>
</extensions>
                    </trkpt>
                    <trkpt lat="54.399975000000005" lon="10.211603333333333">
                        <ele>0</ele>
                        <time>2022-08-18T18:14:21Z</time>
                        <extensions>
    <sog>0.0</sog>
</extensions>
                    </trkpt>
                    <trkpt lat="54.39998333333333" lon="10.211596666666667">
                        <ele>0</ele>
                        <time>2022-08-18T18:14:49Z</time>
                        <extensions>
    <sog>0.0</sog>
</extensions>
                    </trkpt>
                    <trkpt lat="54.399975000000005" lon="10.211583333333333">
                        <ele>0</ele>
                        <time>2022-08-18T18:17:49Z</time>
                        <extensions>
    <sog>0.0</sog>
</extensions>
                    </trkpt>
                    <trkpt lat="54.39996333333333" lon="10.211573333333332">
                        <ele>0</ele>
                        <time>2022-08-18T18:20:49Z</time>
                        <extensions>
    <sog>0.1</sog>
</extensions>
                    </trkpt>
                    <trkpt lat="54.399975000000005" lon="10.211576666666668">
                        <ele>0</ele>
                        <time>2022-08-18T18:23:49Z</time>
                        <extensions>
    <sog>0.0</sog>
</extensions>
                    </trkpt>
                    <trkpt lat="54.399966666666664" lon="10.211594999999999">
                        <ele>0</ele>
                        <time>2022-08-18T18:29:52Z</time>
                        <extensions>
    <sog>0.0</sog>
</extensions>
                    </trkpt>
                    <trkpt lat="54.39996166666666" lon="10.21159">
                        <ele>0</ele>
                        <time>2022-08-18T18:35:49Z</time>
                        <extensions>
    <sog>0.0</sog>
</extensions>
                    </trkpt>
                    <trkpt lat="54.399964999999995" lon="10.21159">
                        <ele>0</ele>
                        <time>2022-08-18T18:38:50Z</time>
                        <extensions>
    <sog>0.0</sog>
</extensions>
                    </trkpt>
                    <trkpt lat="54.39995333333333" lon="10.211585000000001">
                        <ele>0</ele>
                        <time>2022-08-18T18:41:49Z</time>
                        <extensions>
    <sog>0.0</sog>
</extensions>
                    </trkpt>
                    <trkpt lat="54.399964999999995" lon="10.21159">
                        <ele>0</ele>
                        <time>2022-08-18T18:47:49Z</time>
                        <extensions>
    <sog>0.0</sog>
</extensions>
                    </trkpt>
                    <trkpt lat="54.399946666666665" lon="10.211586666666667">
                        <ele>0</ele>
                        <time>2022-08-18T18:53:49Z</time>
                        <extensions>
    <sog>0.0</sog>
</extensions>
                    </trkpt>
                    <trkpt lat="54.39994166666667" lon="10.21158">
                        <ele>0</ele>
                        <time>2022-08-18T18:59:49Z</time>
                        <extensions>
    <sog>0.0</sog>
</extensions>
                    </trkpt>
                    <trkpt lat="54.399945" lon="10.21158">
                        <ele>0</ele>
                        <time>2022-08-18T19:05:49Z</time>
                        <extensions>
    <sog>0.0</sog>
</extensions>
                    </trkpt>
                    <trkpt lat="54.39996" lon="10.211576666666668">
                        <ele>0</ele>
                        <time>2022-08-18T19:11:50Z</time>
                        <extensions>
    <sog>0.0</sog>
</extensions>
                    </trkpt>
                    <trkpt lat="54.39995166666667" lon="10.211575">
                        <ele>0</ele>
                        <time>2022-08-18T19:14:49Z</time>
                        <extensions>
    <sog>0.0</sog>
</extensions>
                    </trkpt>
                    <trkpt lat="54.39995833333333" lon="10.211576666666668">
                        <ele>0</ele>
                        <time>2022-08-18T19:17:49Z</time>
                        <extensions>
    <sog>0.0</sog>
</extensions>
                    </trkpt>
                    <trkpt lat="54.39995833333333" lon="10.211593333333333">
                        <ele>0</ele>
                        <time>2022-08-18T20:38:52Z</time>
                        <extensions>
    <sog>0.0</sog>
</extensions>
                    </trkpt>
                    <trkpt lat="54.39995333333333" lon="10.211608333333334">
                        <ele>0</ele>
                        <time>2022-08-18T20:39:23Z</time>
                        <extensions>
    <sog>0.0</sog>
</extensions>
                    </trkpt>
                    <trkpt lat="54.399948333333334" lon="10.211606666666666">
                        <ele>0</ele>
                        <time>2022-08-18T20:39:52Z</time>
                        <extensions>
    <sog>0.0</sog>
</extensions>
                    </trkpt>
                    <trkpt lat="54.39995833333333" lon="10.211598333333335">
                        <ele>0</ele>
                        <time>2022-08-18T20:40:22Z</time>
                        <extensions>
    <sog>0.0</sog>
</extensions>
                    </trkpt>
                    <trkpt lat="54.399946666666665" lon="10.211565">
                        <ele>0</ele>
                        <time>2022-08-18T20:43:23Z</time>
                        <extensions>
    <sog>0.0</sog>
</extensions>
                    </trkpt>
                    <trkpt lat="54.39995166666667" lon="10.21157">
                        <ele>0</ele>
                        <time>2022-08-18T20:49:22Z</time>
                        <extensions>
    <sog>0.0</sog>
</extensions>
                    </trkpt>
                    <trkpt lat="54.399946666666665" lon="10.21159">
                        <ele>0</ele>
                        <time>2022-08-18T20:52:24Z</time>
                        <extensions>
    <sog>0.0</sog>
</extensions>
                    </trkpt>
                    <trkpt lat="54.39993666666667" lon="10.211588333333333">
                        <ele>0</ele>
                        <time>2022-08-18T20:55:22Z</time>
                        <extensions>
    <sog>0.0</sog>
</extensions>
                    </trkpt>
                    <trkpt lat="54.39995333333333" lon="10.211596666666667">
                        <ele>0</ele>
                        <time>2022-08-18T21:01:24Z</time>
                        <extensions>
    <sog>0.0</sog>
</extensions>
                    </trkpt>
                    <trkpt lat="54.399945" lon="10.211588333333333">
                        <ele>0</ele>
                        <time>2022-08-18T21:07:22Z</time>
                        <extensions>
    <sog>0.0</sog>
</extensions>
                    </trkpt>
                    <trkpt lat="54.399966666666664" lon="10.211611666666666">
                        <ele>0</ele>
                        <time>2022-08-18T21:13:22Z</time>
                        <extensions>
    <sog>0.0</sog>
</extensions>
                    </trkpt>
                    <trkpt lat="54.39995166666667" lon="10.21161">
                        <ele>0</ele>
                        <time>2022-08-18T21:19:22Z</time>
                        <extensions>
    <sog>0.0</sog>
</extensions>
                    </trkpt>
                    <trkpt lat="54.399955" lon="10.211601666666667">
                        <ele>0</ele>
                        <time>2022-08-18T21:25:22Z</time>
                        <extensions>
    <sog>0.1</sog>
</extensions>
                    </trkpt>
                    <trkpt lat="54.399946666666665" lon="10.211586666666667">
                        <ele>0</ele>
                        <time>2022-08-18T21:31:23Z</time>
                        <extensions>
    <sog>0.0</sog>
</extensions>
                    </trkpt>
                    <trkpt lat="54.39996" lon="10.211575">
                        <ele>0</ele>
                        <time>2022-08-18T21:37:22Z</time>
                        <extensions>
    <sog>0.0</sog>
</extensions>
                    </trkpt>
                    <trkpt lat="54.399946666666665" lon="10.211591666666667">
                        <ele>0</ele>
                        <time>2022-08-18T21:49:22Z</time>
                        <extensions>
    <sog>0.0</sog>
</extensions>
                    </trkpt>
                    <trkpt lat="54.39995" lon="10.211565">
                        <ele>0</ele>
                        <time>2022-08-18T21:52:23Z</time>
                        <extensions>
    <sog>0.0</sog>
</extensions>
                    </trkpt>
                    <trkpt lat="54.399946666666665" lon="10.211553333333335">
                        <ele>0</ele>
                        <time>2022-08-18T21:55:23Z</time>
                        <extensions>
    <sog>0.0</sog>
</extensions>
                    </trkpt>
                    <trkpt lat="54.399955" lon="10.211578333333334">
                        <ele>0</ele>
                        <time>2022-08-18T22:01:23Z</time>
                        <extensions>
    <sog>0.0</sog>
</extensions>
                    </trkpt>
                    <trkpt lat="54.39997833333334" lon="10.211566666666666">
                        <ele>0</ele>
                        <time>2022-08-18T22:07:22Z</time>
                        <extensions>
    <sog>0.0</sog>
</extensions>
                    </trkpt>
                    <trkpt lat="54.39997666666667" lon="10.211583333333333">
                        <ele>0</ele>
                        <time>2022-08-18T22:19:22Z</time>
                        <extensions>
    <sog>0.0</sog>
</extensions>
                    </trkpt>
                    <trkpt lat="54.399964999999995" lon="10.21158">
                        <ele>0</ele>
                        <time>2022-08-18T22:22:25Z</time>
                        <extensions>
    <sog>0.0</sog>
</extensions>
                    </trkpt>
                    <trkpt lat="54.39996333333333" lon="10.211594999999999">
                        <ele>0</ele>
                        <time>2022-08-18T22:31:23Z</time>
                        <extensions>
    <sog>0.0</sog>
</extensions>
                    </trkpt>
                    <trkpt lat="54.399946666666665" lon="10.211575">
                        <ele>0</ele>
                        <time>2022-08-18T22:37:23Z</time>
                        <extensions>
    <sog>0.0</sog>
</extensions>
                    </trkpt>
                    <trkpt lat="54.399966666666664" lon="10.211573333333332">
                        <ele>0</ele>
                        <time>2022-08-18T22:40:23Z</time>
                        <extensions>
    <sog>0.0</sog>
</extensions>
                    </trkpt>
                    <trkpt lat="54.39995" lon="10.211571666666666">
                        <ele>0</ele>
                        <time>2022-08-18T22:43:23Z</time>
                        <extensions>
    <sog>0.0</sog>
</extensions>
                    </trkpt>
                    <trkpt lat="54.39995833333333" lon="10.211565">
                        <ele>0</ele>
                        <time>2022-08-18T22:49:22Z</time>
                        <extensions>
    <sog>0.0</sog>
</extensions>
                    </trkpt>
                    <trkpt lat="54.39994" lon="10.211581666666666">
                        <ele>0</ele>
                        <time>2022-08-18T22:52:22Z</time>
                        <extensions>
    <sog>0.0</sog>
</extensions>
                    </trkpt>
                    <trkpt lat="54.39995166666667" lon="10.211573333333332">
                        <ele>0</ele>
                        <time>2022-08-18T22:55:22Z</time>
                        <extensions>
    <sog>0.0</sog>
</extensions>
                    </trkpt>
                    <trkpt lat="54.39994333333333" lon="10.211585000000001">
                        <ele>0</ele>
                        <time>2022-08-18T23:01:22Z</time>
                        <extensions>
    <sog>0.0</sog>
</extensions>
                    </trkpt>
                    <trkpt lat="54.399946666666665" lon="10.211545">
                        <ele>0</ele>
                        <time>2022-08-18T23:10:24Z</time>
                        <extensions>
    <sog>0.0</sog>
</extensions>
                    </trkpt>
                    <trkpt lat="54.399946666666665" lon="10.211561666666666">
                        <ele>0</ele>
                        <time>2022-08-18T23:13:22Z</time>
                        <extensions>
    <sog>0.0</sog>
</extensions>
                    </trkpt>
                    <trkpt lat="54.399964999999995" lon="10.211583333333333">
                        <ele>0</ele>
                        <time>2022-08-18T23:16:23Z</time>
                        <extensions>
    <sog>0.0</sog>
</extensions>
                    </trkpt>
                    <trkpt lat="54.39995666666667" lon="10.21158">
                        <ele>0</ele>
                        <time>2022-08-18T23:19:23Z</time>
                        <extensions>
    <sog>0.0</sog>
</extensions>
                    </trkpt>
                    <trkpt lat="54.39995333333333" lon="10.21159">
                        <ele>0</ele>
                        <time>2022-08-18T23:25:22Z</time>
                        <extensions>
    <sog>0.0</sog>
</extensions>
                    </trkpt>
                    <trkpt lat="54.39995" lon="10.21158">
                        <ele>0</ele>
                        <time>2022-08-18T23:31:22Z</time>
                        <extensions>
    <sog>0.0</sog>
</extensions>
                    </trkpt>
                    <trkpt lat="54.399966666666664" lon="10.211588333333333">
                        <ele>0</ele>
                        <time>2022-08-18T23:37:24Z</time>
                        <extensions>
    <sog>0.0</sog>
</extensions>
                    </trkpt>
                    <trkpt lat="54.39997166666667" lon="10.211591666666667">
                        <ele>0</ele>
                        <time>2022-08-18T23:43:22Z</time>
                        <extensions>
    <sog>0.0</sog>
</extensions>
                    </trkpt>
                    <trkpt lat="54.39995333333333" lon="10.211575">
                        <ele>0</ele>
                        <time>2022-08-18T23:49:22Z</time>
                        <extensions>
    <sog>0.0</sog>
</extensions>
                    </trkpt>
                    <trkpt lat="54.39993333333334" lon="10.21159">
                        <ele>0</ele>
                        <time>2022-08-18T23:52:24Z</time>
                        <extensions>
    <sog>0.0</sog>
</extensions>
                    </trkpt>
                    <trkpt lat="54.39996333333333" lon="10.211603333333333">
                        <ele>0</ele>
                        <time>2022-08-18T23:55:22Z</time>
                        <extensions>
    <sog>0.0</sog>
</extensions>
                    </trkpt>
                    <trkpt lat="54.39996" lon="10.211568333333334">
                        <ele>0</ele>
                        <time>2022-08-18T23:58:22Z</time>
                        <extensions>
    <sog>0.0</sog>
</extensions>
                    </trkpt>
                    </trkseg>
                </trk>
</gpx>