<?xml version="1.0" encoding="UTF-8"?>
<gpx version="1.1" creator="AIS-to-GPX Converter" xmlns="http://www.topografix.com/GPX/1/1">
                <trk>
                    <name>anon0171</name>
                    <trkseg>
                                            <trkpt lat="54.429425" lon="10.171921666666666">
                        <ele>0</ele>
                        <time>2022-08-18T19:26:56Z</time>
                                                <extensions>
                            <sog>0.0</sog>
<cog>142.0</cog>
                        </extensions>
                    </trkpt>
                    <trkpt lat="54.429435" lon="10.171931666666667">
                        <ele>0</ele>
                        <time>2022-08-18T19:27:26Z</time>
                                                <extensions>
                            <sog>0.1</sog>
<cog>140.1</cog>
                        </extensions>
                    </trkpt>
                    <trkpt lat="54.429134999999995" lon="10.17254">
                        <ele>0</ele>
                        <time>2022-08-18T19:31:29Z</time>
                                                <extensions>
                            <sog>2.5</sog>
<cog>166.3</cog>
                        </extensions>
                    </trkpt>
                    <trkpt lat="54.42877333333333" lon="10.172641666666667">
                        <ele>0</ele>
                        <time>2022-08-18T19:31:58Z</time>
                                                <extensions>
                            <sog>2.8</sog>
<cog>166.9</cog>
                        </extensions>
                    </trkpt>
                    <trkpt lat="54.428358333333335" lon="10.1728">
                        <ele>0</ele>
                        <time>2022-08-18T19:32:28Z</time>
                                                <extensions>
                            <sog>2.9</sog>
<cog>166.4</cog>
                        </extensions>
                    </trkpt>
                    <trkpt lat="54.42798833333333" lon="10.17309">
                        <ele>0</ele>
                        <time>2022-08-18T19:32:57Z</time>
                                                <extensions>
                            <sog>3.1</sog>
<cog>150.1</cog>
                        </extensions>
                    </trkpt>
                    <trkpt lat="54.42739666666667" lon="10.174561666666667">
                        <ele>0</ele>
                        <time>2022-08-18T19:33:58Z</time>
                                                <extensions>
                            <sog>4.7</sog>
<cog>105.4</cog>
                        </extensions>
                    </trkpt>
                    <trkpt lat="54.426948333333335" lon="10.176934999999999">
                        <ele>0</ele>
                        <time>2022-08-18T19:34:57Z</time>
                                                <extensions>
                            <sog>5.6</sog>
<cog>106.2</cog>
                        </extensions>
                    </trkpt>
                    <trkpt lat="54.42648" lon="10.179591666666665">
                        <ele>0</ele>
                        <time>2022-08-18T19:35:58Z</time>
                                                <extensions>
                            <sog>5.7</sog>
<cog>113.5</cog>
                        </extensions>
                    </trkpt>
                    <trkpt lat="54.42585166666667" lon="10.182093333333334">
                        <ele>0</ele>
                        <time>2022-08-18T19:36:58Z</time>
                                                <extensions>
                            <sog>5.9</sog>
<cog>119.4</cog>
                        </extensions>
                    </trkpt>
                    <trkpt lat="54.42509" lon="10.184553333333334">
                        <ele>0</ele>
                        <time>2022-08-18T19:37:58Z</time>
                                                <extensions>
                            <sog>5.8</sog>
<cog>122.0</cog>
                        </extensions>
                    </trkpt>
                    <trkpt lat="54.42420166666667" lon="10.187011666666667">
                        <ele>0</ele>
                        <time>2022-08-18T19:39:00Z</time>
                                                <extensions>
                            <sog>5.9</sog>
<cog>123.5</cog>
                        </extensions>
                    </trkpt>
                    <trkpt lat="54.42319833333333" lon="10.189223333333333">
                        <ele>0</ele>
                        <time>2022-08-18T19:40:00Z</time>
                                                <extensions>
                            <sog>5.9</sog>
<cog>131.0</cog>
                        </extensions>
                    </trkpt>
                    <trkpt lat="54.422675" lon="10.190249999999999">
                        <ele>0</ele>
                        <time>2022-08-18T19:40:28Z</time>
                                                <extensions>
                            <sog>5.9</sog>
<cog>131.2</cog>
                        </extensions>
                    </trkpt>
                    <trkpt lat="54.42214333333333" lon="10.191318333333333">
                        <ele>0</ele>
                        <time>2022-08-18T19:40:59Z</time>
                                                <extensions>
                            <sog>5.9</sog>
<cog>130.0</cog>
                        </extensions>
                    </trkpt>
                    <trkpt lat="54.421611666666664" lon="10.192428333333334">
                        <ele>0</ele>
                        <time>2022-08-18T19:41:30Z</time>
                                                <extensions>
                            <sog>5.8</sog>
<cog>132.2</cog>
                        </extensions>
                    </trkpt>
                    <trkpt lat="54.42109000000001" lon="10.193498333333334">
                        <ele>0</ele>
                        <time>2022-08-18T19:42:00Z</time>
                                                <extensions>
                            <sog>5.9</sog>
<cog>128.7</cog>
                        </extensions>
                    </trkpt>
                    <trkpt lat="54.41994833333333" lon="10.195636666666667">
                        <ele>0</ele>
                        <time>2022-08-18T19:43:01Z</time>
                                                <extensions>
                            <sog>6.0</sog>
<cog>134.4</cog>
                        </extensions>
                    </trkpt>
                    <trkpt lat="54.41758" lon="10.199423333333334">
                        <ele>0</ele>
                        <time>2022-08-18T19:45:01Z</time>
                                                <extensions>
                            <sog>6.0</sog>
<cog>140.6</cog>
                        </extensions>
                    </trkpt>
                    <trkpt lat="54.41491333333333" lon="10.202698333333332">
                        <ele>0</ele>
                        <time>2022-08-18T19:47:02Z</time>
                                                <extensions>
                            <sog>5.9</sog>
<cog>144.4</cog>
                        </extensions>
                    </trkpt>
                    <trkpt lat="54.4135" lon="10.204258333333334">
                        <ele>0</ele>
                        <time>2022-08-18T19:48:03Z</time>
                                                <extensions>
                            <sog>5.8</sog>
<cog>152.7</cog>
                        </extensions>
                    </trkpt>
                    <trkpt lat="54.410783333333335" lon="10.207113333333332">
                        <ele>0</ele>
                        <time>2022-08-18T19:50:02Z</time>
                                                <extensions>
                            <sog>5.9</sog>
<cog>148.1</cog>
                        </extensions>
                    </trkpt>
                    <trkpt lat="54.410131666666665" lon="10.207831666666667">
                        <ele>0</ele>
                        <time>2022-08-18T19:50:32Z</time>
                                                <extensions>
                            <sog>5.7</sog>
<cog>148.3</cog>
                        </extensions>
                    </trkpt>
                    <trkpt lat="54.40804166666667" lon="10.209913333333333">
                        <ele>0</ele>
                        <time>2022-08-18T19:52:03Z</time>
                                                <extensions>
                            <sog>5.7</sog>
<cog>144.6</cog>
                        </extensions>
                    </trkpt>
                    <trkpt lat="54.406735000000005" lon="10.211440000000001">
                        <ele>0</ele>
                        <time>2022-08-18T19:53:02Z</time>
                                                <extensions>
                            <sog>5.7</sog>
<cog>146.6</cog>
                        </extensions>
                    </trkpt>
                    <trkpt lat="54.405390000000004" lon="10.212773333333333">
                        <ele>0</ele>
                        <time>2022-08-18T19:54:02Z</time>
                                                <extensions>
                            <sog>5.6</sog>
<cog>150.9</cog>
                        </extensions>
                    </trkpt>
                    <trkpt lat="54.404070000000004" lon="10.214271666666667">
                        <ele>0</ele>
                        <time>2022-08-18T19:55:04Z</time>
                                                <extensions>
                            <sog>5.0</sog>
<cog>143.0</cog>
                        </extensions>
                    </trkpt>
                    <trkpt lat="54.403285" lon="10.215705000000002">
                        <ele>0</ele>
                        <time>2022-08-18T19:56:04Z</time>
                                                <extensions>
                            <sog>3.7</sog>
<cog>98.2</cog>
                        </extensions>
                    </trkpt>
                    <trkpt lat="54.40353" lon="10.217408333333333">
                        <ele>0</ele>
                        <time>2022-08-18T19:57:35Z</time>
                                                <extensions>
                            <sog>1.7</sog>
<cog>99.9</cog>
                        </extensions>
                    </trkpt>
                    <trkpt lat="54.40347833333333" lon="10.217766666666668">
                        <ele>0</ele>
                        <time>2022-08-18T19:58:04Z</time>
                                                <extensions>
                            <sog>1.4</sog>
<cog>102.2</cog>
                        </extensions>
                    </trkpt>
                    <trkpt lat="54.40338" lon="10.218678333333335">
                        <ele>0</ele>
                        <time>2022-08-18T20:06:05Z</time>
                                                <extensions>
                            <sog>0.1</sog>
<cog>178.4</cog>
                        </extensions>
                    </trkpt>
                    </trkseg>
                </trk>
</gpx>