<?xml version="1.0" encoding="UTF-8"?>
<gpx version="1.1" creator="AIS-to-GPX Converter" xmlns="http://www.topografix.com/GPX/1/1">
                <trk>
                    <name>anon0218</name>
                    <trkseg>
                                            <trkpt lat="54.432363333333335" lon="10.17046">
                        <ele>0</ele>
                        <time>2022-08-18T14:19:57Z</time>
                                                <extensions>
                            <sog>0.0</sog>
<cog>39.0</cog>
                        </extensions>
                    </trkpt>
                    <trkpt lat="54.43236666666667" lon="10.17046">
                        <ele>0</ele>
                        <time>2022-08-18T14:20:27Z</time>
                                                <extensions>
                            <sog>0.0</sog>
<cog>32.0</cog>
                        </extensions>
                    </trkpt>
                    <trkpt lat="54.43236666666667" lon="10.170461666666666">
                        <ele>0</ele>
                        <time>2022-08-18T14:20:57Z</time>
                                                <extensions>
                            <sog>0.0</sog>
<cog>40.0</cog>
                        </extensions>
                    </trkpt>
                    <trkpt lat="54.43235333333334" lon="10.170455">
                        <ele>0</ele>
                        <time>2022-08-18T14:21:28Z</time>
                                                <extensions>
                            <sog>0.0</sog>
<cog>13.5</cog>
                        </extensions>
                    </trkpt>
                    <trkpt lat="54.43237666666666" lon="10.170478333333334">
                        <ele>0</ele>
                        <time>2022-08-18T14:24:58Z</time>
                                                <extensions>
                            <sog>0.0</sog>
<cog>30.8</cog>
                        </extensions>
                    </trkpt>
                    <trkpt lat="54.43235166666667" lon="10.170491666666667">
                        <ele>0</ele>
                        <time>2022-08-18T14:30:57Z</time>
                                                <extensions>
                            <sog>0.0</sog>
<cog>103.3</cog>
                        </extensions>
                    </trkpt>
                    </trkseg>
                </trk>
</gpx>