<?xml version="1.0" encoding="UTF-8"?>
<gpx version="1.1" creator="AIS-to-GPX Converter" xmlns="http://www.topografix.com/GPX/1/1">
                <trk>
                    <name>anon0198</name>
                    <trkseg>
                                            <trkpt lat="54.4682" lon="10.292333333333334">
                        <ele>0</ele>
                        <time>2022-08-18T10:57:58Z</time>
                                                <extensions>
                            <sog>4.4</sog>
<cog>217.1</cog>
                        </extensions>
                    </trkpt>
                    <trkpt lat="54.467666666666666" lon="10.291699999999999">
                        <ele>0</ele>
                        <time>2022-08-18T10:58:30Z</time>
                                                <extensions>
                            <sog>4.3</sog>
<cog>218.4</cog>
                        </extensions>
                    </trkpt>
                    <trkpt lat="54.4385" lon="10.257733333333334">
                        <ele>0</ele>
                        <time>2022-08-18T11:25:17Z</time>
                                                <extensions>
                            <sog>5.0</sog>
<cog>221.3</cog>
                        </extensions>
                    </trkpt>
                    <trkpt lat="54.42218333333334" lon="10.229199999999999">
                        <ele>0</ele>
                        <time>2022-08-18T11:42:34Z</time>
                                                <extensions>
                            <sog>4.9</sog>
<cog>226.9</cog>
                        </extensions>
                    </trkpt>
                    <trkpt lat="54.42123333333333" lon="10.227516666666666">
                        <ele>0</ele>
                        <time>2022-08-18T11:43:35Z</time>
                                                <extensions>
                            <sog>4.8</sog>
<cog>225.6</cog>
                        </extensions>
                    </trkpt>
                    <trkpt lat="54.419783333333335" lon="10.2252">
                        <ele>0</ele>
                        <time>2022-08-18T11:45:06Z</time>
                                                <extensions>
                            <sog>4.8</sog>
<cog>221.0</cog>
                        </extensions>
                    </trkpt>
                    <trkpt lat="54.41775" lon="10.222266666666666">
                        <ele>0</ele>
                        <time>2022-08-18T11:47:08Z</time>
                                                <extensions>
                            <sog>4.7</sog>
<cog>220.0</cog>
                        </extensions>
                    </trkpt>
                    <trkpt lat="54.41673333333333" lon="10.2208">
                        <ele>0</ele>
                        <time>2022-08-18T11:48:07Z</time>
                                                <extensions>
                            <sog>4.9</sog>
<cog>217.4</cog>
                        </extensions>
                    </trkpt>
                    <trkpt lat="54.41566666666667" lon="10.2193">
                        <ele>0</ele>
                        <time>2022-08-18T11:49:09Z</time>
                                                <extensions>
                            <sog>4.6</sog>
<cog>219.8</cog>
                        </extensions>
                    </trkpt>
                    <trkpt lat="54.41525" lon="10.218716666666667">
                        <ele>0</ele>
                        <time>2022-08-18T11:49:40Z</time>
                                                <extensions>
                            <sog>3.7</sog>
<cog>213.0</cog>
                        </extensions>
                    </trkpt>
                    <trkpt lat="54.41478333333334" lon="10.218150000000001">
                        <ele>0</ele>
                        <time>2022-08-18T11:50:10Z</time>
                                                <extensions>
                            <sog>4.8</sog>
<cog>216.6</cog>
                        </extensions>
                    </trkpt>
                    <trkpt lat="54.41421666666667" lon="10.217483333333332">
                        <ele>0</ele>
                        <time>2022-08-18T11:50:41Z</time>
                                                <extensions>
                            <sog>5.0</sog>
<cog>212.5</cog>
                        </extensions>
                    </trkpt>
                    <trkpt lat="54.41356666666666" lon="10.216816666666666">
                        <ele>0</ele>
                        <time>2022-08-18T11:51:14Z</time>
                                                <extensions>
                            <sog>4.8</sog>
<cog>216.3</cog>
                        </extensions>
                    </trkpt>
                    <trkpt lat="54.41248333333333" lon="10.215416666666666">
                        <ele>0</ele>
                        <time>2022-08-18T11:52:15Z</time>
                                                <extensions>
                            <sog>4.7</sog>
<cog>210.3</cog>
                        </extensions>
                    </trkpt>
                    <trkpt lat="54.41198333333333" lon="10.214816666666668">
                        <ele>0</ele>
                        <time>2022-08-18T11:52:42Z</time>
                                                <extensions>
                            <sog>5.2</sog>
<cog>216.4</cog>
                        </extensions>
                    </trkpt>
                    <trkpt lat="54.410783333333335" lon="10.213566666666667">
                        <ele>0</ele>
                        <time>2022-08-18T11:53:44Z</time>
                                                <extensions>
                            <sog>4.9</sog>
<cog>199.7</cog>
                        </extensions>
                    </trkpt>
                    <trkpt lat="54.41011666666667" lon="10.213266666666668">
                        <ele>0</ele>
                        <time>2022-08-18T11:54:14Z</time>
                                                <extensions>
                            <sog>4.9</sog>
<cog>193.7</cog>
                        </extensions>
                    </trkpt>
                    <trkpt lat="54.40945" lon="10.21305">
                        <ele>0</ele>
                        <time>2022-08-18T11:54:44Z</time>
                                                <extensions>
                            <sog>4.9</sog>
<cog>189.4</cog>
                        </extensions>
                    </trkpt>
                    <trkpt lat="54.40873333333333" lon="10.212733333333334">
                        <ele>0</ele>
                        <time>2022-08-18T11:55:17Z</time>
                                                <extensions>
                            <sog>5.0</sog>
<cog>192.9</cog>
                        </extensions>
                    </trkpt>
                    <trkpt lat="54.4081" lon="10.212516666666666">
                        <ele>0</ele>
                        <time>2022-08-18T11:55:46Z</time>
                                                <extensions>
                            <sog>5.0</sog>
<cog>191.9</cog>
                        </extensions>
                    </trkpt>
                    <trkpt lat="54.4074" lon="10.212316666666668">
                        <ele>0</ele>
                        <time>2022-08-18T11:56:17Z</time>
                                                <extensions>
                            <sog>4.9</sog>
<cog>187.7</cog>
                        </extensions>
                    </trkpt>
                    <trkpt lat="54.40598333333333" lon="10.212133333333332">
                        <ele>0</ele>
                        <time>2022-08-18T11:57:20Z</time>
                                                <extensions>
                            <sog>4.8</sog>
<cog>181.5</cog>
                        </extensions>
                    </trkpt>
                    <trkpt lat="54.405366666666666" lon="10.212083333333334">
                        <ele>0</ele>
                        <time>2022-08-18T11:57:47Z</time>
                                                <extensions>
                            <sog>5.0</sog>
<cog>182.9</cog>
                        </extensions>
                    </trkpt>
                    <trkpt lat="54.40468333333333" lon="10.2121">
                        <ele>0</ele>
                        <time>2022-08-18T11:58:17Z</time>
                                                <extensions>
                            <sog>4.9</sog>
<cog>179.0</cog>
                        </extensions>
                    </trkpt>
                    <trkpt lat="54.403999999999996" lon="10.2122">
                        <ele>0</ele>
                        <time>2022-08-18T11:58:47Z</time>
                                                <extensions>
                            <sog>5.0</sog>
<cog>168.8</cog>
                        </extensions>
                    </trkpt>
                    <trkpt lat="54.403400000000005" lon="10.212583333333333">
                        <ele>0</ele>
                        <time>2022-08-18T11:59:18Z</time>
                                                <extensions>
                            <sog>4.1</sog>
<cog>153.7</cog>
                        </extensions>
                    </trkpt>
                    <trkpt lat="54.40246666666667" lon="10.213533333333334">
                        <ele>0</ele>
                        <time>2022-08-18T12:00:18Z</time>
                                                <extensions>
                            <sog>3.5</sog>
<cog>140.2</cog>
                        </extensions>
                    </trkpt>
                    <trkpt lat="54.40246666666667" lon="10.213533333333334">
                        <ele>0</ele>
                        <time>2022-08-18T12:00:18Z</time>
                                                <extensions>
                            <sog>3.5</sog>
<cog>140.2</cog>
                        </extensions>
                    </trkpt>
                    <trkpt lat="54.402100000000004" lon="10.214083333333333">
                        <ele>0</ele>
                        <time>2022-08-18T12:00:50Z</time>
                                                <extensions>
                            <sog>3.1</sog>
<cog>132.8</cog>
                        </extensions>
                    </trkpt>
                    <trkpt lat="54.402100000000004" lon="10.214083333333333">
                        <ele>0</ele>
                        <time>2022-08-18T12:00:50Z</time>
                                                <extensions>
                            <sog>3.1</sog>
<cog>132.8</cog>
                        </extensions>
                    </trkpt>
                    <trkpt lat="54.401833333333336" lon="10.21465">
                        <ele>0</ele>
                        <time>2022-08-18T12:01:21Z</time>
                                                <extensions>
                            <sog>2.6</sog>
<cog>130.9</cog>
                        </extensions>
                    </trkpt>
                    <trkpt lat="54.40168333333334" lon="10.215066666666667">
                        <ele>0</ele>
                        <time>2022-08-18T12:01:50Z</time>
                                                <extensions>
                            <sog>1.7</sog>
<cog>84.1</cog>
                        </extensions>
                    </trkpt>
                    <trkpt lat="54.40221666666666" lon="10.21545">
                        <ele>0</ele>
                        <time>2022-08-18T12:04:50Z</time>
                                                <extensions>
                            <sog>0.9</sog>
<cog>243.2</cog>
                        </extensions>
                    </trkpt>
                    <trkpt lat="54.40239999999999" lon="10.2142">
                        <ele>0</ele>
                        <time>2022-08-18T12:07:04Z</time>
                                                <extensions>
                            <sog>3.2</sog>
<cog>2.8</cog>
                        </extensions>
                    </trkpt>
                    <trkpt lat="54.402683333333336" lon="10.214583333333334">
                        <ele>0</ele>
                        <time>2022-08-18T12:07:35Z</time>
                                                <extensions>
                            <sog>2.8</sog>
<cog>53.9</cog>
                        </extensions>
                    </trkpt>
                    <trkpt lat="54.40318333333333" lon="10.215883333333332">
                        <ele>0</ele>
                        <time>2022-08-18T12:08:35Z</time>
                                                <extensions>
                            <sog>2.8</sog>
<cog>56.5</cog>
                        </extensions>
                    </trkpt>
                    <trkpt lat="54.403299999999994" lon="10.216466666666667">
                        <ele>0</ele>
                        <time>2022-08-18T12:09:06Z</time>
                                                <extensions>
                            <sog>2.5</sog>
<cog>76.5</cog>
                        </extensions>
                    </trkpt>
                    <trkpt lat="54.40311666666666" lon="10.21785">
                        <ele>0</ele>
                        <time>2022-08-18T12:36:40Z</time>
                                                <extensions>
                            <sog>1.5</sog>
<cog>126.5</cog>
                        </extensions>
                    </trkpt>
                    <trkpt lat="54.40298333333333" lon="10.218233333333334">
                        <ele>0</ele>
                        <time>2022-08-18T12:42:43Z</time>
                                                <extensions>
                            <sog>0.1</sog>
<cog>0.0</cog>
                        </extensions>
                    </trkpt>
                    <trkpt lat="54.402966666666664" lon="10.218316666666668">
                        <ele>0</ele>
                        <time>2022-08-18T13:02:12Z</time>
                                                <extensions>
                            <sog>0.0</sog>
<cog>0.0</cog>
                        </extensions>
                    </trkpt>
                    </trkseg>
                </trk>
</gpx>