<?xml version="1.0" encoding="UTF-8"?>
<gpx version="1.1" creator="AIS-to-GPX Converter" xmlns="http://www.topografix.com/GPX/1/1">
                <trk>
                    <name>anon0276</name>
                    <trkseg>
                                            <trkpt lat="54.67808333333333" lon="10.049003333333333">
                        <ele>0</ele>
                        <time>2022-08-18T12:17:53Z</time>
                                                <extensions>
                            <sog>5.1</sog>
<cog>194.4</cog>
                        </extensions>
                    </trkpt>
                    <trkpt lat="54.67732" lon="10.048655">
                        <ele>0</ele>
                        <time>2022-08-18T12:18:27Z</time>
                                                <extensions>
                            <sog>5.2</sog>
<cog>195.0</cog>
                        </extensions>
                    </trkpt>
                    <trkpt lat="54.67670333333333" lon="10.048415">
                        <ele>0</ele>
                        <time>2022-08-18T12:18:53Z</time>
                                                <extensions>
                            <sog>5.1</sog>
<cog>189.6</cog>
                        </extensions>
                    </trkpt>
                    <trkpt lat="54.67545833333334" lon="10.048795">
                        <ele>0</ele>
                        <time>2022-08-18T12:20:26Z</time>
                                                <extensions>
                            <sog>2.0</sog>
<cog>149.2</cog>
                        </extensions>
                    </trkpt>
                    <trkpt lat="54.674391666666665" lon="10.048975">
                        <ele>0</ele>
                        <time>2022-08-18T12:22:23Z</time>
                                                <extensions>
                            <sog>4.8</sog>
<cog>243.1</cog>
                        </extensions>
                    </trkpt>
                    <trkpt lat="54.673835000000004" lon="10.04656">
                        <ele>0</ele>
                        <time>2022-08-18T12:23:23Z</time>
                                                <extensions>
                            <sog>5.8</sog>
<cog>245.6</cog>
                        </extensions>
                    </trkpt>
                    <trkpt lat="54.673075000000004" lon="10.044338333333334">
                        <ele>0</ele>
                        <time>2022-08-18T12:24:24Z</time>
                                                <extensions>
                            <sog>3.9</sog>
<cog>231.7</cog>
                        </extensions>
                    </trkpt>
                    <trkpt lat="54.67209166666667" lon="10.042321666666668">
                        <ele>0</ele>
                        <time>2022-08-18T12:25:23Z</time>
                                                <extensions>
                            <sog>5.5</sog>
<cog>234.9</cog>
                        </extensions>
                    </trkpt>
                    <trkpt lat="54.67185166666666" lon="10.033003333333333">
                        <ele>0</ele>
                        <time>2022-08-18T12:29:23Z</time>
                                                <extensions>
                            <sog>5.2</sog>
<cog>298.9</cog>
                        </extensions>
                    </trkpt>
                    <trkpt lat="54.67229666666666" lon="10.031865">
                        <ele>0</ele>
                        <time>2022-08-18T12:29:55Z</time>
                                                <extensions>
                            <sog>5.2</sog>
<cog>300.4</cog>
                        </extensions>
                    </trkpt>
                    </trkseg>
                </trk>
</gpx>