<?xml version="1.0" encoding="UTF-8"?>
<gpx version="1.1" creator="AIS-to-GPX Converter" xmlns="http://www.topografix.com/GPX/1/1">
                <trk>
                    <name>anon0503</name>
                    <trkseg>
                                            <trkpt lat="54.74236166666667" lon="10.857736666666666">
                        <ele>0</ele>
                        <time>2022-08-18T15:42:08Z</time>
                                                <extensions>
                            <sog>16.4</sog>
<cog>183.1</cog>
                        </extensions>
                    </trkpt>
                    <trkpt lat="54.73054333333334" lon="10.856681666666667">
                        <ele>0</ele>
                        <time>2022-08-18T15:44:45Z</time>
                                                <extensions>
                            <sog>16.3</sog>
<cog>183.0</cog>
                        </extensions>
                    </trkpt>
                    <trkpt lat="54.721983333333334" lon="10.855788333333333">
                        <ele>0</ele>
                        <time>2022-08-18T15:46:39Z</time>
                                                <extensions>
                            <sog>16.2</sog>
<cog>183.8</cog>
                        </extensions>
                    </trkpt>
                    <trkpt lat="54.70803166666667" lon="10.855928333333333">
                        <ele>0</ele>
                        <time>2022-08-18T15:49:45Z</time>
                                                <extensions>
                            <sog>16.0</sog>
<cog>166.6</cog>
                        </extensions>
                    </trkpt>
                    <trkpt lat="54.70759666666667" lon="10.856111666666667">
                        <ele>0</ele>
                        <time>2022-08-18T15:49:51Z</time>
                                                <extensions>
                            <sog>16.0</sog>
<cog>165.8</cog>
                        </extensions>
                    </trkpt>
                    <trkpt lat="54.70731" lon="10.856238333333332">
                        <ele>0</ele>
                        <time>2022-08-18T15:49:55Z</time>
                                                <extensions>
                            <sog>16.0</sog>
<cog>165.3</cog>
                        </extensions>
                    </trkpt>
                    <trkpt lat="54.707168333333335" lon="10.856301666666667">
                        <ele>0</ele>
                        <time>2022-08-18T15:49:57Z</time>
                                                <extensions>
                            <sog>15.9</sog>
<cog>165.0</cog>
                        </extensions>
                    </trkpt>
                    <trkpt lat="54.70410833333334" lon="10.858328333333333">
                        <ele>0</ele>
                        <time>2022-08-18T15:50:41Z</time>
                                                <extensions>
                            <sog>15.6</sog>
<cog>152.3</cog>
                        </extensions>
                    </trkpt>
                    <trkpt lat="54.70309833333333" lon="10.859306666666667">
                        <ele>0</ele>
                        <time>2022-08-18T15:50:57Z</time>
                                                <extensions>
                            <sog>15.6</sog>
<cog>149.9</cog>
                        </extensions>
                    </trkpt>
                    <trkpt lat="54.70297333333333" lon="10.859433333333333">
                        <ele>0</ele>
                        <time>2022-08-18T15:50:59Z</time>
                                                <extensions>
                            <sog>15.6</sog>
<cog>149.6</cog>
                        </extensions>
                    </trkpt>
                    <trkpt lat="54.70279" lon="10.859623333333333">
                        <ele>0</ele>
                        <time>2022-08-18T15:51:02Z</time>
                                                <extensions>
                            <sog>15.6</sog>
<cog>149.0</cog>
                        </extensions>
                    </trkpt>
                    <trkpt lat="54.702666666666666" lon="10.859751666666666">
                        <ele>0</ele>
                        <time>2022-08-18T15:51:04Z</time>
                                                <extensions>
                            <sog>15.6</sog>
<cog>148.5</cog>
                        </extensions>
                    </trkpt>
                    <trkpt lat="54.702061666666665" lon="10.860421666666667">
                        <ele>0</ele>
                        <time>2022-08-18T15:51:14Z</time>
                                                <extensions>
                            <sog>15.5</sog>
<cog>146.1</cog>
                        </extensions>
                    </trkpt>
                    <trkpt lat="54.701474999999995" lon="10.86114">
                        <ele>0</ele>
                        <time>2022-08-18T15:51:25Z</time>
                                                <extensions>
                            <sog>15.5</sog>
<cog>143.2</cog>
                        </extensions>
                    </trkpt>
                    </trkseg>
                </trk>
</gpx>