<?xml version="1.0" encoding="UTF-8"?>
<gpx version="1.1" creator="AIS-to-GPX Converter" xmlns="http://www.topografix.com/GPX/1/1">
                <trk>
                    <name>anon0230</name>
                    <trkseg>
                                            <trkpt lat="54.435770000000005" lon="10.169661666666666">
                        <ele>0</ele>
                        <time>2022-08-18T00:02:50Z</time>
                        <extensions>
    <sog>0.0</sog>
</extensions>
                    </trkpt>
                    <trkpt lat="54.43576333333333" lon="10.16966">
                        <ele>0</ele>
                        <time>2022-08-18T00:05:50Z</time>
                        <extensions>
    <sog>0.0</sog>
</extensions>
                    </trkpt>
                    <trkpt lat="54.435755" lon="10.169675000000002">
                        <ele>0</ele>
                        <time>2022-08-18T00:14:50Z</time>
                        <extensions>
    <sog>0.0</sog>
</extensions>
                    </trkpt>
                    <trkpt lat="54.43579333333333" lon="10.169611666666666">
                        <ele>0</ele>
                        <time>2022-08-18T00:20:53Z</time>
                        <extensions>
    <sog>0.0</sog>
</extensions>
                    </trkpt>
                    <trkpt lat="54.43582166666667" lon="10.169635">
                        <ele>0</ele>
                        <time>2022-08-18T00:23:51Z</time>
                        <extensions>
    <sog>0.0</sog>
</extensions>
                    </trkpt>
                    <trkpt lat="54.435855" lon="10.169651666666665">
                        <ele>0</ele>
                        <time>2022-08-18T00:29:50Z</time>
                        <extensions>
    <sog>0.0</sog>
</extensions>
                    </trkpt>
                    <trkpt lat="54.435764999999996" lon="10.169658333333333">
                        <ele>0</ele>
                        <time>2022-08-18T00:32:53Z</time>
                        <extensions>
    <sog>0.0</sog>
</extensions>
                    </trkpt>
                    <trkpt lat="54.435764999999996" lon="10.16967">
                        <ele>0</ele>
                        <time>2022-08-18T00:35:51Z</time>
                        <extensions>
    <sog>0.0</sog>
</extensions>
                    </trkpt>
                    <trkpt lat="54.43577333333334" lon="10.169656666666667">
                        <ele>0</ele>
                        <time>2022-08-18T00:38:52Z</time>
                        <extensions>
    <sog>0.0</sog>
</extensions>
                    </trkpt>
                    <trkpt lat="54.43579166666667" lon="10.169636666666666">
                        <ele>0</ele>
                        <time>2022-08-18T00:44:53Z</time>
                        <extensions>
    <sog>0.0</sog>
</extensions>
                    </trkpt>
                    <trkpt lat="54.435764999999996" lon="10.16966">
                        <ele>0</ele>
                        <time>2022-08-18T00:47:50Z</time>
                        <extensions>
    <sog>0.0</sog>
</extensions>
                    </trkpt>
                    <trkpt lat="54.43574833333333" lon="10.169645000000001">
                        <ele>0</ele>
                        <time>2022-08-18T00:53:50Z</time>
                        <extensions>
    <sog>0.0</sog>
</extensions>
                    </trkpt>
                    <trkpt lat="54.435725000000005" lon="10.169648333333333">
                        <ele>0</ele>
                        <time>2022-08-18T00:56:53Z</time>
                        <extensions>
    <sog>0.0</sog>
</extensions>
                    </trkpt>
                    <trkpt lat="54.435735" lon="10.169671666666666">
                        <ele>0</ele>
                        <time>2022-08-18T00:59:49Z</time>
                        <extensions>
    <sog>0.0</sog>
</extensions>
                    </trkpt>
                    <trkpt lat="54.435735" lon="10.169638333333333">
                        <ele>0</ele>
                        <time>2022-08-18T01:08:52Z</time>
                        <extensions>
    <sog>0.0</sog>
</extensions>
                    </trkpt>
                    <trkpt lat="54.435735" lon="10.16962">
                        <ele>0</ele>
                        <time>2022-08-18T01:14:51Z</time>
                        <extensions>
    <sog>0.0</sog>
</extensions>
                    </trkpt>
                    <trkpt lat="54.43574" lon="10.169628333333332">
                        <ele>0</ele>
                        <time>2022-08-18T01:17:53Z</time>
                        <extensions>
    <sog>0.0</sog>
</extensions>
                    </trkpt>
                    <trkpt lat="54.43575166666667" lon="10.169636666666666">
                        <ele>0</ele>
                        <time>2022-08-18T01:20:50Z</time>
                        <extensions>
    <sog>0.0</sog>
</extensions>
                    </trkpt>
                    <trkpt lat="54.43575" lon="10.169645000000001">
                        <ele>0</ele>
                        <time>2022-08-18T01:23:49Z</time>
                        <extensions>
    <sog>0.0</sog>
</extensions>
                    </trkpt>
                    <trkpt lat="54.435761666666664" lon="10.169658333333333">
                        <ele>0</ele>
                        <time>2022-08-18T01:26:51Z</time>
                        <extensions>
    <sog>0.0</sog>
</extensions>
                    </trkpt>
                    <trkpt lat="54.43573666666667" lon="10.169633333333334">
                        <ele>0</ele>
                        <time>2022-08-18T01:32:52Z</time>
                        <extensions>
    <sog>0.0</sog>
</extensions>
                    </trkpt>
                    <trkpt lat="54.435759999999995" lon="10.169653333333335">
                        <ele>0</ele>
                        <time>2022-08-18T01:41:52Z</time>
                        <extensions>
    <sog>0.0</sog>
</extensions>
                    </trkpt>
                    <trkpt lat="54.43573833333333" lon="10.169668333333334">
                        <ele>0</ele>
                        <time>2022-08-18T01:44:49Z</time>
                        <extensions>
    <sog>0.0</sog>
</extensions>
                    </trkpt>
                    <trkpt lat="54.43575166666667" lon="10.169671666666666">
                        <ele>0</ele>
                        <time>2022-08-18T01:47:51Z</time>
                        <extensions>
    <sog>0.0</sog>
</extensions>
                    </trkpt>
                    <trkpt lat="54.435768333333336" lon="10.169673333333332">
                        <ele>0</ele>
                        <time>2022-08-18T01:50:51Z</time>
                        <extensions>
    <sog>0.0</sog>
</extensions>
                    </trkpt>
                    <trkpt lat="54.43575666666666" lon="10.16968">
                        <ele>0</ele>
                        <time>2022-08-18T01:53:52Z</time>
                        <extensions>
    <sog>0.0</sog>
</extensions>
                    </trkpt>
                    <trkpt lat="54.43577833333333" lon="10.169686666666667">
                        <ele>0</ele>
                        <time>2022-08-18T01:56:53Z</time>
                        <extensions>
    <sog>0.0</sog>
</extensions>
                    </trkpt>
                    <trkpt lat="54.435775" lon="10.169678333333334">
                        <ele>0</ele>
                        <time>2022-08-18T02:02:51Z</time>
                        <extensions>
    <sog>0.0</sog>
</extensions>
                    </trkpt>
                    <trkpt lat="54.435761666666664" lon="10.169656666666667">
                        <ele>0</ele>
                        <time>2022-08-18T02:05:50Z</time>
                        <extensions>
    <sog>0.0</sog>
</extensions>
                    </trkpt>
                    <trkpt lat="54.435764999999996" lon="10.169658333333333">
                        <ele>0</ele>
                        <time>2022-08-18T02:08:50Z</time>
                        <extensions>
    <sog>0.0</sog>
</extensions>
                    </trkpt>
                    <trkpt lat="54.43576333333333" lon="10.169641666666667">
                        <ele>0</ele>
                        <time>2022-08-18T02:14:53Z</time>
                        <extensions>
    <sog>0.0</sog>
</extensions>
                    </trkpt>
                    <trkpt lat="54.435768333333336" lon="10.169635">
                        <ele>0</ele>
                        <time>2022-08-18T02:17:51Z</time>
                        <extensions>
    <sog>0.0</sog>
</extensions>
                    </trkpt>
                    <trkpt lat="54.43575333333333" lon="10.169666666666666">
                        <ele>0</ele>
                        <time>2022-08-18T02:23:50Z</time>
                        <extensions>
    <sog>0.0</sog>
</extensions>
                    </trkpt>
                    <trkpt lat="54.435755" lon="10.169656666666667">
                        <ele>0</ele>
                        <time>2022-08-18T02:29:51Z</time>
                        <extensions>
    <sog>0.0</sog>
</extensions>
                    </trkpt>
                    <trkpt lat="54.43575" lon="10.169643333333333">
                        <ele>0</ele>
                        <time>2022-08-18T02:32:51Z</time>
                        <extensions>
    <sog>0.0</sog>
</extensions>
                    </trkpt>
                    <trkpt lat="54.43577166666667" lon="10.169648333333333">
                        <ele>0</ele>
                        <time>2022-08-18T02:35:51Z</time>
                        <extensions>
    <sog>0.1</sog>
</extensions>
                    </trkpt>
                    <trkpt lat="54.43575666666666" lon="10.169651666666665">
                        <ele>0</ele>
                        <time>2022-08-18T02:47:51Z</time>
                        <extensions>
    <sog>0.0</sog>
</extensions>
                    </trkpt>
                    <trkpt lat="54.43574833333333" lon="10.169643333333333">
                        <ele>0</ele>
                        <time>2022-08-18T02:53:52Z</time>
                        <extensions>
    <sog>0.0</sog>
</extensions>
                    </trkpt>
                    <trkpt lat="54.435745" lon="10.169635">
                        <ele>0</ele>
                        <time>2022-08-18T02:56:49Z</time>
                        <extensions>
    <sog>0.0</sog>
</extensions>
                    </trkpt>
                    <trkpt lat="54.43574" lon="10.169638333333333">
                        <ele>0</ele>
                        <time>2022-08-18T02:59:53Z</time>
                        <extensions>
    <sog>0.0</sog>
</extensions>
                    </trkpt>
                    <trkpt lat="54.43574833333333" lon="10.169636666666666">
                        <ele>0</ele>
                        <time>2022-08-18T03:02:52Z</time>
                        <extensions>
    <sog>0.0</sog>
</extensions>
                    </trkpt>
                    <trkpt lat="54.43575166666667" lon="10.169635">
                        <ele>0</ele>
                        <time>2022-08-18T03:05:53Z</time>
                        <extensions>
    <sog>0.0</sog>
</extensions>
                    </trkpt>
                    <trkpt lat="54.43574" lon="10.169651666666665">
                        <ele>0</ele>
                        <time>2022-08-18T03:08:49Z</time>
                        <extensions>
    <sog>0.0</sog>
</extensions>
                    </trkpt>
                    <trkpt lat="54.435741666666665" lon="10.169649999999999">
                        <ele>0</ele>
                        <time>2022-08-18T03:11:50Z</time>
                        <extensions>
    <sog>0.0</sog>
</extensions>
                    </trkpt>
                    <trkpt lat="54.43573833333333" lon="10.169656666666667">
                        <ele>0</ele>
                        <time>2022-08-18T03:14:52Z</time>
                        <extensions>
    <sog>0.0</sog>
</extensions>
                    </trkpt>
                    <trkpt lat="54.435735" lon="10.169653333333335">
                        <ele>0</ele>
                        <time>2022-08-18T03:17:51Z</time>
                        <extensions>
    <sog>0.0</sog>
</extensions>
                    </trkpt>
                    <trkpt lat="54.43573" lon="10.169648333333333">
                        <ele>0</ele>
                        <time>2022-08-18T03:26:52Z</time>
                        <extensions>
    <sog>0.0</sog>
</extensions>
                    </trkpt>
                    <trkpt lat="54.43574" lon="10.169651666666665">
                        <ele>0</ele>
                        <time>2022-08-18T03:29:52Z</time>
                        <extensions>
    <sog>0.0</sog>
</extensions>
                    </trkpt>
                    <trkpt lat="54.43573833333333" lon="10.169658333333333">
                        <ele>0</ele>
                        <time>2022-08-18T03:32:52Z</time>
                        <extensions>
    <sog>0.0</sog>
</extensions>
                    </trkpt>
                    <trkpt lat="54.43571833333333" lon="10.169649999999999">
                        <ele>0</ele>
                        <time>2022-08-18T03:35:50Z</time>
                        <extensions>
    <sog>0.0</sog>
</extensions>
                    </trkpt>
                    <trkpt lat="54.435725000000005" lon="10.169651666666665">
                        <ele>0</ele>
                        <time>2022-08-18T03:47:51Z</time>
                        <extensions>
    <sog>0.0</sog>
</extensions>
                    </trkpt>
                    <trkpt lat="54.43573" lon="10.169656666666667">
                        <ele>0</ele>
                        <time>2022-08-18T03:50:51Z</time>
                        <extensions>
    <sog>0.0</sog>
</extensions>
                    </trkpt>
                    <trkpt lat="54.435735" lon="10.16966">
                        <ele>0</ele>
                        <time>2022-08-18T03:53:52Z</time>
                        <extensions>
    <sog>0.0</sog>
</extensions>
                    </trkpt>
                    <trkpt lat="54.43573333333333" lon="10.169655">
                        <ele>0</ele>
                        <time>2022-08-18T03:56:53Z</time>
                        <extensions>
    <sog>0.0</sog>
</extensions>
                    </trkpt>
                    <trkpt lat="54.43573" lon="10.169675000000002">
                        <ele>0</ele>
                        <time>2022-08-18T03:59:52Z</time>
                        <extensions>
    <sog>0.0</sog>
</extensions>
                    </trkpt>
                    <trkpt lat="54.435725000000005" lon="10.169656666666667">
                        <ele>0</ele>
                        <time>2022-08-18T04:02:51Z</time>
                        <extensions>
    <sog>0.0</sog>
</extensions>
                    </trkpt>
                    <trkpt lat="54.43573833333333" lon="10.169671666666666">
                        <ele>0</ele>
                        <time>2022-08-18T04:11:50Z</time>
                        <extensions>
    <sog>0.0</sog>
</extensions>
                    </trkpt>
                    <trkpt lat="54.43573833333333" lon="10.169636666666666">
                        <ele>0</ele>
                        <time>2022-08-18T04:14:52Z</time>
                        <extensions>
    <sog>0.0</sog>
</extensions>
                    </trkpt>
                    <trkpt lat="54.435741666666665" lon="10.169633333333334">
                        <ele>0</ele>
                        <time>2022-08-18T04:20:50Z</time>
                        <extensions>
    <sog>0.0</sog>
</extensions>
                    </trkpt>
                    <trkpt lat="54.435770000000005" lon="10.169606666666665">
                        <ele>0</ele>
                        <time>2022-08-18T04:23:49Z</time>
                        <extensions>
    <sog>0.0</sog>
</extensions>
                    </trkpt>
                    <trkpt lat="54.435761666666664" lon="10.169646666666667">
                        <ele>0</ele>
                        <time>2022-08-18T04:26:50Z</time>
                        <extensions>
    <sog>0.0</sog>
</extensions>
                    </trkpt>
                    <trkpt lat="54.435761666666664" lon="10.169655">
                        <ele>0</ele>
                        <time>2022-08-18T04:29:50Z</time>
                        <extensions>
    <sog>0.0</sog>
</extensions>
                    </trkpt>
                    <trkpt lat="54.43575333333333" lon="10.169656666666667">
                        <ele>0</ele>
                        <time>2022-08-18T04:32:52Z</time>
                        <extensions>
    <sog>0.0</sog>
</extensions>
                    </trkpt>
                    <trkpt lat="54.435759999999995" lon="10.169649999999999">
                        <ele>0</ele>
                        <time>2022-08-18T04:41:53Z</time>
                        <extensions>
    <sog>0.0</sog>
</extensions>
                    </trkpt>
                    <trkpt lat="54.435755" lon="10.169661666666666">
                        <ele>0</ele>
                        <time>2022-08-18T04:44:52Z</time>
                        <extensions>
    <sog>0.0</sog>
</extensions>
                    </trkpt>
                    <trkpt lat="54.435755" lon="10.169641666666667">
                        <ele>0</ele>
                        <time>2022-08-18T04:47:52Z</time>
                        <extensions>
    <sog>0.0</sog>
</extensions>
                    </trkpt>
                    <trkpt lat="54.43573833333333" lon="10.169646666666667">
                        <ele>0</ele>
                        <time>2022-08-18T04:50:51Z</time>
                        <extensions>
    <sog>0.0</sog>
</extensions>
                    </trkpt>
                    <trkpt lat="54.43575666666666" lon="10.169613333333333">
                        <ele>0</ele>
                        <time>2022-08-18T04:53:53Z</time>
                        <extensions>
    <sog>0.0</sog>
</extensions>
                    </trkpt>
                    <trkpt lat="54.435775" lon="10.169603333333333">
                        <ele>0</ele>
                        <time>2022-08-18T04:56:50Z</time>
                        <extensions>
    <sog>0.0</sog>
</extensions>
                    </trkpt>
                    <trkpt lat="54.43577166666667" lon="10.169613333333333">
                        <ele>0</ele>
                        <time>2022-08-18T04:59:50Z</time>
                        <extensions>
    <sog>0.0</sog>
</extensions>
                    </trkpt>
                    <trkpt lat="54.43578333333333" lon="10.169635">
                        <ele>0</ele>
                        <time>2022-08-18T05:02:50Z</time>
                        <extensions>
    <sog>0.0</sog>
</extensions>
                    </trkpt>
                    <trkpt lat="54.43577833333333" lon="10.169631666666668">
                        <ele>0</ele>
                        <time>2022-08-18T05:08:50Z</time>
                        <extensions>
    <sog>0.0</sog>
</extensions>
                    </trkpt>
                    <trkpt lat="54.435741666666665" lon="10.169651666666665">
                        <ele>0</ele>
                        <time>2022-08-18T05:20:50Z</time>
                        <extensions>
    <sog>0.0</sog>
</extensions>
                    </trkpt>
                    <trkpt lat="54.43573333333333" lon="10.169673333333332">
                        <ele>0</ele>
                        <time>2022-08-18T05:26:52Z</time>
                        <extensions>
    <sog>0.0</sog>
</extensions>
                    </trkpt>
                    <trkpt lat="54.435745" lon="10.169675000000002">
                        <ele>0</ele>
                        <time>2022-08-18T05:29:52Z</time>
                        <extensions>
    <sog>0.0</sog>
</extensions>
                    </trkpt>
                    <trkpt lat="54.43574" lon="10.169626666666666">
                        <ele>0</ele>
                        <time>2022-08-18T05:32:53Z</time>
                        <extensions>
    <sog>0.0</sog>
</extensions>
                    </trkpt>
                    <trkpt lat="54.435745" lon="10.16964">
                        <ele>0</ele>
                        <time>2022-08-18T05:35:50Z</time>
                        <extensions>
    <sog>0.0</sog>
</extensions>
                    </trkpt>
                    <trkpt lat="54.435743333333335" lon="10.169638333333333">
                        <ele>0</ele>
                        <time>2022-08-18T05:38:50Z</time>
                        <extensions>
    <sog>0.0</sog>
</extensions>
                    </trkpt>
                    <trkpt lat="54.435743333333335" lon="10.169636666666666">
                        <ele>0</ele>
                        <time>2022-08-18T05:41:50Z</time>
                        <extensions>
    <sog>0.0</sog>
</extensions>
                    </trkpt>
                    <trkpt lat="54.43573833333333" lon="10.169630000000002">
                        <ele>0</ele>
                        <time>2022-08-18T05:44:51Z</time>
                        <extensions>
    <sog>0.0</sog>
</extensions>
                    </trkpt>
                    <trkpt lat="54.43575166666667" lon="10.16966">
                        <ele>0</ele>
                        <time>2022-08-18T05:47:53Z</time>
                        <extensions>
    <sog>0.0</sog>
</extensions>
                    </trkpt>
                    <trkpt lat="54.43575166666667" lon="10.169658333333333">
                        <ele>0</ele>
                        <time>2022-08-18T05:59:52Z</time>
                        <extensions>
    <sog>0.0</sog>
</extensions>
                    </trkpt>
                    <trkpt lat="54.43574833333333" lon="10.169663333333334">
                        <ele>0</ele>
                        <time>2022-08-18T06:08:49Z</time>
                        <extensions>
    <sog>0.0</sog>
</extensions>
                    </trkpt>
                    <trkpt lat="54.435755" lon="10.169656666666667">
                        <ele>0</ele>
                        <time>2022-08-18T06:11:53Z</time>
                        <extensions>
    <sog>0.0</sog>
</extensions>
                    </trkpt>
                    <trkpt lat="54.43576333333333" lon="10.169681666666666">
                        <ele>0</ele>
                        <time>2022-08-18T06:14:52Z</time>
                        <extensions>
    <sog>0.0</sog>
</extensions>
                    </trkpt>
                    <trkpt lat="54.435741666666665" lon="10.169671666666666">
                        <ele>0</ele>
                        <time>2022-08-18T06:23:50Z</time>
                        <extensions>
    <sog>0.0</sog>
</extensions>
                    </trkpt>
                    <trkpt lat="54.435745" lon="10.169676666666668">
                        <ele>0</ele>
                        <time>2022-08-18T06:32:53Z</time>
                        <extensions>
    <sog>0.0</sog>
</extensions>
                    </trkpt>
                    <trkpt lat="54.43574833333333" lon="10.169675000000002">
                        <ele>0</ele>
                        <time>2022-08-18T06:41:52Z</time>
                        <extensions>
    <sog>0.0</sog>
</extensions>
                    </trkpt>
                    <trkpt lat="54.43574666666667" lon="10.16966">
                        <ele>0</ele>
                        <time>2022-08-18T06:44:49Z</time>
                        <extensions>
    <sog>0.0</sog>
</extensions>
                    </trkpt>
                    <trkpt lat="54.43574833333333" lon="10.169675000000002">
                        <ele>0</ele>
                        <time>2022-08-18T06:53:51Z</time>
                        <extensions>
    <sog>0.0</sog>
</extensions>
                    </trkpt>
                    <trkpt lat="54.43574" lon="10.169655">
                        <ele>0</ele>
                        <time>2022-08-18T06:56:52Z</time>
                        <extensions>
    <sog>0.0</sog>
</extensions>
                    </trkpt>
                    <trkpt lat="54.43573833333333" lon="10.169666666666666">
                        <ele>0</ele>
                        <time>2022-08-18T06:59:52Z</time>
                        <extensions>
    <sog>0.0</sog>
</extensions>
                    </trkpt>
                    <trkpt lat="54.43576666666667" lon="10.169673333333332">
                        <ele>0</ele>
                        <time>2022-08-18T07:02:51Z</time>
                        <extensions>
    <sog>0.0</sog>
</extensions>
                    </trkpt>
                    <trkpt lat="54.43574833333333" lon="10.169663333333334">
                        <ele>0</ele>
                        <time>2022-08-18T07:05:53Z</time>
                        <extensions>
    <sog>0.0</sog>
</extensions>
                    </trkpt>
                    <trkpt lat="54.435745" lon="10.169651666666665">
                        <ele>0</ele>
                        <time>2022-08-18T07:08:52Z</time>
                        <extensions>
    <sog>0.0</sog>
</extensions>
                    </trkpt>
                    <trkpt lat="54.435743333333335" lon="10.169668333333334">
                        <ele>0</ele>
                        <time>2022-08-18T07:11:50Z</time>
                        <extensions>
    <sog>0.0</sog>
</extensions>
                    </trkpt>
                    <trkpt lat="54.435745" lon="10.169673333333332">
                        <ele>0</ele>
                        <time>2022-08-18T07:17:50Z</time>
                        <extensions>
    <sog>0.0</sog>
</extensions>
                    </trkpt>
                    <trkpt lat="54.435743333333335" lon="10.169671666666666">
                        <ele>0</ele>
                        <time>2022-08-18T07:20:50Z</time>
                        <extensions>
    <sog>0.0</sog>
</extensions>
                    </trkpt>
                    <trkpt lat="54.43573833333333" lon="10.169653333333335">
                        <ele>0</ele>
                        <time>2022-08-18T07:29:52Z</time>
                        <extensions>
    <sog>0.0</sog>
</extensions>
                    </trkpt>
                    <trkpt lat="54.43575333333333" lon="10.169675000000002">
                        <ele>0</ele>
                        <time>2022-08-18T07:32:52Z</time>
                        <extensions>
    <sog>0.0</sog>
</extensions>
                    </trkpt>
                    <trkpt lat="54.435735" lon="10.16971">
                        <ele>0</ele>
                        <time>2022-08-18T07:35:50Z</time>
                        <extensions>
    <sog>0.0</sog>
</extensions>
                    </trkpt>
                    <trkpt lat="54.43573833333333" lon="10.169694999999999">
                        <ele>0</ele>
                        <time>2022-08-18T07:38:52Z</time>
                        <extensions>
    <sog>0.0</sog>
</extensions>
                    </trkpt>
                    <trkpt lat="54.43576666666667" lon="10.169696666666665">
                        <ele>0</ele>
                        <time>2022-08-18T07:41:50Z</time>
                        <extensions>
    <sog>0.0</sog>
</extensions>
                    </trkpt>
                    <trkpt lat="54.435761666666664" lon="10.169665">
                        <ele>0</ele>
                        <time>2022-08-18T07:44:50Z</time>
                        <extensions>
    <sog>0.0</sog>
</extensions>
                    </trkpt>
                    <trkpt lat="54.43577333333334" lon="10.169638333333333">
                        <ele>0</ele>
                        <time>2022-08-18T07:50:49Z</time>
                        <extensions>
    <sog>0.0</sog>
</extensions>
                    </trkpt>
                    <trkpt lat="54.435775" lon="10.169635">
                        <ele>0</ele>
                        <time>2022-08-18T07:53:52Z</time>
                        <extensions>
    <sog>0.0</sog>
</extensions>
                    </trkpt>
                    <trkpt lat="54.435764999999996" lon="10.169648333333333">
                        <ele>0</ele>
                        <time>2022-08-18T07:56:51Z</time>
                        <extensions>
    <sog>0.1</sog>
</extensions>
                    </trkpt>
                    <trkpt lat="54.435786666666665" lon="10.169625">
                        <ele>0</ele>
                        <time>2022-08-18T07:59:52Z</time>
                        <extensions>
    <sog>0.0</sog>
</extensions>
                    </trkpt>
                    <trkpt lat="54.435714999999995" lon="10.169649999999999">
                        <ele>0</ele>
                        <time>2022-08-18T08:14:51Z</time>
                        <extensions>
    <sog>0.0</sog>
</extensions>
                    </trkpt>
                    <trkpt lat="54.43573333333333" lon="10.169665">
                        <ele>0</ele>
                        <time>2022-08-18T08:17:53Z</time>
                        <extensions>
    <sog>0.0</sog>
</extensions>
                    </trkpt>
                    <trkpt lat="54.4358" lon="10.169631666666668">
                        <ele>0</ele>
                        <time>2022-08-18T08:20:49Z</time>
                        <extensions>
    <sog>0.0</sog>
</extensions>
                    </trkpt>
                    <trkpt lat="54.43575166666667" lon="10.169671666666666">
                        <ele>0</ele>
                        <time>2022-08-18T08:23:51Z</time>
                        <extensions>
    <sog>0.0</sog>
</extensions>
                    </trkpt>
                    <trkpt lat="54.43572666666667" lon="10.169661666666666">
                        <ele>0</ele>
                        <time>2022-08-18T08:41:50Z</time>
                        <extensions>
    <sog>0.0</sog>
</extensions>
                    </trkpt>
                    <trkpt lat="54.43572166666667" lon="10.169676666666668">
                        <ele>0</ele>
                        <time>2022-08-18T08:44:52Z</time>
                        <extensions>
    <sog>0.0</sog>
</extensions>
                    </trkpt>
                    <trkpt lat="54.435725000000005" lon="10.169655">
                        <ele>0</ele>
                        <time>2022-08-18T08:47:52Z</time>
                        <extensions>
    <sog>0.0</sog>
</extensions>
                    </trkpt>
                    <trkpt lat="54.43570333333333" lon="10.16966">
                        <ele>0</ele>
                        <time>2022-08-18T08:50:50Z</time>
                        <extensions>
    <sog>0.0</sog>
</extensions>
                    </trkpt>
                    <trkpt lat="54.43570833333333" lon="10.169690000000001">
                        <ele>0</ele>
                        <time>2022-08-18T08:53:51Z</time>
                        <extensions>
    <sog>0.1</sog>
</extensions>
                    </trkpt>
                    <trkpt lat="54.435719999999996" lon="10.169653333333335">
                        <ele>0</ele>
                        <time>2022-08-18T08:59:52Z</time>
                        <extensions>
    <sog>0.0</sog>
</extensions>
                    </trkpt>
                    <trkpt lat="54.43571333333333" lon="10.169666666666666">
                        <ele>0</ele>
                        <time>2022-08-18T09:05:50Z</time>
                        <extensions>
    <sog>0.0</sog>
</extensions>
                    </trkpt>
                    <trkpt lat="54.43571833333333" lon="10.16968">
                        <ele>0</ele>
                        <time>2022-08-18T09:08:53Z</time>
                        <extensions>
    <sog>0.0</sog>
</extensions>
                    </trkpt>
                    <trkpt lat="54.43571833333333" lon="10.169668333333334">
                        <ele>0</ele>
                        <time>2022-08-18T09:14:52Z</time>
                        <extensions>
    <sog>0.0</sog>
</extensions>
                    </trkpt>
                    <trkpt lat="54.435719999999996" lon="10.169649999999999">
                        <ele>0</ele>
                        <time>2022-08-18T09:17:50Z</time>
                        <extensions>
    <sog>0.0</sog>
</extensions>
                    </trkpt>
                    <trkpt lat="54.43570333333333" lon="10.169626666666666">
                        <ele>0</ele>
                        <time>2022-08-18T09:23:53Z</time>
                        <extensions>
    <sog>0.0</sog>
</extensions>
                    </trkpt>
                    <trkpt lat="54.43573" lon="10.169655">
                        <ele>0</ele>
                        <time>2022-08-18T09:29:50Z</time>
                        <extensions>
    <sog>0.0</sog>
</extensions>
                    </trkpt>
                    <trkpt lat="54.43572166666667" lon="10.169635">
                        <ele>0</ele>
                        <time>2022-08-18T09:32:53Z</time>
                        <extensions>
    <sog>0.0</sog>
</extensions>
                    </trkpt>
                    <trkpt lat="54.43573166666667" lon="10.169645000000001">
                        <ele>0</ele>
                        <time>2022-08-18T09:35:51Z</time>
                        <extensions>
    <sog>0.0</sog>
</extensions>
                    </trkpt>
                    <trkpt lat="54.435735" lon="10.169651666666665">
                        <ele>0</ele>
                        <time>2022-08-18T09:38:50Z</time>
                        <extensions>
    <sog>0.0</sog>
</extensions>
                    </trkpt>
                    <trkpt lat="54.435735" lon="10.169666666666666">
                        <ele>0</ele>
                        <time>2022-08-18T09:44:51Z</time>
                        <extensions>
    <sog>0.0</sog>
</extensions>
                    </trkpt>
                    <trkpt lat="54.43572666666667" lon="10.169663333333334">
                        <ele>0</ele>
                        <time>2022-08-18T09:47:51Z</time>
                        <extensions>
    <sog>0.0</sog>
</extensions>
                    </trkpt>
                    <trkpt lat="54.43572666666667" lon="10.16966">
                        <ele>0</ele>
                        <time>2022-08-18T10:02:50Z</time>
                        <extensions>
    <sog>0.0</sog>
</extensions>
                    </trkpt>
                    <trkpt lat="54.43574" lon="10.169656666666667">
                        <ele>0</ele>
                        <time>2022-08-18T10:05:50Z</time>
                        <extensions>
    <sog>0.0</sog>
</extensions>
                    </trkpt>
                    <trkpt lat="54.435741666666665" lon="10.169658333333333">
                        <ele>0</ele>
                        <time>2022-08-18T10:08:50Z</time>
                        <extensions>
    <sog>0.0</sog>
</extensions>
                    </trkpt>
                    <trkpt lat="54.43573" lon="10.169645000000001">
                        <ele>0</ele>
                        <time>2022-08-18T10:11:53Z</time>
                        <extensions>
    <sog>0.0</sog>
</extensions>
                    </trkpt>
                    <trkpt lat="54.435725000000005" lon="10.169638333333333">
                        <ele>0</ele>
                        <time>2022-08-18T10:14:49Z</time>
                        <extensions>
    <sog>0.0</sog>
</extensions>
                    </trkpt>
                    <trkpt lat="54.435735" lon="10.169643333333333">
                        <ele>0</ele>
                        <time>2022-08-18T10:26:50Z</time>
                        <extensions>
    <sog>0.0</sog>
</extensions>
                    </trkpt>
                    <trkpt lat="54.43573333333333" lon="10.169638333333333">
                        <ele>0</ele>
                        <time>2022-08-18T10:32:53Z</time>
                        <extensions>
    <sog>0.0</sog>
</extensions>
                    </trkpt>
                    <trkpt lat="54.43573166666667" lon="10.169653333333335">
                        <ele>0</ele>
                        <time>2022-08-18T10:41:51Z</time>
                        <extensions>
    <sog>0.0</sog>
</extensions>
                    </trkpt>
                    <trkpt lat="54.435755" lon="10.169630000000002">
                        <ele>0</ele>
                        <time>2022-08-18T10:47:51Z</time>
                        <extensions>
    <sog>0.0</sog>
</extensions>
                    </trkpt>
                    <trkpt lat="54.43575166666667" lon="10.169649999999999">
                        <ele>0</ele>
                        <time>2022-08-18T10:50:53Z</time>
                        <extensions>
    <sog>0.0</sog>
</extensions>
                    </trkpt>
                    <trkpt lat="54.43574833333333" lon="10.16966">
                        <ele>0</ele>
                        <time>2022-08-18T10:53:50Z</time>
                        <extensions>
    <sog>0.0</sog>
</extensions>
                    </trkpt>
                    <trkpt lat="54.435741666666665" lon="10.169649999999999">
                        <ele>0</ele>
                        <time>2022-08-18T10:56:53Z</time>
                        <extensions>
    <sog>0.0</sog>
</extensions>
                    </trkpt>
                    <trkpt lat="54.43575" lon="10.16968">
                        <ele>0</ele>
                        <time>2022-08-18T11:02:52Z</time>
                        <extensions>
    <sog>0.0</sog>
</extensions>
                    </trkpt>
                    <trkpt lat="54.43574666666667" lon="10.169675000000002">
                        <ele>0</ele>
                        <time>2022-08-18T11:05:49Z</time>
                        <extensions>
    <sog>0.0</sog>
</extensions>
                    </trkpt>
                    <trkpt lat="54.43573833333333" lon="10.169681666666666">
                        <ele>0</ele>
                        <time>2022-08-18T11:08:53Z</time>
                        <extensions>
    <sog>0.0</sog>
</extensions>
                    </trkpt>
                    <trkpt lat="54.43575166666667" lon="10.169661666666666">
                        <ele>0</ele>
                        <time>2022-08-18T11:17:50Z</time>
                        <extensions>
    <sog>0.0</sog>
</extensions>
                    </trkpt>
                    <trkpt lat="54.43573666666667" lon="10.16962">
                        <ele>0</ele>
                        <time>2022-08-18T11:20:52Z</time>
                        <extensions>
    <sog>0.0</sog>
</extensions>
                    </trkpt>
                    <trkpt lat="54.435764999999996" lon="10.169668333333334">
                        <ele>0</ele>
                        <time>2022-08-18T11:29:52Z</time>
                        <extensions>
    <sog>0.0</sog>
</extensions>
                    </trkpt>
                    <trkpt lat="54.43576666666667" lon="10.169666666666666">
                        <ele>0</ele>
                        <time>2022-08-18T11:32:51Z</time>
                        <extensions>
    <sog>0.0</sog>
</extensions>
                    </trkpt>
                    <trkpt lat="54.435725000000005" lon="10.169638333333333">
                        <ele>0</ele>
                        <time>2022-08-18T11:35:53Z</time>
                        <extensions>
    <sog>0.1</sog>
</extensions>
                    </trkpt>
                    <trkpt lat="54.43575" lon="10.169665">
                        <ele>0</ele>
                        <time>2022-08-18T11:38:51Z</time>
                        <extensions>
    <sog>0.0</sog>
</extensions>
                    </trkpt>
                    <trkpt lat="54.43575" lon="10.169668333333334">
                        <ele>0</ele>
                        <time>2022-08-18T11:41:50Z</time>
                        <extensions>
    <sog>0.0</sog>
</extensions>
                    </trkpt>
                    <trkpt lat="54.435719999999996" lon="10.169656666666667">
                        <ele>0</ele>
                        <time>2022-08-18T11:50:52Z</time>
                        <extensions>
    <sog>0.0</sog>
</extensions>
                    </trkpt>
                    <trkpt lat="54.43573" lon="10.16966">
                        <ele>0</ele>
                        <time>2022-08-18T11:59:49Z</time>
                        <extensions>
    <sog>0.0</sog>
</extensions>
                    </trkpt>
                    <trkpt lat="54.43572833333334" lon="10.169681666666666">
                        <ele>0</ele>
                        <time>2022-08-18T12:05:50Z</time>
                        <extensions>
    <sog>0.0</sog>
</extensions>
                    </trkpt>
                    <trkpt lat="54.43572666666667" lon="10.169658333333333">
                        <ele>0</ele>
                        <time>2022-08-18T12:08:52Z</time>
                        <extensions>
    <sog>0.0</sog>
</extensions>
                    </trkpt>
                    <trkpt lat="54.43573666666667" lon="10.16968">
                        <ele>0</ele>
                        <time>2022-08-18T12:23:53Z</time>
                        <extensions>
    <sog>0.0</sog>
</extensions>
                    </trkpt>
                    <trkpt lat="54.43573666666667" lon="10.169688333333333">
                        <ele>0</ele>
                        <time>2022-08-18T12:26:49Z</time>
                        <extensions>
    <sog>0.0</sog>
</extensions>
                    </trkpt>
                    <trkpt lat="54.43573666666667" lon="10.169723333333334">
                        <ele>0</ele>
                        <time>2022-08-18T12:29:52Z</time>
                        <extensions>
    <sog>0.0</sog>
</extensions>
                    </trkpt>
                    <trkpt lat="54.43572666666667" lon="10.169688333333333">
                        <ele>0</ele>
                        <time>2022-08-18T12:47:52Z</time>
                        <extensions>
    <sog>0.0</sog>
</extensions>
                    </trkpt>
                    <trkpt lat="54.43573333333333" lon="10.169678333333334">
                        <ele>0</ele>
                        <time>2022-08-18T12:59:51Z</time>
                        <extensions>
    <sog>0.0</sog>
</extensions>
                    </trkpt>
                    <trkpt lat="54.43574" lon="10.169678333333334">
                        <ele>0</ele>
                        <time>2022-08-18T13:05:52Z</time>
                        <extensions>
    <sog>0.0</sog>
</extensions>
                    </trkpt>
                    <trkpt lat="54.43574" lon="10.169690000000001">
                        <ele>0</ele>
                        <time>2022-08-18T13:08:50Z</time>
                        <extensions>
    <sog>0.0</sog>
</extensions>
                    </trkpt>
                    <trkpt lat="54.43573666666667" lon="10.169685">
                        <ele>0</ele>
                        <time>2022-08-18T13:11:53Z</time>
                        <extensions>
    <sog>0.0</sog>
</extensions>
                    </trkpt>
                    <trkpt lat="54.435725000000005" lon="10.169678333333334">
                        <ele>0</ele>
                        <time>2022-08-18T13:14:51Z</time>
                        <extensions>
    <sog>0.0</sog>
</extensions>
                    </trkpt>
                    <trkpt lat="54.43572166666667" lon="10.169675000000002">
                        <ele>0</ele>
                        <time>2022-08-18T13:17:53Z</time>
                        <extensions>
    <sog>0.0</sog>
</extensions>
                    </trkpt>
                    <trkpt lat="54.435725000000005" lon="10.169663333333334">
                        <ele>0</ele>
                        <time>2022-08-18T13:23:52Z</time>
                        <extensions>
    <sog>0.0</sog>
</extensions>
                    </trkpt>
                    <trkpt lat="54.43572166666667" lon="10.169678333333334">
                        <ele>0</ele>
                        <time>2022-08-18T13:26:51Z</time>
                        <extensions>
    <sog>0.0</sog>
</extensions>
                    </trkpt>
                    <trkpt lat="54.43572833333334" lon="10.169675000000002">
                        <ele>0</ele>
                        <time>2022-08-18T13:29:49Z</time>
                        <extensions>
    <sog>0.0</sog>
</extensions>
                    </trkpt>
                    <trkpt lat="54.435719999999996" lon="10.169690000000001">
                        <ele>0</ele>
                        <time>2022-08-18T13:35:52Z</time>
                        <extensions>
    <sog>0.0</sog>
</extensions>
                    </trkpt>
                    <trkpt lat="54.43572833333334" lon="10.169671666666666">
                        <ele>0</ele>
                        <time>2022-08-18T13:38:50Z</time>
                        <extensions>
    <sog>0.0</sog>
</extensions>
                    </trkpt>
                    <trkpt lat="54.435723333333335" lon="10.169685">
                        <ele>0</ele>
                        <time>2022-08-18T13:44:53Z</time>
                        <extensions>
    <sog>0.0</sog>
</extensions>
                    </trkpt>
                    <trkpt lat="54.435725000000005" lon="10.169668333333334">
                        <ele>0</ele>
                        <time>2022-08-18T13:47:53Z</time>
                        <extensions>
    <sog>0.0</sog>
</extensions>
                    </trkpt>
                    <trkpt lat="54.43573833333333" lon="10.169668333333334">
                        <ele>0</ele>
                        <time>2022-08-18T13:50:51Z</time>
                        <extensions>
    <sog>0.0</sog>
</extensions>
                    </trkpt>
                    <trkpt lat="54.43572833333334" lon="10.169683333333333">
                        <ele>0</ele>
                        <time>2022-08-18T13:53:50Z</time>
                        <extensions>
    <sog>0.0</sog>
</extensions>
                    </trkpt>
                    <trkpt lat="54.43574833333333" lon="10.16966">
                        <ele>0</ele>
                        <time>2022-08-18T13:56:50Z</time>
                        <extensions>
    <sog>0.0</sog>
</extensions>
                    </trkpt>
                    <trkpt lat="54.43575333333333" lon="10.169646666666667">
                        <ele>0</ele>
                        <time>2022-08-18T13:59:52Z</time>
                        <extensions>
    <sog>0.0</sog>
</extensions>
                    </trkpt>
                    <trkpt lat="54.435745" lon="10.169661666666666">
                        <ele>0</ele>
                        <time>2022-08-18T14:02:50Z</time>
                        <extensions>
    <sog>0.0</sog>
</extensions>
                    </trkpt>
                    <trkpt lat="54.43574833333333" lon="10.169681666666666">
                        <ele>0</ele>
                        <time>2022-08-18T14:05:50Z</time>
                        <extensions>
    <sog>0.0</sog>
</extensions>
                    </trkpt>
                    <trkpt lat="54.4358" lon="10.169665">
                        <ele>0</ele>
                        <time>2022-08-18T14:17:52Z</time>
                        <extensions>
    <sog>0.0</sog>
</extensions>
                    </trkpt>
                    <trkpt lat="54.435785" lon="10.169671666666666">
                        <ele>0</ele>
                        <time>2022-08-18T14:20:49Z</time>
                        <extensions>
    <sog>0.0</sog>
</extensions>
                    </trkpt>
                    <trkpt lat="54.43574833333333" lon="10.169718333333332">
                        <ele>0</ele>
                        <time>2022-08-18T14:23:50Z</time>
                        <extensions>
    <sog>0.0</sog>
</extensions>
                    </trkpt>
                    <trkpt lat="54.43573" lon="10.169745">
                        <ele>0</ele>
                        <time>2022-08-18T14:26:50Z</time>
                        <extensions>
    <sog>0.0</sog>
</extensions>
                    </trkpt>
                    <trkpt lat="54.435743333333335" lon="10.169743333333335">
                        <ele>0</ele>
                        <time>2022-08-18T14:29:51Z</time>
                        <extensions>
    <sog>0.0</sog>
</extensions>
                    </trkpt>
                    <trkpt lat="54.435764999999996" lon="10.169735">
                        <ele>0</ele>
                        <time>2022-08-18T14:32:51Z</time>
                        <extensions>
    <sog>0.0</sog>
</extensions>
                    </trkpt>
                    <trkpt lat="54.43576666666667" lon="10.169715">
                        <ele>0</ele>
                        <time>2022-08-18T14:35:51Z</time>
                        <extensions>
    <sog>0.0</sog>
</extensions>
                    </trkpt>
                    <trkpt lat="54.435745" lon="10.169706666666666">
                        <ele>0</ele>
                        <time>2022-08-18T14:38:51Z</time>
                        <extensions>
    <sog>0.0</sog>
</extensions>
                    </trkpt>
                    <trkpt lat="54.435735" lon="10.169768333333334">
                        <ele>0</ele>
                        <time>2022-08-18T14:41:52Z</time>
                        <extensions>
    <sog>0.0</sog>
</extensions>
                    </trkpt>
                    <trkpt lat="54.435755" lon="10.169749999999999">
                        <ele>0</ele>
                        <time>2022-08-18T14:44:53Z</time>
                        <extensions>
    <sog>0.0</sog>
</extensions>
                    </trkpt>
                    <trkpt lat="54.435761666666664" lon="10.169733333333333">
                        <ele>0</ele>
                        <time>2022-08-18T14:47:51Z</time>
                        <extensions>
    <sog>0.0</sog>
</extensions>
                    </trkpt>
                    <trkpt lat="54.435761666666664" lon="10.169755">
                        <ele>0</ele>
                        <time>2022-08-18T14:50:52Z</time>
                        <extensions>
    <sog>0.0</sog>
</extensions>
                    </trkpt>
                    <trkpt lat="54.435745" lon="10.169745">
                        <ele>0</ele>
                        <time>2022-08-18T14:53:50Z</time>
                        <extensions>
    <sog>0.0</sog>
</extensions>
                    </trkpt>
                    <trkpt lat="54.43573666666667" lon="10.169733333333333">
                        <ele>0</ele>
                        <time>2022-08-18T14:56:50Z</time>
                        <extensions>
    <sog>0.0</sog>
</extensions>
                    </trkpt>
                    <trkpt lat="54.43571" lon="10.169736666666667">
                        <ele>0</ele>
                        <time>2022-08-18T15:05:50Z</time>
                        <extensions>
    <sog>0.0</sog>
</extensions>
                    </trkpt>
                    <trkpt lat="54.435716666666664" lon="10.169713333333334">
                        <ele>0</ele>
                        <time>2022-08-18T15:23:50Z</time>
                        <extensions>
    <sog>0.0</sog>
</extensions>
                    </trkpt>
                    <trkpt lat="54.435745" lon="10.169711666666666">
                        <ele>0</ele>
                        <time>2022-08-18T15:26:50Z</time>
                        <extensions>
    <sog>0.0</sog>
</extensions>
                    </trkpt>
                    <trkpt lat="54.43573" lon="10.1697">
                        <ele>0</ele>
                        <time>2022-08-18T15:29:50Z</time>
                        <extensions>
    <sog>0.0</sog>
</extensions>
                    </trkpt>
                    <trkpt lat="54.43578333333333" lon="10.169723333333334">
                        <ele>0</ele>
                        <time>2022-08-18T15:35:50Z</time>
                        <extensions>
    <sog>0.1</sog>
</extensions>
                    </trkpt>
                    <trkpt lat="54.43574833333333" lon="10.169694999999999">
                        <ele>0</ele>
                        <time>2022-08-18T15:44:53Z</time>
                        <extensions>
    <sog>0.0</sog>
</extensions>
                    </trkpt>
                    <trkpt lat="54.43574666666667" lon="10.16968">
                        <ele>0</ele>
                        <time>2022-08-18T15:47:52Z</time>
                        <extensions>
    <sog>0.0</sog>
</extensions>
                    </trkpt>
                    <trkpt lat="54.43573833333333" lon="10.169681666666666">
                        <ele>0</ele>
                        <time>2022-08-18T15:50:51Z</time>
                        <extensions>
    <sog>0.0</sog>
</extensions>
                    </trkpt>
                    <trkpt lat="54.43574" lon="10.169676666666668">
                        <ele>0</ele>
                        <time>2022-08-18T15:53:51Z</time>
                        <extensions>
    <sog>0.0</sog>
</extensions>
                    </trkpt>
                    <trkpt lat="54.43573333333333" lon="10.169686666666667">
                        <ele>0</ele>
                        <time>2022-08-18T16:02:52Z</time>
                        <extensions>
    <sog>0.0</sog>
</extensions>
                    </trkpt>
                    <trkpt lat="54.43573666666667" lon="10.169658333333333">
                        <ele>0</ele>
                        <time>2022-08-18T16:05:50Z</time>
                        <extensions>
    <sog>0.0</sog>
</extensions>
                    </trkpt>
                    <trkpt lat="54.43573833333333" lon="10.169673333333332">
                        <ele>0</ele>
                        <time>2022-08-18T16:08:50Z</time>
                        <extensions>
    <sog>0.0</sog>
</extensions>
                    </trkpt>
                    <trkpt lat="54.43575" lon="10.169683333333333">
                        <ele>0</ele>
                        <time>2022-08-18T16:11:51Z</time>
                        <extensions>
    <sog>0.0</sog>
</extensions>
                    </trkpt>
                    <trkpt lat="54.435741666666665" lon="10.169706666666666">
                        <ele>0</ele>
                        <time>2022-08-18T16:17:50Z</time>
                        <extensions>
    <sog>0.0</sog>
</extensions>
                    </trkpt>
                    <trkpt lat="54.43574" lon="10.169693333333333">
                        <ele>0</ele>
                        <time>2022-08-18T16:20:49Z</time>
                        <extensions>
    <sog>0.0</sog>
</extensions>
                    </trkpt>
                    <trkpt lat="54.43573833333333" lon="10.169690000000001">
                        <ele>0</ele>
                        <time>2022-08-18T16:23:51Z</time>
                        <extensions>
    <sog>0.0</sog>
</extensions>
                    </trkpt>
                    <trkpt lat="54.43573666666667" lon="10.169681666666666">
                        <ele>0</ele>
                        <time>2022-08-18T16:29:49Z</time>
                        <extensions>
    <sog>0.0</sog>
</extensions>
                    </trkpt>
                    <trkpt lat="54.43575666666666" lon="10.169673333333332">
                        <ele>0</ele>
                        <time>2022-08-18T16:32:52Z</time>
                        <extensions>
    <sog>0.0</sog>
</extensions>
                    </trkpt>
                    <trkpt lat="54.43574666666667" lon="10.169666666666666">
                        <ele>0</ele>
                        <time>2022-08-18T16:35:51Z</time>
                        <extensions>
    <sog>0.0</sog>
</extensions>
                    </trkpt>
                    <trkpt lat="54.43574666666667" lon="10.16967">
                        <ele>0</ele>
                        <time>2022-08-18T16:41:49Z</time>
                        <extensions>
    <sog>0.0</sog>
</extensions>
                    </trkpt>
                    <trkpt lat="54.435755" lon="10.169708333333334">
                        <ele>0</ele>
                        <time>2022-08-18T16:47:53Z</time>
                        <extensions>
    <sog>0.0</sog>
</extensions>
                    </trkpt>
                    <trkpt lat="54.435755" lon="10.169676666666668">
                        <ele>0</ele>
                        <time>2022-08-18T16:53:52Z</time>
                        <extensions>
    <sog>0.0</sog>
</extensions>
                    </trkpt>
                    <trkpt lat="54.43577333333334" lon="10.16968">
                        <ele>0</ele>
                        <time>2022-08-18T16:59:50Z</time>
                        <extensions>
    <sog>0.0</sog>
</extensions>
                    </trkpt>
                    <trkpt lat="54.435759999999995" lon="10.169696666666665">
                        <ele>0</ele>
                        <time>2022-08-18T17:02:52Z</time>
                        <extensions>
    <sog>0.0</sog>
</extensions>
                    </trkpt>
                    <trkpt lat="54.435759999999995" lon="10.169655">
                        <ele>0</ele>
                        <time>2022-08-18T17:05:53Z</time>
                        <extensions>
    <sog>0.0</sog>
</extensions>
                    </trkpt>
                    <trkpt lat="54.435764999999996" lon="10.169635">
                        <ele>0</ele>
                        <time>2022-08-18T17:08:51Z</time>
                        <extensions>
    <sog>0.0</sog>
</extensions>
                    </trkpt>
                    <trkpt lat="54.435770000000005" lon="10.169628333333332">
                        <ele>0</ele>
                        <time>2022-08-18T17:20:52Z</time>
                        <extensions>
    <sog>0.0</sog>
</extensions>
                    </trkpt>
                    <trkpt lat="54.43575833333333" lon="10.169588333333333">
                        <ele>0</ele>
                        <time>2022-08-18T17:29:51Z</time>
                        <extensions>
    <sog>0.0</sog>
</extensions>
                    </trkpt>
                    <trkpt lat="54.43577833333333" lon="10.169611666666666">
                        <ele>0</ele>
                        <time>2022-08-18T17:32:52Z</time>
                        <extensions>
    <sog>0.0</sog>
</extensions>
                    </trkpt>
                    <trkpt lat="54.43579166666667" lon="10.169631666666668">
                        <ele>0</ele>
                        <time>2022-08-18T17:35:49Z</time>
                        <extensions>
    <sog>0.0</sog>
</extensions>
                    </trkpt>
                    <trkpt lat="54.435764999999996" lon="10.16964">
                        <ele>0</ele>
                        <time>2022-08-18T17:47:51Z</time>
                        <extensions>
    <sog>0.0</sog>
</extensions>
                    </trkpt>
                    <trkpt lat="54.43580333333333" lon="10.169648333333333">
                        <ele>0</ele>
                        <time>2022-08-18T17:50:53Z</time>
                        <extensions>
    <sog>0.0</sog>
</extensions>
                    </trkpt>
                    <trkpt lat="54.43577333333334" lon="10.169646666666667">
                        <ele>0</ele>
                        <time>2022-08-18T17:53:51Z</time>
                        <extensions>
    <sog>0.0</sog>
</extensions>
                    </trkpt>
                    <trkpt lat="54.43579166666667" lon="10.169604999999999">
                        <ele>0</ele>
                        <time>2022-08-18T17:56:53Z</time>
                        <extensions>
    <sog>0.0</sog>
</extensions>
                    </trkpt>
                    <trkpt lat="54.43578333333333" lon="10.169636666666666">
                        <ele>0</ele>
                        <time>2022-08-18T17:59:52Z</time>
                        <extensions>
    <sog>0.0</sog>
</extensions>
                    </trkpt>
                    <trkpt lat="54.43578" lon="10.169651666666665">
                        <ele>0</ele>
                        <time>2022-08-18T18:05:53Z</time>
                        <extensions>
    <sog>0.0</sog>
</extensions>
                    </trkpt>
                    <trkpt lat="54.43577666666667" lon="10.169656666666667">
                        <ele>0</ele>
                        <time>2022-08-18T18:08:51Z</time>
                        <extensions>
    <sog>0.0</sog>
</extensions>
                    </trkpt>
                    <trkpt lat="54.435775" lon="10.169658333333333">
                        <ele>0</ele>
                        <time>2022-08-18T18:11:50Z</time>
                        <extensions>
    <sog>0.0</sog>
</extensions>
                    </trkpt>
                    <trkpt lat="54.435770000000005" lon="10.169683333333333">
                        <ele>0</ele>
                        <time>2022-08-18T18:17:53Z</time>
                        <extensions>
    <sog>0.0</sog>
</extensions>
                    </trkpt>
                    <trkpt lat="54.43577166666667" lon="10.169676666666668">
                        <ele>0</ele>
                        <time>2022-08-18T18:20:52Z</time>
                        <extensions>
    <sog>0.0</sog>
</extensions>
                    </trkpt>
                    <trkpt lat="54.435761666666664" lon="10.16967">
                        <ele>0</ele>
                        <time>2022-08-18T18:23:50Z</time>
                        <extensions>
    <sog>0.0</sog>
</extensions>
                    </trkpt>
                    <trkpt lat="54.43575333333333" lon="10.169675000000002">
                        <ele>0</ele>
                        <time>2022-08-18T18:26:50Z</time>
                        <extensions>
    <sog>0.0</sog>
</extensions>
                    </trkpt>
                    <trkpt lat="54.435743333333335" lon="10.169663333333334">
                        <ele>0</ele>
                        <time>2022-08-18T18:29:52Z</time>
                        <extensions>
    <sog>0.0</sog>
</extensions>
                    </trkpt>
                    <trkpt lat="54.435755" lon="10.169663333333334">
                        <ele>0</ele>
                        <time>2022-08-18T18:35:53Z</time>
                        <extensions>
    <sog>0.0</sog>
</extensions>
                    </trkpt>
                    <trkpt lat="54.43573666666667" lon="10.169671666666666">
                        <ele>0</ele>
                        <time>2022-08-18T18:38:53Z</time>
                        <extensions>
    <sog>0.0</sog>
</extensions>
                    </trkpt>
                    <trkpt lat="54.43575166666667" lon="10.169651666666665">
                        <ele>0</ele>
                        <time>2022-08-18T18:47:50Z</time>
                        <extensions>
    <sog>0.0</sog>
</extensions>
                    </trkpt>
                    <trkpt lat="54.43573" lon="10.169648333333333">
                        <ele>0</ele>
                        <time>2022-08-18T18:53:51Z</time>
                        <extensions>
    <sog>0.0</sog>
</extensions>
                    </trkpt>
                    <trkpt lat="54.435723333333335" lon="10.169655">
                        <ele>0</ele>
                        <time>2022-08-18T18:59:51Z</time>
                        <extensions>
    <sog>0.0</sog>
</extensions>
                    </trkpt>
                    <trkpt lat="54.43573666666667" lon="10.169658333333333">
                        <ele>0</ele>
                        <time>2022-08-18T19:02:52Z</time>
                        <extensions>
    <sog>0.0</sog>
</extensions>
                    </trkpt>
                    <trkpt lat="54.43573833333333" lon="10.169649999999999">
                        <ele>0</ele>
                        <time>2022-08-18T19:05:50Z</time>
                        <extensions>
    <sog>0.0</sog>
</extensions>
                    </trkpt>
                    <trkpt lat="54.43572833333334" lon="10.169653333333335">
                        <ele>0</ele>
                        <time>2022-08-18T19:08:53Z</time>
                        <extensions>
    <sog>0.0</sog>
</extensions>
                    </trkpt>
                    <trkpt lat="54.435735" lon="10.169641666666667">
                        <ele>0</ele>
                        <time>2022-08-18T19:11:50Z</time>
                        <extensions>
    <sog>0.0</sog>
</extensions>
                    </trkpt>
                    <trkpt lat="54.435741666666665" lon="10.16967">
                        <ele>0</ele>
                        <time>2022-08-18T19:17:50Z</time>
                        <extensions>
    <sog>0.0</sog>
</extensions>
                    </trkpt>
                    <trkpt lat="54.435741666666665" lon="10.169673333333332">
                        <ele>0</ele>
                        <time>2022-08-18T19:23:51Z</time>
                        <extensions>
    <sog>0.0</sog>
</extensions>
                    </trkpt>
                    <trkpt lat="54.43576333333333" lon="10.169676666666668">
                        <ele>0</ele>
                        <time>2022-08-18T19:26:52Z</time>
                        <extensions>
    <sog>0.0</sog>
</extensions>
                    </trkpt>
                    <trkpt lat="54.43577666666667" lon="10.169690000000001">
                        <ele>0</ele>
                        <time>2022-08-18T19:29:50Z</time>
                        <extensions>
    <sog>0.0</sog>
</extensions>
                    </trkpt>
                    <trkpt lat="54.435745" lon="10.169701666666667">
                        <ele>0</ele>
                        <time>2022-08-18T19:32:51Z</time>
                        <extensions>
    <sog>0.0</sog>
</extensions>
                    </trkpt>
                    <trkpt lat="54.435759999999995" lon="10.169685">
                        <ele>0</ele>
                        <time>2022-08-18T19:35:51Z</time>
                        <extensions>
    <sog>0.0</sog>
</extensions>
                    </trkpt>
                    <trkpt lat="54.435759999999995" lon="10.169666666666666">
                        <ele>0</ele>
                        <time>2022-08-18T19:38:52Z</time>
                        <extensions>
    <sog>0.0</sog>
</extensions>
                    </trkpt>
                    <trkpt lat="54.43574" lon="10.16968">
                        <ele>0</ele>
                        <time>2022-08-18T19:41:50Z</time>
                        <extensions>
    <sog>0.0</sog>
</extensions>
                    </trkpt>
                    <trkpt lat="54.435741666666665" lon="10.169666666666666">
                        <ele>0</ele>
                        <time>2022-08-18T19:44:51Z</time>
                        <extensions>
    <sog>0.0</sog>
</extensions>
                    </trkpt>
                    <trkpt lat="54.43573666666667" lon="10.169671666666666">
                        <ele>0</ele>
                        <time>2022-08-18T19:47:51Z</time>
                        <extensions>
    <sog>0.0</sog>
</extensions>
                    </trkpt>
                    <trkpt lat="54.435741666666665" lon="10.169653333333335">
                        <ele>0</ele>
                        <time>2022-08-18T19:50:50Z</time>
                        <extensions>
    <sog>0.0</sog>
</extensions>
                    </trkpt>
                    <trkpt lat="54.43575333333333" lon="10.169656666666667">
                        <ele>0</ele>
                        <time>2022-08-18T19:53:50Z</time>
                        <extensions>
    <sog>0.0</sog>
</extensions>
                    </trkpt>
                    <trkpt lat="54.435725000000005" lon="10.169691666666667">
                        <ele>0</ele>
                        <time>2022-08-18T19:59:52Z</time>
                        <extensions>
    <sog>0.0</sog>
</extensions>
                    </trkpt>
                    <trkpt lat="54.435719999999996" lon="10.169681666666666">
                        <ele>0</ele>
                        <time>2022-08-18T20:02:51Z</time>
                        <extensions>
    <sog>0.0</sog>
</extensions>
                    </trkpt>
                    <trkpt lat="54.435719999999996" lon="10.169666666666666">
                        <ele>0</ele>
                        <time>2022-08-18T20:05:50Z</time>
                        <extensions>
    <sog>0.0</sog>
</extensions>
                    </trkpt>
                    <trkpt lat="54.435716666666664" lon="10.169686666666667">
                        <ele>0</ele>
                        <time>2022-08-18T20:08:50Z</time>
                        <extensions>
    <sog>0.0</sog>
</extensions>
                    </trkpt>
                    <trkpt lat="54.43572666666667" lon="10.169673333333332">
                        <ele>0</ele>
                        <time>2022-08-18T20:14:51Z</time>
                        <extensions>
    <sog>0.0</sog>
</extensions>
                    </trkpt>
                    <trkpt lat="54.43575" lon="10.169615">
                        <ele>0</ele>
                        <time>2022-08-18T20:20:52Z</time>
                        <extensions>
    <sog>0.0</sog>
</extensions>
                    </trkpt>
                    <trkpt lat="54.43574666666667" lon="10.169649999999999">
                        <ele>0</ele>
                        <time>2022-08-18T20:23:49Z</time>
                        <extensions>
    <sog>0.0</sog>
</extensions>
                    </trkpt>
                    <trkpt lat="54.43576333333333" lon="10.169673333333332">
                        <ele>0</ele>
                        <time>2022-08-18T20:26:51Z</time>
                        <extensions>
    <sog>0.0</sog>
</extensions>
                    </trkpt>
                    <trkpt lat="54.435741666666665" lon="10.16967">
                        <ele>0</ele>
                        <time>2022-08-18T20:29:51Z</time>
                        <extensions>
    <sog>0.0</sog>
</extensions>
                    </trkpt>
                    <trkpt lat="54.435743333333335" lon="10.169675000000002">
                        <ele>0</ele>
                        <time>2022-08-18T20:32:50Z</time>
                        <extensions>
    <sog>0.0</sog>
</extensions>
                    </trkpt>
                    <trkpt lat="54.435719999999996" lon="10.169625">
                        <ele>0</ele>
                        <time>2022-08-18T20:35:51Z</time>
                        <extensions>
    <sog>0.0</sog>
</extensions>
                    </trkpt>
                    <trkpt lat="54.435725000000005" lon="10.169676666666668">
                        <ele>0</ele>
                        <time>2022-08-18T20:38:52Z</time>
                        <extensions>
    <sog>0.0</sog>
</extensions>
                    </trkpt>
                    <trkpt lat="54.43572666666667" lon="10.16974">
                        <ele>0</ele>
                        <time>2022-08-18T20:44:49Z</time>
                        <extensions>
    <sog>0.0</sog>
</extensions>
                    </trkpt>
                    <trkpt lat="54.43573666666667" lon="10.169705">
                        <ele>0</ele>
                        <time>2022-08-18T20:50:49Z</time>
                        <extensions>
    <sog>0.0</sog>
</extensions>
                    </trkpt>
                    <trkpt lat="54.43573166666667" lon="10.169665">
                        <ele>0</ele>
                        <time>2022-08-18T20:53:52Z</time>
                        <extensions>
    <sog>0.0</sog>
</extensions>
                    </trkpt>
                    <trkpt lat="54.435745" lon="10.169671666666666">
                        <ele>0</ele>
                        <time>2022-08-18T20:56:51Z</time>
                        <extensions>
    <sog>0.0</sog>
</extensions>
                    </trkpt>
                    <trkpt lat="54.435741666666665" lon="10.169681666666666">
                        <ele>0</ele>
                        <time>2022-08-18T20:59:51Z</time>
                        <extensions>
    <sog>0.0</sog>
</extensions>
                    </trkpt>
                    <trkpt lat="54.43574833333333" lon="10.169649999999999">
                        <ele>0</ele>
                        <time>2022-08-18T21:05:53Z</time>
                        <extensions>
    <sog>0.0</sog>
</extensions>
                    </trkpt>
                    <trkpt lat="54.43572666666667" lon="10.169666666666666">
                        <ele>0</ele>
                        <time>2022-08-18T21:08:52Z</time>
                        <extensions>
    <sog>0.0</sog>
</extensions>
                    </trkpt>
                    <trkpt lat="54.43573" lon="10.169638333333333">
                        <ele>0</ele>
                        <time>2022-08-18T21:14:50Z</time>
                        <extensions>
    <sog>0.0</sog>
</extensions>
                    </trkpt>
                    <trkpt lat="54.43575833333333" lon="10.169643333333333">
                        <ele>0</ele>
                        <time>2022-08-18T21:17:52Z</time>
                        <extensions>
    <sog>0.0</sog>
</extensions>
                    </trkpt>
                    <trkpt lat="54.435743333333335" lon="10.169688333333333">
                        <ele>0</ele>
                        <time>2022-08-18T21:23:52Z</time>
                        <extensions>
    <sog>0.0</sog>
</extensions>
                    </trkpt>
                    <trkpt lat="54.435755" lon="10.169666666666666">
                        <ele>0</ele>
                        <time>2022-08-18T21:26:52Z</time>
                        <extensions>
    <sog>0.0</sog>
</extensions>
                    </trkpt>
                    <trkpt lat="54.435775" lon="10.169668333333334">
                        <ele>0</ele>
                        <time>2022-08-18T21:32:50Z</time>
                        <extensions>
    <sog>0.0</sog>
</extensions>
                    </trkpt>
                    <trkpt lat="54.43573833333333" lon="10.169658333333333">
                        <ele>0</ele>
                        <time>2022-08-18T21:35:51Z</time>
                        <extensions>
    <sog>0.0</sog>
</extensions>
                    </trkpt>
                    <trkpt lat="54.43575" lon="10.169658333333333">
                        <ele>0</ele>
                        <time>2022-08-18T21:38:51Z</time>
                        <extensions>
    <sog>0.0</sog>
</extensions>
                    </trkpt>
                    <trkpt lat="54.43573166666667" lon="10.169635">
                        <ele>0</ele>
                        <time>2022-08-18T21:41:50Z</time>
                        <extensions>
    <sog>0.0</sog>
</extensions>
                    </trkpt>
                    <trkpt lat="54.43573333333333" lon="10.169649999999999">
                        <ele>0</ele>
                        <time>2022-08-18T21:44:53Z</time>
                        <extensions>
    <sog>0.0</sog>
</extensions>
                    </trkpt>
                    <trkpt lat="54.435725000000005" lon="10.169636666666666">
                        <ele>0</ele>
                        <time>2022-08-18T21:47:53Z</time>
                        <extensions>
    <sog>0.0</sog>
</extensions>
                    </trkpt>
                    <trkpt lat="54.43574666666667" lon="10.169646666666667">
                        <ele>0</ele>
                        <time>2022-08-18T21:53:49Z</time>
                        <extensions>
    <sog>0.0</sog>
</extensions>
                    </trkpt>
                    <trkpt lat="54.435743333333335" lon="10.169671666666666">
                        <ele>0</ele>
                        <time>2022-08-18T21:56:51Z</time>
                        <extensions>
    <sog>0.0</sog>
</extensions>
                    </trkpt>
                    <trkpt lat="54.43574" lon="10.169671666666666">
                        <ele>0</ele>
                        <time>2022-08-18T21:59:53Z</time>
                        <extensions>
    <sog>0.0</sog>
</extensions>
                    </trkpt>
                    <trkpt lat="54.43574" lon="10.169649999999999">
                        <ele>0</ele>
                        <time>2022-08-18T22:02:51Z</time>
                        <extensions>
    <sog>0.0</sog>
</extensions>
                    </trkpt>
                    <trkpt lat="54.43572166666667" lon="10.169675000000002">
                        <ele>0</ele>
                        <time>2022-08-18T22:05:50Z</time>
                        <extensions>
    <sog>0.0</sog>
</extensions>
                    </trkpt>
                    <trkpt lat="54.43573166666667" lon="10.169671666666666">
                        <ele>0</ele>
                        <time>2022-08-18T22:08:52Z</time>
                        <extensions>
    <sog>0.0</sog>
</extensions>
                    </trkpt>
                    <trkpt lat="54.435735" lon="10.169686666666667">
                        <ele>0</ele>
                        <time>2022-08-18T22:14:51Z</time>
                        <extensions>
    <sog>0.0</sog>
</extensions>
                    </trkpt>
                    <trkpt lat="54.43573166666667" lon="10.169665">
                        <ele>0</ele>
                        <time>2022-08-18T22:17:52Z</time>
                        <extensions>
    <sog>0.0</sog>
</extensions>
                    </trkpt>
                    <trkpt lat="54.435723333333335" lon="10.169649999999999">
                        <ele>0</ele>
                        <time>2022-08-18T22:20:50Z</time>
                        <extensions>
    <sog>0.0</sog>
</extensions>
                    </trkpt>
                    <trkpt lat="54.43574833333333" lon="10.169675000000002">
                        <ele>0</ele>
                        <time>2022-08-18T22:26:53Z</time>
                        <extensions>
    <sog>0.0</sog>
</extensions>
                    </trkpt>
                    <trkpt lat="54.435759999999995" lon="10.169649999999999">
                        <ele>0</ele>
                        <time>2022-08-18T22:29:51Z</time>
                        <extensions>
    <sog>0.0</sog>
</extensions>
                    </trkpt>
                    <trkpt lat="54.435768333333336" lon="10.169623333333334">
                        <ele>0</ele>
                        <time>2022-08-18T22:32:51Z</time>
                        <extensions>
    <sog>0.0</sog>
</extensions>
                    </trkpt>
                    <trkpt lat="54.43577666666667" lon="10.169630000000002">
                        <ele>0</ele>
                        <time>2022-08-18T22:38:50Z</time>
                        <extensions>
    <sog>0.0</sog>
</extensions>
                    </trkpt>
                    <trkpt lat="54.43575333333333" lon="10.169646666666667">
                        <ele>0</ele>
                        <time>2022-08-18T22:41:51Z</time>
                        <extensions>
    <sog>0.0</sog>
</extensions>
                    </trkpt>
                    <trkpt lat="54.435804999999995" lon="10.169641666666667">
                        <ele>0</ele>
                        <time>2022-08-18T22:47:52Z</time>
                        <extensions>
    <sog>0.0</sog>
</extensions>
                    </trkpt>
                    <trkpt lat="54.435785" lon="10.169648333333333">
                        <ele>0</ele>
                        <time>2022-08-18T22:50:50Z</time>
                        <extensions>
    <sog>0.0</sog>
</extensions>
                    </trkpt>
                    <trkpt lat="54.43579" lon="10.169678333333334">
                        <ele>0</ele>
                        <time>2022-08-18T22:53:53Z</time>
                        <extensions>
    <sog>0.0</sog>
</extensions>
                    </trkpt>
                    <trkpt lat="54.43578333333333" lon="10.169701666666667">
                        <ele>0</ele>
                        <time>2022-08-18T22:56:52Z</time>
                        <extensions>
    <sog>0.0</sog>
</extensions>
                    </trkpt>
                    <trkpt lat="54.435764999999996" lon="10.169716666666666">
                        <ele>0</ele>
                        <time>2022-08-18T22:59:53Z</time>
                        <extensions>
    <sog>0.0</sog>
</extensions>
                    </trkpt>
                    <trkpt lat="54.435759999999995" lon="10.169683333333333">
                        <ele>0</ele>
                        <time>2022-08-18T23:02:53Z</time>
                        <extensions>
    <sog>0.0</sog>
</extensions>
                    </trkpt>
                    <trkpt lat="54.43577333333334" lon="10.169696666666665">
                        <ele>0</ele>
                        <time>2022-08-18T23:08:53Z</time>
                        <extensions>
    <sog>0.0</sog>
</extensions>
                    </trkpt>
                    <trkpt lat="54.435788333333335" lon="10.169608333333334">
                        <ele>0</ele>
                        <time>2022-08-18T23:11:50Z</time>
                        <extensions>
    <sog>0.0</sog>
</extensions>
                    </trkpt>
                    <trkpt lat="54.43580333333333" lon="10.169641666666667">
                        <ele>0</ele>
                        <time>2022-08-18T23:14:52Z</time>
                        <extensions>
    <sog>0.0</sog>
</extensions>
                    </trkpt>
                    <trkpt lat="54.435764999999996" lon="10.169758333333334">
                        <ele>0</ele>
                        <time>2022-08-18T23:17:49Z</time>
                        <extensions>
    <sog>0.0</sog>
</extensions>
                    </trkpt>
                    <trkpt lat="54.43575" lon="10.169768333333334">
                        <ele>0</ele>
                        <time>2022-08-18T23:20:50Z</time>
                        <extensions>
    <sog>0.0</sog>
</extensions>
                    </trkpt>
                    <trkpt lat="54.435785" lon="10.169720000000002">
                        <ele>0</ele>
                        <time>2022-08-18T23:23:51Z</time>
                        <extensions>
    <sog>0.0</sog>
</extensions>
                    </trkpt>
                    <trkpt lat="54.435785" lon="10.169663333333334">
                        <ele>0</ele>
                        <time>2022-08-18T23:26:52Z</time>
                        <extensions>
    <sog>0.0</sog>
</extensions>
                    </trkpt>
                    <trkpt lat="54.43577166666667" lon="10.169661666666666">
                        <ele>0</ele>
                        <time>2022-08-18T23:29:51Z</time>
                        <extensions>
    <sog>0.0</sog>
</extensions>
                    </trkpt>
                    <trkpt lat="54.43574833333333" lon="10.169749999999999">
                        <ele>0</ele>
                        <time>2022-08-18T23:35:49Z</time>
                        <extensions>
    <sog>0.0</sog>
</extensions>
                    </trkpt>
                    <trkpt lat="54.43578333333333" lon="10.169690000000001">
                        <ele>0</ele>
                        <time>2022-08-18T23:38:50Z</time>
                        <extensions>
    <sog>0.0</sog>
</extensions>
                    </trkpt>
                    <trkpt lat="54.43572666666667" lon="10.169741666666665">
                        <ele>0</ele>
                        <time>2022-08-18T23:44:52Z</time>
                        <extensions>
    <sog>0.0</sog>
</extensions>
                    </trkpt>
                    <trkpt lat="54.435735" lon="10.169778333333333">
                        <ele>0</ele>
                        <time>2022-08-18T23:47:53Z</time>
                        <extensions>
    <sog>0.0</sog>
</extensions>
                    </trkpt>
                    <trkpt lat="54.435725000000005" lon="10.169666666666666">
                        <ele>0</ele>
                        <time>2022-08-18T23:53:51Z</time>
                        <extensions>
    <sog>0.0</sog>
</extensions>
                    </trkpt>
                    <trkpt lat="54.43574666666667" lon="10.169649999999999">
                        <ele>0</ele>
                        <time>2022-08-18T23:56:52Z</time>
                        <extensions>
    <sog>0.0</sog>
</extensions>
                    </trkpt>
                    </trkseg>
                </trk>
</gpx>