<?xml version="1.0" encoding="UTF-8"?>
<gpx version="1.1" creator="AIS-to-GPX Converter" xmlns="http://www.topografix.com/GPX/1/1">
                <trk>
                    <name>anon0001</name>
                    <trkseg>
                        <trkpt lat="53.37582999999999" lon="10.50418">
    <ele>0</ele>
    <time>2022-08-18T00:09:50Z</time>
    
</trkpt>
<trkpt lat="53.375818333333335" lon="10.504188333333333">
    <ele>0</ele>
    <time>2022-08-18T00:14:50Z</time>
    
</trkpt>
<trkpt lat="53.37580833333333" lon="10.504191666666665">
    <ele>0</ele>
    <time>2022-08-18T00:18:10Z</time>
    
</trkpt>
<trkpt lat="53.375814999999996" lon="10.504193333333335">
    <ele>0</ele>
    <time>2022-08-18T00:18:30Z</time>
    
</trkpt>
<trkpt lat="53.37582833333333" lon="10.504191666666665">
    <ele>0</ele>
    <time>2022-08-18T00:18:50Z</time>
    
</trkpt>
<trkpt lat="53.375865" lon="10.504216666666668">
    <ele>0</ele>
    <time>2022-08-18T00:19:30Z</time>
    
</trkpt>
<trkpt lat="53.37585166666667" lon="10.50422">
    <ele>0</ele>
    <time>2022-08-18T00:20:50Z</time>
    
</trkpt>
<trkpt lat="53.37585" lon="10.504198333333333">
    <ele>0</ele>
    <time>2022-08-18T00:21:30Z</time>
    
</trkpt>
<trkpt lat="53.375886666666666" lon="10.504198333333333">
    <ele>0</ele>
    <time>2022-08-18T00:22:30Z</time>
    
</trkpt>
<trkpt lat="53.375901666666664" lon="10.50419">
    <ele>0</ele>
    <time>2022-08-18T00:42:30Z</time>
    
</trkpt>
<trkpt lat="53.37587833333334" lon="10.504195000000001">
    <ele>0</ele>
    <time>2022-08-18T00:45:50Z</time>
    
</trkpt>
<trkpt lat="53.375863333333335" lon="10.504193333333335">
    <ele>0</ele>
    <time>2022-08-18T00:46:10Z</time>
    
</trkpt>
                    </trkseg>
                </trk>
</gpx>