<?xml version="1.0" encoding="UTF-8"?>
<gpx version="1.1" creator="AIS-to-GPX Converter" xmlns="http://www.topografix.com/GPX/1/1">
                <trk>
                    <name>anon0432</name>
                    <trkseg>
                                            <trkpt lat="54.67894166666667" lon="10.780045">
                        <ele>0</ele>
                        <time>2022-08-18T15:10:40Z</time>
                                                <extensions>
                            <sog>10.6</sog>
<cog>347.3</cog>
                        </extensions>
                    </trkpt>
                    <trkpt lat="54.67916833333334" lon="10.779893333333332">
                        <ele>0</ele>
                        <time>2022-08-18T15:10:46Z</time>
                                                <extensions>
                            <sog>10.6</sog>
<cog>348.8</cog>
                        </extensions>
                    </trkpt>
                    <trkpt lat="54.67925833333334" lon="10.779836666666666">
                        <ele>0</ele>
                        <time>2022-08-18T15:10:47Z</time>
                                                <extensions>
                            <sog>10.6</sog>
<cog>349.5</cog>
                        </extensions>
                    </trkpt>
                    <trkpt lat="54.68133" lon="10.778955">
                        <ele>0</ele>
                        <time>2022-08-18T15:11:31Z</time>
                                                <extensions>
                            <sog>10.3</sog>
<cog>357.1</cog>
                        </extensions>
                    </trkpt>
                    <trkpt lat="54.68280666666667" lon="10.778738333333333">
                        <ele>0</ele>
                        <time>2022-08-18T15:12:02Z</time>
                                                <extensions>
                            <sog>10.3</sog>
<cog>358.9</cog>
                        </extensions>
                    </trkpt>
                    </trkseg>
                </trk>
</gpx>