<?xml version="1.0" encoding="UTF-8"?>
<gpx version="1.1" creator="AIS-to-GPX Converter" xmlns="http://www.topografix.com/GPX/1/1">
                <trk>
                    <name>anon0454</name>
                    <trkseg>
                                            <trkpt lat="53.874915" lon="9.090336666666667">
                        <ele>0</ele>
                        <time>2022-08-18T00:06:37Z</time>
                                                <extensions>
                            <sog>6.5</sog>
<cog>70.4</cog>
                        </extensions>
                    </trkpt>
                    <trkpt lat="53.87536" lon="9.094574999999999">
                        <ele>0</ele>
                        <time>2022-08-18T00:07:57Z</time>
                                                <extensions>
                            <sog>7.0</sog>
<cog>78.5</cog>
                        </extensions>
                    </trkpt>
                    <trkpt lat="53.87545" lon="9.095148333333333">
                        <ele>0</ele>
                        <time>2022-08-18T00:08:09Z</time>
                                                <extensions>
                            <sog>7.1</sog>
<cog>77.5</cog>
                        </extensions>
                    </trkpt>
                    <trkpt lat="53.87559666666667" lon="9.096208333333333">
                        <ele>0</ele>
                        <time>2022-08-18T00:08:27Z</time>
                                                <extensions>
                            <sog>7.2</sog>
<cog>77.1</cog>
                        </extensions>
                    </trkpt>
                    <trkpt lat="53.87836" lon="9.131323333333334">
                        <ele>0</ele>
                        <time>2022-08-18T00:19:18Z</time>
                                                <extensions>
                            <sog>8.8</sog>
<cog>81.6</cog>
                        </extensions>
                    </trkpt>
                    <trkpt lat="53.87881333333333" lon="9.137058333333332">
                        <ele>0</ele>
                        <time>2022-08-18T00:20:38Z</time>
                                                <extensions>
                            <sog>9.3</sog>
<cog>82.4</cog>
                        </extensions>
                    </trkpt>
                    <trkpt lat="53.87931666666667" lon="9.142681666666666">
                        <ele>0</ele>
                        <time>2022-08-18T00:21:55Z</time>
                                                <extensions>
                            <sog>9.5</sog>
<cog>81.6</cog>
                        </extensions>
                    </trkpt>
                    </trkseg>
                </trk>
</gpx>