<?xml version="1.0" encoding="UTF-8"?>
<gpx version="1.1" creator="AIS-to-GPX Converter" xmlns="http://www.topografix.com/GPX/1/1">
                <trk>
                    <name>anon0192</name>
                    <trkseg>
                                            <trkpt lat="54.70865" lon="10.033101666666665">
                        <ele>0</ele>
                        <time>2022-08-18T10:52:45Z</time>
                                                <extensions>
                            <sog>3.4</sog>
<cog>161.6</cog>
                        </extensions>
                    </trkpt>
                    <trkpt lat="54.67499" lon="10.048696666666666">
                        <ele>0</ele>
                        <time>2022-08-18T11:32:46Z</time>
                                                <extensions>
                            <sog>5.0</sog>
<cog>205.4</cog>
                        </extensions>
                    </trkpt>
                    <trkpt lat="54.674366666666664" lon="10.047988333333333">
                        <ele>0</ele>
                        <time>2022-08-18T11:33:18Z</time>
                                                <extensions>
                            <sog>5.3</sog>
<cog>215.9</cog>
                        </extensions>
                    </trkpt>
                    </trkseg>
                </trk>
</gpx>