<?xml version="1.0" encoding="UTF-8"?>
<gpx version="1.1" creator="AIS-to-GPX Converter" xmlns="http://www.topografix.com/GPX/1/1">
                <trk>
                    <name>anon0314</name>
                    <trkseg>
                                            <trkpt lat="54.402116666666664" lon="10.214945">
                        <ele>0</ele>
                        <time>2022-08-18T00:10:26Z</time>
                        <extensions>
    <sog>0.0</sog>
</extensions>
                    </trkpt>
                    <trkpt lat="54.402118333333334" lon="10.214953333333334">
                        <ele>0</ele>
                        <time>2022-08-18T00:13:26Z</time>
                        <extensions>
    <sog>0.0</sog>
</extensions>
                    </trkpt>
                    <trkpt lat="54.40212666666666" lon="10.214955">
                        <ele>0</ele>
                        <time>2022-08-18T00:25:24Z</time>
                        <extensions>
    <sog>0.0</sog>
</extensions>
                    </trkpt>
                    <trkpt lat="54.40210666666667" lon="10.214958333333334">
                        <ele>0</ele>
                        <time>2022-08-18T00:28:27Z</time>
                        <extensions>
    <sog>0.0</sog>
</extensions>
                    </trkpt>
                    <trkpt lat="54.402115" lon="10.214951666666668">
                        <ele>0</ele>
                        <time>2022-08-18T00:31:25Z</time>
                        <extensions>
    <sog>0.0</sog>
</extensions>
                    </trkpt>
                    <trkpt lat="54.402135" lon="10.214958333333334">
                        <ele>0</ele>
                        <time>2022-08-18T01:49:25Z</time>
                        <extensions>
    <sog>0.0</sog>
</extensions>
                    </trkpt>
                    <trkpt lat="54.40212" lon="10.214956666666666">
                        <ele>0</ele>
                        <time>2022-08-18T01:52:26Z</time>
                        <extensions>
    <sog>0.0</sog>
</extensions>
                    </trkpt>
                    <trkpt lat="54.40213666666667" lon="10.214955">
                        <ele>0</ele>
                        <time>2022-08-18T02:25:23Z</time>
                        <extensions>
    <sog>0.0</sog>
</extensions>
                    </trkpt>
                    <trkpt lat="54.40215333333333" lon="10.21495">
                        <ele>0</ele>
                        <time>2022-08-18T02:37:23Z</time>
                        <extensions>
    <sog>0.0</sog>
</extensions>
                    </trkpt>
                    <trkpt lat="54.402155" lon="10.214945">
                        <ele>0</ele>
                        <time>2022-08-18T02:49:24Z</time>
                        <extensions>
    <sog>0.0</sog>
</extensions>
                    </trkpt>
                    <trkpt lat="54.40212" lon="10.214933333333333">
                        <ele>0</ele>
                        <time>2022-08-18T05:37:24Z</time>
                        <extensions>
    <sog>0.0</sog>
</extensions>
                    </trkpt>
                    <trkpt lat="54.40212" lon="10.21494">
                        <ele>0</ele>
                        <time>2022-08-18T06:58:27Z</time>
                        <extensions>
    <sog>0.0</sog>
</extensions>
                    </trkpt>
                    <trkpt lat="54.40212333333333" lon="10.214936666666667">
                        <ele>0</ele>
                        <time>2022-08-18T07:01:24Z</time>
                        <extensions>
    <sog>0.1</sog>
</extensions>
                    </trkpt>
                    <trkpt lat="54.402121666666666" lon="10.214931666666667">
                        <ele>0</ele>
                        <time>2022-08-18T07:04:25Z</time>
                        <extensions>
    <sog>0.1</sog>
</extensions>
                    </trkpt>
                    <trkpt lat="54.40212" lon="10.21493">
                        <ele>0</ele>
                        <time>2022-08-18T07:10:25Z</time>
                        <extensions>
    <sog>0.1</sog>
</extensions>
                    </trkpt>
                    <trkpt lat="54.40212666666666" lon="10.214941666666666">
                        <ele>0</ele>
                        <time>2022-08-18T08:49:23Z</time>
                        <extensions>
    <sog>0.0</sog>
</extensions>
                    </trkpt>
                    <trkpt lat="54.40213333333334" lon="10.214938333333333">
                        <ele>0</ele>
                        <time>2022-08-18T08:58:24Z</time>
                        <extensions>
    <sog>0.0</sog>
</extensions>
                    </trkpt>
                    <trkpt lat="54.40215166666667" lon="10.21494">
                        <ele>0</ele>
                        <time>2022-08-18T09:16:24Z</time>
                        <extensions>
    <sog>0.1</sog>
</extensions>
                    </trkpt>
                    <trkpt lat="54.40215666666666" lon="10.214945">
                        <ele>0</ele>
                        <time>2022-08-18T09:25:25Z</time>
                        <extensions>
    <sog>0.0</sog>
</extensions>
                    </trkpt>
                    <trkpt lat="54.402155" lon="10.214935">
                        <ele>0</ele>
                        <time>2022-08-18T09:34:25Z</time>
                        <extensions>
    <sog>0.1</sog>
</extensions>
                    </trkpt>
                    <trkpt lat="54.402148333333336" lon="10.214935">
                        <ele>0</ele>
                        <time>2022-08-18T09:37:25Z</time>
                        <extensions>
    <sog>0.1</sog>
</extensions>
                    </trkpt>
                    <trkpt lat="54.40215666666666" lon="10.214933333333333">
                        <ele>0</ele>
                        <time>2022-08-18T09:40:23Z</time>
                        <extensions>
    <sog>0.1</sog>
</extensions>
                    </trkpt>
                    <trkpt lat="54.402155" lon="10.214933333333333">
                        <ele>0</ele>
                        <time>2022-08-18T09:46:24Z</time>
                        <extensions>
    <sog>0.0</sog>
</extensions>
                    </trkpt>
                    <trkpt lat="54.402145000000004" lon="10.214933333333333">
                        <ele>0</ele>
                        <time>2022-08-18T09:55:26Z</time>
                        <extensions>
    <sog>0.0</sog>
</extensions>
                    </trkpt>
                    <trkpt lat="54.40214666666667" lon="10.214931666666667">
                        <ele>0</ele>
                        <time>2022-08-18T09:58:26Z</time>
                        <extensions>
    <sog>0.1</sog>
</extensions>
                    </trkpt>
                    <trkpt lat="54.40178" lon="10.214886666666667">
                        <ele>0</ele>
                        <time>2022-08-18T10:07:23Z</time>
                                                <extensions>
                            <sog>2.4</sog>
<cog>320.9</cog>
                        </extensions>
                    </trkpt>
                    <trkpt lat="54.40222166666667" lon="10.214063333333334">
                        <ele>0</ele>
                        <time>2022-08-18T10:08:24Z</time>
                                                <extensions>
                            <sog>2.3</sog>
<cog>298.6</cog>
                        </extensions>
                    </trkpt>
                    <trkpt lat="54.40235833333334" lon="10.213545">
                        <ele>0</ele>
                        <time>2022-08-18T10:08:54Z</time>
                                                <extensions>
                            <sog>2.5</sog>
<cog>288.1</cog>
                        </extensions>
                    </trkpt>
                    <trkpt lat="54.40240333333334" lon="10.212936666666668">
                        <ele>0</ele>
                        <time>2022-08-18T10:09:24Z</time>
                                                <extensions>
                            <sog>3.1</sog>
<cog>272.7</cog>
                        </extensions>
                    </trkpt>
                    <trkpt lat="54.402429999999995" lon="10.212083333333334">
                        <ele>0</ele>
                        <time>2022-08-18T10:09:54Z</time>
                                                <extensions>
                            <sog>3.8</sog>
<cog>261.7</cog>
                        </extensions>
                    </trkpt>
                    <trkpt lat="54.401740000000004" lon="10.210256666666668">
                        <ele>0</ele>
                        <time>2022-08-18T10:10:54Z</time>
                                                <extensions>
                            <sog>5.4</sog>
<cog>227.8</cog>
                        </extensions>
                    </trkpt>
                    <trkpt lat="54.40123166666667" lon="10.209295">
                        <ele>0</ele>
                        <time>2022-08-18T10:11:24Z</time>
                                                <extensions>
                            <sog>5.4</sog>
<cog>232.4</cog>
                        </extensions>
                    </trkpt>
                    <trkpt lat="54.40081166666666" lon="10.208246666666668">
                        <ele>0</ele>
                        <time>2022-08-18T10:11:54Z</time>
                                                <extensions>
                            <sog>5.4</sog>
<cog>231.6</cog>
                        </extensions>
                    </trkpt>
                    <trkpt lat="54.40031833333333" lon="10.207365000000001">
                        <ele>0</ele>
                        <time>2022-08-18T10:12:24Z</time>
                                                <extensions>
                            <sog>5.3</sog>
<cog>222.4</cog>
                        </extensions>
                    </trkpt>
                    <trkpt lat="54.399725" lon="10.206545">
                        <ele>0</ele>
                        <time>2022-08-18T10:12:54Z</time>
                                                <extensions>
                            <sog>5.7</sog>
<cog>218.0</cog>
                        </extensions>
                    </trkpt>
                    <trkpt lat="54.39904333333333" lon="10.20582">
                        <ele>0</ele>
                        <time>2022-08-18T10:13:24Z</time>
                                                <extensions>
                            <sog>5.8</sog>
<cog>206.9</cog>
                        </extensions>
                    </trkpt>
                    <trkpt lat="54.398305" lon="10.205251666666667">
                        <ele>0</ele>
                        <time>2022-08-18T10:13:54Z</time>
                                                <extensions>
                            <sog>5.7</sog>
<cog>203.5</cog>
                        </extensions>
                    </trkpt>
                    <trkpt lat="54.397495000000006" lon="10.204683333333332">
                        <ele>0</ele>
                        <time>2022-08-18T10:14:26Z</time>
                                                <extensions>
                            <sog>5.7</sog>
<cog>201.7</cog>
                        </extensions>
                    </trkpt>
                    <trkpt lat="54.39682333333334" lon="10.204148333333334">
                        <ele>0</ele>
                        <time>2022-08-18T10:14:54Z</time>
                                                <extensions>
                            <sog>5.6</sog>
<cog>207.7</cog>
                        </extensions>
                    </trkpt>
                    <trkpt lat="54.39543666666667" lon="10.202983333333332">
                        <ele>0</ele>
                        <time>2022-08-18T10:15:54Z</time>
                                                <extensions>
                            <sog>5.6</sog>
<cog>204.6</cog>
                        </extensions>
                    </trkpt>
                    <trkpt lat="54.394641666666665" lon="10.202378333333334">
                        <ele>0</ele>
                        <time>2022-08-18T10:16:26Z</time>
                                                <extensions>
                            <sog>5.6</sog>
<cog>202.8</cog>
                        </extensions>
                    </trkpt>
                    <trkpt lat="54.39398333333334" lon="10.201931666666667">
                        <ele>0</ele>
                        <time>2022-08-18T10:16:54Z</time>
                                                <extensions>
                            <sog>5.7</sog>
<cog>200.5</cog>
                        </extensions>
                    </trkpt>
                    <trkpt lat="54.39318" lon="10.201373333333333">
                        <ele>0</ele>
                        <time>2022-08-18T10:17:26Z</time>
                                                <extensions>
                            <sog>5.6</sog>
<cog>201.8</cog>
                        </extensions>
                    </trkpt>
                    <trkpt lat="54.391688333333335" lon="10.200346666666666">
                        <ele>0</ele>
                        <time>2022-08-18T10:18:26Z</time>
                                                <extensions>
                            <sog>5.7</sog>
<cog>200.4</cog>
                        </extensions>
                    </trkpt>
                    <trkpt lat="54.391015" lon="10.199883333333334">
                        <ele>0</ele>
                        <time>2022-08-18T10:18:54Z</time>
                                                <extensions>
                            <sog>5.9</sog>
<cog>200.9</cog>
                        </extensions>
                    </trkpt>
                    <trkpt lat="54.39018166666666" lon="10.199378333333334">
                        <ele>0</ele>
                        <time>2022-08-18T10:19:27Z</time>
                                                <extensions>
                            <sog>5.7</sog>
<cog>198.3</cog>
                        </extensions>
                    </trkpt>
                    <trkpt lat="54.389493333333334" lon="10.19901">
                        <ele>0</ele>
                        <time>2022-08-18T10:19:54Z</time>
                                                <extensions>
                            <sog>5.8</sog>
<cog>195.9</cog>
                        </extensions>
                    </trkpt>
                    <trkpt lat="54.38865166666667" lon="10.198603333333333">
                        <ele>0</ele>
                        <time>2022-08-18T10:20:27Z</time>
                                                <extensions>
                            <sog>5.8</sog>
<cog>196.4</cog>
                        </extensions>
                    </trkpt>
                    <trkpt lat="54.38717166666667" lon="10.197656666666667">
                        <ele>0</ele>
                        <time>2022-08-18T10:21:27Z</time>
                                                <extensions>
                            <sog>5.7</sog>
<cog>201.8</cog>
                        </extensions>
                    </trkpt>
                    <trkpt lat="54.38567333333334" lon="10.196670000000001">
                        <ele>0</ele>
                        <time>2022-08-18T10:22:27Z</time>
                                                <extensions>
                            <sog>5.9</sog>
<cog>199.3</cog>
                        </extensions>
                    </trkpt>
                    <trkpt lat="54.384995" lon="10.196265">
                        <ele>0</ele>
                        <time>2022-08-18T10:22:54Z</time>
                                                <extensions>
                            <sog>5.7</sog>
<cog>197.9</cog>
                        </extensions>
                    </trkpt>
                    <trkpt lat="54.384159999999994" lon="10.195788333333333">
                        <ele>0</ele>
                        <time>2022-08-18T10:23:27Z</time>
                                                <extensions>
                            <sog>5.9</sog>
<cog>201.2</cog>
                        </extensions>
                    </trkpt>
                    <trkpt lat="54.38348" lon="10.195323333333333">
                        <ele>0</ele>
                        <time>2022-08-18T10:23:54Z</time>
                                                <extensions>
                            <sog>5.8</sog>
<cog>200.8</cog>
                        </extensions>
                    </trkpt>
                    <trkpt lat="54.382645000000004" lon="10.194791666666667">
                        <ele>0</ele>
                        <time>2022-08-18T10:24:27Z</time>
                                                <extensions>
                            <sog>5.8</sog>
<cog>201.0</cog>
                        </extensions>
                    </trkpt>
                    <trkpt lat="54.38196333333334" lon="10.194338333333333">
                        <ele>0</ele>
                        <time>2022-08-18T10:24:54Z</time>
                                                <extensions>
                            <sog>5.7</sog>
<cog>200.2</cog>
                        </extensions>
                    </trkpt>
                    <trkpt lat="54.3812" lon="10.193911666666667">
                        <ele>0</ele>
                        <time>2022-08-18T10:25:24Z</time>
                                                <extensions>
                            <sog>5.8</sog>
<cog>196.6</cog>
                        </extensions>
                    </trkpt>
                    <trkpt lat="54.38044333333333" lon="10.193481666666665">
                        <ele>0</ele>
                        <time>2022-08-18T10:25:54Z</time>
                                                <extensions>
                            <sog>5.7</sog>
<cog>198.0</cog>
                        </extensions>
                    </trkpt>
                    <trkpt lat="54.37970166666666" lon="10.193061666666667">
                        <ele>0</ele>
                        <time>2022-08-18T10:26:24Z</time>
                                                <extensions>
                            <sog>5.6</sog>
<cog>199.2</cog>
                        </extensions>
                    </trkpt>
                    <trkpt lat="54.3791" lon="10.19227">
                        <ele>0</ele>
                        <time>2022-08-18T10:26:54Z</time>
                                                <extensions>
                            <sog>5.7</sog>
<cog>234.5</cog>
                        </extensions>
                    </trkpt>
                    <trkpt lat="54.378681666666665" lon="10.191133333333333">
                        <ele>0</ele>
                        <time>2022-08-18T10:27:24Z</time>
                                                <extensions>
                            <sog>5.8</sog>
<cog>238.1</cog>
                        </extensions>
                    </trkpt>
                    <trkpt lat="54.37823166666667" lon="10.190055">
                        <ele>0</ele>
                        <time>2022-08-18T10:27:54Z</time>
                                                <extensions>
                            <sog>5.6</sog>
<cog>225.5</cog>
                        </extensions>
                    </trkpt>
                    <trkpt lat="54.377579999999995" lon="10.189353333333335">
                        <ele>0</ele>
                        <time>2022-08-18T10:28:24Z</time>
                                                <extensions>
                            <sog>5.6</sog>
<cog>205.9</cog>
                        </extensions>
                    </trkpt>
                    <trkpt lat="54.37688" lon="10.188763333333332">
                        <ele>0</ele>
                        <time>2022-08-18T10:28:54Z</time>
                                                <extensions>
                            <sog>5.6</sog>
<cog>208.6</cog>
                        </extensions>
                    </trkpt>
                    <trkpt lat="54.37616333333334" lon="10.188071666666668">
                        <ele>0</ele>
                        <time>2022-08-18T10:29:26Z</time>
                                                <extensions>
                            <sog>5.6</sog>
<cog>207.4</cog>
                        </extensions>
                    </trkpt>
                    <trkpt lat="54.37551666666666" lon="10.187528333333335">
                        <ele>0</ele>
                        <time>2022-08-18T10:29:54Z</time>
                                                <extensions>
                            <sog>5.6</sog>
<cog>206.2</cog>
                        </extensions>
                    </trkpt>
                    <trkpt lat="54.37336333333334" lon="10.185753333333334">
                        <ele>0</ele>
                        <time>2022-08-18T10:31:26Z</time>
                                                <extensions>
                            <sog>5.5</sog>
<cog>209.3</cog>
                        </extensions>
                    </trkpt>
                    <trkpt lat="54.372035" lon="10.184516666666667">
                        <ele>0</ele>
                        <time>2022-08-18T10:32:26Z</time>
                                                <extensions>
                            <sog>5.6</sog>
<cog>213.0</cog>
                        </extensions>
                    </trkpt>
                    <trkpt lat="54.371361666666665" lon="10.183815000000001">
                        <ele>0</ele>
                        <time>2022-08-18T10:32:56Z</time>
                                                <extensions>
                            <sog>5.6</sog>
<cog>207.9</cog>
                        </extensions>
                    </trkpt>
                    <trkpt lat="54.370673333333336" lon="10.183233333333334">
                        <ele>0</ele>
                        <time>2022-08-18T10:33:26Z</time>
                                                <extensions>
                            <sog>5.3</sog>
<cog>206.6</cog>
                        </extensions>
                    </trkpt>
                    <trkpt lat="54.369998333333335" lon="10.182601666666667">
                        <ele>0</ele>
                        <time>2022-08-18T10:33:56Z</time>
                                                <extensions>
                            <sog>5.3</sog>
<cog>209.7</cog>
                        </extensions>
                    </trkpt>
                    <trkpt lat="54.369366666666664" lon="10.181996666666667">
                        <ele>0</ele>
                        <time>2022-08-18T10:34:25Z</time>
                                                <extensions>
                            <sog>5.4</sog>
<cog>208.9</cog>
                        </extensions>
                    </trkpt>
                    <trkpt lat="54.36809166666667" lon="10.180721666666667">
                        <ele>0</ele>
                        <time>2022-08-18T10:35:25Z</time>
                                                <extensions>
                            <sog>5.5</sog>
<cog>212.3</cog>
                        </extensions>
                    </trkpt>
                    <trkpt lat="54.36739166666667" lon="10.179966666666667">
                        <ele>0</ele>
                        <time>2022-08-18T10:35:57Z</time>
                                                <extensions>
                            <sog>5.4</sog>
<cog>212.6</cog>
                        </extensions>
                    </trkpt>
                    <trkpt lat="54.366170000000004" lon="10.178511666666667">
                        <ele>0</ele>
                        <time>2022-08-18T10:36:57Z</time>
                                                <extensions>
                            <sog>5.4</sog>
<cog>217.0</cog>
                        </extensions>
                    </trkpt>
                    <trkpt lat="54.36558" lon="10.177776666666666">
                        <ele>0</ele>
                        <time>2022-08-18T10:37:25Z</time>
                                                <extensions>
                            <sog>5.6</sog>
<cog>212.2</cog>
                        </extensions>
                    </trkpt>
                    <trkpt lat="54.364916666666666" lon="10.177075">
                        <ele>0</ele>
                        <time>2022-08-18T10:37:57Z</time>
                                                <extensions>
                            <sog>5.5</sog>
<cog>211.3</cog>
                        </extensions>
                    </trkpt>
                    <trkpt lat="54.36431166666667" lon="10.176463333333334">
                        <ele>0</ele>
                        <time>2022-08-18T10:38:25Z</time>
                                                <extensions>
                            <sog>5.5</sog>
<cog>209.9</cog>
                        </extensions>
                    </trkpt>
                    <trkpt lat="54.363593333333334" lon="10.175835000000001">
                        <ele>0</ele>
                        <time>2022-08-18T10:38:57Z</time>
                                                <extensions>
                            <sog>5.5</sog>
<cog>203.0</cog>
                        </extensions>
                    </trkpt>
                    <trkpt lat="54.36291166666667" lon="10.175391666666666">
                        <ele>0</ele>
                        <time>2022-08-18T10:39:25Z</time>
                                                <extensions>
                            <sog>5.5</sog>
<cog>199.1</cog>
                        </extensions>
                    </trkpt>
                    <trkpt lat="54.36216" lon="10.175015">
                        <ele>0</ele>
                        <time>2022-08-18T10:39:57Z</time>
                                                <extensions>
                            <sog>5.5</sog>
<cog>195.3</cog>
                        </extensions>
                    </trkpt>
                    <trkpt lat="54.36147833333334" lon="10.174683333333332">
                        <ele>0</ele>
                        <time>2022-08-18T10:40:25Z</time>
                                                <extensions>
                            <sog>5.6</sog>
<cog>199.0</cog>
                        </extensions>
                    </trkpt>
                    <trkpt lat="54.36071333333334" lon="10.17422">
                        <ele>0</ele>
                        <time>2022-08-18T10:40:57Z</time>
                                                <extensions>
                            <sog>5.5</sog>
<cog>197.1</cog>
                        </extensions>
                    </trkpt>
                    <trkpt lat="54.360005" lon="10.173886666666668">
                        <ele>0</ele>
                        <time>2022-08-18T10:41:25Z</time>
                                                <extensions>
                            <sog>5.4</sog>
<cog>193.3</cog>
                        </extensions>
                    </trkpt>
                    <trkpt lat="54.35928833333333" lon="10.173608333333334">
                        <ele>0</ele>
                        <time>2022-08-18T10:41:54Z</time>
                                                <extensions>
                            <sog>5.4</sog>
<cog>192.6</cog>
                        </extensions>
                    </trkpt>
                    <trkpt lat="54.35708666666667" lon="10.172653333333333">
                        <ele>0</ele>
                        <time>2022-08-18T10:43:25Z</time>
                                                <extensions>
                            <sog>5.4</sog>
<cog>195.6</cog>
                        </extensions>
                    </trkpt>
                    <trkpt lat="54.356388333333335" lon="10.172288333333334">
                        <ele>0</ele>
                        <time>2022-08-18T10:43:54Z</time>
                                                <extensions>
                            <sog>5.4</sog>
<cog>197.2</cog>
                        </extensions>
                    </trkpt>
                    <trkpt lat="54.35559" lon="10.171866666666666">
                        <ele>0</ele>
                        <time>2022-08-18T10:44:26Z</time>
                                                <extensions>
                            <sog>5.5</sog>
<cog>196.5</cog>
                        </extensions>
                    </trkpt>
                    <trkpt lat="54.35262" lon="10.170795">
                        <ele>0</ele>
                        <time>2022-08-18T10:46:26Z</time>
                                                <extensions>
                            <sog>5.6</sog>
<cog>192.4</cog>
                        </extensions>
                    </trkpt>
                    <trkpt lat="54.35113333333334" lon="10.170116666666667">
                        <ele>0</ele>
                        <time>2022-08-18T10:47:26Z</time>
                                                <extensions>
                            <sog>5.6</sog>
<cog>198.0</cog>
                        </extensions>
                    </trkpt>
                    <trkpt lat="54.35042" lon="10.169743333333335">
                        <ele>0</ele>
                        <time>2022-08-18T10:47:55Z</time>
                                                <extensions>
                            <sog>5.6</sog>
<cog>196.7</cog>
                        </extensions>
                    </trkpt>
                    <trkpt lat="54.34968166666667" lon="10.169346666666666">
                        <ele>0</ele>
                        <time>2022-08-18T10:48:26Z</time>
                                                <extensions>
                            <sog>5.5</sog>
<cog>199.4</cog>
                        </extensions>
                    </trkpt>
                    <trkpt lat="54.34897333333333" lon="10.168978333333333">
                        <ele>0</ele>
                        <time>2022-08-18T10:48:55Z</time>
                                                <extensions>
                            <sog>5.6</sog>
<cog>195.3</cog>
                        </extensions>
                    </trkpt>
                    <trkpt lat="54.348211666666664" lon="10.168583333333334">
                        <ele>0</ele>
                        <time>2022-08-18T10:49:26Z</time>
                                                <extensions>
                            <sog>5.6</sog>
<cog>198.8</cog>
                        </extensions>
                    </trkpt>
                    <trkpt lat="54.347496666666665" lon="10.168111666666666">
                        <ele>0</ele>
                        <time>2022-08-18T10:49:55Z</time>
                                                <extensions>
                            <sog>5.5</sog>
<cog>204.1</cog>
                        </extensions>
                    </trkpt>
                    <trkpt lat="54.346149999999994" lon="10.166860000000002">
                        <ele>0</ele>
                        <time>2022-08-18T10:50:55Z</time>
                                                <extensions>
                            <sog>5.5</sog>
<cog>211.6</cog>
                        </extensions>
                    </trkpt>
                    <trkpt lat="54.345488333333336" lon="10.166193333333332">
                        <ele>0</ele>
                        <time>2022-08-18T10:51:26Z</time>
                                                <extensions>
                            <sog>5.5</sog>
<cog>208.4</cog>
                        </extensions>
                    </trkpt>
                    <trkpt lat="54.34480833333334" lon="10.165583333333332">
                        <ele>0</ele>
                        <time>2022-08-18T10:51:55Z</time>
                                                <extensions>
                            <sog>5.5</sog>
<cog>206.0</cog>
                        </extensions>
                    </trkpt>
                    <trkpt lat="54.34411333333333" lon="10.16504">
                        <ele>0</ele>
                        <time>2022-08-18T10:52:26Z</time>
                                                <extensions>
                            <sog>5.5</sog>
<cog>202.4</cog>
                        </extensions>
                    </trkpt>
                    <trkpt lat="54.343378333333334" lon="10.164528333333333">
                        <ele>0</ele>
                        <time>2022-08-18T10:52:57Z</time>
                                                <extensions>
                            <sog>5.5</sog>
<cog>202.3</cog>
                        </extensions>
                    </trkpt>
                    <trkpt lat="54.34127" lon="10.162853333333334">
                        <ele>0</ele>
                        <time>2022-08-18T10:54:27Z</time>
                                                <extensions>
                            <sog>5.5</sog>
<cog>205.1</cog>
                        </extensions>
                    </trkpt>
                    <trkpt lat="54.34057833333333" lon="10.1623">
                        <ele>0</ele>
                        <time>2022-08-18T10:54:57Z</time>
                                                <extensions>
                            <sog>5.6</sog>
<cog>205.5</cog>
                        </extensions>
                    </trkpt>
                    <trkpt lat="54.33990166666667" lon="10.16178">
                        <ele>0</ele>
                        <time>2022-08-18T10:55:27Z</time>
                                                <extensions>
                            <sog>5.6</sog>
<cog>203.3</cog>
                        </extensions>
                    </trkpt>
                    <trkpt lat="54.339195000000004" lon="10.161275">
                        <ele>0</ele>
                        <time>2022-08-18T10:55:57Z</time>
                                                <extensions>
                            <sog>5.6</sog>
<cog>198.8</cog>
                        </extensions>
                    </trkpt>
                    <trkpt lat="54.33846666666667" lon="10.160873333333333">
                        <ele>0</ele>
                        <time>2022-08-18T10:56:27Z</time>
                                                <extensions>
                            <sog>5.5</sog>
<cog>196.9</cog>
                        </extensions>
                    </trkpt>
                    <trkpt lat="54.337743333333336" lon="10.160331666666668">
                        <ele>0</ele>
                        <time>2022-08-18T10:56:57Z</time>
                                                <extensions>
                            <sog>5.6</sog>
<cog>209.6</cog>
                        </extensions>
                    </trkpt>
                    <trkpt lat="54.337073333333336" lon="10.15967">
                        <ele>0</ele>
                        <time>2022-08-18T10:57:27Z</time>
                                                <extensions>
                            <sog>5.6</sog>
<cog>209.9</cog>
                        </extensions>
                    </trkpt>
                    <trkpt lat="54.33579333333333" lon="10.15822">
                        <ele>0</ele>
                        <time>2022-08-18T10:58:27Z</time>
                                                <extensions>
                            <sog>5.7</sog>
<cog>217.2</cog>
                        </extensions>
                    </trkpt>
                    <trkpt lat="54.33519" lon="10.157926666666667">
                        <ele>0</ele>
                        <time>2022-08-18T10:58:55Z</time>
                                                <extensions>
                            <sog>5.5</sog>
<cog>140.3</cog>
                        </extensions>
                    </trkpt>
                    <trkpt lat="54.334155" lon="10.161425000000001">
                        <ele>0</ele>
                        <time>2022-08-18T11:00:24Z</time>
                                                <extensions>
                            <sog>5.6</sog>
<cog>105.4</cog>
                        </extensions>
                    </trkpt>
                    <trkpt lat="54.334155" lon="10.161425000000001">
                        <ele>0</ele>
                        <time>2022-08-18T11:00:24Z</time>
                                                <extensions>
                            <sog>5.6</sog>
<cog>105.4</cog>
                        </extensions>
                    </trkpt>
                    <trkpt lat="54.33390833333333" lon="10.16273">
                        <ele>0</ele>
                        <time>2022-08-18T11:00:55Z</time>
                                                <extensions>
                            <sog>5.6</sog>
<cog>110.8</cog>
                        </extensions>
                    </trkpt>
                    <trkpt lat="54.33390833333333" lon="10.16273">
                        <ele>0</ele>
                        <time>2022-08-18T11:00:55Z</time>
                                                <extensions>
                            <sog>5.6</sog>
<cog>110.8</cog>
                        </extensions>
                    </trkpt>
                    <trkpt lat="54.33390833333333" lon="10.16273">
                        <ele>0</ele>
                        <time>2022-08-18T11:00:55Z</time>
                                                <extensions>
                            <sog>5.6</sog>
<cog>110.8</cog>
                        </extensions>
                    </trkpt>
                    <trkpt lat="54.33390833333333" lon="10.16273">
                        <ele>0</ele>
                        <time>2022-08-18T11:00:55Z</time>
                                                <extensions>
                            <sog>5.6</sog>
<cog>110.8</cog>
                        </extensions>
                    </trkpt>
                    <trkpt lat="54.333421666666666" lon="10.165245">
                        <ele>0</ele>
                        <time>2022-08-18T11:01:55Z</time>
                                                <extensions>
                            <sog>5.6</sog>
<cog>102.3</cog>
                        </extensions>
                    </trkpt>
                    <trkpt lat="54.333421666666666" lon="10.165245">
                        <ele>0</ele>
                        <time>2022-08-18T11:01:55Z</time>
                                                <extensions>
                            <sog>5.6</sog>
<cog>102.3</cog>
                        </extensions>
                    </trkpt>
                    <trkpt lat="54.33318333333333" lon="10.166443333333332">
                        <ele>0</ele>
                        <time>2022-08-18T11:02:24Z</time>
                                                <extensions>
                            <sog>5.5</sog>
<cog>116.8</cog>
                        </extensions>
                    </trkpt>
                    <trkpt lat="54.33273833333333" lon="10.167563333333334">
                        <ele>0</ele>
                        <time>2022-08-18T11:02:56Z</time>
                                                <extensions>
                            <sog>5.5</sog>
<cog>127.9</cog>
                        </extensions>
                    </trkpt>
                    <trkpt lat="54.332276666666665" lon="10.168556666666666">
                        <ele>0</ele>
                        <time>2022-08-18T11:03:24Z</time>
                                                <extensions>
                            <sog>5.6</sog>
<cog>127.3</cog>
                        </extensions>
                    </trkpt>
                    <trkpt lat="54.33172166666667" lon="10.169861666666666">
                        <ele>0</ele>
                        <time>2022-08-18T11:04:24Z</time>
                                                <extensions>
                            <sog>0.9</sog>
<cog>328.7</cog>
                        </extensions>
                    </trkpt>
                    <trkpt lat="54.3317" lon="10.169884999999999">
                        <ele>0</ele>
                        <time>2022-08-18T11:04:56Z</time>
                                                <extensions>
                            <sog>1.7</sog>
<cog>116.0</cog>
                        </extensions>
                    </trkpt>
                    <trkpt lat="54.331496666666666" lon="10.171498333333334">
                        <ele>0</ele>
                        <time>2022-08-18T11:05:56Z</time>
                                                <extensions>
                            <sog>4.5</sog>
<cog>108.3</cog>
                        </extensions>
                    </trkpt>
                    <trkpt lat="54.331291666666665" lon="10.172445000000002">
                        <ele>0</ele>
                        <time>2022-08-18T11:06:24Z</time>
                                                <extensions>
                            <sog>4.7</sog>
<cog>127.6</cog>
                        </extensions>
                    </trkpt>
                    <trkpt lat="54.33034166666666" lon="10.173936666666666">
                        <ele>0</ele>
                        <time>2022-08-18T11:07:24Z</time>
                                                <extensions>
                            <sog>3.9</sog>
<cog>132.2</cog>
                        </extensions>
                    </trkpt>
                    <trkpt lat="54.33039333333333" lon="10.174813333333333">
                        <ele>0</ele>
                        <time>2022-08-18T11:08:24Z</time>
                                                <extensions>
                            <sog>1.3</sog>
<cog>29.5</cog>
                        </extensions>
                    </trkpt>
                    <trkpt lat="54.330400000000004" lon="10.174781666666666">
                        <ele>0</ele>
                        <time>2022-08-18T11:08:56Z</time>
                                                <extensions>
                            <sog>0.6</sog>
<cog>215.2</cog>
                        </extensions>
                    </trkpt>
                    <trkpt lat="54.33029333333333" lon="10.174688333333334">
                        <ele>0</ele>
                        <time>2022-08-18T11:09:57Z</time>
                        <extensions>
    <sog>0.1</sog>
</extensions>
                    </trkpt>
                    <trkpt lat="54.33029333333333" lon="10.174681666666666">
                        <ele>0</ele>
                        <time>2022-08-18T11:10:24Z</time>
                        <extensions>
    <sog>0.0</sog>
</extensions>
                    </trkpt>
                    <trkpt lat="54.330295" lon="10.174675">
                        <ele>0</ele>
                        <time>2022-08-18T11:10:57Z</time>
                        <extensions>
    <sog>0.0</sog>
</extensions>
                    </trkpt>
                    <trkpt lat="54.3303" lon="10.174663333333333">
                        <ele>0</ele>
                        <time>2022-08-18T11:11:24Z</time>
                        <extensions>
    <sog>0.1</sog>
</extensions>
                    </trkpt>
                    <trkpt lat="54.330481666666664" lon="10.174688333333334">
                        <ele>0</ele>
                        <time>2022-08-18T11:17:24Z</time>
                        <extensions>
    <sog>0.0</sog>
</extensions>
                    </trkpt>
                    <trkpt lat="54.330479999999994" lon="10.174688333333334">
                        <ele>0</ele>
                        <time>2022-08-18T11:23:23Z</time>
                        <extensions>
    <sog>0.0</sog>
</extensions>
                    </trkpt>
                    <trkpt lat="54.33047166666667" lon="10.174693333333332">
                        <ele>0</ele>
                        <time>2022-08-18T11:29:25Z</time>
                        <extensions>
    <sog>0.0</sog>
</extensions>
                    </trkpt>
                    <trkpt lat="54.33047" lon="10.174678333333333">
                        <ele>0</ele>
                        <time>2022-08-18T11:35:24Z</time>
                        <extensions>
    <sog>0.0</sog>
</extensions>
                    </trkpt>
                    <trkpt lat="54.330463333333334" lon="10.174665000000001">
                        <ele>0</ele>
                        <time>2022-08-18T11:41:25Z</time>
                        <extensions>
    <sog>0.0</sog>
</extensions>
                    </trkpt>
                    <trkpt lat="54.33046" lon="10.174668333333333">
                        <ele>0</ele>
                        <time>2022-08-18T11:44:24Z</time>
                        <extensions>
    <sog>0.0</sog>
</extensions>
                    </trkpt>
                    <trkpt lat="54.33045666666667" lon="10.174668333333333">
                        <ele>0</ele>
                        <time>2022-08-18T11:47:25Z</time>
                        <extensions>
    <sog>0.0</sog>
</extensions>
                    </trkpt>
                    <trkpt lat="54.33046" lon="10.174669999999999">
                        <ele>0</ele>
                        <time>2022-08-18T11:53:25Z</time>
                        <extensions>
    <sog>0.0</sog>
</extensions>
                    </trkpt>
                    <trkpt lat="54.330455" lon="10.17466">
                        <ele>0</ele>
                        <time>2022-08-18T11:59:25Z</time>
                        <extensions>
    <sog>0.0</sog>
</extensions>
                    </trkpt>
                    <trkpt lat="54.33045333333334" lon="10.174668333333333">
                        <ele>0</ele>
                        <time>2022-08-18T12:05:24Z</time>
                        <extensions>
    <sog>0.0</sog>
</extensions>
                    </trkpt>
                    <trkpt lat="54.330450000000006" lon="10.174666666666667">
                        <ele>0</ele>
                        <time>2022-08-18T12:08:26Z</time>
                        <extensions>
    <sog>0.0</sog>
</extensions>
                    </trkpt>
                    <trkpt lat="54.33046" lon="10.174671666666667">
                        <ele>0</ele>
                        <time>2022-08-18T12:17:24Z</time>
                        <extensions>
    <sog>0.0</sog>
</extensions>
                    </trkpt>
                    <trkpt lat="54.330455" lon="10.174666666666667">
                        <ele>0</ele>
                        <time>2022-08-18T12:20:26Z</time>
                        <extensions>
    <sog>0.0</sog>
</extensions>
                    </trkpt>
                    <trkpt lat="54.330461666666665" lon="10.174676666666667">
                        <ele>0</ele>
                        <time>2022-08-18T12:23:24Z</time>
                        <extensions>
    <sog>0.0</sog>
</extensions>
                    </trkpt>
                    <trkpt lat="54.33045333333334" lon="10.174665000000001">
                        <ele>0</ele>
                        <time>2022-08-18T12:26:24Z</time>
                        <extensions>
    <sog>0.0</sog>
</extensions>
                    </trkpt>
                    <trkpt lat="54.330463333333334" lon="10.174669999999999">
                        <ele>0</ele>
                        <time>2022-08-18T12:29:23Z</time>
                        <extensions>
    <sog>0.1</sog>
</extensions>
                    </trkpt>
                    <trkpt lat="54.330455" lon="10.174669999999999">
                        <ele>0</ele>
                        <time>2022-08-18T12:32:24Z</time>
                        <extensions>
    <sog>0.0</sog>
</extensions>
                    </trkpt>
                    <trkpt lat="54.33045833333333" lon="10.174669999999999">
                        <ele>0</ele>
                        <time>2022-08-18T12:38:23Z</time>
                        <extensions>
    <sog>0.0</sog>
</extensions>
                    </trkpt>
                    <trkpt lat="54.33045666666667" lon="10.174698333333334">
                        <ele>0</ele>
                        <time>2022-08-18T12:41:25Z</time>
                        <extensions>
    <sog>0.0</sog>
</extensions>
                    </trkpt>
                    <trkpt lat="54.330461666666665" lon="10.174681666666666">
                        <ele>0</ele>
                        <time>2022-08-18T12:44:22Z</time>
                        <extensions>
    <sog>0.0</sog>
</extensions>
                    </trkpt>
                    <trkpt lat="54.33046" lon="10.174676666666667">
                        <ele>0</ele>
                        <time>2022-08-18T12:47:24Z</time>
                        <extensions>
    <sog>0.1</sog>
</extensions>
                    </trkpt>
                    <trkpt lat="54.330463333333334" lon="10.174681666666666">
                        <ele>0</ele>
                        <time>2022-08-18T12:53:24Z</time>
                        <extensions>
    <sog>0.1</sog>
</extensions>
                    </trkpt>
                    <trkpt lat="54.330465000000004" lon="10.17469">
                        <ele>0</ele>
                        <time>2022-08-18T12:56:23Z</time>
                        <extensions>
    <sog>0.0</sog>
</extensions>
                    </trkpt>
                    <trkpt lat="54.330466666666666" lon="10.174693333333332">
                        <ele>0</ele>
                        <time>2022-08-18T13:02:23Z</time>
                        <extensions>
    <sog>0.0</sog>
</extensions>
                    </trkpt>
                    <trkpt lat="54.330466666666666" lon="10.1747">
                        <ele>0</ele>
                        <time>2022-08-18T13:08:23Z</time>
                        <extensions>
    <sog>0.0</sog>
</extensions>
                    </trkpt>
                    <trkpt lat="54.33047333333333" lon="10.17469">
                        <ele>0</ele>
                        <time>2022-08-18T13:11:25Z</time>
                        <extensions>
    <sog>0.1</sog>
</extensions>
                    </trkpt>
                    <trkpt lat="54.330468333333336" lon="10.174693333333332">
                        <ele>0</ele>
                        <time>2022-08-18T13:14:23Z</time>
                        <extensions>
    <sog>0.0</sog>
</extensions>
                    </trkpt>
                    <trkpt lat="54.33047833333333" lon="10.174693333333332">
                        <ele>0</ele>
                        <time>2022-08-18T13:17:23Z</time>
                        <extensions>
    <sog>0.1</sog>
</extensions>
                    </trkpt>
                    <trkpt lat="54.330479999999994" lon="10.17469">
                        <ele>0</ele>
                        <time>2022-08-18T13:20:23Z</time>
                        <extensions>
    <sog>0.0</sog>
</extensions>
                    </trkpt>
                    <trkpt lat="54.330479999999994" lon="10.17469">
                        <ele>0</ele>
                        <time>2022-08-18T13:20:23Z</time>
                        <extensions>
    <sog>0.0</sog>
</extensions>
                    </trkpt>
                    <trkpt lat="54.33048333333333" lon="10.174695000000002">
                        <ele>0</ele>
                        <time>2022-08-18T13:23:24Z</time>
                        <extensions>
    <sog>0.0</sog>
</extensions>
                    </trkpt>
                    <trkpt lat="54.330479999999994" lon="10.174691666666666">
                        <ele>0</ele>
                        <time>2022-08-18T13:29:23Z</time>
                        <extensions>
    <sog>0.0</sog>
</extensions>
                    </trkpt>
                    <trkpt lat="54.33049166666667" lon="10.174705">
                        <ele>0</ele>
                        <time>2022-08-18T13:35:25Z</time>
                        <extensions>
    <sog>0.0</sog>
</extensions>
                    </trkpt>
                    <trkpt lat="54.33048833333333" lon="10.174703333333333">
                        <ele>0</ele>
                        <time>2022-08-18T13:41:25Z</time>
                        <extensions>
    <sog>0.1</sog>
</extensions>
                    </trkpt>
                    <trkpt lat="54.33048833333333" lon="10.174698333333334">
                        <ele>0</ele>
                        <time>2022-08-18T13:50:25Z</time>
                        <extensions>
    <sog>0.0</sog>
</extensions>
                    </trkpt>
                    <trkpt lat="54.33049166666667" lon="10.174701666666666">
                        <ele>0</ele>
                        <time>2022-08-18T13:53:24Z</time>
                        <extensions>
    <sog>0.0</sog>
</extensions>
                    </trkpt>
                    <trkpt lat="54.33049833333334" lon="10.174701666666666">
                        <ele>0</ele>
                        <time>2022-08-18T13:56:23Z</time>
                        <extensions>
    <sog>0.0</sog>
</extensions>
                    </trkpt>
                    <trkpt lat="54.330495" lon="10.174711666666667">
                        <ele>0</ele>
                        <time>2022-08-18T13:59:25Z</time>
                        <extensions>
    <sog>0.0</sog>
</extensions>
                    </trkpt>
                    <trkpt lat="54.33049333333334" lon="10.174696666666668">
                        <ele>0</ele>
                        <time>2022-08-18T14:02:25Z</time>
                        <extensions>
    <sog>0.0</sog>
</extensions>
                    </trkpt>
                    <trkpt lat="54.33050333333333" lon="10.174708333333333">
                        <ele>0</ele>
                        <time>2022-08-18T14:05:24Z</time>
                        <extensions>
    <sog>0.0</sog>
</extensions>
                    </trkpt>
                    <trkpt lat="54.330495" lon="10.174695000000002">
                        <ele>0</ele>
                        <time>2022-08-18T14:08:24Z</time>
                        <extensions>
    <sog>0.0</sog>
</extensions>
                    </trkpt>
                    <trkpt lat="54.33049666666667" lon="10.174711666666667">
                        <ele>0</ele>
                        <time>2022-08-18T14:14:25Z</time>
                        <extensions>
    <sog>0.0</sog>
</extensions>
                    </trkpt>
                    <trkpt lat="54.3305" lon="10.17472">
                        <ele>0</ele>
                        <time>2022-08-18T14:17:25Z</time>
                        <extensions>
    <sog>0.0</sog>
</extensions>
                    </trkpt>
                    <trkpt lat="54.33051" lon="10.174713333333333">
                        <ele>0</ele>
                        <time>2022-08-18T14:20:23Z</time>
                        <extensions>
    <sog>0.0</sog>
</extensions>
                    </trkpt>
                    <trkpt lat="54.33049666666667" lon="10.174714999999999">
                        <ele>0</ele>
                        <time>2022-08-18T14:23:24Z</time>
                        <extensions>
    <sog>0.0</sog>
</extensions>
                    </trkpt>
                    <trkpt lat="54.33049833333334" lon="10.174728333333332">
                        <ele>0</ele>
                        <time>2022-08-18T14:26:25Z</time>
                        <extensions>
    <sog>0.0</sog>
</extensions>
                    </trkpt>
                    <trkpt lat="54.33050166666667" lon="10.174716666666665">
                        <ele>0</ele>
                        <time>2022-08-18T14:29:25Z</time>
                        <extensions>
    <sog>0.0</sog>
</extensions>
                    </trkpt>
                    <trkpt lat="54.33049666666667" lon="10.174718333333335">
                        <ele>0</ele>
                        <time>2022-08-18T14:32:25Z</time>
                        <extensions>
    <sog>0.1</sog>
</extensions>
                    </trkpt>
                    <trkpt lat="54.330484999999996" lon="10.17473">
                        <ele>0</ele>
                        <time>2022-08-18T14:35:22Z</time>
                        <extensions>
    <sog>0.0</sog>
</extensions>
                    </trkpt>
                    <trkpt lat="54.330495" lon="10.174725">
                        <ele>0</ele>
                        <time>2022-08-18T14:38:24Z</time>
                        <extensions>
    <sog>0.0</sog>
</extensions>
                    </trkpt>
                    <trkpt lat="54.33050166666667" lon="10.174726666666666">
                        <ele>0</ele>
                        <time>2022-08-18T14:41:23Z</time>
                        <extensions>
    <sog>0.1</sog>
</extensions>
                    </trkpt>
                    <trkpt lat="54.33049166666667" lon="10.174725">
                        <ele>0</ele>
                        <time>2022-08-18T14:44:25Z</time>
                        <extensions>
    <sog>0.0</sog>
</extensions>
                    </trkpt>
                    <trkpt lat="54.33049666666667" lon="10.17473">
                        <ele>0</ele>
                        <time>2022-08-18T14:47:25Z</time>
                        <extensions>
    <sog>0.1</sog>
</extensions>
                    </trkpt>
                    <trkpt lat="54.33049666666667" lon="10.174733333333334">
                        <ele>0</ele>
                        <time>2022-08-18T14:50:25Z</time>
                        <extensions>
    <sog>0.0</sog>
</extensions>
                    </trkpt>
                    <trkpt lat="54.33049833333334" lon="10.174728333333332">
                        <ele>0</ele>
                        <time>2022-08-18T14:56:26Z</time>
                        <extensions>
    <sog>0.0</sog>
</extensions>
                    </trkpt>
                    <trkpt lat="54.33049833333334" lon="10.17473">
                        <ele>0</ele>
                        <time>2022-08-18T14:59:26Z</time>
                        <extensions>
    <sog>0.0</sog>
</extensions>
                    </trkpt>
                    <trkpt lat="54.330505" lon="10.174726666666666">
                        <ele>0</ele>
                        <time>2022-08-18T15:02:23Z</time>
                        <extensions>
    <sog>0.1</sog>
</extensions>
                    </trkpt>
                    <trkpt lat="54.330506666666665" lon="10.174725">
                        <ele>0</ele>
                        <time>2022-08-18T15:05:25Z</time>
                        <extensions>
    <sog>0.0</sog>
</extensions>
                    </trkpt>
                    <trkpt lat="54.33049333333334" lon="10.174726666666666">
                        <ele>0</ele>
                        <time>2022-08-18T15:14:23Z</time>
                        <extensions>
    <sog>0.0</sog>
</extensions>
                    </trkpt>
                    <trkpt lat="54.33049833333334" lon="10.17472">
                        <ele>0</ele>
                        <time>2022-08-18T15:20:23Z</time>
                        <extensions>
    <sog>0.0</sog>
</extensions>
                    </trkpt>
                    <trkpt lat="54.33050166666667" lon="10.174725">
                        <ele>0</ele>
                        <time>2022-08-18T15:23:25Z</time>
                        <extensions>
    <sog>0.0</sog>
</extensions>
                    </trkpt>
                    <trkpt lat="54.33050166666667" lon="10.174728333333332">
                        <ele>0</ele>
                        <time>2022-08-18T15:26:25Z</time>
                        <extensions>
    <sog>0.0</sog>
</extensions>
                    </trkpt>
                    <trkpt lat="54.33049166666667" lon="10.174725">
                        <ele>0</ele>
                        <time>2022-08-18T15:29:25Z</time>
                        <extensions>
    <sog>0.0</sog>
</extensions>
                    </trkpt>
                    <trkpt lat="54.330495" lon="10.174723333333333">
                        <ele>0</ele>
                        <time>2022-08-18T15:32:22Z</time>
                        <extensions>
    <sog>0.0</sog>
</extensions>
                    </trkpt>
                    <trkpt lat="54.330495" lon="10.174721666666667">
                        <ele>0</ele>
                        <time>2022-08-18T15:38:24Z</time>
                        <extensions>
    <sog>0.0</sog>
</extensions>
                    </trkpt>
                    <trkpt lat="54.33049333333334" lon="10.17472">
                        <ele>0</ele>
                        <time>2022-08-18T15:44:24Z</time>
                        <extensions>
    <sog>0.0</sog>
</extensions>
                    </trkpt>
                    <trkpt lat="54.330495" lon="10.174716666666665">
                        <ele>0</ele>
                        <time>2022-08-18T15:47:25Z</time>
                        <extensions>
    <sog>0.0</sog>
</extensions>
                    </trkpt>
                    <trkpt lat="54.33049833333334" lon="10.174723333333333">
                        <ele>0</ele>
                        <time>2022-08-18T15:50:24Z</time>
                        <extensions>
    <sog>0.0</sog>
</extensions>
                    </trkpt>
                    <trkpt lat="54.33049666666667" lon="10.174726666666666">
                        <ele>0</ele>
                        <time>2022-08-18T15:53:25Z</time>
                        <extensions>
    <sog>0.0</sog>
</extensions>
                    </trkpt>
                    <trkpt lat="54.330495" lon="10.174735">
                        <ele>0</ele>
                        <time>2022-08-18T15:56:25Z</time>
                        <extensions>
    <sog>0.0</sog>
</extensions>
                    </trkpt>
                    <trkpt lat="54.330495" lon="10.174723333333333">
                        <ele>0</ele>
                        <time>2022-08-18T15:59:23Z</time>
                        <extensions>
    <sog>0.0</sog>
</extensions>
                    </trkpt>
                    <trkpt lat="54.33049166666667" lon="10.174733333333334">
                        <ele>0</ele>
                        <time>2022-08-18T16:02:25Z</time>
                        <extensions>
    <sog>0.0</sog>
</extensions>
                    </trkpt>
                    <trkpt lat="54.330495" lon="10.174726666666666">
                        <ele>0</ele>
                        <time>2022-08-18T16:05:22Z</time>
                        <extensions>
    <sog>0.0</sog>
</extensions>
                    </trkpt>
                    <trkpt lat="54.33048833333333" lon="10.174735">
                        <ele>0</ele>
                        <time>2022-08-18T16:08:23Z</time>
                        <extensions>
    <sog>0.0</sog>
</extensions>
                    </trkpt>
                    <trkpt lat="54.33049666666667" lon="10.174735">
                        <ele>0</ele>
                        <time>2022-08-18T16:14:24Z</time>
                        <extensions>
    <sog>0.0</sog>
</extensions>
                    </trkpt>
                    <trkpt lat="54.33048333333333" lon="10.174733333333334">
                        <ele>0</ele>
                        <time>2022-08-18T16:17:25Z</time>
                        <extensions>
    <sog>0.0</sog>
</extensions>
                    </trkpt>
                    <trkpt lat="54.330495" lon="10.17473">
                        <ele>0</ele>
                        <time>2022-08-18T16:20:25Z</time>
                        <extensions>
    <sog>0.0</sog>
</extensions>
                    </trkpt>
                    <trkpt lat="54.33049666666667" lon="10.174735">
                        <ele>0</ele>
                        <time>2022-08-18T16:23:25Z</time>
                        <extensions>
    <sog>0.1</sog>
</extensions>
                    </trkpt>
                    <trkpt lat="54.330484999999996" lon="10.174740000000002">
                        <ele>0</ele>
                        <time>2022-08-18T16:26:24Z</time>
                        <extensions>
    <sog>0.0</sog>
</extensions>
                    </trkpt>
                    <trkpt lat="54.33048333333333" lon="10.174735">
                        <ele>0</ele>
                        <time>2022-08-18T16:41:25Z</time>
                        <extensions>
    <sog>0.0</sog>
</extensions>
                    </trkpt>
                    <trkpt lat="54.330486666666665" lon="10.174733333333334">
                        <ele>0</ele>
                        <time>2022-08-18T16:47:24Z</time>
                        <extensions>
    <sog>0.0</sog>
</extensions>
                    </trkpt>
                    <trkpt lat="54.33047166666667" lon="10.174740000000002">
                        <ele>0</ele>
                        <time>2022-08-18T16:50:24Z</time>
                        <extensions>
    <sog>0.0</sog>
</extensions>
                    </trkpt>
                    <trkpt lat="54.33048333333333" lon="10.174743333333334">
                        <ele>0</ele>
                        <time>2022-08-18T16:56:25Z</time>
                        <extensions>
    <sog>0.1</sog>
</extensions>
                    </trkpt>
                    <trkpt lat="54.330481666666664" lon="10.174743333333334">
                        <ele>0</ele>
                        <time>2022-08-18T16:59:26Z</time>
                        <extensions>
    <sog>0.0</sog>
</extensions>
                    </trkpt>
                    <trkpt lat="54.330486666666665" lon="10.174736666666666">
                        <ele>0</ele>
                        <time>2022-08-18T17:02:24Z</time>
                        <extensions>
    <sog>0.0</sog>
</extensions>
                    </trkpt>
                    <trkpt lat="54.330475" lon="10.174736666666666">
                        <ele>0</ele>
                        <time>2022-08-18T17:14:24Z</time>
                        <extensions>
    <sog>0.1</sog>
</extensions>
                    </trkpt>
                    <trkpt lat="54.330486666666665" lon="10.174735">
                        <ele>0</ele>
                        <time>2022-08-18T17:20:24Z</time>
                        <extensions>
    <sog>0.0</sog>
</extensions>
                    </trkpt>
                    <trkpt lat="54.330486666666665" lon="10.174735">
                        <ele>0</ele>
                        <time>2022-08-18T17:23:26Z</time>
                        <extensions>
    <sog>0.0</sog>
</extensions>
                    </trkpt>
                    <trkpt lat="54.33047833333333" lon="10.174738333333332">
                        <ele>0</ele>
                        <time>2022-08-18T17:26:26Z</time>
                        <extensions>
    <sog>0.0</sog>
</extensions>
                    </trkpt>
                    <trkpt lat="54.33048333333333" lon="10.174716666666665">
                        <ele>0</ele>
                        <time>2022-08-18T17:32:24Z</time>
                        <extensions>
    <sog>0.0</sog>
</extensions>
                    </trkpt>
                    <trkpt lat="54.330479999999994" lon="10.174725">
                        <ele>0</ele>
                        <time>2022-08-18T17:35:25Z</time>
                        <extensions>
    <sog>0.0</sog>
</extensions>
                    </trkpt>
                    <trkpt lat="54.330484999999996" lon="10.174718333333335">
                        <ele>0</ele>
                        <time>2022-08-18T17:38:26Z</time>
                        <extensions>
    <sog>0.0</sog>
</extensions>
                    </trkpt>
                    <trkpt lat="54.330479999999994" lon="10.17472">
                        <ele>0</ele>
                        <time>2022-08-18T17:41:24Z</time>
                        <extensions>
    <sog>0.0</sog>
</extensions>
                    </trkpt>
                    <trkpt lat="54.330486666666665" lon="10.174716666666665">
                        <ele>0</ele>
                        <time>2022-08-18T17:44:24Z</time>
                        <extensions>
    <sog>0.0</sog>
</extensions>
                    </trkpt>
                    <trkpt lat="54.33048833333333" lon="10.174716666666665">
                        <ele>0</ele>
                        <time>2022-08-18T17:47:25Z</time>
                        <extensions>
    <sog>0.0</sog>
</extensions>
                    </trkpt>
                    <trkpt lat="54.330486666666665" lon="10.174708333333333">
                        <ele>0</ele>
                        <time>2022-08-18T17:56:23Z</time>
                        <extensions>
    <sog>0.0</sog>
</extensions>
                    </trkpt>
                    <trkpt lat="54.330484999999996" lon="10.174703333333333">
                        <ele>0</ele>
                        <time>2022-08-18T17:59:26Z</time>
                        <extensions>
    <sog>0.1</sog>
</extensions>
                    </trkpt>
                    <trkpt lat="54.330495" lon="10.174716666666665">
                        <ele>0</ele>
                        <time>2022-08-18T18:02:24Z</time>
                        <extensions>
    <sog>0.0</sog>
</extensions>
                    </trkpt>
                    <trkpt lat="54.330490000000005" lon="10.174701666666666">
                        <ele>0</ele>
                        <time>2022-08-18T18:05:23Z</time>
                        <extensions>
    <sog>0.0</sog>
</extensions>
                    </trkpt>
                    <trkpt lat="54.330486666666665" lon="10.174698333333334">
                        <ele>0</ele>
                        <time>2022-08-18T18:11:24Z</time>
                        <extensions>
    <sog>0.0</sog>
</extensions>
                    </trkpt>
                    <trkpt lat="54.330484999999996" lon="10.174711666666667">
                        <ele>0</ele>
                        <time>2022-08-18T18:17:26Z</time>
                        <extensions>
    <sog>0.0</sog>
</extensions>
                    </trkpt>
                    <trkpt lat="54.330481666666664" lon="10.174710000000001">
                        <ele>0</ele>
                        <time>2022-08-18T18:20:25Z</time>
                        <extensions>
    <sog>0.0</sog>
</extensions>
                    </trkpt>
                    <trkpt lat="54.33048333333333" lon="10.174703333333333">
                        <ele>0</ele>
                        <time>2022-08-18T18:23:23Z</time>
                        <extensions>
    <sog>0.0</sog>
</extensions>
                    </trkpt>
                    <trkpt lat="54.330490000000005" lon="10.174698333333334">
                        <ele>0</ele>
                        <time>2022-08-18T18:29:25Z</time>
                        <extensions>
    <sog>0.0</sog>
</extensions>
                    </trkpt>
                    <trkpt lat="54.33047833333333" lon="10.174683333333332">
                        <ele>0</ele>
                        <time>2022-08-18T18:41:24Z</time>
                        <extensions>
    <sog>0.0</sog>
</extensions>
                    </trkpt>
                    <trkpt lat="54.330486666666665" lon="10.174693333333332">
                        <ele>0</ele>
                        <time>2022-08-18T18:47:25Z</time>
                        <extensions>
    <sog>0.1</sog>
</extensions>
                    </trkpt>
                    <trkpt lat="54.33049166666667" lon="10.17469">
                        <ele>0</ele>
                        <time>2022-08-18T18:50:23Z</time>
                        <extensions>
    <sog>0.0</sog>
</extensions>
                    </trkpt>
                    <trkpt lat="54.330486666666665" lon="10.174701666666666">
                        <ele>0</ele>
                        <time>2022-08-18T18:53:23Z</time>
                        <extensions>
    <sog>0.0</sog>
</extensions>
                    </trkpt>
                    <trkpt lat="54.33049333333334" lon="10.174688333333334">
                        <ele>0</ele>
                        <time>2022-08-18T18:56:26Z</time>
                        <extensions>
    <sog>0.0</sog>
</extensions>
                    </trkpt>
                    <trkpt lat="54.330490000000005" lon="10.174695000000002">
                        <ele>0</ele>
                        <time>2022-08-18T18:59:26Z</time>
                        <extensions>
    <sog>0.1</sog>
</extensions>
                    </trkpt>
                    <trkpt lat="54.33049333333334" lon="10.174688333333334">
                        <ele>0</ele>
                        <time>2022-08-18T19:02:24Z</time>
                        <extensions>
    <sog>0.0</sog>
</extensions>
                    </trkpt>
                    <trkpt lat="54.33049333333334" lon="10.174688333333334">
                        <ele>0</ele>
                        <time>2022-08-18T19:02:24Z</time>
                        <extensions>
    <sog>0.0</sog>
</extensions>
                    </trkpt>
                    <trkpt lat="54.330495" lon="10.174693333333332">
                        <ele>0</ele>
                        <time>2022-08-18T19:05:23Z</time>
                        <extensions>
    <sog>0.0</sog>
</extensions>
                    </trkpt>
                    <trkpt lat="54.33050166666667" lon="10.174698333333334">
                        <ele>0</ele>
                        <time>2022-08-18T19:11:23Z</time>
                        <extensions>
    <sog>0.0</sog>
</extensions>
                    </trkpt>
                    <trkpt lat="54.33050333333333" lon="10.174698333333334">
                        <ele>0</ele>
                        <time>2022-08-18T19:14:25Z</time>
                        <extensions>
    <sog>0.0</sog>
</extensions>
                    </trkpt>
                    <trkpt lat="54.33050166666667" lon="10.174696666666668">
                        <ele>0</ele>
                        <time>2022-08-18T19:17:25Z</time>
                        <extensions>
    <sog>0.0</sog>
</extensions>
                    </trkpt>
                    <trkpt lat="54.33049833333334" lon="10.174696666666668">
                        <ele>0</ele>
                        <time>2022-08-18T19:20:23Z</time>
                        <extensions>
    <sog>0.0</sog>
</extensions>
                    </trkpt>
                    <trkpt lat="54.33049833333334" lon="10.174701666666666">
                        <ele>0</ele>
                        <time>2022-08-18T19:26:25Z</time>
                        <extensions>
    <sog>0.0</sog>
</extensions>
                    </trkpt>
                    <trkpt lat="54.33050333333333" lon="10.174693333333332">
                        <ele>0</ele>
                        <time>2022-08-18T19:29:26Z</time>
                        <extensions>
    <sog>0.0</sog>
</extensions>
                    </trkpt>
                    <trkpt lat="54.330505" lon="10.174693333333332">
                        <ele>0</ele>
                        <time>2022-08-18T19:32:25Z</time>
                        <extensions>
    <sog>0.0</sog>
</extensions>
                    </trkpt>
                    <trkpt lat="54.3305" lon="10.174691666666666">
                        <ele>0</ele>
                        <time>2022-08-18T19:35:26Z</time>
                        <extensions>
    <sog>0.0</sog>
</extensions>
                    </trkpt>
                    <trkpt lat="54.33051" lon="10.174701666666666">
                        <ele>0</ele>
                        <time>2022-08-18T19:38:22Z</time>
                        <extensions>
    <sog>0.0</sog>
</extensions>
                    </trkpt>
                    <trkpt lat="54.33051" lon="10.174696666666668">
                        <ele>0</ele>
                        <time>2022-08-18T19:41:24Z</time>
                        <extensions>
    <sog>0.0</sog>
</extensions>
                    </trkpt>
                    <trkpt lat="54.330515" lon="10.174701666666666">
                        <ele>0</ele>
                        <time>2022-08-18T19:44:25Z</time>
                        <extensions>
    <sog>0.0</sog>
</extensions>
                    </trkpt>
                    <trkpt lat="54.330511666666666" lon="10.174706666666667">
                        <ele>0</ele>
                        <time>2022-08-18T19:47:26Z</time>
                        <extensions>
    <sog>0.1</sog>
</extensions>
                    </trkpt>
                    <trkpt lat="54.33052" lon="10.174708333333333">
                        <ele>0</ele>
                        <time>2022-08-18T19:50:26Z</time>
                        <extensions>
    <sog>0.0</sog>
</extensions>
                    </trkpt>
                    <trkpt lat="54.33051" lon="10.174710000000001">
                        <ele>0</ele>
                        <time>2022-08-18T19:53:24Z</time>
                        <extensions>
    <sog>0.0</sog>
</extensions>
                    </trkpt>
                    <trkpt lat="54.33051" lon="10.17472">
                        <ele>0</ele>
                        <time>2022-08-18T19:56:24Z</time>
                        <extensions>
    <sog>0.0</sog>
</extensions>
                    </trkpt>
                    <trkpt lat="54.33051833333333" lon="10.174703333333333">
                        <ele>0</ele>
                        <time>2022-08-18T20:05:23Z</time>
                        <extensions>
    <sog>0.0</sog>
</extensions>
                    </trkpt>
                    <trkpt lat="54.330526666666664" lon="10.174708333333333">
                        <ele>0</ele>
                        <time>2022-08-18T20:11:22Z</time>
                        <extensions>
    <sog>0.0</sog>
</extensions>
                    </trkpt>
                    <trkpt lat="54.330524999999994" lon="10.174698333333334">
                        <ele>0</ele>
                        <time>2022-08-18T20:14:22Z</time>
                        <extensions>
    <sog>0.1</sog>
</extensions>
                    </trkpt>
                    <trkpt lat="54.330535000000005" lon="10.174706666666667">
                        <ele>0</ele>
                        <time>2022-08-18T20:17:22Z</time>
                        <extensions>
    <sog>0.0</sog>
</extensions>
                    </trkpt>
                    <trkpt lat="54.330529999999996" lon="10.174713333333333">
                        <ele>0</ele>
                        <time>2022-08-18T20:20:23Z</time>
                        <extensions>
    <sog>0.0</sog>
</extensions>
                    </trkpt>
                    <trkpt lat="54.33054" lon="10.174710000000001">
                        <ele>0</ele>
                        <time>2022-08-18T20:23:24Z</time>
                        <extensions>
    <sog>0.0</sog>
</extensions>
                    </trkpt>
                    <trkpt lat="54.33053666666667" lon="10.174703333333333">
                        <ele>0</ele>
                        <time>2022-08-18T20:26:25Z</time>
                        <extensions>
    <sog>0.0</sog>
</extensions>
                    </trkpt>
                    <trkpt lat="54.330526666666664" lon="10.174696666666668">
                        <ele>0</ele>
                        <time>2022-08-18T20:29:23Z</time>
                        <extensions>
    <sog>0.0</sog>
</extensions>
                    </trkpt>
                    <trkpt lat="54.330526666666664" lon="10.174711666666667">
                        <ele>0</ele>
                        <time>2022-08-18T20:32:25Z</time>
                        <extensions>
    <sog>0.0</sog>
</extensions>
                    </trkpt>
                    <trkpt lat="54.33052833333333" lon="10.174701666666666">
                        <ele>0</ele>
                        <time>2022-08-18T20:35:26Z</time>
                        <extensions>
    <sog>0.0</sog>
</extensions>
                    </trkpt>
                    <trkpt lat="54.33052166666666" lon="10.174711666666667">
                        <ele>0</ele>
                        <time>2022-08-18T20:38:23Z</time>
                        <extensions>
    <sog>0.0</sog>
</extensions>
                    </trkpt>
                    <trkpt lat="54.33052833333333" lon="10.174716666666665">
                        <ele>0</ele>
                        <time>2022-08-18T20:41:24Z</time>
                        <extensions>
    <sog>0.0</sog>
</extensions>
                    </trkpt>
                    <trkpt lat="54.33052333333333" lon="10.174701666666666">
                        <ele>0</ele>
                        <time>2022-08-18T20:47:25Z</time>
                        <extensions>
    <sog>0.0</sog>
</extensions>
                    </trkpt>
                    <trkpt lat="54.330531666666666" lon="10.174714999999999">
                        <ele>0</ele>
                        <time>2022-08-18T20:50:23Z</time>
                        <extensions>
    <sog>0.0</sog>
</extensions>
                    </trkpt>
                    <trkpt lat="54.330526666666664" lon="10.174714999999999">
                        <ele>0</ele>
                        <time>2022-08-18T20:53:25Z</time>
                        <extensions>
    <sog>0.0</sog>
</extensions>
                    </trkpt>
                    <trkpt lat="54.330526666666664" lon="10.174706666666667">
                        <ele>0</ele>
                        <time>2022-08-18T20:56:22Z</time>
                        <extensions>
    <sog>0.1</sog>
</extensions>
                    </trkpt>
                    <trkpt lat="54.330524999999994" lon="10.174713333333333">
                        <ele>0</ele>
                        <time>2022-08-18T21:02:24Z</time>
                        <extensions>
    <sog>0.0</sog>
</extensions>
                    </trkpt>
                    <trkpt lat="54.33053666666667" lon="10.174703333333333">
                        <ele>0</ele>
                        <time>2022-08-18T21:05:25Z</time>
                        <extensions>
    <sog>0.0</sog>
</extensions>
                    </trkpt>
                    <trkpt lat="54.33052333333333" lon="10.174703333333333">
                        <ele>0</ele>
                        <time>2022-08-18T21:17:25Z</time>
                        <extensions>
    <sog>0.0</sog>
</extensions>
                    </trkpt>
                    <trkpt lat="54.330526666666664" lon="10.174696666666668">
                        <ele>0</ele>
                        <time>2022-08-18T21:20:26Z</time>
                        <extensions>
    <sog>0.0</sog>
</extensions>
                    </trkpt>
                    <trkpt lat="54.330513333333336" lon="10.174705">
                        <ele>0</ele>
                        <time>2022-08-18T21:23:25Z</time>
                        <extensions>
    <sog>0.0</sog>
</extensions>
                    </trkpt>
                    <trkpt lat="54.330505" lon="10.174706666666667">
                        <ele>0</ele>
                        <time>2022-08-18T21:26:25Z</time>
                        <extensions>
    <sog>0.0</sog>
</extensions>
                    </trkpt>
                    <trkpt lat="54.330511666666666" lon="10.174698333333334">
                        <ele>0</ele>
                        <time>2022-08-18T21:29:25Z</time>
                        <extensions>
    <sog>0.0</sog>
</extensions>
                    </trkpt>
                    <trkpt lat="54.33052" lon="10.174705">
                        <ele>0</ele>
                        <time>2022-08-18T21:35:23Z</time>
                        <extensions>
    <sog>0.0</sog>
</extensions>
                    </trkpt>
                    <trkpt lat="54.33052" lon="10.174710000000001">
                        <ele>0</ele>
                        <time>2022-08-18T21:41:25Z</time>
                        <extensions>
    <sog>0.0</sog>
</extensions>
                    </trkpt>
                    <trkpt lat="54.33051" lon="10.174705">
                        <ele>0</ele>
                        <time>2022-08-18T21:47:24Z</time>
                        <extensions>
    <sog>0.0</sog>
</extensions>
                    </trkpt>
                    <trkpt lat="54.33051" lon="10.174693333333332">
                        <ele>0</ele>
                        <time>2022-08-18T21:50:23Z</time>
                        <extensions>
    <sog>0.0</sog>
</extensions>
                    </trkpt>
                    <trkpt lat="54.33049833333334" lon="10.174695000000002">
                        <ele>0</ele>
                        <time>2022-08-18T21:53:25Z</time>
                        <extensions>
    <sog>0.0</sog>
</extensions>
                    </trkpt>
                    <trkpt lat="54.330511666666666" lon="10.174705">
                        <ele>0</ele>
                        <time>2022-08-18T21:56:24Z</time>
                        <extensions>
    <sog>0.0</sog>
</extensions>
                    </trkpt>
                    <trkpt lat="54.33051" lon="10.17469">
                        <ele>0</ele>
                        <time>2022-08-18T21:59:26Z</time>
                        <extensions>
    <sog>0.0</sog>
</extensions>
                    </trkpt>
                    <trkpt lat="54.330511666666666" lon="10.174708333333333">
                        <ele>0</ele>
                        <time>2022-08-18T22:11:23Z</time>
                        <extensions>
    <sog>0.0</sog>
</extensions>
                    </trkpt>
                    <trkpt lat="54.330506666666665" lon="10.174705">
                        <ele>0</ele>
                        <time>2022-08-18T22:14:25Z</time>
                        <extensions>
    <sog>0.0</sog>
</extensions>
                    </trkpt>
                    <trkpt lat="54.330508333333334" lon="10.174703333333333">
                        <ele>0</ele>
                        <time>2022-08-18T22:23:24Z</time>
                        <extensions>
    <sog>0.0</sog>
</extensions>
                    </trkpt>
                    <trkpt lat="54.33050333333333" lon="10.174703333333333">
                        <ele>0</ele>
                        <time>2022-08-18T22:29:25Z</time>
                        <extensions>
    <sog>0.0</sog>
</extensions>
                    </trkpt>
                    <trkpt lat="54.33050333333333" lon="10.174710000000001">
                        <ele>0</ele>
                        <time>2022-08-18T22:32:25Z</time>
                        <extensions>
    <sog>0.0</sog>
</extensions>
                    </trkpt>
                    <trkpt lat="54.330506666666665" lon="10.174703333333333">
                        <ele>0</ele>
                        <time>2022-08-18T22:38:24Z</time>
                        <extensions>
    <sog>0.0</sog>
</extensions>
                    </trkpt>
                    <trkpt lat="54.33050166666667" lon="10.174711666666667">
                        <ele>0</ele>
                        <time>2022-08-18T22:44:23Z</time>
                        <extensions>
    <sog>0.0</sog>
</extensions>
                    </trkpt>
                    <trkpt lat="54.33048833333333" lon="10.174721666666667">
                        <ele>0</ele>
                        <time>2022-08-18T22:53:25Z</time>
                        <extensions>
    <sog>0.0</sog>
</extensions>
                    </trkpt>
                    <trkpt lat="54.33049166666667" lon="10.174713333333333">
                        <ele>0</ele>
                        <time>2022-08-18T22:56:23Z</time>
                        <extensions>
    <sog>0.0</sog>
</extensions>
                    </trkpt>
                    <trkpt lat="54.33048333333333" lon="10.17473">
                        <ele>0</ele>
                        <time>2022-08-18T23:05:25Z</time>
                        <extensions>
    <sog>0.0</sog>
</extensions>
                    </trkpt>
                    <trkpt lat="54.33049666666667" lon="10.174713333333333">
                        <ele>0</ele>
                        <time>2022-08-18T23:08:25Z</time>
                        <extensions>
    <sog>0.0</sog>
</extensions>
                    </trkpt>
                    <trkpt lat="54.330495" lon="10.174713333333333">
                        <ele>0</ele>
                        <time>2022-08-18T23:11:25Z</time>
                        <extensions>
    <sog>0.0</sog>
</extensions>
                    </trkpt>
                    <trkpt lat="54.33047333333333" lon="10.174726666666666">
                        <ele>0</ele>
                        <time>2022-08-18T23:14:22Z</time>
                        <extensions>
    <sog>0.0</sog>
</extensions>
                    </trkpt>
                    <trkpt lat="54.330484999999996" lon="10.174723333333333">
                        <ele>0</ele>
                        <time>2022-08-18T23:20:25Z</time>
                        <extensions>
    <sog>0.0</sog>
</extensions>
                    </trkpt>
                    <trkpt lat="54.33047666666666" lon="10.174714999999999">
                        <ele>0</ele>
                        <time>2022-08-18T23:23:24Z</time>
                        <extensions>
    <sog>0.0</sog>
</extensions>
                    </trkpt>
                    <trkpt lat="54.33047" lon="10.17472">
                        <ele>0</ele>
                        <time>2022-08-18T23:32:26Z</time>
                        <extensions>
    <sog>0.0</sog>
</extensions>
                    </trkpt>
                    <trkpt lat="54.330479999999994" lon="10.174721666666667">
                        <ele>0</ele>
                        <time>2022-08-18T23:35:25Z</time>
                        <extensions>
    <sog>0.0</sog>
</extensions>
                    </trkpt>
                    <trkpt lat="54.33047166666667" lon="10.174725">
                        <ele>0</ele>
                        <time>2022-08-18T23:38:25Z</time>
                        <extensions>
    <sog>0.0</sog>
</extensions>
                    </trkpt>
                    <trkpt lat="54.330465000000004" lon="10.174718333333335">
                        <ele>0</ele>
                        <time>2022-08-18T23:47:23Z</time>
                        <extensions>
    <sog>0.0</sog>
</extensions>
                    </trkpt>
                    <trkpt lat="54.330468333333336" lon="10.174716666666665">
                        <ele>0</ele>
                        <time>2022-08-18T23:50:23Z</time>
                        <extensions>
    <sog>0.0</sog>
</extensions>
                    </trkpt>
                    <trkpt lat="54.330466666666666" lon="10.174705">
                        <ele>0</ele>
                        <time>2022-08-18T23:53:26Z</time>
                        <extensions>
    <sog>0.0</sog>
</extensions>
                    </trkpt>
                    <trkpt lat="54.330466666666666" lon="10.174713333333333">
                        <ele>0</ele>
                        <time>2022-08-18T23:56:24Z</time>
                        <extensions>
    <sog>0.0</sog>
</extensions>
                    </trkpt>
                    <trkpt lat="54.330479999999994" lon="10.174716666666665">
                        <ele>0</ele>
                        <time>2022-08-18T23:59:25Z</time>
                        <extensions>
    <sog>0.0</sog>
</extensions>
                    </trkpt>
                    </trkseg>
                </trk>
</gpx>