<?xml version="1.0" encoding="UTF-8"?>
<gpx version="1.1" creator="AIS-to-GPX Converter" xmlns="http://www.topografix.com/GPX/1/1">
                <trk>
                    <name>anon0368</name>
                    <trkseg>
                                            <trkpt lat="54.600746666666666" lon="11.20037">
                        <ele>0</ele>
                        <time>2022-08-18T15:24:51Z</time>
                                                <extensions>
                            <sog>14.3</sog>
<cog>285.7</cog>
                        </extensions>
                    </trkpt>
                    <trkpt lat="54.67533" lon="10.792515">
                        <ele>0</ele>
                        <time>2022-08-18T16:30:21Z</time>
                                                <extensions>
                            <sog>13.7</sog>
<cog>308.8</cog>
                        </extensions>
                    </trkpt>
                    <trkpt lat="54.67959333333333" lon="10.78397">
                        <ele>0</ele>
                        <time>2022-08-18T16:32:03Z</time>
                                                <extensions>
                            <sog>13.6</sog>
<cog>315.7</cog>
                        </extensions>
                    </trkpt>
                    <trkpt lat="54.68065166666667" lon="10.782276666666666">
                        <ele>0</ele>
                        <time>2022-08-18T16:32:27Z</time>
                                                <extensions>
                            <sog>13.6</sog>
<cog>317.8</cog>
                        </extensions>
                    </trkpt>
                    <trkpt lat="54.683110000000006" lon="10.779181666666666">
                        <ele>0</ele>
                        <time>2022-08-18T16:33:15Z</time>
                                                <extensions>
                            <sog>13.2</sog>
<cog>328.2</cog>
                        </extensions>
                    </trkpt>
                    <trkpt lat="54.68408" lon="10.77828">
                        <ele>0</ele>
                        <time>2022-08-18T16:33:34Z</time>
                                                <extensions>
                            <sog>13.1</sog>
<cog>332.3</cog>
                        </extensions>
                    </trkpt>
                    <trkpt lat="54.68441166666666" lon="10.778011666666666">
                        <ele>0</ele>
                        <time>2022-08-18T16:33:39Z</time>
                                                <extensions>
                            <sog>13.1</sog>
<cog>333.3</cog>
                        </extensions>
                    </trkpt>
                    <trkpt lat="54.686434999999996" lon="10.77684">
                        <ele>0</ele>
                        <time>2022-08-18T16:34:15Z</time>
                                                <extensions>
                            <sog>12.7</sog>
<cog>344.7</cog>
                        </extensions>
                    </trkpt>
                    <trkpt lat="54.688161666666666" lon="10.776106666666667">
                        <ele>0</ele>
                        <time>2022-08-18T16:34:45Z</time>
                                                <extensions>
                            <sog>12.7</sog>
<cog>346.9</cog>
                        </extensions>
                    </trkpt>
                    <trkpt lat="54.68874" lon="10.775910000000001">
                        <ele>0</ele>
                        <time>2022-08-18T16:34:55Z</time>
                                                <extensions>
                            <sog>12.7</sog>
<cog>348.2</cog>
                        </extensions>
                    </trkpt>
                    <trkpt lat="54.697555" lon="10.775575">
                        <ele>0</ele>
                        <time>2022-08-18T16:37:25Z</time>
                                                <extensions>
                            <sog>12.8</sog>
<cog>4.0</cog>
                        </extensions>
                    </trkpt>
                    </trkseg>
                </trk>
</gpx>