<?xml version="1.0" encoding="UTF-8"?>
<gpx version="1.1" creator="AIS-to-GPX Converter" xmlns="http://www.topografix.com/GPX/1/1">
                <trk>
                    <name>anon0159</name>
                    <trkseg>
                                            <trkpt lat="54.3301" lon="10.171593333333334">
                        <ele>0</ele>
                        <time>2022-08-18T12:55:56Z</time>
                        <extensions>
    <sog>0.0</sog>
</extensions>
                    </trkpt>
                    <trkpt lat="54.3301" lon="10.171593333333334">
                        <ele>0</ele>
                        <time>2022-08-18T12:55:56Z</time>
                        <extensions>
    <sog>0.0</sog>
</extensions>
                    </trkpt>
                    <trkpt lat="54.33009833333333" lon="10.171591666666666">
                        <ele>0</ele>
                        <time>2022-08-18T12:58:58Z</time>
                        <extensions>
    <sog>0.0</sog>
</extensions>
                    </trkpt>
                    <trkpt lat="54.330085000000004" lon="10.171586666666666">
                        <ele>0</ele>
                        <time>2022-08-18T13:01:56Z</time>
                        <extensions>
    <sog>0.2</sog>
</extensions>
                    </trkpt>
                    <trkpt lat="54.32993666666667" lon="10.17158">
                        <ele>0</ele>
                        <time>2022-08-18T13:03:25Z</time>
                                                <extensions>
                            <sog>2.4</sog>
<cog>79.1</cog>
                        </extensions>
                    </trkpt>
                    <trkpt lat="54.330288333333336" lon="10.171983333333333">
                        <ele>0</ele>
                        <time>2022-08-18T13:03:54Z</time>
                                                <extensions>
                            <sog>4.0</sog>
<cog>340.9</cog>
                        </extensions>
                    </trkpt>
                    <trkpt lat="54.331363333333336" lon="10.170751666666666">
                        <ele>0</ele>
                        <time>2022-08-18T13:04:54Z</time>
                                                <extensions>
                            <sog>4.7</sog>
<cog>324.1</cog>
                        </extensions>
                    </trkpt>
                    <trkpt lat="54.33255" lon="10.168851666666665">
                        <ele>0</ele>
                        <time>2022-08-18T13:05:54Z</time>
                                                <extensions>
                            <sog>6.3</sog>
<cog>315.9</cog>
                        </extensions>
                    </trkpt>
                    <trkpt lat="54.333245000000005" lon="10.167776666666667">
                        <ele>0</ele>
                        <time>2022-08-18T13:06:25Z</time>
                                                <extensions>
                            <sog>6.3</sog>
<cog>324.9</cog>
                        </extensions>
                    </trkpt>
                    <trkpt lat="54.33473333333333" lon="10.166208333333334">
                        <ele>0</ele>
                        <time>2022-08-18T13:07:25Z</time>
                                                <extensions>
                            <sog>6.4</sog>
<cog>330.8</cog>
                        </extensions>
                    </trkpt>
                    <trkpt lat="54.33554" lon="10.165685">
                        <ele>0</ele>
                        <time>2022-08-18T13:07:54Z</time>
                                                <extensions>
                            <sog>6.5</sog>
<cog>347.4</cog>
                        </extensions>
                    </trkpt>
                    <trkpt lat="54.336461666666665" lon="10.165476666666667">
                        <ele>0</ele>
                        <time>2022-08-18T13:08:25Z</time>
                                                <extensions>
                            <sog>6.5</sog>
<cog>1.3</cog>
                        </extensions>
                    </trkpt>
                    <trkpt lat="54.33734166666667" lon="10.165588333333334">
                        <ele>0</ele>
                        <time>2022-08-18T13:08:54Z</time>
                                                <extensions>
                            <sog>7.0</sog>
<cog>7.6</cog>
                        </extensions>
                    </trkpt>
                    <trkpt lat="54.340286666666664" lon="10.166326666666667">
                        <ele>0</ele>
                        <time>2022-08-18T13:10:25Z</time>
                                                <extensions>
                            <sog>7.0</sog>
<cog>7.9</cog>
                        </extensions>
                    </trkpt>
                    <trkpt lat="54.341245" lon="10.16656">
                        <ele>0</ele>
                        <time>2022-08-18T13:10:55Z</time>
                                                <extensions>
                            <sog>7.0</sog>
<cog>5.8</cog>
                        </extensions>
                    </trkpt>
                    <trkpt lat="54.342198333333336" lon="10.166753333333332">
                        <ele>0</ele>
                        <time>2022-08-18T13:11:26Z</time>
                                                <extensions>
                            <sog>6.8</sog>
<cog>8.4</cog>
                        </extensions>
                    </trkpt>
                    <trkpt lat="54.34314666666667" lon="10.167031666666666">
                        <ele>0</ele>
                        <time>2022-08-18T13:11:55Z</time>
                                                <extensions>
                            <sog>6.9</sog>
<cog>6.4</cog>
                        </extensions>
                    </trkpt>
                    <trkpt lat="54.34413" lon="10.167173333333333">
                        <ele>0</ele>
                        <time>2022-08-18T13:12:26Z</time>
                                                <extensions>
                            <sog>7.0</sog>
<cog>7.2</cog>
                        </extensions>
                    </trkpt>
                    <trkpt lat="54.34603333333334" lon="10.167438333333333">
                        <ele>0</ele>
                        <time>2022-08-18T13:13:26Z</time>
                                                <extensions>
                            <sog>6.9</sog>
<cog>5.6</cog>
                        </extensions>
                    </trkpt>
                    <trkpt lat="54.348859999999995" lon="10.168061666666667">
                        <ele>0</ele>
                        <time>2022-08-18T13:14:55Z</time>
                                                <extensions>
                            <sog>7.0</sog>
<cog>14.3</cog>
                        </extensions>
                    </trkpt>
                    <trkpt lat="54.349804999999996" lon="10.168443333333332">
                        <ele>0</ele>
                        <time>2022-08-18T13:15:26Z</time>
                                                <extensions>
                            <sog>6.9</sog>
<cog>12.3</cog>
                        </extensions>
                    </trkpt>
                    <trkpt lat="54.35071833333333" lon="10.168838333333333">
                        <ele>0</ele>
                        <time>2022-08-18T13:15:55Z</time>
                                                <extensions>
                            <sog>7.1</sog>
<cog>15.4</cog>
                        </extensions>
                    </trkpt>
                    <trkpt lat="54.35169" lon="10.169311666666665">
                        <ele>0</ele>
                        <time>2022-08-18T13:16:26Z</time>
                                                <extensions>
                            <sog>7.0</sog>
<cog>16.1</cog>
                        </extensions>
                    </trkpt>
                    <trkpt lat="54.35449166666667" lon="10.170651666666666">
                        <ele>0</ele>
                        <time>2022-08-18T13:17:55Z</time>
                                                <extensions>
                            <sog>7.0</sog>
<cog>16.1</cog>
                        </extensions>
                    </trkpt>
                    <trkpt lat="54.35541166666667" lon="10.171098333333333">
                        <ele>0</ele>
                        <time>2022-08-18T13:18:26Z</time>
                                                <extensions>
                            <sog>6.9</sog>
<cog>16.1</cog>
                        </extensions>
                    </trkpt>
                    <trkpt lat="54.35627" lon="10.171525">
                        <ele>0</ele>
                        <time>2022-08-18T13:18:54Z</time>
                                                <extensions>
                            <sog>7.0</sog>
<cog>15.1</cog>
                        </extensions>
                    </trkpt>
                    <trkpt lat="54.357255" lon="10.17202">
                        <ele>0</ele>
                        <time>2022-08-18T13:19:26Z</time>
                                                <extensions>
                            <sog>6.9</sog>
<cog>18.0</cog>
                        </extensions>
                    </trkpt>
                    <trkpt lat="54.358115" lon="10.172443333333332">
                        <ele>0</ele>
                        <time>2022-08-18T13:19:54Z</time>
                                                <extensions>
                            <sog>6.9</sog>
<cog>16.9</cog>
                        </extensions>
                    </trkpt>
                    <trkpt lat="54.35909166666667" lon="10.172968333333333">
                        <ele>0</ele>
                        <time>2022-08-18T13:20:26Z</time>
                                                <extensions>
                            <sog>7.0</sog>
<cog>13.0</cog>
                        </extensions>
                    </trkpt>
                    <trkpt lat="54.359968333333335" lon="10.173278333333334">
                        <ele>0</ele>
                        <time>2022-08-18T13:20:54Z</time>
                                                <extensions>
                            <sog>7.0</sog>
<cog>16.6</cog>
                        </extensions>
                    </trkpt>
                    <trkpt lat="54.360965" lon="10.173765">
                        <ele>0</ele>
                        <time>2022-08-18T13:21:26Z</time>
                                                <extensions>
                            <sog>6.9</sog>
<cog>15.0</cog>
                        </extensions>
                    </trkpt>
                    <trkpt lat="54.361819999999994" lon="10.174216666666666">
                        <ele>0</ele>
                        <time>2022-08-18T13:21:54Z</time>
                                                <extensions>
                            <sog>7.1</sog>
<cog>16.1</cog>
                        </extensions>
                    </trkpt>
                    <trkpt lat="54.36279833333333" lon="10.174678333333333">
                        <ele>0</ele>
                        <time>2022-08-18T13:22:26Z</time>
                                                <extensions>
                            <sog>7.0</sog>
<cog>16.4</cog>
                        </extensions>
                    </trkpt>
                    <trkpt lat="54.36362999999999" lon="10.175171666666667">
                        <ele>0</ele>
                        <time>2022-08-18T13:22:54Z</time>
                                                <extensions>
                            <sog>6.8</sog>
<cog>23.5</cog>
                        </extensions>
                    </trkpt>
                    <trkpt lat="54.36451833333333" lon="10.176085">
                        <ele>0</ele>
                        <time>2022-08-18T13:23:26Z</time>
                                                <extensions>
                            <sog>6.8</sog>
<cog>33.9</cog>
                        </extensions>
                    </trkpt>
                    <trkpt lat="54.36523666666667" lon="10.176866666666665">
                        <ele>0</ele>
                        <time>2022-08-18T13:23:54Z</time>
                                                <extensions>
                            <sog>6.9</sog>
<cog>34.8</cog>
                        </extensions>
                    </trkpt>
                    <trkpt lat="54.36609166666666" lon="10.17779">
                        <ele>0</ele>
                        <time>2022-08-18T13:24:26Z</time>
                                                <extensions>
                            <sog>6.9</sog>
<cog>32.4</cog>
                        </extensions>
                    </trkpt>
                    <trkpt lat="54.36685" lon="10.178590000000002">
                        <ele>0</ele>
                        <time>2022-08-18T13:24:54Z</time>
                                                <extensions>
                            <sog>6.8</sog>
<cog>31.6</cog>
                        </extensions>
                    </trkpt>
                    <trkpt lat="54.367736666666666" lon="10.17954">
                        <ele>0</ele>
                        <time>2022-08-18T13:25:26Z</time>
                                                <extensions>
                            <sog>6.9</sog>
<cog>31.7</cog>
                        </extensions>
                    </trkpt>
                    <trkpt lat="54.368475" lon="10.180311666666666">
                        <ele>0</ele>
                        <time>2022-08-18T13:25:54Z</time>
                                                <extensions>
                            <sog>7.0</sog>
<cog>31.5</cog>
                        </extensions>
                    </trkpt>
                    <trkpt lat="54.369386666666664" lon="10.18124">
                        <ele>0</ele>
                        <time>2022-08-18T13:26:26Z</time>
                                                <extensions>
                            <sog>7.1</sog>
<cog>30.4</cog>
                        </extensions>
                    </trkpt>
                    <trkpt lat="54.370133333333335" lon="10.182006666666666">
                        <ele>0</ele>
                        <time>2022-08-18T13:26:54Z</time>
                                                <extensions>
                            <sog>6.9</sog>
<cog>32.2</cog>
                        </extensions>
                    </trkpt>
                    <trkpt lat="54.371030000000005" lon="10.182981666666667">
                        <ele>0</ele>
                        <time>2022-08-18T13:27:26Z</time>
                                                <extensions>
                            <sog>6.9</sog>
<cog>31.1</cog>
                        </extensions>
                    </trkpt>
                    <trkpt lat="54.37271" lon="10.184556666666667">
                        <ele>0</ele>
                        <time>2022-08-18T13:28:26Z</time>
                                                <extensions>
                            <sog>6.8</sog>
<cog>29.2</cog>
                        </extensions>
                    </trkpt>
                    <trkpt lat="54.37352333333333" lon="10.185278333333335">
                        <ele>0</ele>
                        <time>2022-08-18T13:28:55Z</time>
                                                <extensions>
                            <sog>7.0</sog>
<cog>27.9</cog>
                        </extensions>
                    </trkpt>
                    <trkpt lat="54.374379999999995" lon="10.18608">
                        <ele>0</ele>
                        <time>2022-08-18T13:29:26Z</time>
                                                <extensions>
                            <sog>6.9</sog>
<cog>27.7</cog>
                        </extensions>
                    </trkpt>
                    <trkpt lat="54.37604666666667" lon="10.187566666666667">
                        <ele>0</ele>
                        <time>2022-08-18T13:30:27Z</time>
                                                <extensions>
                            <sog>6.7</sog>
<cog>29.9</cog>
                        </extensions>
                    </trkpt>
                    <trkpt lat="54.376801666666665" lon="10.188411666666667">
                        <ele>0</ele>
                        <time>2022-08-18T13:30:55Z</time>
                                                <extensions>
                            <sog>6.8</sog>
<cog>32.3</cog>
                        </extensions>
                    </trkpt>
                    <trkpt lat="54.377653333333335" lon="10.189291666666666">
                        <ele>0</ele>
                        <time>2022-08-18T13:31:27Z</time>
                                                <extensions>
                            <sog>6.8</sog>
<cog>30.8</cog>
                        </extensions>
                    </trkpt>
                    <trkpt lat="54.37840166666667" lon="10.190066666666667">
                        <ele>0</ele>
                        <time>2022-08-18T13:31:55Z</time>
                                                <extensions>
                            <sog>6.8</sog>
<cog>30.2</cog>
                        </extensions>
                    </trkpt>
                    <trkpt lat="54.379985000000005" lon="10.191656666666667">
                        <ele>0</ele>
                        <time>2022-08-18T13:32:55Z</time>
                                                <extensions>
                            <sog>6.6</sog>
<cog>29.8</cog>
                        </extensions>
                    </trkpt>
                    <trkpt lat="54.38154833333333" lon="10.193205">
                        <ele>0</ele>
                        <time>2022-08-18T13:33:55Z</time>
                                                <extensions>
                            <sog>6.6</sog>
<cog>36.1</cog>
                        </extensions>
                    </trkpt>
                    <trkpt lat="54.38229666666667" lon="10.194186666666667">
                        <ele>0</ele>
                        <time>2022-08-18T13:34:27Z</time>
                                                <extensions>
                            <sog>6.5</sog>
<cog>39.9</cog>
                        </extensions>
                    </trkpt>
                    <trkpt lat="54.382976666666664" lon="10.195118333333333">
                        <ele>0</ele>
                        <time>2022-08-18T13:34:55Z</time>
                                                <extensions>
                            <sog>6.5</sog>
<cog>36.2</cog>
                        </extensions>
                    </trkpt>
                    <trkpt lat="54.383739999999996" lon="10.196066666666667">
                        <ele>0</ele>
                        <time>2022-08-18T13:35:27Z</time>
                                                <extensions>
                            <sog>6.6</sog>
<cog>31.4</cog>
                        </extensions>
                    </trkpt>
                    <trkpt lat="54.38452333333333" lon="10.196776666666667">
                        <ele>0</ele>
                        <time>2022-08-18T13:35:55Z</time>
                                                <extensions>
                            <sog>6.8</sog>
<cog>25.2</cog>
                        </extensions>
                    </trkpt>
                    <trkpt lat="54.385373333333334" lon="10.197328333333333">
                        <ele>0</ele>
                        <time>2022-08-18T13:36:25Z</time>
                                                <extensions>
                            <sog>6.6</sog>
<cog>20.7</cog>
                        </extensions>
                    </trkpt>
                    <trkpt lat="54.386226666666666" lon="10.197723333333332">
                        <ele>0</ele>
                        <time>2022-08-18T13:36:55Z</time>
                                                <extensions>
                            <sog>6.4</sog>
<cog>18.3</cog>
                        </extensions>
                    </trkpt>
                    <trkpt lat="54.38711833333333" lon="10.19826">
                        <ele>0</ele>
                        <time>2022-08-18T13:37:25Z</time>
                                                <extensions>
                            <sog>6.7</sog>
<cog>19.9</cog>
                        </extensions>
                    </trkpt>
                    <trkpt lat="54.387944999999995" lon="10.198748333333333">
                        <ele>0</ele>
                        <time>2022-08-18T13:37:55Z</time>
                                                <extensions>
                            <sog>6.6</sog>
<cog>18.2</cog>
                        </extensions>
                    </trkpt>
                    <trkpt lat="54.38883833333333" lon="10.199275">
                        <ele>0</ele>
                        <time>2022-08-18T13:38:25Z</time>
                                                <extensions>
                            <sog>6.6</sog>
<cog>20.1</cog>
                        </extensions>
                    </trkpt>
                    <trkpt lat="54.39059833333333" lon="10.200178333333334">
                        <ele>0</ele>
                        <time>2022-08-18T13:39:25Z</time>
                                                <extensions>
                            <sog>6.6</sog>
<cog>19.5</cog>
                        </extensions>
                    </trkpt>
                    <trkpt lat="54.39147833333333" lon="10.20068">
                        <ele>0</ele>
                        <time>2022-08-18T13:39:55Z</time>
                                                <extensions>
                            <sog>6.5</sog>
<cog>17.7</cog>
                        </extensions>
                    </trkpt>
                    <trkpt lat="54.392354999999995" lon="10.2012">
                        <ele>0</ele>
                        <time>2022-08-18T13:40:25Z</time>
                                                <extensions>
                            <sog>6.7</sog>
<cog>18.6</cog>
                        </extensions>
                    </trkpt>
                    <trkpt lat="54.39324166666667" lon="10.201695">
                        <ele>0</ele>
                        <time>2022-08-18T13:40:55Z</time>
                                                <extensions>
                            <sog>6.7</sog>
<cog>19.0</cog>
                        </extensions>
                    </trkpt>
                    <trkpt lat="54.394130000000004" lon="10.202188333333334">
                        <ele>0</ele>
                        <time>2022-08-18T13:41:26Z</time>
                                                <extensions>
                            <sog>6.9</sog>
<cog>18.3</cog>
                        </extensions>
                    </trkpt>
                    <trkpt lat="54.39501166666666" lon="10.202685">
                        <ele>0</ele>
                        <time>2022-08-18T13:41:56Z</time>
                                                <extensions>
                            <sog>6.8</sog>
<cog>18.1</cog>
                        </extensions>
                    </trkpt>
                    <trkpt lat="54.39590333333333" lon="10.203165">
                        <ele>0</ele>
                        <time>2022-08-18T13:42:26Z</time>
                                                <extensions>
                            <sog>6.8</sog>
<cog>17.4</cog>
                        </extensions>
                    </trkpt>
                    <trkpt lat="54.396825" lon="10.203695000000002">
                        <ele>0</ele>
                        <time>2022-08-18T13:42:56Z</time>
                                                <extensions>
                            <sog>6.8</sog>
<cog>17.5</cog>
                        </extensions>
                    </trkpt>
                    <trkpt lat="54.39770166666666" lon="10.204184999999999">
                        <ele>0</ele>
                        <time>2022-08-18T13:43:26Z</time>
                                                <extensions>
                            <sog>6.8</sog>
<cog>18.5</cog>
                        </extensions>
                    </trkpt>
                    <trkpt lat="54.39862333333333" lon="10.204704999999999">
                        <ele>0</ele>
                        <time>2022-08-18T13:43:56Z</time>
                                                <extensions>
                            <sog>6.6</sog>
<cog>18.5</cog>
                        </extensions>
                    </trkpt>
                    <trkpt lat="54.399480000000004" lon="10.205158333333333">
                        <ele>0</ele>
                        <time>2022-08-18T13:44:26Z</time>
                                                <extensions>
                            <sog>6.6</sog>
<cog>18.1</cog>
                        </extensions>
                    </trkpt>
                    <trkpt lat="54.40036333333333" lon="10.205643333333335">
                        <ele>0</ele>
                        <time>2022-08-18T13:44:56Z</time>
                                                <extensions>
                            <sog>6.6</sog>
<cog>17.3</cog>
                        </extensions>
                    </trkpt>
                    <trkpt lat="54.40209333333333" lon="10.206608333333332">
                        <ele>0</ele>
                        <time>2022-08-18T13:45:54Z</time>
                                                <extensions>
                            <sog>6.7</sog>
<cog>19.2</cog>
                        </extensions>
                    </trkpt>
                    <trkpt lat="54.40303666666667" lon="10.207135">
                        <ele>0</ele>
                        <time>2022-08-18T13:46:26Z</time>
                                                <extensions>
                            <sog>6.8</sog>
<cog>18.2</cog>
                        </extensions>
                    </trkpt>
                    <trkpt lat="54.403815" lon="10.20763">
                        <ele>0</ele>
                        <time>2022-08-18T13:46:54Z</time>
                                                <extensions>
                            <sog>6.5</sog>
<cog>21.3</cog>
                        </extensions>
                    </trkpt>
                    <trkpt lat="54.404806666666666" lon="10.208208333333333">
                        <ele>0</ele>
                        <time>2022-08-18T13:47:26Z</time>
                                                <extensions>
                            <sog>6.6</sog>
<cog>19.3</cog>
                        </extensions>
                    </trkpt>
                    <trkpt lat="54.40655666666667" lon="10.209188333333334">
                        <ele>0</ele>
                        <time>2022-08-18T13:48:26Z</time>
                                                <extensions>
                            <sog>6.6</sog>
<cog>19.2</cog>
                        </extensions>
                    </trkpt>
                    <trkpt lat="54.407379999999996" lon="10.209658333333334">
                        <ele>0</ele>
                        <time>2022-08-18T13:48:54Z</time>
                                                <extensions>
                            <sog>6.8</sog>
<cog>18.4</cog>
                        </extensions>
                    </trkpt>
                    <trkpt lat="54.40832666666667" lon="10.21016">
                        <ele>0</ele>
                        <time>2022-08-18T13:49:26Z</time>
                                                <extensions>
                            <sog>6.8</sog>
<cog>16.9</cog>
                        </extensions>
                    </trkpt>
                    <trkpt lat="54.409126666666666" lon="10.210585">
                        <ele>0</ele>
                        <time>2022-08-18T13:49:54Z</time>
                                                <extensions>
                            <sog>6.7</sog>
<cog>16.6</cog>
                        </extensions>
                    </trkpt>
                    <trkpt lat="54.410091666666666" lon="10.211111666666666">
                        <ele>0</ele>
                        <time>2022-08-18T13:50:26Z</time>
                                                <extensions>
                            <sog>6.6</sog>
<cog>18.3</cog>
                        </extensions>
                    </trkpt>
                    <trkpt lat="54.410815" lon="10.211758333333334">
                        <ele>0</ele>
                        <time>2022-08-18T13:50:54Z</time>
                                                <extensions>
                            <sog>6.5</sog>
<cog>31.7</cog>
                        </extensions>
                    </trkpt>
                    <trkpt lat="54.41171166666666" lon="10.212536666666667">
                        <ele>0</ele>
                        <time>2022-08-18T13:51:26Z</time>
                                                <extensions>
                            <sog>6.6</sog>
<cog>26.6</cog>
                        </extensions>
                    </trkpt>
                    <trkpt lat="54.41245833333333" lon="10.213099999999999">
                        <ele>0</ele>
                        <time>2022-08-18T13:51:54Z</time>
                                                <extensions>
                            <sog>6.6</sog>
<cog>17.7</cog>
                        </extensions>
                    </trkpt>
                    <trkpt lat="54.413423333333334" lon="10.213643333333332">
                        <ele>0</ele>
                        <time>2022-08-18T13:52:26Z</time>
                                                <extensions>
                            <sog>6.7</sog>
<cog>18.0</cog>
                        </extensions>
                    </trkpt>
                    <trkpt lat="54.415058333333334" lon="10.215021666666667">
                        <ele>0</ele>
                        <time>2022-08-18T13:53:26Z</time>
                                                <extensions>
                            <sog>6.7</sog>
<cog>30.6</cog>
                        </extensions>
                    </trkpt>
                    <trkpt lat="54.41582166666667" lon="10.215775">
                        <ele>0</ele>
                        <time>2022-08-18T13:53:55Z</time>
                                                <extensions>
                            <sog>6.6</sog>
<cog>29.8</cog>
                        </extensions>
                    </trkpt>
                    <trkpt lat="54.41664166666667" lon="10.216573333333335">
                        <ele>0</ele>
                        <time>2022-08-18T13:54:26Z</time>
                                                <extensions>
                            <sog>6.6</sog>
<cog>29.5</cog>
                        </extensions>
                    </trkpt>
                    <trkpt lat="54.417345" lon="10.217376666666667">
                        <ele>0</ele>
                        <time>2022-08-18T13:54:55Z</time>
                                                <extensions>
                            <sog>6.6</sog>
<cog>39.3</cog>
                        </extensions>
                    </trkpt>
                    <trkpt lat="54.41885" lon="10.219276666666667">
                        <ele>0</ele>
                        <time>2022-08-18T13:55:55Z</time>
                                                <extensions>
                            <sog>6.8</sog>
<cog>36.9</cog>
                        </extensions>
                    </trkpt>
                    <trkpt lat="54.420385" lon="10.221053333333334">
                        <ele>0</ele>
                        <time>2022-08-18T13:56:55Z</time>
                                                <extensions>
                            <sog>6.5</sog>
<cog>33.7</cog>
                        </extensions>
                    </trkpt>
                    <trkpt lat="54.42191833333333" lon="10.22279">
                        <ele>0</ele>
                        <time>2022-08-18T13:57:55Z</time>
                                                <extensions>
                            <sog>6.6</sog>
<cog>34.6</cog>
                        </extensions>
                    </trkpt>
                    <trkpt lat="54.42265666666666" lon="10.223623333333334">
                        <ele>0</ele>
                        <time>2022-08-18T13:58:24Z</time>
                                                <extensions>
                            <sog>6.7</sog>
<cog>34.0</cog>
                        </extensions>
                    </trkpt>
                    <trkpt lat="54.42346666666666" lon="10.224535">
                        <ele>0</ele>
                        <time>2022-08-18T13:58:56Z</time>
                                                <extensions>
                            <sog>6.4</sog>
<cog>34.1</cog>
                        </extensions>
                    </trkpt>
                    <trkpt lat="54.424144999999996" lon="10.225303333333333">
                        <ele>0</ele>
                        <time>2022-08-18T13:59:24Z</time>
                                                <extensions>
                            <sog>6.5</sog>
<cog>33.3</cog>
                        </extensions>
                    </trkpt>
                    <trkpt lat="54.425650000000005" lon="10.226968333333334">
                        <ele>0</ele>
                        <time>2022-08-18T14:00:24Z</time>
                                                <extensions>
                            <sog>6.5</sog>
<cog>33.0</cog>
                        </extensions>
                    </trkpt>
                    <trkpt lat="54.425650000000005" lon="10.226968333333334">
                        <ele>0</ele>
                        <time>2022-08-18T14:00:24Z</time>
                                                <extensions>
                            <sog>6.5</sog>
<cog>33.0</cog>
                        </extensions>
                    </trkpt>
                    <trkpt lat="54.426471666666664" lon="10.227893333333332">
                        <ele>0</ele>
                        <time>2022-08-18T14:00:56Z</time>
                                                <extensions>
                            <sog>6.5</sog>
<cog>32.3</cog>
                        </extensions>
                    </trkpt>
                    <trkpt lat="54.426471666666664" lon="10.227893333333332">
                        <ele>0</ele>
                        <time>2022-08-18T14:00:56Z</time>
                                                <extensions>
                            <sog>6.5</sog>
<cog>32.3</cog>
                        </extensions>
                    </trkpt>
                    <trkpt lat="54.427148333333335" lon="10.228646666666666">
                        <ele>0</ele>
                        <time>2022-08-18T14:01:24Z</time>
                                                <extensions>
                            <sog>6.5</sog>
<cog>32.3</cog>
                        </extensions>
                    </trkpt>
                    <trkpt lat="54.427974999999996" lon="10.229575">
                        <ele>0</ele>
                        <time>2022-08-18T14:01:56Z</time>
                                                <extensions>
                            <sog>6.3</sog>
<cog>35.3</cog>
                        </extensions>
                    </trkpt>
                    <trkpt lat="54.42808" lon="10.230771666666667">
                        <ele>0</ele>
                        <time>2022-08-18T14:02:24Z</time>
                                                <extensions>
                            <sog>6.4</sog>
<cog>107.3</cog>
                        </extensions>
                    </trkpt>
                    <trkpt lat="54.427825" lon="10.2324">
                        <ele>0</ele>
                        <time>2022-08-18T14:02:56Z</time>
                                                <extensions>
                            <sog>6.5</sog>
<cog>101.1</cog>
                        </extensions>
                    </trkpt>
                    <trkpt lat="54.42769333333333" lon="10.233758333333332">
                        <ele>0</ele>
                        <time>2022-08-18T14:03:24Z</time>
                                                <extensions>
                            <sog>6.3</sog>
<cog>99.5</cog>
                        </extensions>
                    </trkpt>
                    <trkpt lat="54.427503333333334" lon="10.236895">
                        <ele>0</ele>
                        <time>2022-08-18T14:04:25Z</time>
                                                <extensions>
                            <sog>6.4</sog>
<cog>94.9</cog>
                        </extensions>
                    </trkpt>
                    <trkpt lat="54.427438333333335" lon="10.238368333333334">
                        <ele>0</ele>
                        <time>2022-08-18T14:04:54Z</time>
                                                <extensions>
                            <sog>6.5</sog>
<cog>94.5</cog>
                        </extensions>
                    </trkpt>
                    <trkpt lat="54.427315" lon="10.241366666666666">
                        <ele>0</ele>
                        <time>2022-08-18T14:05:54Z</time>
                                                <extensions>
                            <sog>6.5</sog>
<cog>94.0</cog>
                        </extensions>
                    </trkpt>
                    <trkpt lat="54.42715333333333" lon="10.246003333333334">
                        <ele>0</ele>
                        <time>2022-08-18T14:07:25Z</time>
                                                <extensions>
                            <sog>6.5</sog>
<cog>93.7</cog>
                        </extensions>
                    </trkpt>
                    <trkpt lat="54.42701833333333" lon="10.249125">
                        <ele>0</ele>
                        <time>2022-08-18T14:08:25Z</time>
                                                <extensions>
                            <sog>6.4</sog>
<cog>93.9</cog>
                        </extensions>
                    </trkpt>
                    <trkpt lat="54.42691166666667" lon="10.252151666666666">
                        <ele>0</ele>
                        <time>2022-08-18T14:09:25Z</time>
                                                <extensions>
                            <sog>6.4</sog>
<cog>94.5</cog>
                        </extensions>
                    </trkpt>
                    <trkpt lat="54.426853333333334" lon="10.253686666666665">
                        <ele>0</ele>
                        <time>2022-08-18T14:09:54Z</time>
                                                <extensions>
                            <sog>6.5</sog>
<cog>93.0</cog>
                        </extensions>
                    </trkpt>
                    <trkpt lat="54.42671833333333" lon="10.256935">
                        <ele>0</ele>
                        <time>2022-08-18T14:10:57Z</time>
                                                <extensions>
                            <sog>6.6</sog>
<cog>93.5</cog>
                        </extensions>
                    </trkpt>
                    <trkpt lat="54.42660166666667" lon="10.258368333333333">
                        <ele>0</ele>
                        <time>2022-08-18T14:11:25Z</time>
                                                <extensions>
                            <sog>6.6</sog>
<cog>101.7</cog>
                        </extensions>
                    </trkpt>
                    <trkpt lat="54.42621666666666" lon="10.263025">
                        <ele>0</ele>
                        <time>2022-08-18T14:12:57Z</time>
                                                <extensions>
                            <sog>6.5</sog>
<cog>94.3</cog>
                        </extensions>
                    </trkpt>
                    <trkpt lat="54.426165" lon="10.264631666666666">
                        <ele>0</ele>
                        <time>2022-08-18T14:13:27Z</time>
                                                <extensions>
                            <sog>6.5</sog>
<cog>93.1</cog>
                        </extensions>
                    </trkpt>
                    <trkpt lat="54.42595666666667" lon="10.266070000000001">
                        <ele>0</ele>
                        <time>2022-08-18T14:13:56Z</time>
                                                <extensions>
                            <sog>6.6</sog>
<cog>112.2</cog>
                        </extensions>
                    </trkpt>
                    <trkpt lat="54.42316666666667" lon="10.272085">
                        <ele>0</ele>
                        <time>2022-08-18T14:16:27Z</time>
                                                <extensions>
                            <sog>6.5</sog>
<cog>147.2</cog>
                        </extensions>
                    </trkpt>
                    <trkpt lat="54.420885" lon="10.275496666666667">
                        <ele>0</ele>
                        <time>2022-08-18T14:18:27Z</time>
                                                <extensions>
                            <sog>4.4</sog>
<cog>142.0</cog>
                        </extensions>
                    </trkpt>
                    <trkpt lat="54.419671666666666" lon="10.277415">
                        <ele>0</ele>
                        <time>2022-08-18T14:19:55Z</time>
                                                <extensions>
                            <sog>3.7</sog>
<cog>114.1</cog>
                        </extensions>
                    </trkpt>
                    <trkpt lat="54.419515000000004" lon="10.278326666666667">
                        <ele>0</ele>
                        <time>2022-08-18T14:20:27Z</time>
                                                <extensions>
                            <sog>3.6</sog>
<cog>96.8</cog>
                        </extensions>
                    </trkpt>
                    <trkpt lat="54.419533333333334" lon="10.279103333333333">
                        <ele>0</ele>
                        <time>2022-08-18T14:20:55Z</time>
                                                <extensions>
                            <sog>3.6</sog>
<cog>81.1</cog>
                        </extensions>
                    </trkpt>
                    <trkpt lat="54.419684999999994" lon="10.28001">
                        <ele>0</ele>
                        <time>2022-08-18T14:21:27Z</time>
                                                <extensions>
                            <sog>3.6</sog>
<cog>70.8</cog>
                        </extensions>
                    </trkpt>
                    <trkpt lat="54.419846666666665" lon="10.280761666666667">
                        <ele>0</ele>
                        <time>2022-08-18T14:21:55Z</time>
                                                <extensions>
                            <sog>3.7</sog>
<cog>69.9</cog>
                        </extensions>
                    </trkpt>
                    <trkpt lat="54.42008" lon="10.281569999999999">
                        <ele>0</ele>
                        <time>2022-08-18T14:22:27Z</time>
                                                <extensions>
                            <sog>3.7</sog>
<cog>58.0</cog>
                        </extensions>
                    </trkpt>
                    <trkpt lat="54.420375" lon="10.282243333333334">
                        <ele>0</ele>
                        <time>2022-08-18T14:22:55Z</time>
                                                <extensions>
                            <sog>3.7</sog>
<cog>50.9</cog>
                        </extensions>
                    </trkpt>
                    <trkpt lat="54.42067" lon="10.282983333333334">
                        <ele>0</ele>
                        <time>2022-08-18T14:23:27Z</time>
                                                <extensions>
                            <sog>3.2</sog>
<cog>65.1</cog>
                        </extensions>
                    </trkpt>
                    <trkpt lat="54.42058333333333" lon="10.283983333333333">
                        <ele>0</ele>
                        <time>2022-08-18T14:24:55Z</time>
                                                <extensions>
                            <sog>1.5</sog>
<cog>183.2</cog>
                        </extensions>
                    </trkpt>
                    <trkpt lat="54.420388333333335" lon="10.283968333333332">
                        <ele>0</ele>
                        <time>2022-08-18T14:25:27Z</time>
                                                <extensions>
                            <sog>1.1</sog>
<cog>178.3</cog>
                        </extensions>
                    </trkpt>
                    <trkpt lat="54.420125" lon="10.283999999999999">
                        <ele>0</ele>
                        <time>2022-08-18T14:26:27Z</time>
                        <extensions>
    <sog>0.2</sog>
</extensions>
                    </trkpt>
                    <trkpt lat="54.42003" lon="10.284021666666666">
                        <ele>0</ele>
                        <time>2022-08-18T14:26:57Z</time>
                                                <extensions>
                            <sog>1.7</sog>
<cog>165.6</cog>
                        </extensions>
                    </trkpt>
                    <trkpt lat="54.41981" lon="10.284061666666666">
                        <ele>0</ele>
                        <time>2022-08-18T14:27:27Z</time>
                                                <extensions>
                            <sog>1.2</sog>
<cog>181.7</cog>
                        </extensions>
                    </trkpt>
                    <trkpt lat="54.419605000000004" lon="10.283983333333333">
                        <ele>0</ele>
                        <time>2022-08-18T14:29:58Z</time>
                        <extensions>
    <sog>0.1</sog>
</extensions>
                    </trkpt>
                    <trkpt lat="54.419558333333335" lon="10.284286666666667">
                        <ele>0</ele>
                        <time>2022-08-18T14:32:55Z</time>
                        <extensions>
    <sog>0.1</sog>
</extensions>
                    </trkpt>
                    </trkseg>
                </trk>
</gpx>