<?xml version="1.0" encoding="UTF-8"?>
<gpx version="1.1" creator="AIS-to-GPX Converter" xmlns="http://www.topografix.com/GPX/1/1">
                <trk>
                    <name>anon0051</name>
                    <trkseg>
                                            <trkpt lat="54.625051666666664" lon="9.918194999999999">
                        <ele>0</ele>
                        <time>2022-08-18T13:22:37Z</time>
                                                <extensions>
                            <sog>0.5</sog>
<cog>83.0</cog>
                        </extensions>
                    </trkpt>
                    <trkpt lat="54.62494166666667" lon="9.91804">
                        <ele>0</ele>
                        <time>2022-08-18T13:55:10Z</time>
                                                <extensions>
                            <sog>0.0</sog>
<cog>343.6</cog>
                        </extensions>
                    </trkpt>
                    <trkpt lat="54.62497833333334" lon="9.917808333333333">
                        <ele>0</ele>
                        <time>2022-08-18T14:13:10Z</time>
                                                <extensions>
                            <sog>0.1</sog>
<cog>331.9</cog>
                        </extensions>
                    </trkpt>
                    <trkpt lat="54.624995" lon="9.917786666666666">
                        <ele>0</ele>
                        <time>2022-08-18T14:31:08Z</time>
                                                <extensions>
                            <sog>0.1</sog>
<cog>341.5</cog>
                        </extensions>
                    </trkpt>
                    <trkpt lat="54.644753333333334" lon="9.935736666666665">
                        <ele>0</ele>
                        <time>2022-08-18T15:48:08Z</time>
                                                <extensions>
                            <sog>5.6</sog>
<cog>5.2</cog>
                        </extensions>
                    </trkpt>
                    </trkseg>
                </trk>
</gpx>