<?xml version="1.0" encoding="UTF-8"?>
<gpx version="1.1" creator="AIS-to-GPX Converter" xmlns="http://www.topografix.com/GPX/1/1">
                <trk>
                    <name>anon0045</name>
                    <trkseg>
                                            <trkpt lat="54.40087666666667" lon="10.213443333333334">
                        <ele>0</ele>
                        <time>2022-08-18T15:52:39Z</time>
                                                <extensions>
                            <sog>4.9</sog>
<cog>318.0</cog>
                        </extensions>
                    </trkpt>
                    <trkpt lat="54.40137666666667" lon="10.213765">
                        <ele>0</ele>
                        <time>2022-08-18T15:53:10Z</time>
                                                <extensions>
                            <sog>5.0</sog>
<cog>61.6</cog>
                        </extensions>
                    </trkpt>
                    <trkpt lat="54.40308166666667" lon="10.213451666666666">
                        <ele>0</ele>
                        <time>2022-08-18T15:54:39Z</time>
                                                <extensions>
                            <sog>4.9</sog>
<cog>320.4</cog>
                        </extensions>
                    </trkpt>
                    <trkpt lat="54.40364" lon="10.212673333333333">
                        <ele>0</ele>
                        <time>2022-08-18T15:55:09Z</time>
                                                <extensions>
                            <sog>5.8</sog>
<cog>319.1</cog>
                        </extensions>
                    </trkpt>
                    <trkpt lat="54.404565000000005" lon="10.21022">
                        <ele>0</ele>
                        <time>2022-08-18T15:56:10Z</time>
                                                <extensions>
                            <sog>6.3</sog>
<cog>284.0</cog>
                        </extensions>
                    </trkpt>
                    <trkpt lat="54.404691666666665" lon="10.208763333333334">
                        <ele>0</ele>
                        <time>2022-08-18T15:56:39Z</time>
                                                <extensions>
                            <sog>6.2</sog>
<cog>277.2</cog>
                        </extensions>
                    </trkpt>
                    <trkpt lat="54.40481333333333" lon="10.207230000000001">
                        <ele>0</ele>
                        <time>2022-08-18T15:57:10Z</time>
                                                <extensions>
                            <sog>6.3</sog>
<cog>281.5</cog>
                        </extensions>
                    </trkpt>
                    <trkpt lat="54.405161666666665" lon="10.204381666666666">
                        <ele>0</ele>
                        <time>2022-08-18T15:58:09Z</time>
                                                <extensions>
                            <sog>6.2</sog>
<cog>294.3</cog>
                        </extensions>
                    </trkpt>
                    <trkpt lat="54.405656666666665" lon="10.203063333333334">
                        <ele>0</ele>
                        <time>2022-08-18T15:58:41Z</time>
                                                <extensions>
                            <sog>6.2</sog>
<cog>297.7</cog>
                        </extensions>
                    </trkpt>
                    <trkpt lat="54.405965" lon="10.201755">
                        <ele>0</ele>
                        <time>2022-08-18T15:59:10Z</time>
                                                <extensions>
                            <sog>6.2</sog>
<cog>287.6</cog>
                        </extensions>
                    </trkpt>
                    <trkpt lat="54.406733333333335" lon="10.197624999999999">
                        <ele>0</ele>
                        <time>2022-08-18T16:00:39Z</time>
                                                <extensions>
                            <sog>6.2</sog>
<cog>289.1</cog>
                        </extensions>
                    </trkpt>
                    <trkpt lat="54.406733333333335" lon="10.197624999999999">
                        <ele>0</ele>
                        <time>2022-08-18T16:00:39Z</time>
                                                <extensions>
                            <sog>6.2</sog>
<cog>289.1</cog>
                        </extensions>
                    </trkpt>
                    <trkpt lat="54.406960000000005" lon="10.196201666666667">
                        <ele>0</ele>
                        <time>2022-08-18T16:01:09Z</time>
                                                <extensions>
                            <sog>6.3</sog>
<cog>295.5</cog>
                        </extensions>
                    </trkpt>
                    <trkpt lat="54.407473333333336" lon="10.195590000000001">
                        <ele>0</ele>
                        <time>2022-08-18T16:01:39Z</time>
                                                <extensions>
                            <sog>3.3</sog>
<cog>336.2</cog>
                        </extensions>
                    </trkpt>
                    <trkpt lat="54.40774666666667" lon="10.195325">
                        <ele>0</ele>
                        <time>2022-08-18T16:02:11Z</time>
                                                <extensions>
                            <sog>2.0</sog>
<cog>323.3</cog>
                        </extensions>
                    </trkpt>
                    <trkpt lat="54.40786166666667" lon="10.195238333333332">
                        <ele>0</ele>
                        <time>2022-08-18T16:02:40Z</time>
                                                <extensions>
                            <sog>0.8</sog>
<cog>354.6</cog>
                        </extensions>
                    </trkpt>
                    <trkpt lat="54.40798333333333" lon="10.195146666666666">
                        <ele>0</ele>
                        <time>2022-08-18T16:03:10Z</time>
                                                <extensions>
                            <sog>1.2</sog>
<cog>334.7</cog>
                        </extensions>
                    </trkpt>
                    <trkpt lat="54.408141666666666" lon="10.195">
                        <ele>0</ele>
                        <time>2022-08-18T16:03:40Z</time>
                                                <extensions>
                            <sog>1.4</sog>
<cog>340.8</cog>
                        </extensions>
                    </trkpt>
                    <trkpt lat="54.408258333333336" lon="10.195314999999999">
                        <ele>0</ele>
                        <time>2022-08-18T16:04:39Z</time>
                                                <extensions>
                            <sog>0.7</sog>
<cog>68.6</cog>
                        </extensions>
                    </trkpt>
                    <trkpt lat="54.408305000000006" lon="10.195496666666665">
                        <ele>0</ele>
                        <time>2022-08-18T16:05:13Z</time>
                                                <extensions>
                            <sog>0.9</sog>
<cog>65.5</cog>
                        </extensions>
                    </trkpt>
                    <trkpt lat="54.408303333333336" lon="10.195728333333333">
                        <ele>0</ele>
                        <time>2022-08-18T16:08:12Z</time>
                                                <extensions>
                            <sog>0.2</sog>
<cog>239.6</cog>
                        </extensions>
                    </trkpt>
                    <trkpt lat="54.40844666666667" lon="10.196118333333335">
                        <ele>0</ele>
                        <time>2022-08-18T16:11:09Z</time>
                                                <extensions>
                            <sog>0.1</sog>
<cog>68.9</cog>
                        </extensions>
                    </trkpt>
                    <trkpt lat="54.40849" lon="10.196266666666666">
                        <ele>0</ele>
                        <time>2022-08-18T16:14:10Z</time>
                                                <extensions>
                            <sog>0.2</sog>
<cog>155.5</cog>
                        </extensions>
                    </trkpt>
                    <trkpt lat="54.408465" lon="10.196316666666666">
                        <ele>0</ele>
                        <time>2022-08-18T16:17:10Z</time>
                                                <extensions>
                            <sog>0.1</sog>
<cog>167.3</cog>
                        </extensions>
                    </trkpt>
                    <trkpt lat="54.408480000000004" lon="10.19626">
                        <ele>0</ele>
                        <time>2022-08-18T16:20:10Z</time>
                                                <extensions>
                            <sog>0.1</sog>
<cog>234.4</cog>
                        </extensions>
                    </trkpt>
                    <trkpt lat="54.408501666666666" lon="10.196231666666668">
                        <ele>0</ele>
                        <time>2022-08-18T16:32:09Z</time>
                                                <extensions>
                            <sog>0.0</sog>
<cog>177.7</cog>
                        </extensions>
                    </trkpt>
                    <trkpt lat="54.40851333333333" lon="10.196185000000002">
                        <ele>0</ele>
                        <time>2022-08-18T16:38:12Z</time>
                                                <extensions>
                            <sog>0.2</sog>
<cog>177.7</cog>
                        </extensions>
                    </trkpt>
                    <trkpt lat="54.40851166666666" lon="10.196223333333334">
                        <ele>0</ele>
                        <time>2022-08-18T16:41:10Z</time>
                                                <extensions>
                            <sog>0.0</sog>
<cog>177.7</cog>
                        </extensions>
                    </trkpt>
                    <trkpt lat="54.40849" lon="10.196286666666667">
                        <ele>0</ele>
                        <time>2022-08-18T16:44:10Z</time>
                                                <extensions>
                            <sog>0.3</sog>
<cog>177.7</cog>
                        </extensions>
                    </trkpt>
                    <trkpt lat="54.40841" lon="10.196306666666667">
                        <ele>0</ele>
                        <time>2022-08-18T16:50:10Z</time>
                                                <extensions>
                            <sog>0.3</sog>
<cog>104.6</cog>
                        </extensions>
                    </trkpt>
                    <trkpt lat="54.40842833333333" lon="10.196311666666666">
                        <ele>0</ele>
                        <time>2022-08-18T16:53:12Z</time>
                                                <extensions>
                            <sog>0.3</sog>
<cog>248.8</cog>
                        </extensions>
                    </trkpt>
                    <trkpt lat="54.40842166666666" lon="10.196308333333333">
                        <ele>0</ele>
                        <time>2022-08-18T16:56:09Z</time>
                                                <extensions>
                            <sog>0.1</sog>
<cog>156.3</cog>
                        </extensions>
                    </trkpt>
                    <trkpt lat="54.40844166666667" lon="10.196293333333333">
                        <ele>0</ele>
                        <time>2022-08-18T17:08:09Z</time>
                                                <extensions>
                            <sog>0.4</sog>
<cog>181.7</cog>
                        </extensions>
                    </trkpt>
                    <trkpt lat="54.408471666666664" lon="10.196266666666666">
                        <ele>0</ele>
                        <time>2022-08-18T17:11:10Z</time>
                                                <extensions>
                            <sog>0.2</sog>
<cog>273.7</cog>
                        </extensions>
                    </trkpt>
                    <trkpt lat="54.408453333333334" lon="10.196271666666666">
                        <ele>0</ele>
                        <time>2022-08-18T17:14:10Z</time>
                                                <extensions>
                            <sog>0.1</sog>
<cog>212.2</cog>
                        </extensions>
                    </trkpt>
                    <trkpt lat="54.40847" lon="10.196276666666668">
                        <ele>0</ele>
                        <time>2022-08-18T17:17:11Z</time>
                                                <extensions>
                            <sog>0.1</sog>
<cog>212.2</cog>
                        </extensions>
                    </trkpt>
                    <trkpt lat="54.40846166666667" lon="10.196285">
                        <ele>0</ele>
                        <time>2022-08-18T17:20:09Z</time>
                                                <extensions>
                            <sog>0.1</sog>
<cog>212.2</cog>
                        </extensions>
                    </trkpt>
                    <trkpt lat="54.408456666666666" lon="10.196286666666667">
                        <ele>0</ele>
                        <time>2022-08-18T17:23:09Z</time>
                                                <extensions>
                            <sog>0.2</sog>
<cog>276.2</cog>
                        </extensions>
                    </trkpt>
                    <trkpt lat="54.40844666666667" lon="10.196311666666666">
                        <ele>0</ele>
                        <time>2022-08-18T17:29:10Z</time>
                                                <extensions>
                            <sog>0.3</sog>
<cog>8.1</cog>
                        </extensions>
                    </trkpt>
                    <trkpt lat="54.408431666666665" lon="10.196304999999999">
                        <ele>0</ele>
                        <time>2022-08-18T17:32:10Z</time>
                                                <extensions>
                            <sog>0.1</sog>
<cog>187.6</cog>
                        </extensions>
                    </trkpt>
                    <trkpt lat="54.408438333333336" lon="10.196265">
                        <ele>0</ele>
                        <time>2022-08-18T17:35:10Z</time>
                                                <extensions>
                            <sog>0.1</sog>
<cog>187.6</cog>
                        </extensions>
                    </trkpt>
                    <trkpt lat="54.408480000000004" lon="10.19628">
                        <ele>0</ele>
                        <time>2022-08-18T17:38:09Z</time>
                                                <extensions>
                            <sog>0.2</sog>
<cog>187.6</cog>
                        </extensions>
                    </trkpt>
                    <trkpt lat="54.40848666666667" lon="10.1963">
                        <ele>0</ele>
                        <time>2022-08-18T17:41:09Z</time>
                                                <extensions>
                            <sog>0.1</sog>
<cog>308.1</cog>
                        </extensions>
                    </trkpt>
                    <trkpt lat="54.40846166666667" lon="10.196231666666668">
                        <ele>0</ele>
                        <time>2022-08-18T17:44:10Z</time>
                                                <extensions>
                            <sog>0.0</sog>
<cog>308.1</cog>
                        </extensions>
                    </trkpt>
                    <trkpt lat="54.40847" lon="10.1963">
                        <ele>0</ele>
                        <time>2022-08-18T17:47:09Z</time>
                                                <extensions>
                            <sog>0.1</sog>
<cog>165.0</cog>
                        </extensions>
                    </trkpt>
                    <trkpt lat="54.40849333333333" lon="10.196231666666668">
                        <ele>0</ele>
                        <time>2022-08-18T17:50:10Z</time>
                                                <extensions>
                            <sog>0.2</sog>
<cog>165.0</cog>
                        </extensions>
                    </trkpt>
                    <trkpt lat="54.40848666666667" lon="10.196255">
                        <ele>0</ele>
                        <time>2022-08-18T17:53:09Z</time>
                                                <extensions>
                            <sog>0.1</sog>
<cog>165.0</cog>
                        </extensions>
                    </trkpt>
                    <trkpt lat="54.408498333333334" lon="10.196241666666667">
                        <ele>0</ele>
                        <time>2022-08-18T17:59:11Z</time>
                                                <extensions>
                            <sog>0.1</sog>
<cog>98.4</cog>
                        </extensions>
                    </trkpt>
                    <trkpt lat="54.408495" lon="10.196246666666667">
                        <ele>0</ele>
                        <time>2022-08-18T18:02:09Z</time>
                                                <extensions>
                            <sog>0.0</sog>
<cog>98.4</cog>
                        </extensions>
                    </trkpt>
                    <trkpt lat="54.40846666666666" lon="10.196245000000001">
                        <ele>0</ele>
                        <time>2022-08-18T18:05:09Z</time>
                                                <extensions>
                            <sog>0.2</sog>
<cog>112.6</cog>
                        </extensions>
                    </trkpt>
                    <trkpt lat="54.40847833333333" lon="10.196256666666667">
                        <ele>0</ele>
                        <time>2022-08-18T18:08:10Z</time>
                                                <extensions>
                            <sog>0.0</sog>
<cog>112.6</cog>
                        </extensions>
                    </trkpt>
                    <trkpt lat="54.408471666666664" lon="10.196245000000001">
                        <ele>0</ele>
                        <time>2022-08-18T18:11:10Z</time>
                                                <extensions>
                            <sog>0.1</sog>
<cog>112.6</cog>
                        </extensions>
                    </trkpt>
                    <trkpt lat="54.40846166666667" lon="10.196293333333333">
                        <ele>0</ele>
                        <time>2022-08-18T18:14:10Z</time>
                                                <extensions>
                            <sog>0.2</sog>
<cog>112.6</cog>
                        </extensions>
                    </trkpt>
                    <trkpt lat="54.40846666666666" lon="10.196273333333332">
                        <ele>0</ele>
                        <time>2022-08-18T18:17:11Z</time>
                                                <extensions>
                            <sog>0.1</sog>
<cog>112.6</cog>
                        </extensions>
                    </trkpt>
                    <trkpt lat="54.408465" lon="10.196265">
                        <ele>0</ele>
                        <time>2022-08-18T18:20:09Z</time>
                                                <extensions>
                            <sog>0.0</sog>
<cog>112.6</cog>
                        </extensions>
                    </trkpt>
                    <trkpt lat="54.408456666666666" lon="10.196275000000002">
                        <ele>0</ele>
                        <time>2022-08-18T18:23:10Z</time>
                                                <extensions>
                            <sog>0.0</sog>
<cog>112.6</cog>
                        </extensions>
                    </trkpt>
                    <trkpt lat="54.40846" lon="10.196304999999999">
                        <ele>0</ele>
                        <time>2022-08-18T18:26:09Z</time>
                                                <extensions>
                            <sog>0.1</sog>
<cog>112.6</cog>
                        </extensions>
                    </trkpt>
                    <trkpt lat="54.408451666666664" lon="10.1963">
                        <ele>0</ele>
                        <time>2022-08-18T18:32:09Z</time>
                                                <extensions>
                            <sog>0.1</sog>
<cog>112.6</cog>
                        </extensions>
                    </trkpt>
                    <trkpt lat="54.40843666666667" lon="10.196301666666667">
                        <ele>0</ele>
                        <time>2022-08-18T18:35:11Z</time>
                                                <extensions>
                            <sog>0.2</sog>
<cog>29.0</cog>
                        </extensions>
                    </trkpt>
                    <trkpt lat="54.40846666666666" lon="10.196273333333332">
                        <ele>0</ele>
                        <time>2022-08-18T18:38:11Z</time>
                                                <extensions>
                            <sog>0.0</sog>
<cog>225.2</cog>
                        </extensions>
                    </trkpt>
                    <trkpt lat="54.408456666666666" lon="10.196303333333333">
                        <ele>0</ele>
                        <time>2022-08-18T18:44:09Z</time>
                                                <extensions>
                            <sog>0.1</sog>
<cog>189.4</cog>
                        </extensions>
                    </trkpt>
                    <trkpt lat="54.408438333333336" lon="10.196155000000001">
                        <ele>0</ele>
                        <time>2022-08-18T18:47:10Z</time>
                                                <extensions>
                            <sog>0.9</sog>
<cog>234.0</cog>
                        </extensions>
                    </trkpt>
                    <trkpt lat="54.40842" lon="10.195651666666667">
                        <ele>0</ele>
                        <time>2022-08-18T18:49:38Z</time>
                                                <extensions>
                            <sog>3.1</sog>
<cog>82.0</cog>
                        </extensions>
                    </trkpt>
                    <trkpt lat="54.408213333333336" lon="10.196541666666667">
                        <ele>0</ele>
                        <time>2022-08-18T18:50:06Z</time>
                                                <extensions>
                            <sog>5.1</sog>
<cog>103.1</cog>
                        </extensions>
                    </trkpt>
                    <trkpt lat="54.4082" lon="10.197833333333334">
                        <ele>0</ele>
                        <time>2022-08-18T18:50:36Z</time>
                                                <extensions>
                            <sog>5.6</sog>
<cog>96.7</cog>
                        </extensions>
                    </trkpt>
                    <trkpt lat="54.40795666666667" lon="10.199063333333333">
                        <ele>0</ele>
                        <time>2022-08-18T18:51:05Z</time>
                                                <extensions>
                            <sog>5.7</sog>
<cog>107.4</cog>
                        </extensions>
                    </trkpt>
                    <trkpt lat="54.40758" lon="10.200221666666666">
                        <ele>0</ele>
                        <time>2022-08-18T18:51:35Z</time>
                                                <extensions>
                            <sog>6.0</sog>
<cog>149.4</cog>
                        </extensions>
                    </trkpt>
                    <trkpt lat="54.40738833333333" lon="10.200199999999999">
                        <ele>0</ele>
                        <time>2022-08-18T18:52:05Z</time>
                                                <extensions>
                            <sog>3.7</sog>
<cog>175.7</cog>
                        </extensions>
                    </trkpt>
                    <trkpt lat="54.40708666666667" lon="10.201055">
                        <ele>0</ele>
                        <time>2022-08-18T18:52:35Z</time>
                                                <extensions>
                            <sog>5.2</sog>
<cog>139.5</cog>
                        </extensions>
                    </trkpt>
                    <trkpt lat="54.406711666666666" lon="10.202143333333334">
                        <ele>0</ele>
                        <time>2022-08-18T18:53:06Z</time>
                                                <extensions>
                            <sog>5.5</sog>
<cog>133.1</cog>
                        </extensions>
                    </trkpt>
                    <trkpt lat="54.40632" lon="10.203281666666667">
                        <ele>0</ele>
                        <time>2022-08-18T18:53:35Z</time>
                                                <extensions>
                            <sog>5.6</sog>
<cog>119.4</cog>
                        </extensions>
                    </trkpt>
                    <trkpt lat="54.40592166666667" lon="10.204481666666668">
                        <ele>0</ele>
                        <time>2022-08-18T18:54:06Z</time>
                                                <extensions>
                            <sog>5.8</sog>
<cog>118.4</cog>
                        </extensions>
                    </trkpt>
                    <trkpt lat="54.40530833333333" lon="10.20524">
                        <ele>0</ele>
                        <time>2022-08-18T18:54:36Z</time>
                                                <extensions>
                            <sog>5.5</sog>
<cog>133.9</cog>
                        </extensions>
                    </trkpt>
                    <trkpt lat="54.404785" lon="10.206156666666667">
                        <ele>0</ele>
                        <time>2022-08-18T18:55:07Z</time>
                                                <extensions>
                            <sog>4.3</sog>
<cog>128.3</cog>
                        </extensions>
                    </trkpt>
                    <trkpt lat="54.404491666666665" lon="10.206821666666666">
                        <ele>0</ele>
                        <time>2022-08-18T18:55:36Z</time>
                                                <extensions>
                            <sog>3.1</sog>
<cog>122.8</cog>
                        </extensions>
                    </trkpt>
                    <trkpt lat="54.40433666666667" lon="10.207461666666667">
                        <ele>0</ele>
                        <time>2022-08-18T18:56:05Z</time>
                                                <extensions>
                            <sog>2.9</sog>
<cog>103.9</cog>
                        </extensions>
                    </trkpt>
                    <trkpt lat="54.403908333333334" lon="10.209216666666666">
                        <ele>0</ele>
                        <time>2022-08-18T18:57:06Z</time>
                                                <extensions>
                            <sog>4.8</sog>
<cog>116.1</cog>
                        </extensions>
                    </trkpt>
                    <trkpt lat="54.40346666666667" lon="10.211548333333333">
                        <ele>0</ele>
                        <time>2022-08-18T18:58:05Z</time>
                                                <extensions>
                            <sog>5.3</sog>
<cog>111.9</cog>
                        </extensions>
                    </trkpt>
                    <trkpt lat="54.40319" lon="10.212623333333333">
                        <ele>0</ele>
                        <time>2022-08-18T18:58:36Z</time>
                                                <extensions>
                            <sog>3.9</sog>
<cog>121.1</cog>
                        </extensions>
                    </trkpt>
                    <trkpt lat="54.402924999999996" lon="10.213258333333332">
                        <ele>0</ele>
                        <time>2022-08-18T18:59:05Z</time>
                                                <extensions>
                            <sog>3.1</sog>
<cog>127.5</cog>
                        </extensions>
                    </trkpt>
                    <trkpt lat="54.40264166666667" lon="10.213786666666666">
                        <ele>0</ele>
                        <time>2022-08-18T18:59:36Z</time>
                                                <extensions>
                            <sog>2.7</sog>
<cog>139.1</cog>
                        </extensions>
                    </trkpt>
                    <trkpt lat="54.401714999999996" lon="10.214561666666667">
                        <ele>0</ele>
                        <time>2022-08-18T19:01:05Z</time>
                                                <extensions>
                            <sog>2.4</sog>
<cog>204.7</cog>
                        </extensions>
                    </trkpt>
                    <trkpt lat="54.40105833333334" lon="10.213278333333333">
                        <ele>0</ele>
                        <time>2022-08-18T19:03:05Z</time>
                                                <extensions>
                            <sog>2.3</sog>
<cog>145.3</cog>
                        </extensions>
                    </trkpt>
                    <trkpt lat="54.40078833333334" lon="10.213633333333332">
                        <ele>0</ele>
                        <time>2022-08-18T19:03:36Z</time>
                                                <extensions>
                            <sog>2.4</sog>
<cog>143.9</cog>
                        </extensions>
                    </trkpt>
                    </trkseg>
                </trk>
</gpx>