<?xml version="1.0" encoding="UTF-8"?>
<gpx version="1.1" creator="AIS-to-GPX Converter" xmlns="http://www.topografix.com/GPX/1/1">
                <trk>
                    <name>anon0403</name>
                    <trkseg>
                                            <trkpt lat="54.672995" lon="10.049818333333333">
                        <ele>0</ele>
                        <time>2022-08-18T12:15:31Z</time>
                                                <extensions>
                            <sog>4.8</sog>
<cog>243.3</cog>
                        </extensions>
                    </trkpt>
                    <trkpt lat="54.671191666666665" lon="10.043608333333333">
                        <ele>0</ele>
                        <time>2022-08-18T12:18:31Z</time>
                                                <extensions>
                            <sog>4.9</sog>
<cog>236.1</cog>
                        </extensions>
                    </trkpt>
                    </trkseg>
                </trk>
</gpx>