<?xml version="1.0" encoding="UTF-8"?>
<gpx version="1.1" creator="AIS-to-GPX Converter" xmlns="http://www.topografix.com/GPX/1/1">
                <trk>
                    <name>anon0289</name>
                    <trkseg>
                                            <trkpt lat="54.60444666666667" lon="10.07057">
                        <ele>0</ele>
                        <time>2022-08-18T10:22:28Z</time>
                                                <extensions>
                            <sog>4.4</sog>
<cog>172.5</cog>
                        </extensions>
                    </trkpt>
                    <trkpt lat="54.600585" lon="10.071616666666667">
                        <ele>0</ele>
                        <time>2022-08-18T10:25:28Z</time>
                                                <extensions>
                            <sog>4.7</sog>
<cog>169.3</cog>
                        </extensions>
                    </trkpt>
                    <trkpt lat="54.592715" lon="10.07777">
                        <ele>0</ele>
                        <time>2022-08-18T10:32:29Z</time>
                                                <extensions>
                            <sog>4.5</sog>
<cog>153.8</cog>
                        </extensions>
                    </trkpt>
                    <trkpt lat="54.590466666666664" lon="10.079556666666667">
                        <ele>0</ele>
                        <time>2022-08-18T10:34:30Z</time>
                                                <extensions>
                            <sog>4.6</sog>
<cog>153.0</cog>
                        </extensions>
                    </trkpt>
                    <trkpt lat="54.58831" lon="10.081411666666666">
                        <ele>0</ele>
                        <time>2022-08-18T10:36:30Z</time>
                                                <extensions>
                            <sog>4.7</sog>
<cog>154.6</cog>
                        </extensions>
                    </trkpt>
                    <trkpt lat="54.58607666666667" lon="10.083313333333333">
                        <ele>0</ele>
                        <time>2022-08-18T10:38:29Z</time>
                                                <extensions>
                            <sog>4.8</sog>
<cog>151.9</cog>
                        </extensions>
                    </trkpt>
                    <trkpt lat="54.55974833333333" lon="10.104985">
                        <ele>0</ele>
                        <time>2022-08-18T11:01:28Z</time>
                                                <extensions>
                            <sog>4.9</sog>
<cog>156.3</cog>
                        </extensions>
                    </trkpt>
                    <trkpt lat="54.54649333333334" lon="10.116041666666666">
                        <ele>0</ele>
                        <time>2022-08-18T11:12:28Z</time>
                                                <extensions>
                            <sog>5.0</sog>
<cog>151.7</cog>
                        </extensions>
                    </trkpt>
                    <trkpt lat="54.5403" lon="10.121665">
                        <ele>0</ele>
                        <time>2022-08-18T11:17:29Z</time>
                                                <extensions>
                            <sog>4.9</sog>
<cog>151.7</cog>
                        </extensions>
                    </trkpt>
                    <trkpt lat="54.536635000000004" lon="10.125">
                        <ele>0</ele>
                        <time>2022-08-18T11:20:29Z</time>
                                                <extensions>
                            <sog>4.8</sog>
<cog>157.2</cog>
                        </extensions>
                    </trkpt>
                    <trkpt lat="54.53603333333333" lon="10.125580000000001">
                        <ele>0</ele>
                        <time>2022-08-18T11:20:59Z</time>
                                                <extensions>
                            <sog>4.9</sog>
<cog>149.2</cog>
                        </extensions>
                    </trkpt>
                    <trkpt lat="54.534258333333334" lon="10.12713">
                        <ele>0</ele>
                        <time>2022-08-18T11:22:28Z</time>
                                                <extensions>
                            <sog>5.1</sog>
<cog>150.5</cog>
                        </extensions>
                    </trkpt>
                    <trkpt lat="54.533035000000005" lon="10.128161666666667">
                        <ele>0</ele>
                        <time>2022-08-18T11:23:29Z</time>
                                                <extensions>
                            <sog>5.0</sog>
<cog>155.0</cog>
                        </extensions>
                    </trkpt>
                    <trkpt lat="54.519913333333335" lon="10.139669999999999">
                        <ele>0</ele>
                        <time>2022-08-18T11:34:29Z</time>
                                                <extensions>
                            <sog>4.5</sog>
<cog>151.8</cog>
                        </extensions>
                    </trkpt>
                    <trkpt lat="54.519353333333335" lon="10.140151666666666">
                        <ele>0</ele>
                        <time>2022-08-18T11:34:59Z</time>
                                                <extensions>
                            <sog>4.8</sog>
<cog>151.9</cog>
                        </extensions>
                    </trkpt>
                    <trkpt lat="54.503463333333336" lon="10.154483333333333">
                        <ele>0</ele>
                        <time>2022-08-18T11:48:33Z</time>
                                                <extensions>
                            <sog>4.8</sog>
<cog>149.9</cog>
                        </extensions>
                    </trkpt>
                    <trkpt lat="54.501221666666666" lon="10.156708333333334">
                        <ele>0</ele>
                        <time>2022-08-18T11:50:29Z</time>
                                                <extensions>
                            <sog>4.4</sog>
<cog>150.8</cog>
                        </extensions>
                    </trkpt>
                    <trkpt lat="54.50063166666666" lon="10.157308333333333">
                        <ele>0</ele>
                        <time>2022-08-18T11:51:00Z</time>
                                                <extensions>
                            <sog>5.0</sog>
<cog>149.1</cog>
                        </extensions>
                    </trkpt>
                    <trkpt lat="54.50006333333333" lon="10.157871666666667">
                        <ele>0</ele>
                        <time>2022-08-18T11:51:29Z</time>
                                                <extensions>
                            <sog>4.9</sog>
<cog>152.0</cog>
                        </extensions>
                    </trkpt>
                    <trkpt lat="54.497663333333335" lon="10.160308333333335">
                        <ele>0</ele>
                        <time>2022-08-18T11:53:30Z</time>
                                                <extensions>
                            <sog>5.0</sog>
<cog>149.6</cog>
                        </extensions>
                    </trkpt>
                    <trkpt lat="54.49707" lon="10.160928333333334">
                        <ele>0</ele>
                        <time>2022-08-18T11:53:58Z</time>
                                                <extensions>
                            <sog>5.1</sog>
<cog>148.7</cog>
                        </extensions>
                    </trkpt>
                    <trkpt lat="54.496449999999996" lon="10.161576666666667">
                        <ele>0</ele>
                        <time>2022-08-18T11:54:29Z</time>
                                                <extensions>
                            <sog>4.9</sog>
<cog>147.9</cog>
                        </extensions>
                    </trkpt>
                    <trkpt lat="54.495885" lon="10.162168333333334">
                        <ele>0</ele>
                        <time>2022-08-18T11:54:58Z</time>
                                                <extensions>
                            <sog>4.8</sog>
<cog>149.2</cog>
                        </extensions>
                    </trkpt>
                    <trkpt lat="54.49297" lon="10.165285">
                        <ele>0</ele>
                        <time>2022-08-18T11:57:29Z</time>
                                                <extensions>
                            <sog>5.0</sog>
<cog>147.0</cog>
                        </extensions>
                    </trkpt>
                    <trkpt lat="54.49182833333334" lon="10.166506666666667">
                        <ele>0</ele>
                        <time>2022-08-18T11:58:28Z</time>
                                                <extensions>
                            <sog>5.1</sog>
<cog>147.3</cog>
                        </extensions>
                    </trkpt>
                    <trkpt lat="54.490675" lon="10.167775">
                        <ele>0</ele>
                        <time>2022-08-18T11:59:29Z</time>
                                                <extensions>
                            <sog>5.0</sog>
<cog>147.4</cog>
                        </extensions>
                    </trkpt>
                    <trkpt lat="54.489536666666666" lon="10.169008333333332">
                        <ele>0</ele>
                        <time>2022-08-18T12:00:29Z</time>
                                                <extensions>
                            <sog>4.8</sog>
<cog>148.8</cog>
                        </extensions>
                    </trkpt>
                    <trkpt lat="54.489536666666666" lon="10.169008333333332">
                        <ele>0</ele>
                        <time>2022-08-18T12:00:29Z</time>
                                                <extensions>
                            <sog>4.8</sog>
<cog>148.8</cog>
                        </extensions>
                    </trkpt>
                    <trkpt lat="54.487820000000006" lon="10.170871666666667">
                        <ele>0</ele>
                        <time>2022-08-18T12:01:58Z</time>
                                                <extensions>
                            <sog>4.8</sog>
<cog>149.2</cog>
                        </extensions>
                    </trkpt>
                    <trkpt lat="54.48725833333333" lon="10.171473333333333">
                        <ele>0</ele>
                        <time>2022-08-18T12:02:29Z</time>
                                                <extensions>
                            <sog>4.9</sog>
<cog>147.0</cog>
                        </extensions>
                    </trkpt>
                    <trkpt lat="54.486104999999995" lon="10.172716666666668">
                        <ele>0</ele>
                        <time>2022-08-18T12:03:29Z</time>
                                                <extensions>
                            <sog>4.8</sog>
<cog>149.0</cog>
                        </extensions>
                    </trkpt>
                    <trkpt lat="54.48555666666667" lon="10.173305">
                        <ele>0</ele>
                        <time>2022-08-18T12:03:58Z</time>
                                                <extensions>
                            <sog>4.9</sog>
<cog>147.6</cog>
                        </extensions>
                    </trkpt>
                    <trkpt lat="54.484966666666665" lon="10.17393">
                        <ele>0</ele>
                        <time>2022-08-18T12:04:30Z</time>
                                                <extensions>
                            <sog>4.9</sog>
<cog>148.2</cog>
                        </extensions>
                    </trkpt>
                    <trkpt lat="54.48382" lon="10.175180000000001">
                        <ele>0</ele>
                        <time>2022-08-18T12:05:30Z</time>
                                                <extensions>
                            <sog>4.8</sog>
<cog>148.5</cog>
                        </extensions>
                    </trkpt>
                    <trkpt lat="54.483286666666665" lon="10.175748333333333">
                        <ele>0</ele>
                        <time>2022-08-18T12:05:59Z</time>
                                                <extensions>
                            <sog>4.5</sog>
<cog>148.7</cog>
                        </extensions>
                    </trkpt>
                    <trkpt lat="54.48274666666667" lon="10.176331666666666">
                        <ele>0</ele>
                        <time>2022-08-18T12:06:29Z</time>
                                                <extensions>
                            <sog>4.9</sog>
<cog>147.4</cog>
                        </extensions>
                    </trkpt>
                    <trkpt lat="54.479535000000006" lon="10.180028333333333">
                        <ele>0</ele>
                        <time>2022-08-18T12:09:29Z</time>
                                                <extensions>
                            <sog>4.4</sog>
<cog>146.9</cog>
                        </extensions>
                    </trkpt>
                    <trkpt lat="54.47902" lon="10.180628333333335">
                        <ele>0</ele>
                        <time>2022-08-18T12:09:58Z</time>
                                                <extensions>
                            <sog>4.4</sog>
<cog>146.8</cog>
                        </extensions>
                    </trkpt>
                    <trkpt lat="54.47801166666667" lon="10.181808333333333">
                        <ele>0</ele>
                        <time>2022-08-18T12:10:59Z</time>
                                                <extensions>
                            <sog>4.2</sog>
<cog>143.7</cog>
                        </extensions>
                    </trkpt>
                    <trkpt lat="54.477468333333334" lon="10.18245">
                        <ele>0</ele>
                        <time>2022-08-18T12:11:31Z</time>
                                                <extensions>
                            <sog>4.4</sog>
<cog>145.7</cog>
                        </extensions>
                    </trkpt>
                    <trkpt lat="54.477" lon="10.183">
                        <ele>0</ele>
                        <time>2022-08-18T12:11:59Z</time>
                                                <extensions>
                            <sog>4.1</sog>
<cog>143.7</cog>
                        </extensions>
                    </trkpt>
                    <trkpt lat="54.476486666666666" lon="10.183611666666668">
                        <ele>0</ele>
                        <time>2022-08-18T12:12:28Z</time>
                                                <extensions>
                            <sog>5.2</sog>
<cog>143.7</cog>
                        </extensions>
                    </trkpt>
                    <trkpt lat="54.475258333333336" lon="10.185068333333334">
                        <ele>0</ele>
                        <time>2022-08-18T12:13:29Z</time>
                                                <extensions>
                            <sog>5.4</sog>
<cog>144.1</cog>
                        </extensions>
                    </trkpt>
                    <trkpt lat="54.47402" lon="10.186646666666666">
                        <ele>0</ele>
                        <time>2022-08-18T12:14:30Z</time>
                                                <extensions>
                            <sog>5.3</sog>
<cog>125.5</cog>
                        </extensions>
                    </trkpt>
                    <trkpt lat="54.474145" lon="10.187313333333332">
                        <ele>0</ele>
                        <time>2022-08-18T12:15:00Z</time>
                                                <extensions>
                            <sog>2.6</sog>
<cog>13.4</cog>
                        </extensions>
                    </trkpt>
                    <trkpt lat="54.47452" lon="10.187351666666666">
                        <ele>0</ele>
                        <time>2022-08-18T12:15:29Z</time>
                                                <extensions>
                            <sog>3.0</sog>
<cog>6.3</cog>
                        </extensions>
                    </trkpt>
                    <trkpt lat="54.475366666666666" lon="10.187616666666665">
                        <ele>0</ele>
                        <time>2022-08-18T12:16:28Z</time>
                                                <extensions>
                            <sog>3.4</sog>
<cog>15.3</cog>
                        </extensions>
                    </trkpt>
                    <trkpt lat="54.476255" lon="10.187906666666667">
                        <ele>0</ele>
                        <time>2022-08-18T12:17:30Z</time>
                                                <extensions>
                            <sog>3.2</sog>
<cog>11.4</cog>
                        </extensions>
                    </trkpt>
                    <trkpt lat="54.47712833333333" lon="10.188201666666666">
                        <ele>0</ele>
                        <time>2022-08-18T12:18:30Z</time>
                                                <extensions>
                            <sog>3.1</sog>
<cog>12.9</cog>
                        </extensions>
                    </trkpt>
                    <trkpt lat="54.477581666666666" lon="10.188868333333334">
                        <ele>0</ele>
                        <time>2022-08-18T12:19:28Z</time>
                                                <extensions>
                            <sog>4.5</sog>
<cog>131.3</cog>
                        </extensions>
                    </trkpt>
                    <trkpt lat="54.477041666666665" lon="10.189823333333333">
                        <ele>0</ele>
                        <time>2022-08-18T12:19:59Z</time>
                                                <extensions>
                            <sog>6.0</sog>
<cog>135.7</cog>
                        </extensions>
                    </trkpt>
                    <trkpt lat="54.47638666666667" lon="10.19078">
                        <ele>0</ele>
                        <time>2022-08-18T12:20:29Z</time>
                                                <extensions>
                            <sog>6.1</sog>
<cog>143.1</cog>
                        </extensions>
                    </trkpt>
                    <trkpt lat="54.475675" lon="10.191651666666667">
                        <ele>0</ele>
                        <time>2022-08-18T12:21:00Z</time>
                                                <extensions>
                            <sog>6.1</sog>
<cog>144.8</cog>
                        </extensions>
                    </trkpt>
                    <trkpt lat="54.47367333333333" lon="10.194168333333332">
                        <ele>0</ele>
                        <time>2022-08-18T12:22:28Z</time>
                                                <extensions>
                            <sog>6.2</sog>
<cog>143.8</cog>
                        </extensions>
                    </trkpt>
                    <trkpt lat="54.47228833333334" lon="10.195901666666666">
                        <ele>0</ele>
                        <time>2022-08-18T12:23:28Z</time>
                                                <extensions>
                            <sog>6.2</sog>
<cog>143.6</cog>
                        </extensions>
                    </trkpt>
                    <trkpt lat="54.47155166666666" lon="10.196833333333332">
                        <ele>0</ele>
                        <time>2022-08-18T12:24:00Z</time>
                                                <extensions>
                            <sog>6.1</sog>
<cog>144.1</cog>
                        </extensions>
                    </trkpt>
                    <trkpt lat="54.470886666666665" lon="10.197666666666667">
                        <ele>0</ele>
                        <time>2022-08-18T12:24:29Z</time>
                                                <extensions>
                            <sog>6.2</sog>
<cog>143.2</cog>
                        </extensions>
                    </trkpt>
                    <trkpt lat="54.47020166666667" lon="10.198548333333333">
                        <ele>0</ele>
                        <time>2022-08-18T12:24:59Z</time>
                                                <extensions>
                            <sog>6.1</sog>
<cog>144.6</cog>
                        </extensions>
                    </trkpt>
                    <trkpt lat="54.46816666666667" lon="10.201161666666668">
                        <ele>0</ele>
                        <time>2022-08-18T12:26:29Z</time>
                                                <extensions>
                            <sog>5.9</sog>
<cog>142.7</cog>
                        </extensions>
                    </trkpt>
                    <trkpt lat="54.467435" lon="10.202105">
                        <ele>0</ele>
                        <time>2022-08-18T12:27:01Z</time>
                                                <extensions>
                            <sog>6.0</sog>
<cog>143.9</cog>
                        </extensions>
                    </trkpt>
                    <trkpt lat="54.46678" lon="10.202948333333334">
                        <ele>0</ele>
                        <time>2022-08-18T12:27:29Z</time>
                                                <extensions>
                            <sog>6.2</sog>
<cog>143.0</cog>
                        </extensions>
                    </trkpt>
                    <trkpt lat="54.465226666666666" lon="10.204180000000001">
                        <ele>0</ele>
                        <time>2022-08-18T12:28:31Z</time>
                                                <extensions>
                            <sog>6.3</sog>
<cog>166.8</cog>
                        </extensions>
                    </trkpt>
                    <trkpt lat="54.46359666666667" lon="10.204835000000001">
                        <ele>0</ele>
                        <time>2022-08-18T12:29:28Z</time>
                                                <extensions>
                            <sog>6.1</sog>
<cog>163.9</cog>
                        </extensions>
                    </trkpt>
                    <trkpt lat="54.46272666666667" lon="10.205186666666666">
                        <ele>0</ele>
                        <time>2022-08-18T12:29:59Z</time>
                                                <extensions>
                            <sog>6.2</sog>
<cog>166.5</cog>
                        </extensions>
                    </trkpt>
                    <trkpt lat="54.46179166666666" lon="10.205549999999999">
                        <ele>0</ele>
                        <time>2022-08-18T12:30:32Z</time>
                                                <extensions>
                            <sog>6.4</sog>
<cog>165.4</cog>
                        </extensions>
                    </trkpt>
                    <trkpt lat="54.46103333333333" lon="10.205836666666666">
                        <ele>0</ele>
                        <time>2022-08-18T12:30:59Z</time>
                                                <extensions>
                            <sog>6.3</sog>
<cog>170.0</cog>
                        </extensions>
                    </trkpt>
                    <trkpt lat="54.460193333333336" lon="10.206123333333332">
                        <ele>0</ele>
                        <time>2022-08-18T12:31:29Z</time>
                                                <extensions>
                            <sog>6.3</sog>
<cog>167.7</cog>
                        </extensions>
                    </trkpt>
                    <trkpt lat="54.45932166666667" lon="10.206425">
                        <ele>0</ele>
                        <time>2022-08-18T12:32:00Z</time>
                                                <extensions>
                            <sog>6.2</sog>
<cog>168.3</cog>
                        </extensions>
                    </trkpt>
                    <trkpt lat="54.458525" lon="10.20671">
                        <ele>0</ele>
                        <time>2022-08-18T12:32:28Z</time>
                                                <extensions>
                            <sog>6.5</sog>
<cog>169.1</cog>
                        </extensions>
                    </trkpt>
                    <trkpt lat="54.45764333333333" lon="10.207033333333333">
                        <ele>0</ele>
                        <time>2022-08-18T12:33:00Z</time>
                                                <extensions>
                            <sog>6.2</sog>
<cog>168.3</cog>
                        </extensions>
                    </trkpt>
                    <trkpt lat="54.45679333333333" lon="10.207348333333334">
                        <ele>0</ele>
                        <time>2022-08-18T12:33:29Z</time>
                                                <extensions>
                            <sog>6.5</sog>
<cog>169.3</cog>
                        </extensions>
                    </trkpt>
                    <trkpt lat="54.45505166666667" lon="10.207961666666668">
                        <ele>0</ele>
                        <time>2022-08-18T12:34:30Z</time>
                                                <extensions>
                            <sog>6.3</sog>
<cog>168.4</cog>
                        </extensions>
                    </trkpt>
                    <trkpt lat="54.45417666666666" lon="10.208268333333333">
                        <ele>0</ele>
                        <time>2022-08-18T12:35:01Z</time>
                                                <extensions>
                            <sog>6.2</sog>
<cog>168.5</cog>
                        </extensions>
                    </trkpt>
                    <trkpt lat="54.45337833333333" lon="10.20854">
                        <ele>0</ele>
                        <time>2022-08-18T12:35:29Z</time>
                                                <extensions>
                            <sog>6.3</sog>
<cog>169.1</cog>
                        </extensions>
                    </trkpt>
                    <trkpt lat="54.45252833333333" lon="10.208841666666666">
                        <ele>0</ele>
                        <time>2022-08-18T12:35:59Z</time>
                                                <extensions>
                            <sog>6.3</sog>
<cog>167.0</cog>
                        </extensions>
                    </trkpt>
                    <trkpt lat="54.45167666666667" lon="10.209143333333333">
                        <ele>0</ele>
                        <time>2022-08-18T12:36:29Z</time>
                                                <extensions>
                            <sog>6.1</sog>
<cog>167.9</cog>
                        </extensions>
                    </trkpt>
                    <trkpt lat="54.44909166666666" lon="10.210051666666667">
                        <ele>0</ele>
                        <time>2022-08-18T12:38:01Z</time>
                                                <extensions>
                            <sog>6.1</sog>
<cog>169.7</cog>
                        </extensions>
                    </trkpt>
                    <trkpt lat="54.44830833333333" lon="10.210334999999999">
                        <ele>0</ele>
                        <time>2022-08-18T12:38:29Z</time>
                                                <extensions>
                            <sog>6.4</sog>
<cog>168.2</cog>
                        </extensions>
                    </trkpt>
                    <trkpt lat="54.446595" lon="10.21096">
                        <ele>0</ele>
                        <time>2022-08-18T12:39:30Z</time>
                                                <extensions>
                            <sog>6.1</sog>
<cog>169.1</cog>
                        </extensions>
                    </trkpt>
                    <trkpt lat="54.44574333333333" lon="10.211261666666667">
                        <ele>0</ele>
                        <time>2022-08-18T12:40:00Z</time>
                                                <extensions>
                            <sog>6.3</sog>
<cog>168.7</cog>
                        </extensions>
                    </trkpt>
                    <trkpt lat="54.444955" lon="10.211546666666667">
                        <ele>0</ele>
                        <time>2022-08-18T12:40:28Z</time>
                                                <extensions>
                            <sog>6.2</sog>
<cog>167.5</cog>
                        </extensions>
                    </trkpt>
                    <trkpt lat="54.444071666666666" lon="10.21186">
                        <ele>0</ele>
                        <time>2022-08-18T12:40:59Z</time>
                                                <extensions>
                            <sog>6.0</sog>
<cog>168.4</cog>
                        </extensions>
                    </trkpt>
                    <trkpt lat="54.44238166666666" lon="10.212486666666667">
                        <ele>0</ele>
                        <time>2022-08-18T12:41:59Z</time>
                                                <extensions>
                            <sog>6.4</sog>
<cog>167.5</cog>
                        </extensions>
                    </trkpt>
                    <trkpt lat="54.44153666666667" lon="10.212778333333334">
                        <ele>0</ele>
                        <time>2022-08-18T12:42:30Z</time>
                                                <extensions>
                            <sog>6.3</sog>
<cog>168.2</cog>
                        </extensions>
                    </trkpt>
                    <trkpt lat="54.44071666666667" lon="10.213056666666667">
                        <ele>0</ele>
                        <time>2022-08-18T12:42:58Z</time>
                                                <extensions>
                            <sog>6.1</sog>
<cog>169.3</cog>
                        </extensions>
                    </trkpt>
                    <trkpt lat="54.439811666666664" lon="10.21337">
                        <ele>0</ele>
                        <time>2022-08-18T12:43:30Z</time>
                                                <extensions>
                            <sog>6.2</sog>
<cog>167.1</cog>
                        </extensions>
                    </trkpt>
                    <trkpt lat="54.43899333333333" lon="10.213638333333334">
                        <ele>0</ele>
                        <time>2022-08-18T12:43:59Z</time>
                                                <extensions>
                            <sog>6.1</sog>
<cog>168.6</cog>
                        </extensions>
                    </trkpt>
                    <trkpt lat="54.43814666666666" lon="10.213913333333332">
                        <ele>0</ele>
                        <time>2022-08-18T12:44:29Z</time>
                                                <extensions>
                            <sog>6.3</sog>
<cog>170.9</cog>
                        </extensions>
                    </trkpt>
                    <trkpt lat="54.43729333333333" lon="10.214203333333334">
                        <ele>0</ele>
                        <time>2022-08-18T12:44:59Z</time>
                                                <extensions>
                            <sog>6.2</sog>
<cog>168.7</cog>
                        </extensions>
                    </trkpt>
                    <trkpt lat="54.436431666666664" lon="10.21435">
                        <ele>0</ele>
                        <time>2022-08-18T12:45:29Z</time>
                                                <extensions>
                            <sog>6.2</sog>
<cog>178.8</cog>
                        </extensions>
                    </trkpt>
                    <trkpt lat="54.434725" lon="10.214381666666666">
                        <ele>0</ele>
                        <time>2022-08-18T12:46:28Z</time>
                                                <extensions>
                            <sog>6.4</sog>
<cog>178.3</cog>
                        </extensions>
                    </trkpt>
                    <trkpt lat="54.432903333333336" lon="10.214409999999999">
                        <ele>0</ele>
                        <time>2022-08-18T12:47:31Z</time>
                                                <extensions>
                            <sog>6.4</sog>
<cog>178.5</cog>
                        </extensions>
                    </trkpt>
                    <trkpt lat="54.43208833333333" lon="10.214419999999999">
                        <ele>0</ele>
                        <time>2022-08-18T12:47:59Z</time>
                                                <extensions>
                            <sog>6.5</sog>
<cog>179.4</cog>
                        </extensions>
                    </trkpt>
                    <trkpt lat="54.43121333333333" lon="10.214419999999999">
                        <ele>0</ele>
                        <time>2022-08-18T12:48:29Z</time>
                                                <extensions>
                            <sog>6.1</sog>
<cog>180.8</cog>
                        </extensions>
                    </trkpt>
                    <trkpt lat="54.43037" lon="10.214419999999999">
                        <ele>0</ele>
                        <time>2022-08-18T12:48:58Z</time>
                                                <extensions>
                            <sog>6.3</sog>
<cog>179.4</cog>
                        </extensions>
                    </trkpt>
                    <trkpt lat="54.42947166666667" lon="10.214423333333334">
                        <ele>0</ele>
                        <time>2022-08-18T12:49:29Z</time>
                                                <extensions>
                            <sog>6.4</sog>
<cog>180.3</cog>
                        </extensions>
                    </trkpt>
                    <trkpt lat="54.42770666666667" lon="10.214436666666668">
                        <ele>0</ele>
                        <time>2022-08-18T12:50:30Z</time>
                                                <extensions>
                            <sog>6.2</sog>
<cog>179.0</cog>
                        </extensions>
                    </trkpt>
                    <trkpt lat="54.426905000000005" lon="10.214438333333334">
                        <ele>0</ele>
                        <time>2022-08-18T12:50:58Z</time>
                                                <extensions>
                            <sog>6.3</sog>
<cog>179.5</cog>
                        </extensions>
                    </trkpt>
                    <trkpt lat="54.42604666666667" lon="10.214435">
                        <ele>0</ele>
                        <time>2022-08-18T12:51:29Z</time>
                                                <extensions>
                            <sog>6.2</sog>
<cog>180.4</cog>
                        </extensions>
                    </trkpt>
                    <trkpt lat="54.424261666666666" lon="10.214706666666666">
                        <ele>0</ele>
                        <time>2022-08-18T12:52:31Z</time>
                                                <extensions>
                            <sog>6.2</sog>
<cog>148.8</cog>
                        </extensions>
                    </trkpt>
                    <trkpt lat="54.423633333333335" lon="10.215595">
                        <ele>0</ele>
                        <time>2022-08-18T12:53:00Z</time>
                                                <extensions>
                            <sog>6.1</sog>
<cog>132.4</cog>
                        </extensions>
                    </trkpt>
                    <trkpt lat="54.42317833333333" lon="10.216648333333334">
                        <ele>0</ele>
                        <time>2022-08-18T12:53:28Z</time>
                                                <extensions>
                            <sog>5.9</sog>
<cog>119.7</cog>
                        </extensions>
                    </trkpt>
                    <trkpt lat="54.422515" lon="10.219273333333332">
                        <ele>0</ele>
                        <time>2022-08-18T12:54:29Z</time>
                                                <extensions>
                            <sog>6.1</sog>
<cog>114.8</cog>
                        </extensions>
                    </trkpt>
                    <trkpt lat="54.422180000000004" lon="10.220558333333335">
                        <ele>0</ele>
                        <time>2022-08-18T12:54:58Z</time>
                                                <extensions>
                            <sog>6.2</sog>
<cog>119.0</cog>
                        </extensions>
                    </trkpt>
                    <trkpt lat="54.42138666666666" lon="10.220821666666666">
                        <ele>0</ele>
                        <time>2022-08-18T12:55:29Z</time>
                                                <extensions>
                            <sog>6.1</sog>
<cog>190.3</cog>
                        </extensions>
                    </trkpt>
                    <trkpt lat="54.42049" lon="10.220284999999999">
                        <ele>0</ele>
                        <time>2022-08-18T12:56:03Z</time>
                                                <extensions>
                            <sog>6.2</sog>
<cog>200.3</cog>
                        </extensions>
                    </trkpt>
                    <trkpt lat="54.41977333333333" lon="10.219826666666668">
                        <ele>0</ele>
                        <time>2022-08-18T12:56:29Z</time>
                                                <extensions>
                            <sog>6.3</sog>
<cog>199.7</cog>
                        </extensions>
                    </trkpt>
                    <trkpt lat="54.418185" lon="10.218816666666667">
                        <ele>0</ele>
                        <time>2022-08-18T12:57:30Z</time>
                                                <extensions>
                            <sog>6.2</sog>
<cog>200.2</cog>
                        </extensions>
                    </trkpt>
                    <trkpt lat="54.416615" lon="10.217785">
                        <ele>0</ele>
                        <time>2022-08-18T12:58:28Z</time>
                                                <extensions>
                            <sog>6.2</sog>
<cog>201.6</cog>
                        </extensions>
                    </trkpt>
                    <trkpt lat="54.41498" lon="10.216743333333334">
                        <ele>0</ele>
                        <time>2022-08-18T12:59:29Z</time>
                                                <extensions>
                            <sog>6.3</sog>
<cog>200.8</cog>
                        </extensions>
                    </trkpt>
                    <trkpt lat="54.41336166666667" lon="10.215616666666667">
                        <ele>0</ele>
                        <time>2022-08-18T13:00:29Z</time>
                                                <extensions>
                            <sog>6.4</sog>
<cog>203.6</cog>
                        </extensions>
                    </trkpt>
                    <trkpt lat="54.41336166666667" lon="10.215616666666667">
                        <ele>0</ele>
                        <time>2022-08-18T13:00:29Z</time>
                                                <extensions>
                            <sog>6.4</sog>
<cog>203.6</cog>
                        </extensions>
                    </trkpt>
                    <trkpt lat="54.41175666666666" lon="10.214423333333334">
                        <ele>0</ele>
                        <time>2022-08-18T13:01:29Z</time>
                                                <extensions>
                            <sog>6.3</sog>
<cog>202.0</cog>
                        </extensions>
                    </trkpt>
                    <trkpt lat="54.410954999999994" lon="10.21388">
                        <ele>0</ele>
                        <time>2022-08-18T13:02:00Z</time>
                                                <extensions>
                            <sog>6.2</sog>
<cog>198.8</cog>
                        </extensions>
                    </trkpt>
                    <trkpt lat="54.41017333333333" lon="10.213491666666666">
                        <ele>0</ele>
                        <time>2022-08-18T13:02:28Z</time>
                                                <extensions>
                            <sog>6.0</sog>
<cog>193.4</cog>
                        </extensions>
                    </trkpt>
                    <trkpt lat="54.40933166666667" lon="10.213339999999999">
                        <ele>0</ele>
                        <time>2022-08-18T13:02:58Z</time>
                                                <extensions>
                            <sog>6.1</sog>
<cog>185.5</cog>
                        </extensions>
                    </trkpt>
                    <trkpt lat="54.40846" lon="10.213196666666667">
                        <ele>0</ele>
                        <time>2022-08-18T13:03:29Z</time>
                                                <extensions>
                            <sog>6.0</sog>
<cog>184.5</cog>
                        </extensions>
                    </trkpt>
                    <trkpt lat="54.407648333333334" lon="10.213085000000001">
                        <ele>0</ele>
                        <time>2022-08-18T13:03:59Z</time>
                                                <extensions>
                            <sog>6.0</sog>
<cog>184.5</cog>
                        </extensions>
                    </trkpt>
                    <trkpt lat="54.406765" lon="10.212951666666667">
                        <ele>0</ele>
                        <time>2022-08-18T13:04:29Z</time>
                                                <extensions>
                            <sog>6.2</sog>
<cog>185.6</cog>
                        </extensions>
                    </trkpt>
                    <trkpt lat="54.40591333333334" lon="10.21299">
                        <ele>0</ele>
                        <time>2022-08-18T13:04:59Z</time>
                                                <extensions>
                            <sog>6.2</sog>
<cog>176.8</cog>
                        </extensions>
                    </trkpt>
                    <trkpt lat="54.405073333333334" lon="10.213076666666666">
                        <ele>0</ele>
                        <time>2022-08-18T13:05:28Z</time>
                                                <extensions>
                            <sog>6.3</sog>
<cog>176.5</cog>
                        </extensions>
                    </trkpt>
                    <trkpt lat="54.403335" lon="10.213283333333333">
                        <ele>0</ele>
                        <time>2022-08-18T13:06:28Z</time>
                                                <extensions>
                            <sog>6.0</sog>
<cog>170.9</cog>
                        </extensions>
                    </trkpt>
                    <trkpt lat="54.402555" lon="10.21382">
                        <ele>0</ele>
                        <time>2022-08-18T13:07:01Z</time>
                                                <extensions>
                            <sog>5.4</sog>
<cog>144.4</cog>
                        </extensions>
                    </trkpt>
                    <trkpt lat="54.402145000000004" lon="10.214351666666666">
                        <ele>0</ele>
                        <time>2022-08-18T13:07:28Z</time>
                                                <extensions>
                            <sog>3.7</sog>
<cog>143.8</cog>
                        </extensions>
                    </trkpt>
                    <trkpt lat="54.40199666666667" lon="10.215211666666667">
                        <ele>0</ele>
                        <time>2022-08-18T13:08:58Z</time>
                                                <extensions>
                            <sog>1.8</sog>
<cog>161.5</cog>
                        </extensions>
                    </trkpt>
                    <trkpt lat="54.40172833333334" lon="10.215365">
                        <ele>0</ele>
                        <time>2022-08-18T13:09:29Z</time>
                                                <extensions>
                            <sog>2.2</sog>
<cog>163.5</cog>
                        </extensions>
                    </trkpt>
                    <trkpt lat="54.40217500000001" lon="10.215388333333333">
                        <ele>0</ele>
                        <time>2022-08-18T13:10:29Z</time>
                                                <extensions>
                            <sog>3.3</sog>
<cog>48.2</cog>
                        </extensions>
                    </trkpt>
                    <trkpt lat="54.40273333333334" lon="10.215473333333334">
                        <ele>0</ele>
                        <time>2022-08-18T13:11:29Z</time>
                                                <extensions>
                            <sog>1.1</sog>
<cog>53.3</cog>
                        </extensions>
                    </trkpt>
                    <trkpt lat="54.40280333333333" lon="10.215660000000002">
                        <ele>0</ele>
                        <time>2022-08-18T13:12:01Z</time>
                                                <extensions>
                            <sog>0.7</sog>
<cog>68.8</cog>
                        </extensions>
                    </trkpt>
                    <trkpt lat="54.40278833333333" lon="10.215665">
                        <ele>0</ele>
                        <time>2022-08-18T13:12:29Z</time>
                                                <extensions>
                            <sog>0.3</sog>
<cog>62.5</cog>
                        </extensions>
                    </trkpt>
                    <trkpt lat="54.402791666666666" lon="10.215723333333333">
                        <ele>0</ele>
                        <time>2022-08-18T13:12:58Z</time>
                                                <extensions>
                            <sog>0.2</sog>
<cog>62.5</cog>
                        </extensions>
                    </trkpt>
                    <trkpt lat="54.40280666666667" lon="10.215720000000001">
                        <ele>0</ele>
                        <time>2022-08-18T13:13:30Z</time>
                                                <extensions>
                            <sog>0.2</sog>
<cog>62.5</cog>
                        </extensions>
                    </trkpt>
                    <trkpt lat="54.40280166666666" lon="10.215735">
                        <ele>0</ele>
                        <time>2022-08-18T13:14:29Z</time>
                                                <extensions>
                            <sog>0.0</sog>
<cog>62.5</cog>
                        </extensions>
                    </trkpt>
                    <trkpt lat="54.402818333333336" lon="10.21573">
                        <ele>0</ele>
                        <time>2022-08-18T13:20:28Z</time>
                                                <extensions>
                            <sog>0.1</sog>
<cog>62.5</cog>
                        </extensions>
                    </trkpt>
                    <trkpt lat="54.402833333333334" lon="10.215708333333334">
                        <ele>0</ele>
                        <time>2022-08-18T13:26:31Z</time>
                                                <extensions>
                            <sog>0.1</sog>
<cog>62.5</cog>
                        </extensions>
                    </trkpt>
                    <trkpt lat="54.40282166666667" lon="10.21574">
                        <ele>0</ele>
                        <time>2022-08-18T13:29:29Z</time>
                                                <extensions>
                            <sog>0.0</sog>
<cog>62.5</cog>
                        </extensions>
                    </trkpt>
                    <trkpt lat="54.402838333333335" lon="10.215726666666665">
                        <ele>0</ele>
                        <time>2022-08-18T13:32:28Z</time>
                                                <extensions>
                            <sog>0.1</sog>
<cog>62.5</cog>
                        </extensions>
                    </trkpt>
                    <trkpt lat="54.40282833333333" lon="10.215758333333333">
                        <ele>0</ele>
                        <time>2022-08-18T13:35:28Z</time>
                                                <extensions>
                            <sog>0.0</sog>
<cog>62.5</cog>
                        </extensions>
                    </trkpt>
                    <trkpt lat="54.402858333333334" lon="10.21571">
                        <ele>0</ele>
                        <time>2022-08-18T13:38:29Z</time>
                                                <extensions>
                            <sog>0.0</sog>
<cog>62.5</cog>
                        </extensions>
                    </trkpt>
                    <trkpt lat="54.402815000000004" lon="10.215746666666666">
                        <ele>0</ele>
                        <time>2022-08-18T13:47:29Z</time>
                                                <extensions>
                            <sog>0.0</sog>
<cog>62.5</cog>
                        </extensions>
                    </trkpt>
                    <trkpt lat="54.40282166666667" lon="10.215665">
                        <ele>0</ele>
                        <time>2022-08-18T13:56:28Z</time>
                                                <extensions>
                            <sog>0.1</sog>
<cog>62.5</cog>
                        </extensions>
                    </trkpt>
                    <trkpt lat="54.402831666666664" lon="10.215731666666667">
                        <ele>0</ele>
                        <time>2022-08-18T14:08:29Z</time>
                                                <extensions>
                            <sog>0.0</sog>
<cog>62.5</cog>
                        </extensions>
                    </trkpt>
                    <trkpt lat="54.402836666666666" lon="10.215715">
                        <ele>0</ele>
                        <time>2022-08-18T14:14:28Z</time>
                                                <extensions>
                            <sog>0.1</sog>
<cog>62.5</cog>
                        </extensions>
                    </trkpt>
                    <trkpt lat="54.40282666666667" lon="10.215741666666666">
                        <ele>0</ele>
                        <time>2022-08-18T14:20:29Z</time>
                                                <extensions>
                            <sog>0.0</sog>
<cog>62.5</cog>
                        </extensions>
                    </trkpt>
                    <trkpt lat="54.402815000000004" lon="10.215755">
                        <ele>0</ele>
                        <time>2022-08-18T14:26:29Z</time>
                                                <extensions>
                            <sog>0.0</sog>
<cog>62.5</cog>
                        </extensions>
                    </trkpt>
                    <trkpt lat="54.402836666666666" lon="10.215723333333333">
                        <ele>0</ele>
                        <time>2022-08-18T14:29:28Z</time>
                                                <extensions>
                            <sog>0.1</sog>
<cog>62.5</cog>
                        </extensions>
                    </trkpt>
                    <trkpt lat="54.402825" lon="10.215795000000002">
                        <ele>0</ele>
                        <time>2022-08-18T14:32:28Z</time>
                                                <extensions>
                            <sog>0.0</sog>
<cog>353.5</cog>
                        </extensions>
                    </trkpt>
                    <trkpt lat="54.402838333333335" lon="10.215761666666667">
                        <ele>0</ele>
                        <time>2022-08-18T14:35:28Z</time>
                                                <extensions>
                            <sog>0.0</sog>
<cog>353.5</cog>
                        </extensions>
                    </trkpt>
                    <trkpt lat="54.40283" lon="10.215726666666665">
                        <ele>0</ele>
                        <time>2022-08-18T14:38:28Z</time>
                                                <extensions>
                            <sog>0.0</sog>
<cog>353.5</cog>
                        </extensions>
                    </trkpt>
                    <trkpt lat="54.402836666666666" lon="10.215761666666667">
                        <ele>0</ele>
                        <time>2022-08-18T14:44:29Z</time>
                                                <extensions>
                            <sog>0.0</sog>
<cog>353.5</cog>
                        </extensions>
                    </trkpt>
                    <trkpt lat="54.402834999999996" lon="10.215728333333335">
                        <ele>0</ele>
                        <time>2022-08-18T14:50:29Z</time>
                                                <extensions>
                            <sog>0.0</sog>
<cog>353.5</cog>
                        </extensions>
                    </trkpt>
                    <trkpt lat="54.402825" lon="10.215733333333333">
                        <ele>0</ele>
                        <time>2022-08-18T14:53:29Z</time>
                                                <extensions>
                            <sog>0.0</sog>
<cog>353.5</cog>
                        </extensions>
                    </trkpt>
                    <trkpt lat="54.40282333333334" lon="10.215711666666666">
                        <ele>0</ele>
                        <time>2022-08-18T14:56:28Z</time>
                                                <extensions>
                            <sog>0.0</sog>
<cog>353.5</cog>
                        </extensions>
                    </trkpt>
                    <trkpt lat="54.402815000000004" lon="10.215745">
                        <ele>0</ele>
                        <time>2022-08-18T15:02:28Z</time>
                                                <extensions>
                            <sog>0.0</sog>
<cog>353.5</cog>
                        </extensions>
                    </trkpt>
                    <trkpt lat="54.40280166666666" lon="10.215715">
                        <ele>0</ele>
                        <time>2022-08-18T15:14:28Z</time>
                                                <extensions>
                            <sog>0.0</sog>
<cog>353.5</cog>
                        </extensions>
                    </trkpt>
                    <trkpt lat="54.40280666666667" lon="10.215708333333334">
                        <ele>0</ele>
                        <time>2022-08-18T15:17:28Z</time>
                                                <extensions>
                            <sog>0.0</sog>
<cog>353.5</cog>
                        </extensions>
                    </trkpt>
                    <trkpt lat="54.40280833333334" lon="10.215691666666666">
                        <ele>0</ele>
                        <time>2022-08-18T15:20:29Z</time>
                                                <extensions>
                            <sog>0.0</sog>
<cog>353.5</cog>
                        </extensions>
                    </trkpt>
                    <trkpt lat="54.402818333333336" lon="10.215718333333333">
                        <ele>0</ele>
                        <time>2022-08-18T15:26:29Z</time>
                                                <extensions>
                            <sog>0.0</sog>
<cog>353.5</cog>
                        </extensions>
                    </trkpt>
                    <trkpt lat="54.40281166666667" lon="10.215724999999999">
                        <ele>0</ele>
                        <time>2022-08-18T15:32:29Z</time>
                                                <extensions>
                            <sog>0.0</sog>
<cog>353.5</cog>
                        </extensions>
                    </trkpt>
                    <trkpt lat="54.402816666666666" lon="10.21577">
                        <ele>0</ele>
                        <time>2022-08-18T15:38:29Z</time>
                                                <extensions>
                            <sog>0.0</sog>
<cog>353.5</cog>
                        </extensions>
                    </trkpt>
                    <trkpt lat="54.40280833333334" lon="10.215748333333332">
                        <ele>0</ele>
                        <time>2022-08-18T15:44:29Z</time>
                                                <extensions>
                            <sog>0.0</sog>
<cog>353.5</cog>
                        </extensions>
                    </trkpt>
                    <trkpt lat="54.40282166666667" lon="10.215758333333333">
                        <ele>0</ele>
                        <time>2022-08-18T15:50:28Z</time>
                                                <extensions>
                            <sog>0.0</sog>
<cog>353.5</cog>
                        </extensions>
                    </trkpt>
                    <trkpt lat="54.402831666666664" lon="10.215733333333333">
                        <ele>0</ele>
                        <time>2022-08-18T15:56:30Z</time>
                                                <extensions>
                            <sog>0.0</sog>
<cog>353.5</cog>
                        </extensions>
                    </trkpt>
                    <trkpt lat="54.40284333333333" lon="10.215698333333334">
                        <ele>0</ele>
                        <time>2022-08-18T16:08:29Z</time>
                                                <extensions>
                            <sog>0.1</sog>
<cog>353.5</cog>
                        </extensions>
                    </trkpt>
                    <trkpt lat="54.402815000000004" lon="10.215708333333334">
                        <ele>0</ele>
                        <time>2022-08-18T16:11:29Z</time>
                                                <extensions>
                            <sog>0.0</sog>
<cog>353.5</cog>
                        </extensions>
                    </trkpt>
                    <trkpt lat="54.402831666666664" lon="10.215721666666667">
                        <ele>0</ele>
                        <time>2022-08-18T16:14:28Z</time>
                                                <extensions>
                            <sog>0.0</sog>
<cog>353.5</cog>
                        </extensions>
                    </trkpt>
                    <trkpt lat="54.402815000000004" lon="10.21569">
                        <ele>0</ele>
                        <time>2022-08-18T16:20:29Z</time>
                                                <extensions>
                            <sog>0.0</sog>
<cog>353.5</cog>
                        </extensions>
                    </trkpt>
                    <trkpt lat="54.40282666666667" lon="10.215696666666666">
                        <ele>0</ele>
                        <time>2022-08-18T16:26:28Z</time>
                                                <extensions>
                            <sog>0.0</sog>
<cog>353.5</cog>
                        </extensions>
                    </trkpt>
                    <trkpt lat="54.402813333333334" lon="10.215716666666667">
                        <ele>0</ele>
                        <time>2022-08-18T16:29:28Z</time>
                                                <extensions>
                            <sog>0.0</sog>
<cog>353.5</cog>
                        </extensions>
                    </trkpt>
                    <trkpt lat="54.40280166666666" lon="10.215736666666666">
                        <ele>0</ele>
                        <time>2022-08-18T16:32:29Z</time>
                                                <extensions>
                            <sog>0.0</sog>
<cog>312.1</cog>
                        </extensions>
                    </trkpt>
                    <trkpt lat="54.402815000000004" lon="10.215706666666668">
                        <ele>0</ele>
                        <time>2022-08-18T16:35:28Z</time>
                                                <extensions>
                            <sog>0.0</sog>
<cog>312.1</cog>
                        </extensions>
                    </trkpt>
                    <trkpt lat="54.40282333333334" lon="10.215703333333332">
                        <ele>0</ele>
                        <time>2022-08-18T16:38:28Z</time>
                                                <extensions>
                            <sog>0.0</sog>
<cog>312.1</cog>
                        </extensions>
                    </trkpt>
                    <trkpt lat="54.402785" lon="10.215746666666666">
                        <ele>0</ele>
                        <time>2022-08-18T16:44:29Z</time>
                                                <extensions>
                            <sog>0.0</sog>
<cog>312.1</cog>
                        </extensions>
                    </trkpt>
                    <trkpt lat="54.402815000000004" lon="10.215720000000001">
                        <ele>0</ele>
                        <time>2022-08-18T16:50:30Z</time>
                                                <extensions>
                            <sog>0.0</sog>
<cog>312.1</cog>
                        </extensions>
                    </trkpt>
                    <trkpt lat="54.402816666666666" lon="10.215738333333332">
                        <ele>0</ele>
                        <time>2022-08-18T17:02:30Z</time>
                                                <extensions>
                            <sog>0.0</sog>
<cog>312.1</cog>
                        </extensions>
                    </trkpt>
                    <trkpt lat="54.402816666666666" lon="10.215723333333333">
                        <ele>0</ele>
                        <time>2022-08-18T17:05:29Z</time>
                                                <extensions>
                            <sog>0.1</sog>
<cog>312.1</cog>
                        </extensions>
                    </trkpt>
                    <trkpt lat="54.402825" lon="10.215733333333333">
                        <ele>0</ele>
                        <time>2022-08-18T17:08:28Z</time>
                                                <extensions>
                            <sog>0.0</sog>
<cog>312.1</cog>
                        </extensions>
                    </trkpt>
                    <trkpt lat="54.40281" lon="10.215718333333333">
                        <ele>0</ele>
                        <time>2022-08-18T17:11:30Z</time>
                                                <extensions>
                            <sog>0.0</sog>
<cog>312.1</cog>
                        </extensions>
                    </trkpt>
                    <trkpt lat="54.40282833333333" lon="10.215705000000002">
                        <ele>0</ele>
                        <time>2022-08-18T17:14:29Z</time>
                                                <extensions>
                            <sog>0.0</sog>
<cog>312.1</cog>
                        </extensions>
                    </trkpt>
                    <trkpt lat="54.40285333333334" lon="10.215703333333332">
                        <ele>0</ele>
                        <time>2022-08-18T17:20:28Z</time>
                                                <extensions>
                            <sog>0.0</sog>
<cog>312.1</cog>
                        </extensions>
                    </trkpt>
                    <trkpt lat="54.402858333333334" lon="10.215738333333332">
                        <ele>0</ele>
                        <time>2022-08-18T17:26:29Z</time>
                                                <extensions>
                            <sog>0.0</sog>
<cog>312.1</cog>
                        </extensions>
                    </trkpt>
                    <trkpt lat="54.40287333333333" lon="10.215735">
                        <ele>0</ele>
                        <time>2022-08-18T17:29:30Z</time>
                                                <extensions>
                            <sog>0.0</sog>
<cog>312.1</cog>
                        </extensions>
                    </trkpt>
                    <trkpt lat="54.40287333333333" lon="10.215741666666666">
                        <ele>0</ele>
                        <time>2022-08-18T17:32:29Z</time>
                                                <extensions>
                            <sog>0.0</sog>
<cog>312.1</cog>
                        </extensions>
                    </trkpt>
                    <trkpt lat="54.402860000000004" lon="10.215713333333333">
                        <ele>0</ele>
                        <time>2022-08-18T17:35:30Z</time>
                                                <extensions>
                            <sog>0.0</sog>
<cog>312.1</cog>
                        </extensions>
                    </trkpt>
                    <trkpt lat="54.402838333333335" lon="10.215718333333333">
                        <ele>0</ele>
                        <time>2022-08-18T17:38:29Z</time>
                                                <extensions>
                            <sog>0.0</sog>
<cog>312.1</cog>
                        </extensions>
                    </trkpt>
                    <trkpt lat="54.402863333333336" lon="10.215701666666666">
                        <ele>0</ele>
                        <time>2022-08-18T17:44:29Z</time>
                                                <extensions>
                            <sog>0.0</sog>
<cog>312.1</cog>
                        </extensions>
                    </trkpt>
                    <trkpt lat="54.402838333333335" lon="10.215701666666666">
                        <ele>0</ele>
                        <time>2022-08-18T17:50:30Z</time>
                                                <extensions>
                            <sog>0.0</sog>
<cog>312.1</cog>
                        </extensions>
                    </trkpt>
                    <trkpt lat="54.40284166666667" lon="10.215688333333333">
                        <ele>0</ele>
                        <time>2022-08-18T17:56:29Z</time>
                                                <extensions>
                            <sog>0.0</sog>
<cog>312.1</cog>
                        </extensions>
                    </trkpt>
                    <trkpt lat="54.4028" lon="10.215681666666667">
                        <ele>0</ele>
                        <time>2022-08-18T18:02:29Z</time>
                                                <extensions>
                            <sog>0.1</sog>
<cog>312.1</cog>
                        </extensions>
                    </trkpt>
                    <trkpt lat="54.40282666666667" lon="10.21571">
                        <ele>0</ele>
                        <time>2022-08-18T18:05:28Z</time>
                                                <extensions>
                            <sog>0.0</sog>
<cog>249.8</cog>
                        </extensions>
                    </trkpt>
                    <trkpt lat="54.402804999999994" lon="10.215731666666667">
                        <ele>0</ele>
                        <time>2022-08-18T18:08:29Z</time>
                                                <extensions>
                            <sog>0.0</sog>
<cog>249.8</cog>
                        </extensions>
                    </trkpt>
                    <trkpt lat="54.40279666666667" lon="10.215738333333332">
                        <ele>0</ele>
                        <time>2022-08-18T18:11:29Z</time>
                                                <extensions>
                            <sog>0.0</sog>
<cog>249.8</cog>
                        </extensions>
                    </trkpt>
                    <trkpt lat="54.40278333333333" lon="10.215793333333332">
                        <ele>0</ele>
                        <time>2022-08-18T18:14:28Z</time>
                                                <extensions>
                            <sog>0.0</sog>
<cog>249.8</cog>
                        </extensions>
                    </trkpt>
                    <trkpt lat="54.402804999999994" lon="10.215731666666667">
                        <ele>0</ele>
                        <time>2022-08-18T18:20:29Z</time>
                                                <extensions>
                            <sog>0.0</sog>
<cog>249.8</cog>
                        </extensions>
                    </trkpt>
                    <trkpt lat="54.40283" lon="10.215735">
                        <ele>0</ele>
                        <time>2022-08-18T18:26:29Z</time>
                                                <extensions>
                            <sog>0.0</sog>
<cog>249.8</cog>
                        </extensions>
                    </trkpt>
                    <trkpt lat="54.40282833333333" lon="10.215723333333333">
                        <ele>0</ele>
                        <time>2022-08-18T18:32:28Z</time>
                                                <extensions>
                            <sog>0.0</sog>
<cog>249.8</cog>
                        </extensions>
                    </trkpt>
                    <trkpt lat="54.4028" lon="10.215731666666667">
                        <ele>0</ele>
                        <time>2022-08-18T18:38:30Z</time>
                                                <extensions>
                            <sog>0.0</sog>
<cog>249.8</cog>
                        </extensions>
                    </trkpt>
                    <trkpt lat="54.402815000000004" lon="10.215743333333334">
                        <ele>0</ele>
                        <time>2022-08-18T18:44:29Z</time>
                                                <extensions>
                            <sog>0.1</sog>
<cog>249.8</cog>
                        </extensions>
                    </trkpt>
                    <trkpt lat="54.40281" lon="10.215701666666666">
                        <ele>0</ele>
                        <time>2022-08-18T18:50:29Z</time>
                                                <extensions>
                            <sog>0.1</sog>
<cog>249.8</cog>
                        </extensions>
                    </trkpt>
                    <trkpt lat="54.40280333333333" lon="10.215728333333335">
                        <ele>0</ele>
                        <time>2022-08-18T18:53:30Z</time>
                                                <extensions>
                            <sog>0.0</sog>
<cog>249.8</cog>
                        </extensions>
                    </trkpt>
                    <trkpt lat="54.40280833333334" lon="10.215718333333333">
                        <ele>0</ele>
                        <time>2022-08-18T18:56:28Z</time>
                                                <extensions>
                            <sog>0.0</sog>
<cog>249.8</cog>
                        </extensions>
                    </trkpt>
                    <trkpt lat="54.40280666666667" lon="10.215718333333333">
                        <ele>0</ele>
                        <time>2022-08-18T18:59:30Z</time>
                                                <extensions>
                            <sog>0.0</sog>
<cog>249.8</cog>
                        </extensions>
                    </trkpt>
                    <trkpt lat="54.40282" lon="10.215736666666666">
                        <ele>0</ele>
                        <time>2022-08-18T19:02:29Z</time>
                                                <extensions>
                            <sog>0.0</sog>
<cog>249.8</cog>
                        </extensions>
                    </trkpt>
                    <trkpt lat="54.40282333333334" lon="10.215736666666666">
                        <ele>0</ele>
                        <time>2022-08-18T19:08:29Z</time>
                                                <extensions>
                            <sog>0.0</sog>
<cog>249.8</cog>
                        </extensions>
                    </trkpt>
                    <trkpt lat="54.40280666666667" lon="10.21574">
                        <ele>0</ele>
                        <time>2022-08-18T19:14:29Z</time>
                                                <extensions>
                            <sog>0.0</sog>
<cog>249.8</cog>
                        </extensions>
                    </trkpt>
                    <trkpt lat="54.40282833333333" lon="10.215703333333332">
                        <ele>0</ele>
                        <time>2022-08-18T19:20:29Z</time>
                                                <extensions>
                            <sog>0.0</sog>
<cog>249.8</cog>
                        </extensions>
                    </trkpt>
                    <trkpt lat="54.40282333333334" lon="10.215698333333334">
                        <ele>0</ele>
                        <time>2022-08-18T19:26:30Z</time>
                                                <extensions>
                            <sog>0.0</sog>
<cog>249.8</cog>
                        </extensions>
                    </trkpt>
                    <trkpt lat="54.402818333333336" lon="10.215736666666666">
                        <ele>0</ele>
                        <time>2022-08-18T19:32:28Z</time>
                                                <extensions>
                            <sog>0.0</sog>
<cog>249.8</cog>
                        </extensions>
                    </trkpt>
                    <trkpt lat="54.402825" lon="10.215715">
                        <ele>0</ele>
                        <time>2022-08-18T19:38:28Z</time>
                                                <extensions>
                            <sog>0.0</sog>
<cog>249.8</cog>
                        </extensions>
                    </trkpt>
                    <trkpt lat="54.40282" lon="10.215706666666668">
                        <ele>0</ele>
                        <time>2022-08-18T19:44:30Z</time>
                                                <extensions>
                            <sog>0.0</sog>
<cog>249.8</cog>
                        </extensions>
                    </trkpt>
                    <trkpt lat="54.402845" lon="10.2157">
                        <ele>0</ele>
                        <time>2022-08-18T19:50:28Z</time>
                                                <extensions>
                            <sog>0.0</sog>
<cog>249.8</cog>
                        </extensions>
                    </trkpt>
                    <trkpt lat="54.40282666666667" lon="10.2157">
                        <ele>0</ele>
                        <time>2022-08-18T19:56:30Z</time>
                                                <extensions>
                            <sog>0.0</sog>
<cog>249.8</cog>
                        </extensions>
                    </trkpt>
                    <trkpt lat="54.402816666666666" lon="10.215756666666666">
                        <ele>0</ele>
                        <time>2022-08-18T20:02:29Z</time>
                                                <extensions>
                            <sog>0.0</sog>
<cog>249.8</cog>
                        </extensions>
                    </trkpt>
                    <trkpt lat="54.40280666666667" lon="10.215731666666667">
                        <ele>0</ele>
                        <time>2022-08-18T20:05:29Z</time>
                                                <extensions>
                            <sog>0.0</sog>
<cog>249.8</cog>
                        </extensions>
                    </trkpt>
                    <trkpt lat="54.40280666666667" lon="10.215724999999999">
                        <ele>0</ele>
                        <time>2022-08-18T20:08:29Z</time>
                                                <extensions>
                            <sog>0.0</sog>
<cog>249.8</cog>
                        </extensions>
                    </trkpt>
                    <trkpt lat="54.40278833333333" lon="10.215728333333335">
                        <ele>0</ele>
                        <time>2022-08-18T20:14:29Z</time>
                                                <extensions>
                            <sog>0.0</sog>
<cog>249.8</cog>
                        </extensions>
                    </trkpt>
                    <trkpt lat="54.40281166666667" lon="10.215724999999999">
                        <ele>0</ele>
                        <time>2022-08-18T20:20:29Z</time>
                                                <extensions>
                            <sog>0.1</sog>
<cog>249.8</cog>
                        </extensions>
                    </trkpt>
                    <trkpt lat="54.40280833333334" lon="10.215726666666665">
                        <ele>0</ele>
                        <time>2022-08-18T20:32:28Z</time>
                                                <extensions>
                            <sog>0.0</sog>
<cog>249.8</cog>
                        </extensions>
                    </trkpt>
                    <trkpt lat="54.4028" lon="10.215686666666667">
                        <ele>0</ele>
                        <time>2022-08-18T20:38:30Z</time>
                                                <extensions>
                            <sog>0.0</sog>
<cog>249.8</cog>
                        </extensions>
                    </trkpt>
                    <trkpt lat="54.40280333333333" lon="10.215721666666667">
                        <ele>0</ele>
                        <time>2022-08-18T20:44:29Z</time>
                                                <extensions>
                            <sog>0.0</sog>
<cog>249.8</cog>
                        </extensions>
                    </trkpt>
                    <trkpt lat="54.40285333333334" lon="10.215705000000002">
                        <ele>0</ele>
                        <time>2022-08-18T20:50:30Z</time>
                                                <extensions>
                            <sog>0.1</sog>
<cog>249.8</cog>
                        </extensions>
                    </trkpt>
                    <trkpt lat="54.402834999999996" lon="10.215723333333333">
                        <ele>0</ele>
                        <time>2022-08-18T20:56:29Z</time>
                                                <extensions>
                            <sog>0.0</sog>
<cog>249.8</cog>
                        </extensions>
                    </trkpt>
                    <trkpt lat="54.40280166666666" lon="10.215716666666667">
                        <ele>0</ele>
                        <time>2022-08-18T21:02:28Z</time>
                                                <extensions>
                            <sog>0.0</sog>
<cog>249.8</cog>
                        </extensions>
                    </trkpt>
                    <trkpt lat="54.402816666666666" lon="10.215696666666666">
                        <ele>0</ele>
                        <time>2022-08-18T21:08:30Z</time>
                                                <extensions>
                            <sog>0.1</sog>
<cog>249.8</cog>
                        </extensions>
                    </trkpt>
                    <trkpt lat="54.40285166666667" lon="10.215711666666666">
                        <ele>0</ele>
                        <time>2022-08-18T21:14:29Z</time>
                                                <extensions>
                            <sog>0.0</sog>
<cog>249.8</cog>
                        </extensions>
                    </trkpt>
                    <trkpt lat="54.40281" lon="10.2157">
                        <ele>0</ele>
                        <time>2022-08-18T21:20:29Z</time>
                                                <extensions>
                            <sog>0.0</sog>
<cog>249.8</cog>
                        </extensions>
                    </trkpt>
                    <trkpt lat="54.402838333333335" lon="10.215696666666666">
                        <ele>0</ele>
                        <time>2022-08-18T21:26:29Z</time>
                                                <extensions>
                            <sog>0.1</sog>
<cog>249.8</cog>
                        </extensions>
                    </trkpt>
                    <trkpt lat="54.40284333333333" lon="10.215713333333333">
                        <ele>0</ele>
                        <time>2022-08-18T21:32:29Z</time>
                                                <extensions>
                            <sog>0.0</sog>
<cog>359.1</cog>
                        </extensions>
                    </trkpt>
                    <trkpt lat="54.402825" lon="10.215715">
                        <ele>0</ele>
                        <time>2022-08-18T21:35:28Z</time>
                                                <extensions>
                            <sog>0.0</sog>
<cog>359.1</cog>
                        </extensions>
                    </trkpt>
                    <trkpt lat="54.402804999999994" lon="10.215776666666667">
                        <ele>0</ele>
                        <time>2022-08-18T21:38:28Z</time>
                                                <extensions>
                            <sog>0.0</sog>
<cog>359.1</cog>
                        </extensions>
                    </trkpt>
                    <trkpt lat="54.40280333333333" lon="10.215736666666666">
                        <ele>0</ele>
                        <time>2022-08-18T21:41:29Z</time>
                                                <extensions>
                            <sog>0.0</sog>
<cog>359.1</cog>
                        </extensions>
                    </trkpt>
                    <trkpt lat="54.40284" lon="10.21573">
                        <ele>0</ele>
                        <time>2022-08-18T21:44:29Z</time>
                                                <extensions>
                            <sog>0.0</sog>
<cog>359.1</cog>
                        </extensions>
                    </trkpt>
                    <trkpt lat="54.402836666666666" lon="10.215706666666668">
                        <ele>0</ele>
                        <time>2022-08-18T21:50:30Z</time>
                                                <extensions>
                            <sog>0.0</sog>
<cog>359.1</cog>
                        </extensions>
                    </trkpt>
                    <trkpt lat="54.40284333333333" lon="10.215728333333335">
                        <ele>0</ele>
                        <time>2022-08-18T21:53:31Z</time>
                                                <extensions>
                            <sog>0.0</sog>
<cog>359.1</cog>
                        </extensions>
                    </trkpt>
                    <trkpt lat="54.402825" lon="10.215724999999999">
                        <ele>0</ele>
                        <time>2022-08-18T21:56:29Z</time>
                                                <extensions>
                            <sog>0.0</sog>
<cog>359.1</cog>
                        </extensions>
                    </trkpt>
                    <trkpt lat="54.402815000000004" lon="10.215746666666666">
                        <ele>0</ele>
                        <time>2022-08-18T21:59:28Z</time>
                                                <extensions>
                            <sog>0.0</sog>
<cog>359.1</cog>
                        </extensions>
                    </trkpt>
                    <trkpt lat="54.40282833333333" lon="10.215721666666667">
                        <ele>0</ele>
                        <time>2022-08-18T22:08:30Z</time>
                                                <extensions>
                            <sog>0.1</sog>
<cog>359.1</cog>
                        </extensions>
                    </trkpt>
                    <trkpt lat="54.40282333333334" lon="10.215711666666666">
                        <ele>0</ele>
                        <time>2022-08-18T22:11:29Z</time>
                                                <extensions>
                            <sog>0.0</sog>
<cog>359.1</cog>
                        </extensions>
                    </trkpt>
                    <trkpt lat="54.40282666666667" lon="10.215726666666665">
                        <ele>0</ele>
                        <time>2022-08-18T22:17:30Z</time>
                                                <extensions>
                            <sog>0.0</sog>
<cog>359.1</cog>
                        </extensions>
                    </trkpt>
                    <trkpt lat="54.40280333333333" lon="10.215720000000001">
                        <ele>0</ele>
                        <time>2022-08-18T22:32:30Z</time>
                                                <extensions>
                            <sog>0.0</sog>
<cog>359.1</cog>
                        </extensions>
                    </trkpt>
                    <trkpt lat="54.40280166666666" lon="10.215683333333335">
                        <ele>0</ele>
                        <time>2022-08-18T22:41:29Z</time>
                                                <extensions>
                            <sog>0.1</sog>
<cog>359.1</cog>
                        </extensions>
                    </trkpt>
                    <trkpt lat="54.402793333333335" lon="10.215733333333333">
                        <ele>0</ele>
                        <time>2022-08-18T22:44:29Z</time>
                                                <extensions>
                            <sog>0.0</sog>
<cog>359.1</cog>
                        </extensions>
                    </trkpt>
                    <trkpt lat="54.40280666666667" lon="10.215743333333334">
                        <ele>0</ele>
                        <time>2022-08-18T22:50:29Z</time>
                                                <extensions>
                            <sog>0.0</sog>
<cog>359.1</cog>
                        </extensions>
                    </trkpt>
                    <trkpt lat="54.40280666666667" lon="10.215738333333332">
                        <ele>0</ele>
                        <time>2022-08-18T22:56:29Z</time>
                                                <extensions>
                            <sog>0.0</sog>
<cog>359.1</cog>
                        </extensions>
                    </trkpt>
                    <trkpt lat="54.40281166666667" lon="10.215741666666666">
                        <ele>0</ele>
                        <time>2022-08-18T23:02:28Z</time>
                                                <extensions>
                            <sog>0.0</sog>
<cog>359.1</cog>
                        </extensions>
                    </trkpt>
                    <trkpt lat="54.40280666666667" lon="10.215773333333335">
                        <ele>0</ele>
                        <time>2022-08-18T23:08:29Z</time>
                                                <extensions>
                            <sog>0.0</sog>
<cog>359.1</cog>
                        </extensions>
                    </trkpt>
                    <trkpt lat="54.40280333333333" lon="10.21578">
                        <ele>0</ele>
                        <time>2022-08-18T23:11:29Z</time>
                                                <extensions>
                            <sog>0.0</sog>
<cog>359.1</cog>
                        </extensions>
                    </trkpt>
                    <trkpt lat="54.40283" lon="10.215775">
                        <ele>0</ele>
                        <time>2022-08-18T23:14:29Z</time>
                                                <extensions>
                            <sog>0.1</sog>
<cog>359.1</cog>
                        </extensions>
                    </trkpt>
                    <trkpt lat="54.402825" lon="10.215808333333333">
                        <ele>0</ele>
                        <time>2022-08-18T23:17:28Z</time>
                                                <extensions>
                            <sog>0.0</sog>
<cog>359.1</cog>
                        </extensions>
                    </trkpt>
                    <trkpt lat="54.40285666666667" lon="10.215683333333335">
                        <ele>0</ele>
                        <time>2022-08-18T23:20:28Z</time>
                                                <extensions>
                            <sog>0.0</sog>
<cog>359.1</cog>
                        </extensions>
                    </trkpt>
                    <trkpt lat="54.402834999999996" lon="10.215750000000002">
                        <ele>0</ele>
                        <time>2022-08-18T23:26:29Z</time>
                                                <extensions>
                            <sog>0.0</sog>
<cog>359.1</cog>
                        </extensions>
                    </trkpt>
                    <trkpt lat="54.40281166666667" lon="10.21574">
                        <ele>0</ele>
                        <time>2022-08-18T23:32:29Z</time>
                                                <extensions>
                            <sog>0.0</sog>
<cog>359.1</cog>
                        </extensions>
                    </trkpt>
                    <trkpt lat="54.402818333333336" lon="10.215706666666668">
                        <ele>0</ele>
                        <time>2022-08-18T23:38:29Z</time>
                                                <extensions>
                            <sog>0.0</sog>
<cog>359.1</cog>
                        </extensions>
                    </trkpt>
                    <trkpt lat="54.402855" lon="10.215686666666667">
                        <ele>0</ele>
                        <time>2022-08-18T23:44:30Z</time>
                                                <extensions>
                            <sog>0.0</sog>
<cog>359.1</cog>
                        </extensions>
                    </trkpt>
                    <trkpt lat="54.402834999999996" lon="10.215716666666667">
                        <ele>0</ele>
                        <time>2022-08-18T23:50:29Z</time>
                                                <extensions>
                            <sog>0.2</sog>
<cog>359.1</cog>
                        </extensions>
                    </trkpt>
                    <trkpt lat="54.40286166666667" lon="10.215724999999999">
                        <ele>0</ele>
                        <time>2022-08-18T23:56:29Z</time>
                                                <extensions>
                            <sog>0.0</sog>
<cog>359.1</cog>
                        </extensions>
                    </trkpt>
                    </trkseg>
                </trk>
</gpx>