<?xml version="1.0" encoding="UTF-8"?>
<gpx version="1.1" creator="AIS-to-GPX Converter" xmlns="http://www.topografix.com/GPX/1/1">
                <trk>
                    <name>anon0302</name>
                    <trkseg>
                                            <trkpt lat="54.40022" lon="10.213768333333332">
                        <ele>0</ele>
                        <time>2022-08-18T00:02:17Z</time>
                                                <extensions>
                            <sog>0.0</sog>
<cog>335.4</cog>
                        </extensions>
                    </trkpt>
                    <trkpt lat="54.40019333333333" lon="10.213756666666665">
                        <ele>0</ele>
                        <time>2022-08-18T00:08:15Z</time>
                                                <extensions>
                            <sog>0.0</sog>
<cog>335.4</cog>
                        </extensions>
                    </trkpt>
                    <trkpt lat="54.400189999999995" lon="10.213748333333333">
                        <ele>0</ele>
                        <time>2022-08-18T00:20:17Z</time>
                                                <extensions>
                            <sog>0.0</sog>
<cog>335.4</cog>
                        </extensions>
                    </trkpt>
                    <trkpt lat="54.40019333333333" lon="10.213785">
                        <ele>0</ele>
                        <time>2022-08-18T00:26:16Z</time>
                                                <extensions>
                            <sog>0.0</sog>
<cog>335.4</cog>
                        </extensions>
                    </trkpt>
                    <trkpt lat="54.40017833333333" lon="10.213718333333333">
                        <ele>0</ele>
                        <time>2022-08-18T00:32:17Z</time>
                                                <extensions>
                            <sog>0.0</sog>
<cog>335.4</cog>
                        </extensions>
                    </trkpt>
                    <trkpt lat="54.40017666666667" lon="10.21374">
                        <ele>0</ele>
                        <time>2022-08-18T00:38:15Z</time>
                                                <extensions>
                            <sog>0.0</sog>
<cog>335.4</cog>
                        </extensions>
                    </trkpt>
                    <trkpt lat="54.400245000000005" lon="10.213701666666667">
                        <ele>0</ele>
                        <time>2022-08-18T00:53:15Z</time>
                                                <extensions>
                            <sog>0.0</sog>
<cog>335.4</cog>
                        </extensions>
                    </trkpt>
                    <trkpt lat="54.40024166666667" lon="10.213741666666666">
                        <ele>0</ele>
                        <time>2022-08-18T00:56:15Z</time>
                                                <extensions>
                            <sog>0.0</sog>
<cog>335.4</cog>
                        </extensions>
                    </trkpt>
                    <trkpt lat="54.400185" lon="10.213736666666668">
                        <ele>0</ele>
                        <time>2022-08-18T01:02:15Z</time>
                                                <extensions>
                            <sog>0.0</sog>
<cog>335.4</cog>
                        </extensions>
                    </trkpt>
                    <trkpt lat="54.400125" lon="10.213728333333334">
                        <ele>0</ele>
                        <time>2022-08-18T01:08:15Z</time>
                                                <extensions>
                            <sog>0.0</sog>
<cog>335.4</cog>
                        </extensions>
                    </trkpt>
                    <trkpt lat="54.400128333333335" lon="10.213735000000002">
                        <ele>0</ele>
                        <time>2022-08-18T01:14:17Z</time>
                                                <extensions>
                            <sog>0.0</sog>
<cog>335.4</cog>
                        </extensions>
                    </trkpt>
                    <trkpt lat="54.400155000000005" lon="10.213756666666665">
                        <ele>0</ele>
                        <time>2022-08-18T01:32:16Z</time>
                                                <extensions>
                            <sog>0.0</sog>
<cog>335.4</cog>
                        </extensions>
                    </trkpt>
                    <trkpt lat="54.40018" lon="10.2137">
                        <ele>0</ele>
                        <time>2022-08-18T01:38:16Z</time>
                                                <extensions>
                            <sog>0.0</sog>
<cog>335.4</cog>
                        </extensions>
                    </trkpt>
                    <trkpt lat="54.40008" lon="10.213778333333332">
                        <ele>0</ele>
                        <time>2022-08-18T01:50:15Z</time>
                                                <extensions>
                            <sog>0.0</sog>
<cog>335.4</cog>
                        </extensions>
                    </trkpt>
                    <trkpt lat="54.40015166666667" lon="10.213709999999999">
                        <ele>0</ele>
                        <time>2022-08-18T02:02:16Z</time>
                                                <extensions>
                            <sog>0.0</sog>
<cog>335.4</cog>
                        </extensions>
                    </trkpt>
                    <trkpt lat="54.400150000000004" lon="10.213748333333333">
                        <ele>0</ele>
                        <time>2022-08-18T02:08:15Z</time>
                                                <extensions>
                            <sog>0.0</sog>
<cog>335.4</cog>
                        </extensions>
                    </trkpt>
                    <trkpt lat="54.40021166666667" lon="10.213735000000002">
                        <ele>0</ele>
                        <time>2022-08-18T02:11:15Z</time>
                                                <extensions>
                            <sog>0.0</sog>
<cog>335.4</cog>
                        </extensions>
                    </trkpt>
                    <trkpt lat="54.40020166666667" lon="10.21372">
                        <ele>0</ele>
                        <time>2022-08-18T02:17:15Z</time>
                                                <extensions>
                            <sog>0.0</sog>
<cog>335.4</cog>
                        </extensions>
                    </trkpt>
                    <trkpt lat="54.400185" lon="10.213726666666668">
                        <ele>0</ele>
                        <time>2022-08-18T02:20:18Z</time>
                                                <extensions>
                            <sog>0.0</sog>
<cog>335.4</cog>
                        </extensions>
                    </trkpt>
                    <trkpt lat="54.400189999999995" lon="10.213766666666666">
                        <ele>0</ele>
                        <time>2022-08-18T02:26:16Z</time>
                                                <extensions>
                            <sog>0.0</sog>
<cog>335.4</cog>
                        </extensions>
                    </trkpt>
                    <trkpt lat="54.40019666666667" lon="10.213723333333332">
                        <ele>0</ele>
                        <time>2022-08-18T02:32:15Z</time>
                                                <extensions>
                            <sog>0.0</sog>
<cog>335.4</cog>
                        </extensions>
                    </trkpt>
                    <trkpt lat="54.400195000000004" lon="10.213718333333333">
                        <ele>0</ele>
                        <time>2022-08-18T02:38:20Z</time>
                                                <extensions>
                            <sog>0.0</sog>
<cog>335.4</cog>
                        </extensions>
                    </trkpt>
                    <trkpt lat="54.400198333333336" lon="10.213688333333332">
                        <ele>0</ele>
                        <time>2022-08-18T02:41:15Z</time>
                                                <extensions>
                            <sog>0.0</sog>
<cog>335.4</cog>
                        </extensions>
                    </trkpt>
                    <trkpt lat="54.400236666666665" lon="10.213696666666667">
                        <ele>0</ele>
                        <time>2022-08-18T02:50:15Z</time>
                                                <extensions>
                            <sog>0.0</sog>
<cog>335.4</cog>
                        </extensions>
                    </trkpt>
                    <trkpt lat="54.400263333333335" lon="10.213703333333333">
                        <ele>0</ele>
                        <time>2022-08-18T02:56:15Z</time>
                                                <extensions>
                            <sog>0.0</sog>
<cog>335.4</cog>
                        </extensions>
                    </trkpt>
                    <trkpt lat="54.40018333333333" lon="10.213731666666666">
                        <ele>0</ele>
                        <time>2022-08-18T03:02:16Z</time>
                                                <extensions>
                            <sog>0.0</sog>
<cog>335.4</cog>
                        </extensions>
                    </trkpt>
                    <trkpt lat="54.40018666666666" lon="10.213778333333332">
                        <ele>0</ele>
                        <time>2022-08-18T03:08:15Z</time>
                                                <extensions>
                            <sog>0.0</sog>
<cog>335.4</cog>
                        </extensions>
                    </trkpt>
                    <trkpt lat="54.400195000000004" lon="10.213723333333332">
                        <ele>0</ele>
                        <time>2022-08-18T03:14:15Z</time>
                                                <extensions>
                            <sog>0.0</sog>
<cog>335.4</cog>
                        </extensions>
                    </trkpt>
                    <trkpt lat="54.40017" lon="10.213735000000002">
                        <ele>0</ele>
                        <time>2022-08-18T03:20:18Z</time>
                                                <extensions>
                            <sog>0.0</sog>
<cog>335.4</cog>
                        </extensions>
                    </trkpt>
                    <trkpt lat="54.40015666666667" lon="10.213761666666667">
                        <ele>0</ele>
                        <time>2022-08-18T03:38:16Z</time>
                                                <extensions>
                            <sog>0.0</sog>
<cog>335.4</cog>
                        </extensions>
                    </trkpt>
                    <trkpt lat="54.40015666666667" lon="10.213713333333335">
                        <ele>0</ele>
                        <time>2022-08-18T04:02:16Z</time>
                                                <extensions>
                            <sog>0.0</sog>
<cog>335.4</cog>
                        </extensions>
                    </trkpt>
                    <trkpt lat="54.40015666666667" lon="10.213768333333332">
                        <ele>0</ele>
                        <time>2022-08-18T04:08:21Z</time>
                                                <extensions>
                            <sog>0.0</sog>
<cog>335.4</cog>
                        </extensions>
                    </trkpt>
                    <trkpt lat="54.40013" lon="10.213756666666665">
                        <ele>0</ele>
                        <time>2022-08-18T04:14:16Z</time>
                                                <extensions>
                            <sog>0.0</sog>
<cog>335.4</cog>
                        </extensions>
                    </trkpt>
                    <trkpt lat="54.40013666666667" lon="10.213753333333333">
                        <ele>0</ele>
                        <time>2022-08-18T04:20:16Z</time>
                                                <extensions>
                            <sog>0.0</sog>
<cog>335.4</cog>
                        </extensions>
                    </trkpt>
                    <trkpt lat="54.40015666666667" lon="10.213765">
                        <ele>0</ele>
                        <time>2022-08-18T04:26:16Z</time>
                                                <extensions>
                            <sog>0.0</sog>
<cog>335.4</cog>
                        </extensions>
                    </trkpt>
                    <trkpt lat="54.40013666666667" lon="10.213715">
                        <ele>0</ele>
                        <time>2022-08-18T04:38:16Z</time>
                                                <extensions>
                            <sog>0.0</sog>
<cog>335.4</cog>
                        </extensions>
                    </trkpt>
                    <trkpt lat="54.400205" lon="10.213745">
                        <ele>0</ele>
                        <time>2022-08-18T04:56:17Z</time>
                                                <extensions>
                            <sog>0.0</sog>
<cog>335.4</cog>
                        </extensions>
                    </trkpt>
                    <trkpt lat="54.400200000000005" lon="10.213775">
                        <ele>0</ele>
                        <time>2022-08-18T05:02:15Z</time>
                                                <extensions>
                            <sog>0.0</sog>
<cog>335.4</cog>
                        </extensions>
                    </trkpt>
                    <trkpt lat="54.40018666666666" lon="10.213718333333333">
                        <ele>0</ele>
                        <time>2022-08-18T05:20:15Z</time>
                                                <extensions>
                            <sog>0.0</sog>
<cog>335.4</cog>
                        </extensions>
                    </trkpt>
                    <trkpt lat="54.40022666666667" lon="10.213696666666667">
                        <ele>0</ele>
                        <time>2022-08-18T05:26:15Z</time>
                                                <extensions>
                            <sog>0.0</sog>
<cog>335.4</cog>
                        </extensions>
                    </trkpt>
                    <trkpt lat="54.40022" lon="10.213733333333332">
                        <ele>0</ele>
                        <time>2022-08-18T05:32:15Z</time>
                                                <extensions>
                            <sog>0.0</sog>
<cog>335.4</cog>
                        </extensions>
                    </trkpt>
                    <trkpt lat="54.40013833333333" lon="10.213748333333333">
                        <ele>0</ele>
                        <time>2022-08-18T05:38:19Z</time>
                                                <extensions>
                            <sog>0.0</sog>
<cog>335.4</cog>
                        </extensions>
                    </trkpt>
                    <trkpt lat="54.400195000000004" lon="10.213696666666667">
                        <ele>0</ele>
                        <time>2022-08-18T05:44:15Z</time>
                                                <extensions>
                            <sog>0.0</sog>
<cog>335.4</cog>
                        </extensions>
                    </trkpt>
                    <trkpt lat="54.40016" lon="10.213701666666667">
                        <ele>0</ele>
                        <time>2022-08-18T05:47:15Z</time>
                                                <extensions>
                            <sog>0.0</sog>
<cog>335.4</cog>
                        </extensions>
                    </trkpt>
                    <trkpt lat="54.40017666666667" lon="10.213723333333332">
                        <ele>0</ele>
                        <time>2022-08-18T05:50:16Z</time>
                                                <extensions>
                            <sog>0.0</sog>
<cog>335.4</cog>
                        </extensions>
                    </trkpt>
                    <trkpt lat="54.40014833333333" lon="10.213741666666666">
                        <ele>0</ele>
                        <time>2022-08-18T05:56:16Z</time>
                                                <extensions>
                            <sog>0.0</sog>
<cog>335.4</cog>
                        </extensions>
                    </trkpt>
                    <trkpt lat="54.400173333333335" lon="10.213731666666666">
                        <ele>0</ele>
                        <time>2022-08-18T06:02:18Z</time>
                                                <extensions>
                            <sog>0.0</sog>
<cog>335.4</cog>
                        </extensions>
                    </trkpt>
                    <trkpt lat="54.40016833333333" lon="10.21372">
                        <ele>0</ele>
                        <time>2022-08-18T06:08:19Z</time>
                                                <extensions>
                            <sog>0.0</sog>
<cog>335.4</cog>
                        </extensions>
                    </trkpt>
                    <trkpt lat="54.40016166666667" lon="10.21373">
                        <ele>0</ele>
                        <time>2022-08-18T06:14:17Z</time>
                                                <extensions>
                            <sog>0.0</sog>
<cog>335.4</cog>
                        </extensions>
                    </trkpt>
                    <trkpt lat="54.40017" lon="10.213718333333333">
                        <ele>0</ele>
                        <time>2022-08-18T06:32:16Z</time>
                                                <extensions>
                            <sog>0.0</sog>
<cog>335.4</cog>
                        </extensions>
                    </trkpt>
                    <trkpt lat="54.400165" lon="10.213686666666666">
                        <ele>0</ele>
                        <time>2022-08-18T06:44:16Z</time>
                                                <extensions>
                            <sog>0.0</sog>
<cog>335.4</cog>
                        </extensions>
                    </trkpt>
                    <trkpt lat="54.400144999999995" lon="10.213758333333335">
                        <ele>0</ele>
                        <time>2022-08-18T06:56:15Z</time>
                                                <extensions>
                            <sog>0.0</sog>
<cog>335.4</cog>
                        </extensions>
                    </trkpt>
                    <trkpt lat="54.400146666666664" lon="10.21377">
                        <ele>0</ele>
                        <time>2022-08-18T07:02:15Z</time>
                                                <extensions>
                            <sog>0.0</sog>
<cog>335.4</cog>
                        </extensions>
                    </trkpt>
                    <trkpt lat="54.40018333333333" lon="10.213751666666667">
                        <ele>0</ele>
                        <time>2022-08-18T07:08:16Z</time>
                                                <extensions>
                            <sog>0.0</sog>
<cog>335.4</cog>
                        </extensions>
                    </trkpt>
                    <trkpt lat="54.40016833333333" lon="10.213746666666667">
                        <ele>0</ele>
                        <time>2022-08-18T07:14:15Z</time>
                                                <extensions>
                            <sog>0.0</sog>
<cog>335.4</cog>
                        </extensions>
                    </trkpt>
                    <trkpt lat="54.400153333333336" lon="10.213758333333335">
                        <ele>0</ele>
                        <time>2022-08-18T07:17:15Z</time>
                                                <extensions>
                            <sog>0.0</sog>
<cog>335.4</cog>
                        </extensions>
                    </trkpt>
                    <trkpt lat="54.40015666666667" lon="10.21374">
                        <ele>0</ele>
                        <time>2022-08-18T07:20:15Z</time>
                                                <extensions>
                            <sog>0.0</sog>
<cog>335.4</cog>
                        </extensions>
                    </trkpt>
                    <trkpt lat="54.400146666666664" lon="10.213723333333332">
                        <ele>0</ele>
                        <time>2022-08-18T07:26:15Z</time>
                                                <extensions>
                            <sog>0.0</sog>
<cog>335.4</cog>
                        </extensions>
                    </trkpt>
                    <trkpt lat="54.400144999999995" lon="10.213718333333333">
                        <ele>0</ele>
                        <time>2022-08-18T07:29:15Z</time>
                                                <extensions>
                            <sog>0.0</sog>
<cog>335.4</cog>
                        </extensions>
                    </trkpt>
                    <trkpt lat="54.40016333333333" lon="10.2137">
                        <ele>0</ele>
                        <time>2022-08-18T07:35:15Z</time>
                                                <extensions>
                            <sog>0.0</sog>
<cog>335.4</cog>
                        </extensions>
                    </trkpt>
                    <trkpt lat="54.40015833333334" lon="10.213725">
                        <ele>0</ele>
                        <time>2022-08-18T07:38:18Z</time>
                                                <extensions>
                            <sog>0.0</sog>
<cog>335.4</cog>
                        </extensions>
                    </trkpt>
                    <trkpt lat="54.40014833333333" lon="10.213709999999999">
                        <ele>0</ele>
                        <time>2022-08-18T07:44:15Z</time>
                                                <extensions>
                            <sog>0.0</sog>
<cog>335.4</cog>
                        </extensions>
                    </trkpt>
                    <trkpt lat="54.40014833333333" lon="10.213758333333335">
                        <ele>0</ele>
                        <time>2022-08-18T07:50:15Z</time>
                                                <extensions>
                            <sog>0.0</sog>
<cog>335.4</cog>
                        </extensions>
                    </trkpt>
                    <trkpt lat="54.40019666666667" lon="10.213706666666667">
                        <ele>0</ele>
                        <time>2022-08-18T07:56:15Z</time>
                                                <extensions>
                            <sog>0.0</sog>
<cog>335.4</cog>
                        </extensions>
                    </trkpt>
                    <trkpt lat="54.40020833333333" lon="10.213748333333333">
                        <ele>0</ele>
                        <time>2022-08-18T07:59:15Z</time>
                                                <extensions>
                            <sog>0.0</sog>
<cog>335.4</cog>
                        </extensions>
                    </trkpt>
                    <trkpt lat="54.40021333333333" lon="10.213751666666667">
                        <ele>0</ele>
                        <time>2022-08-18T08:02:15Z</time>
                                                <extensions>
                            <sog>0.0</sog>
<cog>335.4</cog>
                        </extensions>
                    </trkpt>
                    <trkpt lat="54.40021166666667" lon="10.213711666666667">
                        <ele>0</ele>
                        <time>2022-08-18T08:14:16Z</time>
                                                <extensions>
                            <sog>0.0</sog>
<cog>335.4</cog>
                        </extensions>
                    </trkpt>
                    <trkpt lat="54.40019666666667" lon="10.213718333333333">
                        <ele>0</ele>
                        <time>2022-08-18T08:26:14Z</time>
                                                <extensions>
                            <sog>0.0</sog>
<cog>335.4</cog>
                        </extensions>
                    </trkpt>
                    <trkpt lat="54.400200000000005" lon="10.213748333333333">
                        <ele>0</ele>
                        <time>2022-08-18T08:29:15Z</time>
                                                <extensions>
                            <sog>0.0</sog>
<cog>335.4</cog>
                        </extensions>
                    </trkpt>
                    <trkpt lat="54.40020333333334" lon="10.213736666666668">
                        <ele>0</ele>
                        <time>2022-08-18T08:32:17Z</time>
                                                <extensions>
                            <sog>0.0</sog>
<cog>335.4</cog>
                        </extensions>
                    </trkpt>
                    <trkpt lat="54.400189999999995" lon="10.213718333333333">
                        <ele>0</ele>
                        <time>2022-08-18T08:38:15Z</time>
                                                <extensions>
                            <sog>0.0</sog>
<cog>335.4</cog>
                        </extensions>
                    </trkpt>
                    <trkpt lat="54.400175" lon="10.213686666666666">
                        <ele>0</ele>
                        <time>2022-08-18T08:44:16Z</time>
                                                <extensions>
                            <sog>0.0</sog>
<cog>335.4</cog>
                        </extensions>
                    </trkpt>
                    <trkpt lat="54.40021333333333" lon="10.213695">
                        <ele>0</ele>
                        <time>2022-08-18T08:50:16Z</time>
                                                <extensions>
                            <sog>0.0</sog>
<cog>335.4</cog>
                        </extensions>
                    </trkpt>
                    <trkpt lat="54.40016166666667" lon="10.213695">
                        <ele>0</ele>
                        <time>2022-08-18T09:02:17Z</time>
                                                <extensions>
                            <sog>0.0</sog>
<cog>335.4</cog>
                        </extensions>
                    </trkpt>
                    <trkpt lat="54.40017833333333" lon="10.213716666666667">
                        <ele>0</ele>
                        <time>2022-08-18T09:05:15Z</time>
                                                <extensions>
                            <sog>0.0</sog>
<cog>335.4</cog>
                        </extensions>
                    </trkpt>
                    <trkpt lat="54.40018166666667" lon="10.213745">
                        <ele>0</ele>
                        <time>2022-08-18T09:08:17Z</time>
                                                <extensions>
                            <sog>0.0</sog>
<cog>335.4</cog>
                        </extensions>
                    </trkpt>
                    <trkpt lat="54.40016166666667" lon="10.21376">
                        <ele>0</ele>
                        <time>2022-08-18T09:14:15Z</time>
                                                <extensions>
                            <sog>0.0</sog>
<cog>335.4</cog>
                        </extensions>
                    </trkpt>
                    <trkpt lat="54.40016666666667" lon="10.213726666666668">
                        <ele>0</ele>
                        <time>2022-08-18T09:20:16Z</time>
                                                <extensions>
                            <sog>0.0</sog>
<cog>335.4</cog>
                        </extensions>
                    </trkpt>
                    <trkpt lat="54.40019333333333" lon="10.213716666666667">
                        <ele>0</ele>
                        <time>2022-08-18T09:23:15Z</time>
                                                <extensions>
                            <sog>0.0</sog>
<cog>335.4</cog>
                        </extensions>
                    </trkpt>
                    <trkpt lat="54.40022" lon="10.2137">
                        <ele>0</ele>
                        <time>2022-08-18T09:26:17Z</time>
                                                <extensions>
                            <sog>0.0</sog>
<cog>335.4</cog>
                        </extensions>
                    </trkpt>
                    <trkpt lat="54.40018833333333" lon="10.21376">
                        <ele>0</ele>
                        <time>2022-08-18T09:38:15Z</time>
                                                <extensions>
                            <sog>0.0</sog>
<cog>335.4</cog>
                        </extensions>
                    </trkpt>
                    <trkpt lat="54.400171666666665" lon="10.213731666666666">
                        <ele>0</ele>
                        <time>2022-08-18T09:44:16Z</time>
                                                <extensions>
                            <sog>0.0</sog>
<cog>335.4</cog>
                        </extensions>
                    </trkpt>
                    <trkpt lat="54.40017666666667" lon="10.213723333333332">
                        <ele>0</ele>
                        <time>2022-08-18T09:50:15Z</time>
                                                <extensions>
                            <sog>0.0</sog>
<cog>335.4</cog>
                        </extensions>
                    </trkpt>
                    <trkpt lat="54.40016833333333" lon="10.213756666666665">
                        <ele>0</ele>
                        <time>2022-08-18T09:56:16Z</time>
                                                <extensions>
                            <sog>0.0</sog>
<cog>335.4</cog>
                        </extensions>
                    </trkpt>
                    <trkpt lat="54.400171666666665" lon="10.213695">
                        <ele>0</ele>
                        <time>2022-08-18T10:02:18Z</time>
                                                <extensions>
                            <sog>0.0</sog>
<cog>335.4</cog>
                        </extensions>
                    </trkpt>
                    <trkpt lat="54.40015166666667" lon="10.213711666666667">
                        <ele>0</ele>
                        <time>2022-08-18T10:05:16Z</time>
                                                <extensions>
                            <sog>0.0</sog>
<cog>335.4</cog>
                        </extensions>
                    </trkpt>
                    <trkpt lat="54.400185" lon="10.213690000000001">
                        <ele>0</ele>
                        <time>2022-08-18T10:11:15Z</time>
                                                <extensions>
                            <sog>0.0</sog>
<cog>335.4</cog>
                        </extensions>
                    </trkpt>
                    <trkpt lat="54.400126666666665" lon="10.213715">
                        <ele>0</ele>
                        <time>2022-08-18T10:20:18Z</time>
                                                <extensions>
                            <sog>0.0</sog>
<cog>335.4</cog>
                        </extensions>
                    </trkpt>
                    <trkpt lat="54.40014833333333" lon="10.213728333333334">
                        <ele>0</ele>
                        <time>2022-08-18T10:26:15Z</time>
                                                <extensions>
                            <sog>0.0</sog>
<cog>335.4</cog>
                        </extensions>
                    </trkpt>
                    <trkpt lat="54.40016833333333" lon="10.21377">
                        <ele>0</ele>
                        <time>2022-08-18T10:38:15Z</time>
                                                <extensions>
                            <sog>0.0</sog>
<cog>335.4</cog>
                        </extensions>
                    </trkpt>
                    <trkpt lat="54.400195000000004" lon="10.213706666666667">
                        <ele>0</ele>
                        <time>2022-08-18T10:44:15Z</time>
                                                <extensions>
                            <sog>0.0</sog>
<cog>335.4</cog>
                        </extensions>
                    </trkpt>
                    <trkpt lat="54.40021166666667" lon="10.213731666666666">
                        <ele>0</ele>
                        <time>2022-08-18T10:50:15Z</time>
                                                <extensions>
                            <sog>0.0</sog>
<cog>335.4</cog>
                        </extensions>
                    </trkpt>
                    <trkpt lat="54.40016166666667" lon="10.213766666666666">
                        <ele>0</ele>
                        <time>2022-08-18T11:02:15Z</time>
                                                <extensions>
                            <sog>0.0</sog>
<cog>335.4</cog>
                        </extensions>
                    </trkpt>
                    <trkpt lat="54.400173333333335" lon="10.213763333333333">
                        <ele>0</ele>
                        <time>2022-08-18T11:20:16Z</time>
                                                <extensions>
                            <sog>0.0</sog>
<cog>335.4</cog>
                        </extensions>
                    </trkpt>
                    <trkpt lat="54.40021166666667" lon="10.213715">
                        <ele>0</ele>
                        <time>2022-08-18T11:26:15Z</time>
                                                <extensions>
                            <sog>0.0</sog>
<cog>335.4</cog>
                        </extensions>
                    </trkpt>
                    <trkpt lat="54.400191666666665" lon="10.213768333333332">
                        <ele>0</ele>
                        <time>2022-08-18T11:32:16Z</time>
                                                <extensions>
                            <sog>0.0</sog>
<cog>335.4</cog>
                        </extensions>
                    </trkpt>
                    <trkpt lat="54.40016666666667" lon="10.21374">
                        <ele>0</ele>
                        <time>2022-08-18T11:44:16Z</time>
                                                <extensions>
                            <sog>0.0</sog>
<cog>335.4</cog>
                        </extensions>
                    </trkpt>
                    <trkpt lat="54.40018833333333" lon="10.213765">
                        <ele>0</ele>
                        <time>2022-08-18T11:50:15Z</time>
                                                <extensions>
                            <sog>0.0</sog>
<cog>335.4</cog>
                        </extensions>
                    </trkpt>
                    <trkpt lat="54.40017833333333" lon="10.21373">
                        <ele>0</ele>
                        <time>2022-08-18T11:56:16Z</time>
                                                <extensions>
                            <sog>0.0</sog>
<cog>335.4</cog>
                        </extensions>
                    </trkpt>
                    <trkpt lat="54.40018166666667" lon="10.213766666666666">
                        <ele>0</ele>
                        <time>2022-08-18T12:02:16Z</time>
                                                <extensions>
                            <sog>0.0</sog>
<cog>335.4</cog>
                        </extensions>
                    </trkpt>
                    <trkpt lat="54.400175" lon="10.213696666666667">
                        <ele>0</ele>
                        <time>2022-08-18T12:08:15Z</time>
                                                <extensions>
                            <sog>0.0</sog>
<cog>335.4</cog>
                        </extensions>
                    </trkpt>
                    <trkpt lat="54.40018333333333" lon="10.21374">
                        <ele>0</ele>
                        <time>2022-08-18T12:14:15Z</time>
                                                <extensions>
                            <sog>0.0</sog>
<cog>335.4</cog>
                        </extensions>
                    </trkpt>
                    <trkpt lat="54.400185" lon="10.21373">
                        <ele>0</ele>
                        <time>2022-08-18T12:20:16Z</time>
                                                <extensions>
                            <sog>0.0</sog>
<cog>335.4</cog>
                        </extensions>
                    </trkpt>
                    <trkpt lat="54.40016666666667" lon="10.213735000000002">
                        <ele>0</ele>
                        <time>2022-08-18T12:23:16Z</time>
                                                <extensions>
                            <sog>0.0</sog>
<cog>335.4</cog>
                        </extensions>
                    </trkpt>
                    <trkpt lat="54.400171666666665" lon="10.213709999999999">
                        <ele>0</ele>
                        <time>2022-08-18T12:26:16Z</time>
                                                <extensions>
                            <sog>0.0</sog>
<cog>335.4</cog>
                        </extensions>
                    </trkpt>
                    <trkpt lat="54.40015166666667" lon="10.213715">
                        <ele>0</ele>
                        <time>2022-08-18T12:32:15Z</time>
                                                <extensions>
                            <sog>0.1</sog>
<cog>335.4</cog>
                        </extensions>
                    </trkpt>
                    <trkpt lat="54.40015666666667" lon="10.213715">
                        <ele>0</ele>
                        <time>2022-08-18T12:38:16Z</time>
                                                <extensions>
                            <sog>0.0</sog>
<cog>335.4</cog>
                        </extensions>
                    </trkpt>
                    <trkpt lat="54.40017833333333" lon="10.213753333333333">
                        <ele>0</ele>
                        <time>2022-08-18T12:56:16Z</time>
                                                <extensions>
                            <sog>0.0</sog>
<cog>335.4</cog>
                        </extensions>
                    </trkpt>
                    <trkpt lat="54.400191666666665" lon="10.213743333333333">
                        <ele>0</ele>
                        <time>2022-08-18T12:59:15Z</time>
                                                <extensions>
                            <sog>0.0</sog>
<cog>335.4</cog>
                        </extensions>
                    </trkpt>
                    <trkpt lat="54.400191666666665" lon="10.213736666666668">
                        <ele>0</ele>
                        <time>2022-08-18T13:02:16Z</time>
                                                <extensions>
                            <sog>0.0</sog>
<cog>335.4</cog>
                        </extensions>
                    </trkpt>
                    <trkpt lat="54.400205" lon="10.213750000000001">
                        <ele>0</ele>
                        <time>2022-08-18T13:05:15Z</time>
                                                <extensions>
                            <sog>0.0</sog>
<cog>335.4</cog>
                        </extensions>
                    </trkpt>
                    <trkpt lat="54.400175" lon="10.213768333333332">
                        <ele>0</ele>
                        <time>2022-08-18T13:08:15Z</time>
                                                <extensions>
                            <sog>0.0</sog>
<cog>335.4</cog>
                        </extensions>
                    </trkpt>
                    <trkpt lat="54.40016666666667" lon="10.21379">
                        <ele>0</ele>
                        <time>2022-08-18T13:11:16Z</time>
                                                <extensions>
                            <sog>0.0</sog>
<cog>335.4</cog>
                        </extensions>
                    </trkpt>
                    <trkpt lat="54.40013" lon="10.213828333333334">
                        <ele>0</ele>
                        <time>2022-08-18T13:20:15Z</time>
                                                <extensions>
                            <sog>0.0</sog>
<cog>335.4</cog>
                        </extensions>
                    </trkpt>
                    <trkpt lat="54.400171666666665" lon="10.213750000000001">
                        <ele>0</ele>
                        <time>2022-08-18T13:29:15Z</time>
                                                <extensions>
                            <sog>0.0</sog>
<cog>335.4</cog>
                        </extensions>
                    </trkpt>
                    <trkpt lat="54.40018333333333" lon="10.213741666666666">
                        <ele>0</ele>
                        <time>2022-08-18T13:32:16Z</time>
                                                <extensions>
                            <sog>0.0</sog>
<cog>335.4</cog>
                        </extensions>
                    </trkpt>
                    <trkpt lat="54.400146666666664" lon="10.213776666666666">
                        <ele>0</ele>
                        <time>2022-08-18T13:38:15Z</time>
                                                <extensions>
                            <sog>0.1</sog>
<cog>335.4</cog>
                        </extensions>
                    </trkpt>
                    <trkpt lat="54.40016666666667" lon="10.213766666666666">
                        <ele>0</ele>
                        <time>2022-08-18T13:50:15Z</time>
                                                <extensions>
                            <sog>0.0</sog>
<cog>335.4</cog>
                        </extensions>
                    </trkpt>
                    <trkpt lat="54.400191666666665" lon="10.213778333333332">
                        <ele>0</ele>
                        <time>2022-08-18T13:53:15Z</time>
                                                <extensions>
                            <sog>0.0</sog>
<cog>335.4</cog>
                        </extensions>
                    </trkpt>
                    <trkpt lat="54.400165" lon="10.213766666666666">
                        <ele>0</ele>
                        <time>2022-08-18T13:56:15Z</time>
                                                <extensions>
                            <sog>0.0</sog>
<cog>335.4</cog>
                        </extensions>
                    </trkpt>
                    <trkpt lat="54.400126666666665" lon="10.213748333333333">
                        <ele>0</ele>
                        <time>2022-08-18T14:02:15Z</time>
                                                <extensions>
                            <sog>0.0</sog>
<cog>335.4</cog>
                        </extensions>
                    </trkpt>
                    <trkpt lat="54.40012" lon="10.213721666666666">
                        <ele>0</ele>
                        <time>2022-08-18T14:08:15Z</time>
                                                <extensions>
                            <sog>0.0</sog>
<cog>340.9</cog>
                        </extensions>
                    </trkpt>
                    <trkpt lat="54.400150000000004" lon="10.213705000000001">
                        <ele>0</ele>
                        <time>2022-08-18T14:11:15Z</time>
                                                <extensions>
                            <sog>0.0</sog>
<cog>340.9</cog>
                        </extensions>
                    </trkpt>
                    <trkpt lat="54.40016166666667" lon="10.21374">
                        <ele>0</ele>
                        <time>2022-08-18T14:14:17Z</time>
                                                <extensions>
                            <sog>0.0</sog>
<cog>340.9</cog>
                        </extensions>
                    </trkpt>
                    <trkpt lat="54.40015833333334" lon="10.213743333333333">
                        <ele>0</ele>
                        <time>2022-08-18T14:20:15Z</time>
                                                <extensions>
                            <sog>0.0</sog>
<cog>340.9</cog>
                        </extensions>
                    </trkpt>
                    <trkpt lat="54.40016" lon="10.213711666666667">
                        <ele>0</ele>
                        <time>2022-08-18T14:26:15Z</time>
                                                <extensions>
                            <sog>0.0</sog>
<cog>340.9</cog>
                        </extensions>
                    </trkpt>
                    <trkpt lat="54.400175" lon="10.213693333333334">
                        <ele>0</ele>
                        <time>2022-08-18T14:29:18Z</time>
                                                <extensions>
                            <sog>0.0</sog>
<cog>340.9</cog>
                        </extensions>
                    </trkpt>
                    <trkpt lat="54.400205" lon="10.213726666666668">
                        <ele>0</ele>
                        <time>2022-08-18T14:32:16Z</time>
                                                <extensions>
                            <sog>0.0</sog>
<cog>340.9</cog>
                        </extensions>
                    </trkpt>
                    <trkpt lat="54.400191666666665" lon="10.213743333333333">
                        <ele>0</ele>
                        <time>2022-08-18T14:35:18Z</time>
                                                <extensions>
                            <sog>0.0</sog>
<cog>340.9</cog>
                        </extensions>
                    </trkpt>
                    <trkpt lat="54.40020166666667" lon="10.213731666666666">
                        <ele>0</ele>
                        <time>2022-08-18T14:50:16Z</time>
                                                <extensions>
                            <sog>0.0</sog>
<cog>340.9</cog>
                        </extensions>
                    </trkpt>
                    <trkpt lat="54.40015666666667" lon="10.213711666666667">
                        <ele>0</ele>
                        <time>2022-08-18T15:02:16Z</time>
                                                <extensions>
                            <sog>0.0</sog>
<cog>340.9</cog>
                        </extensions>
                    </trkpt>
                    <trkpt lat="54.40018" lon="10.213723333333332">
                        <ele>0</ele>
                        <time>2022-08-18T15:20:15Z</time>
                                                <extensions>
                            <sog>0.0</sog>
<cog>340.9</cog>
                        </extensions>
                    </trkpt>
                    <trkpt lat="54.40016" lon="10.213736666666668">
                        <ele>0</ele>
                        <time>2022-08-18T15:29:15Z</time>
                                                <extensions>
                            <sog>0.0</sog>
<cog>340.9</cog>
                        </extensions>
                    </trkpt>
                    <trkpt lat="54.400165" lon="10.213715">
                        <ele>0</ele>
                        <time>2022-08-18T15:38:15Z</time>
                                                <extensions>
                            <sog>0.0</sog>
<cog>340.9</cog>
                        </extensions>
                    </trkpt>
                    <trkpt lat="54.400175" lon="10.213736666666668">
                        <ele>0</ele>
                        <time>2022-08-18T15:41:15Z</time>
                                                <extensions>
                            <sog>0.0</sog>
<cog>340.9</cog>
                        </extensions>
                    </trkpt>
                    <trkpt lat="54.40017666666667" lon="10.213775">
                        <ele>0</ele>
                        <time>2022-08-18T15:44:15Z</time>
                                                <extensions>
                            <sog>0.0</sog>
<cog>340.9</cog>
                        </extensions>
                    </trkpt>
                    <trkpt lat="54.40017666666667" lon="10.213738333333334">
                        <ele>0</ele>
                        <time>2022-08-18T15:50:15Z</time>
                                                <extensions>
                            <sog>0.0</sog>
<cog>340.9</cog>
                        </extensions>
                    </trkpt>
                    <trkpt lat="54.400173333333335" lon="10.213676666666666">
                        <ele>0</ele>
                        <time>2022-08-18T16:08:15Z</time>
                                                <extensions>
                            <sog>0.0</sog>
<cog>340.9</cog>
                        </extensions>
                    </trkpt>
                    <trkpt lat="54.400173333333335" lon="10.213738333333334">
                        <ele>0</ele>
                        <time>2022-08-18T16:14:16Z</time>
                                                <extensions>
                            <sog>0.0</sog>
<cog>340.9</cog>
                        </extensions>
                    </trkpt>
                    <trkpt lat="54.40013666666667" lon="10.213799999999999">
                        <ele>0</ele>
                        <time>2022-08-18T16:20:15Z</time>
                                                <extensions>
                            <sog>0.0</sog>
<cog>340.9</cog>
                        </extensions>
                    </trkpt>
                    <trkpt lat="54.40013" lon="10.213761666666667">
                        <ele>0</ele>
                        <time>2022-08-18T16:26:16Z</time>
                                                <extensions>
                            <sog>0.0</sog>
<cog>340.9</cog>
                        </extensions>
                    </trkpt>
                    <trkpt lat="54.40018166666667" lon="10.213721666666666">
                        <ele>0</ele>
                        <time>2022-08-18T16:44:16Z</time>
                                                <extensions>
                            <sog>0.0</sog>
<cog>340.9</cog>
                        </extensions>
                    </trkpt>
                    <trkpt lat="54.400198333333336" lon="10.213698333333333">
                        <ele>0</ele>
                        <time>2022-08-18T16:50:16Z</time>
                                                <extensions>
                            <sog>0.0</sog>
<cog>340.9</cog>
                        </extensions>
                    </trkpt>
                    <trkpt lat="54.40016666666667" lon="10.213673333333332">
                        <ele>0</ele>
                        <time>2022-08-18T17:11:17Z</time>
                                                <extensions>
                            <sog>0.0</sog>
<cog>340.9</cog>
                        </extensions>
                    </trkpt>
                    <trkpt lat="54.400135" lon="10.213738333333334">
                        <ele>0</ele>
                        <time>2022-08-18T17:32:15Z</time>
                                                <extensions>
                            <sog>0.0</sog>
<cog>340.9</cog>
                        </extensions>
                    </trkpt>
                    <trkpt lat="54.400171666666665" lon="10.213725">
                        <ele>0</ele>
                        <time>2022-08-18T17:38:15Z</time>
                                                <extensions>
                            <sog>0.0</sog>
<cog>340.9</cog>
                        </extensions>
                    </trkpt>
                    <trkpt lat="54.400150000000004" lon="10.213716666666667">
                        <ele>0</ele>
                        <time>2022-08-18T17:56:16Z</time>
                                                <extensions>
                            <sog>0.0</sog>
<cog>340.9</cog>
                        </extensions>
                    </trkpt>
                    <trkpt lat="54.40015166666667" lon="10.213721666666666">
                        <ele>0</ele>
                        <time>2022-08-18T17:59:16Z</time>
                                                <extensions>
                            <sog>0.0</sog>
<cog>340.9</cog>
                        </extensions>
                    </trkpt>
                    <trkpt lat="54.400146666666664" lon="10.213745">
                        <ele>0</ele>
                        <time>2022-08-18T18:02:16Z</time>
                                                <extensions>
                            <sog>0.0</sog>
<cog>340.9</cog>
                        </extensions>
                    </trkpt>
                    <trkpt lat="54.40017833333333" lon="10.213743333333333">
                        <ele>0</ele>
                        <time>2022-08-18T18:05:16Z</time>
                                                <extensions>
                            <sog>0.0</sog>
<cog>340.9</cog>
                        </extensions>
                    </trkpt>
                    <trkpt lat="54.400173333333335" lon="10.213688333333332">
                        <ele>0</ele>
                        <time>2022-08-18T18:14:15Z</time>
                                                <extensions>
                            <sog>0.0</sog>
<cog>340.9</cog>
                        </extensions>
                    </trkpt>
                    <trkpt lat="54.400175" lon="10.21372">
                        <ele>0</ele>
                        <time>2022-08-18T18:17:18Z</time>
                                                <extensions>
                            <sog>0.0</sog>
<cog>340.9</cog>
                        </extensions>
                    </trkpt>
                    <trkpt lat="54.40018833333333" lon="10.213693333333334">
                        <ele>0</ele>
                        <time>2022-08-18T18:20:15Z</time>
                                                <extensions>
                            <sog>0.0</sog>
<cog>340.9</cog>
                        </extensions>
                    </trkpt>
                    <trkpt lat="54.40018833333333" lon="10.213716666666667">
                        <ele>0</ele>
                        <time>2022-08-18T18:23:16Z</time>
                                                <extensions>
                            <sog>0.0</sog>
<cog>340.9</cog>
                        </extensions>
                    </trkpt>
                    <trkpt lat="54.400155000000005" lon="10.213698333333333">
                        <ele>0</ele>
                        <time>2022-08-18T18:32:16Z</time>
                                                <extensions>
                            <sog>0.1</sog>
<cog>340.9</cog>
                        </extensions>
                    </trkpt>
                    <trkpt lat="54.40015666666667" lon="10.213726666666668">
                        <ele>0</ele>
                        <time>2022-08-18T18:44:15Z</time>
                                                <extensions>
                            <sog>0.0</sog>
<cog>340.9</cog>
                        </extensions>
                    </trkpt>
                    <trkpt lat="54.40018666666666" lon="10.21374">
                        <ele>0</ele>
                        <time>2022-08-18T18:50:15Z</time>
                                                <extensions>
                            <sog>0.0</sog>
<cog>340.9</cog>
                        </extensions>
                    </trkpt>
                    <trkpt lat="54.40018" lon="10.213746666666667">
                        <ele>0</ele>
                        <time>2022-08-18T18:56:17Z</time>
                                                <extensions>
                            <sog>0.0</sog>
<cog>340.9</cog>
                        </extensions>
                    </trkpt>
                    <trkpt lat="54.40016333333333" lon="10.213758333333335">
                        <ele>0</ele>
                        <time>2022-08-18T18:59:15Z</time>
                                                <extensions>
                            <sog>0.0</sog>
<cog>340.9</cog>
                        </extensions>
                    </trkpt>
                    <trkpt lat="54.40018833333333" lon="10.213771666666666">
                        <ele>0</ele>
                        <time>2022-08-18T19:08:17Z</time>
                                                <extensions>
                            <sog>0.0</sog>
<cog>340.9</cog>
                        </extensions>
                    </trkpt>
                    <trkpt lat="54.40019333333333" lon="10.213741666666666">
                        <ele>0</ele>
                        <time>2022-08-18T19:14:15Z</time>
                                                <extensions>
                            <sog>0.0</sog>
<cog>340.9</cog>
                        </extensions>
                    </trkpt>
                    <trkpt lat="54.40016666666667" lon="10.213771666666666">
                        <ele>0</ele>
                        <time>2022-08-18T19:17:15Z</time>
                                                <extensions>
                            <sog>0.0</sog>
<cog>340.9</cog>
                        </extensions>
                    </trkpt>
                    <trkpt lat="54.40017833333333" lon="10.213731666666666">
                        <ele>0</ele>
                        <time>2022-08-18T19:20:16Z</time>
                                                <extensions>
                            <sog>0.0</sog>
<cog>340.9</cog>
                        </extensions>
                    </trkpt>
                    <trkpt lat="54.40016333333333" lon="10.213736666666668">
                        <ele>0</ele>
                        <time>2022-08-18T19:23:16Z</time>
                                                <extensions>
                            <sog>0.0</sog>
<cog>340.9</cog>
                        </extensions>
                    </trkpt>
                    <trkpt lat="54.400165" lon="10.213695">
                        <ele>0</ele>
                        <time>2022-08-18T19:26:15Z</time>
                                                <extensions>
                            <sog>0.0</sog>
<cog>340.9</cog>
                        </extensions>
                    </trkpt>
                    <trkpt lat="54.40013666666667" lon="10.213736666666668">
                        <ele>0</ele>
                        <time>2022-08-18T19:32:15Z</time>
                                                <extensions>
                            <sog>0.0</sog>
<cog>340.9</cog>
                        </extensions>
                    </trkpt>
                    <trkpt lat="54.40015166666667" lon="10.213745">
                        <ele>0</ele>
                        <time>2022-08-18T19:38:15Z</time>
                                                <extensions>
                            <sog>0.0</sog>
<cog>340.9</cog>
                        </extensions>
                    </trkpt>
                    <trkpt lat="54.40014" lon="10.213745">
                        <ele>0</ele>
                        <time>2022-08-18T19:50:15Z</time>
                                                <extensions>
                            <sog>0.0</sog>
<cog>340.9</cog>
                        </extensions>
                    </trkpt>
                    <trkpt lat="54.400175" lon="10.213781666666668">
                        <ele>0</ele>
                        <time>2022-08-18T20:02:15Z</time>
                                                <extensions>
                            <sog>0.0</sog>
<cog>340.9</cog>
                        </extensions>
                    </trkpt>
                    <trkpt lat="54.40019333333333" lon="10.213758333333335">
                        <ele>0</ele>
                        <time>2022-08-18T20:08:17Z</time>
                                                <extensions>
                            <sog>0.0</sog>
<cog>340.9</cog>
                        </extensions>
                    </trkpt>
                    <trkpt lat="54.400240000000004" lon="10.213795000000001">
                        <ele>0</ele>
                        <time>2022-08-18T20:11:15Z</time>
                                                <extensions>
                            <sog>0.0</sog>
<cog>340.9</cog>
                        </extensions>
                    </trkpt>
                    <trkpt lat="54.400198333333336" lon="10.213735000000002">
                        <ele>0</ele>
                        <time>2022-08-18T20:14:16Z</time>
                                                <extensions>
                            <sog>0.0</sog>
<cog>340.9</cog>
                        </extensions>
                    </trkpt>
                    <trkpt lat="54.40020166666667" lon="10.213743333333333">
                        <ele>0</ele>
                        <time>2022-08-18T20:17:15Z</time>
                                                <extensions>
                            <sog>0.0</sog>
<cog>340.9</cog>
                        </extensions>
                    </trkpt>
                    <trkpt lat="54.40016666666667" lon="10.213693333333334">
                        <ele>0</ele>
                        <time>2022-08-18T20:20:15Z</time>
                                                <extensions>
                            <sog>0.0</sog>
<cog>340.9</cog>
                        </extensions>
                    </trkpt>
                    <trkpt lat="54.40016833333333" lon="10.213721666666666">
                        <ele>0</ele>
                        <time>2022-08-18T20:26:14Z</time>
                                                <extensions>
                            <sog>0.0</sog>
<cog>340.9</cog>
                        </extensions>
                    </trkpt>
                    <trkpt lat="54.40012166666667" lon="10.213748333333333">
                        <ele>0</ele>
                        <time>2022-08-18T20:32:16Z</time>
                                                <extensions>
                            <sog>0.0</sog>
<cog>340.9</cog>
                        </extensions>
                    </trkpt>
                    <trkpt lat="54.40016" lon="10.213733333333332">
                        <ele>0</ele>
                        <time>2022-08-18T20:38:15Z</time>
                                                <extensions>
                            <sog>0.0</sog>
<cog>340.9</cog>
                        </extensions>
                    </trkpt>
                    <trkpt lat="54.40018333333333" lon="10.213746666666667">
                        <ele>0</ele>
                        <time>2022-08-18T20:50:15Z</time>
                                                <extensions>
                            <sog>0.0</sog>
<cog>340.9</cog>
                        </extensions>
                    </trkpt>
                    <trkpt lat="54.40018" lon="10.213766666666666">
                        <ele>0</ele>
                        <time>2022-08-18T20:56:16Z</time>
                                                <extensions>
                            <sog>0.0</sog>
<cog>340.9</cog>
                        </extensions>
                    </trkpt>
                    <trkpt lat="54.400189999999995" lon="10.213738333333334">
                        <ele>0</ele>
                        <time>2022-08-18T21:11:17Z</time>
                                                <extensions>
                            <sog>0.0</sog>
<cog>340.9</cog>
                        </extensions>
                    </trkpt>
                    <trkpt lat="54.400198333333336" lon="10.213736666666668">
                        <ele>0</ele>
                        <time>2022-08-18T21:17:18Z</time>
                                                <extensions>
                            <sog>0.0</sog>
<cog>340.9</cog>
                        </extensions>
                    </trkpt>
                    <trkpt lat="54.40017833333333" lon="10.213754999999999">
                        <ele>0</ele>
                        <time>2022-08-18T21:20:16Z</time>
                                                <extensions>
                            <sog>0.0</sog>
<cog>340.9</cog>
                        </extensions>
                    </trkpt>
                    <trkpt lat="54.400195000000004" lon="10.213750000000001">
                        <ele>0</ele>
                        <time>2022-08-18T21:26:15Z</time>
                                                <extensions>
                            <sog>0.0</sog>
<cog>340.9</cog>
                        </extensions>
                    </trkpt>
                    <trkpt lat="54.400173333333335" lon="10.213685">
                        <ele>0</ele>
                        <time>2022-08-18T21:32:16Z</time>
                                                <extensions>
                            <sog>0.0</sog>
<cog>340.9</cog>
                        </extensions>
                    </trkpt>
                    <trkpt lat="54.40018666666666" lon="10.213726666666668">
                        <ele>0</ele>
                        <time>2022-08-18T21:44:15Z</time>
                                                <extensions>
                            <sog>0.0</sog>
<cog>340.9</cog>
                        </extensions>
                    </trkpt>
                    <trkpt lat="54.40021" lon="10.21374">
                        <ele>0</ele>
                        <time>2022-08-18T21:50:16Z</time>
                                                <extensions>
                            <sog>0.0</sog>
<cog>340.9</cog>
                        </extensions>
                    </trkpt>
                    <trkpt lat="54.400200000000005" lon="10.213776666666666">
                        <ele>0</ele>
                        <time>2022-08-18T21:56:16Z</time>
                                                <extensions>
                            <sog>0.0</sog>
<cog>340.9</cog>
                        </extensions>
                    </trkpt>
                    <trkpt lat="54.40018" lon="10.213723333333332">
                        <ele>0</ele>
                        <time>2022-08-18T22:02:15Z</time>
                                                <extensions>
                            <sog>0.0</sog>
<cog>340.9</cog>
                        </extensions>
                    </trkpt>
                    <trkpt lat="54.40015666666667" lon="10.213733333333332">
                        <ele>0</ele>
                        <time>2022-08-18T22:08:15Z</time>
                                                <extensions>
                            <sog>0.0</sog>
<cog>340.9</cog>
                        </extensions>
                    </trkpt>
                    <trkpt lat="54.40016666666667" lon="10.213743333333333">
                        <ele>0</ele>
                        <time>2022-08-18T22:14:15Z</time>
                                                <extensions>
                            <sog>0.0</sog>
<cog>340.9</cog>
                        </extensions>
                    </trkpt>
                    <trkpt lat="54.40016" lon="10.213716666666667">
                        <ele>0</ele>
                        <time>2022-08-18T22:32:17Z</time>
                                                <extensions>
                            <sog>0.0</sog>
<cog>340.9</cog>
                        </extensions>
                    </trkpt>
                    <trkpt lat="54.400173333333335" lon="10.213736666666668">
                        <ele>0</ele>
                        <time>2022-08-18T22:38:17Z</time>
                                                <extensions>
                            <sog>0.0</sog>
<cog>340.9</cog>
                        </extensions>
                    </trkpt>
                    <trkpt lat="54.40016333333333" lon="10.213725">
                        <ele>0</ele>
                        <time>2022-08-18T22:44:15Z</time>
                                                <extensions>
                            <sog>0.0</sog>
<cog>340.9</cog>
                        </extensions>
                    </trkpt>
                    <trkpt lat="54.40016" lon="10.213756666666665">
                        <ele>0</ele>
                        <time>2022-08-18T22:47:17Z</time>
                                                <extensions>
                            <sog>0.0</sog>
<cog>340.9</cog>
                        </extensions>
                    </trkpt>
                    <trkpt lat="54.40018666666666" lon="10.213743333333333">
                        <ele>0</ele>
                        <time>2022-08-18T22:50:15Z</time>
                                                <extensions>
                            <sog>0.0</sog>
<cog>340.9</cog>
                        </extensions>
                    </trkpt>
                    <trkpt lat="54.400153333333336" lon="10.213766666666666">
                        <ele>0</ele>
                        <time>2022-08-18T22:56:15Z</time>
                                                <extensions>
                            <sog>0.0</sog>
<cog>340.9</cog>
                        </extensions>
                    </trkpt>
                    <trkpt lat="54.400165" lon="10.213751666666667">
                        <ele>0</ele>
                        <time>2022-08-18T22:59:15Z</time>
                                                <extensions>
                            <sog>0.0</sog>
<cog>340.9</cog>
                        </extensions>
                    </trkpt>
                    <trkpt lat="54.40016333333333" lon="10.213765">
                        <ele>0</ele>
                        <time>2022-08-18T23:02:17Z</time>
                                                <extensions>
                            <sog>0.0</sog>
<cog>340.9</cog>
                        </extensions>
                    </trkpt>
                    <trkpt lat="54.400191666666665" lon="10.213741666666666">
                        <ele>0</ele>
                        <time>2022-08-18T23:14:15Z</time>
                                                <extensions>
                            <sog>0.0</sog>
<cog>340.9</cog>
                        </extensions>
                    </trkpt>
                    <trkpt lat="54.40017833333333" lon="10.213745">
                        <ele>0</ele>
                        <time>2022-08-18T23:20:16Z</time>
                                                <extensions>
                            <sog>0.0</sog>
<cog>340.9</cog>
                        </extensions>
                    </trkpt>
                    <trkpt lat="54.40020666666667" lon="10.21376">
                        <ele>0</ele>
                        <time>2022-08-18T23:41:16Z</time>
                                                <extensions>
                            <sog>0.0</sog>
<cog>340.9</cog>
                        </extensions>
                    </trkpt>
                    <trkpt lat="54.400195000000004" lon="10.213805">
                        <ele>0</ele>
                        <time>2022-08-18T23:44:15Z</time>
                                                <extensions>
                            <sog>0.0</sog>
<cog>340.9</cog>
                        </extensions>
                    </trkpt>
                    <trkpt lat="54.40020333333334" lon="10.213750000000001">
                        <ele>0</ele>
                        <time>2022-08-18T23:56:16Z</time>
                                                <extensions>
                            <sog>0.0</sog>
<cog>340.9</cog>
                        </extensions>
                    </trkpt>
                    </trkseg>
                </trk>
</gpx>