<?xml version="1.0" encoding="UTF-8"?>
<gpx version="1.1" creator="AIS-to-GPX Converter" xmlns="http://www.topografix.com/GPX/1/1">
                <trk>
                    <name>anon0305</name>
                    <trkseg>
                                            <trkpt lat="54.583103333333334" lon="10.026913333333333">
                        <ele>0</ele>
                        <time>2022-08-18T04:56:29Z</time>
                        <extensions>
    <sog>0.1</sog>
</extensions>
                    </trkpt>
                    <trkpt lat="54.583103333333334" lon="10.026886666666666">
                        <ele>0</ele>
                        <time>2022-08-18T05:02:33Z</time>
                        <extensions>
    <sog>0.1</sog>
</extensions>
                    </trkpt>
                    <trkpt lat="54.58308666666667" lon="10.026883333333334">
                        <ele>0</ele>
                        <time>2022-08-18T05:17:32Z</time>
                        <extensions>
    <sog>0.2</sog>
</extensions>
                    </trkpt>
                    <trkpt lat="54.583083333333335" lon="10.02689">
                        <ele>0</ele>
                        <time>2022-08-18T05:23:32Z</time>
                        <extensions>
    <sog>0.1</sog>
</extensions>
                    </trkpt>
                    <trkpt lat="54.583085" lon="10.026871666666667">
                        <ele>0</ele>
                        <time>2022-08-18T05:35:29Z</time>
                        <extensions>
    <sog>0.1</sog>
</extensions>
                    </trkpt>
                    <trkpt lat="54.583085" lon="10.026871666666667">
                        <ele>0</ele>
                        <time>2022-08-18T05:38:30Z</time>
                        <extensions>
    <sog>0.1</sog>
</extensions>
                    </trkpt>
                    <trkpt lat="54.58308666666667" lon="10.02688">
                        <ele>0</ele>
                        <time>2022-08-18T06:26:33Z</time>
                        <extensions>
    <sog>0.1</sog>
</extensions>
                    </trkpt>
                    <trkpt lat="54.58307333333333" lon="10.026903333333333">
                        <ele>0</ele>
                        <time>2022-08-18T06:47:32Z</time>
                        <extensions>
    <sog>0.1</sog>
</extensions>
                    </trkpt>
                    <trkpt lat="54.583075" lon="10.026883333333334">
                        <ele>0</ele>
                        <time>2022-08-18T07:44:32Z</time>
                        <extensions>
    <sog>0.0</sog>
</extensions>
                    </trkpt>
                    <trkpt lat="54.58308" lon="10.026883333333334">
                        <ele>0</ele>
                        <time>2022-08-18T07:53:29Z</time>
                        <extensions>
    <sog>0.1</sog>
</extensions>
                    </trkpt>
                    <trkpt lat="54.58307666666666" lon="10.026893333333334">
                        <ele>0</ele>
                        <time>2022-08-18T07:59:31Z</time>
                        <extensions>
    <sog>0.1</sog>
</extensions>
                    </trkpt>
                    <trkpt lat="54.58260833333333" lon="10.027295">
                        <ele>0</ele>
                        <time>2022-08-18T08:28:01Z</time>
                                                <extensions>
                            <sog>3.3</sog>
<cog>166.8</cog>
                        </extensions>
                    </trkpt>
                    <trkpt lat="54.58336" lon="10.034723333333334">
                        <ele>0</ele>
                        <time>2022-08-18T08:33:30Z</time>
                                                <extensions>
                            <sog>4.6</sog>
<cog>33.0</cog>
                        </extensions>
                    </trkpt>
                    <trkpt lat="54.58440333333333" lon="10.036033333333334">
                        <ele>0</ele>
                        <time>2022-08-18T08:34:30Z</time>
                                                <extensions>
                            <sog>4.6</sog>
<cog>36.0</cog>
                        </extensions>
                    </trkpt>
                    <trkpt lat="54.584966666666666" lon="10.03673">
                        <ele>0</ele>
                        <time>2022-08-18T08:35:03Z</time>
                                                <extensions>
                            <sog>4.4</sog>
<cog>36.1</cog>
                        </extensions>
                    </trkpt>
                    <trkpt lat="54.586995" lon="10.039256666666667">
                        <ele>0</ele>
                        <time>2022-08-18T08:37:03Z</time>
                                                <extensions>
                            <sog>4.4</sog>
<cog>35.2</cog>
                        </extensions>
                    </trkpt>
                    <trkpt lat="54.58744" lon="10.039786666666666">
                        <ele>0</ele>
                        <time>2022-08-18T08:37:30Z</time>
                                                <extensions>
                            <sog>4.4</sog>
<cog>34.6</cog>
                        </extensions>
                    </trkpt>
                    <trkpt lat="54.587965000000004" lon="10.040443333333334">
                        <ele>0</ele>
                        <time>2022-08-18T08:38:03Z</time>
                                                <extensions>
                            <sog>4.5</sog>
<cog>38.2</cog>
                        </extensions>
                    </trkpt>
                    <trkpt lat="54.589998333333334" lon="10.042938333333332">
                        <ele>0</ele>
                        <time>2022-08-18T08:40:00Z</time>
                                                <extensions>
                            <sog>4.7</sog>
<cog>33.9</cog>
                        </extensions>
                    </trkpt>
                    <trkpt lat="54.591665" lon="10.044941666666666">
                        <ele>0</ele>
                        <time>2022-08-18T08:41:33Z</time>
                                                <extensions>
                            <sog>4.8</sog>
<cog>35.4</cog>
                        </extensions>
                    </trkpt>
                    <trkpt lat="54.59215" lon="10.045548333333333">
                        <ele>0</ele>
                        <time>2022-08-18T08:42:00Z</time>
                                                <extensions>
                            <sog>4.6</sog>
<cog>35.3</cog>
                        </extensions>
                    </trkpt>
                    <trkpt lat="54.59272833333333" lon="10.046249999999999">
                        <ele>0</ele>
                        <time>2022-08-18T08:42:33Z</time>
                                                <extensions>
                            <sog>4.7</sog>
<cog>37.2</cog>
                        </extensions>
                    </trkpt>
                    <trkpt lat="54.59391166666667" lon="10.047701666666667">
                        <ele>0</ele>
                        <time>2022-08-18T08:43:33Z</time>
                                                <extensions>
                            <sog>5.4</sog>
<cog>35.1</cog>
                        </extensions>
                    </trkpt>
                    <trkpt lat="54.59712833333333" lon="10.051348333333333">
                        <ele>0</ele>
                        <time>2022-08-18T08:46:31Z</time>
                                                <extensions>
                            <sog>2.9</sog>
<cog>26.8</cog>
                        </extensions>
                    </trkpt>
                    <trkpt lat="54.59735" lon="10.051836666666667">
                        <ele>0</ele>
                        <time>2022-08-18T08:47:02Z</time>
                                                <extensions>
                            <sog>2.7</sog>
<cog>75.2</cog>
                        </extensions>
                    </trkpt>
                    <trkpt lat="54.597541666666665" lon="10.05231">
                        <ele>0</ele>
                        <time>2022-08-18T08:47:31Z</time>
                                                <extensions>
                            <sog>2.7</sog>
<cog>41.0</cog>
                        </extensions>
                    </trkpt>
                    <trkpt lat="54.59818333333333" lon="10.0528">
                        <ele>0</ele>
                        <time>2022-08-18T08:48:31Z</time>
                                                <extensions>
                            <sog>4.2</sog>
<cog>6.9</cog>
                        </extensions>
                    </trkpt>
                    <trkpt lat="54.599615" lon="10.052883333333334">
                        <ele>0</ele>
                        <time>2022-08-18T08:49:31Z</time>
                                                <extensions>
                            <sog>5.4</sog>
<cog>359.5</cog>
                        </extensions>
                    </trkpt>
                    <trkpt lat="54.60559666666666" lon="10.053143333333333">
                        <ele>0</ele>
                        <time>2022-08-18T08:53:31Z</time>
                                                <extensions>
                            <sog>5.7</sog>
<cog>3.7</cog>
                        </extensions>
                    </trkpt>
                    <trkpt lat="54.606406666666665" lon="10.053218333333332">
                        <ele>0</ele>
                        <time>2022-08-18T08:54:02Z</time>
                                                <extensions>
                            <sog>5.6</sog>
<cog>4.3</cog>
                        </extensions>
                    </trkpt>
                    <trkpt lat="54.60799" lon="10.053393333333334">
                        <ele>0</ele>
                        <time>2022-08-18T08:55:02Z</time>
                                                <extensions>
                            <sog>6.0</sog>
<cog>1.5</cog>
                        </extensions>
                    </trkpt>
                    <trkpt lat="54.608826666666666" lon="10.053371666666667">
                        <ele>0</ele>
                        <time>2022-08-18T08:55:34Z</time>
                                                <extensions>
                            <sog>5.9</sog>
<cog>0.7</cog>
                        </extensions>
                    </trkpt>
                    <trkpt lat="54.61051" lon="10.053255">
                        <ele>0</ele>
                        <time>2022-08-18T08:56:34Z</time>
                                                <extensions>
                            <sog>6.2</sog>
<cog>353.1</cog>
                        </extensions>
                    </trkpt>
                    <trkpt lat="54.613868333333336" lon="10.052795">
                        <ele>0</ele>
                        <time>2022-08-18T08:58:34Z</time>
                                                <extensions>
                            <sog>6.4</sog>
<cog>355.3</cog>
                        </extensions>
                    </trkpt>
                    <trkpt lat="54.623090000000005" lon="10.051623333333334">
                        <ele>0</ele>
                        <time>2022-08-18T09:04:01Z</time>
                                                <extensions>
                            <sog>6.3</sog>
<cog>356.7</cog>
                        </extensions>
                    </trkpt>
                    <trkpt lat="54.62401" lon="10.051583333333333">
                        <ele>0</ele>
                        <time>2022-08-18T09:04:32Z</time>
                                                <extensions>
                            <sog>6.2</sog>
<cog>2.6</cog>
                        </extensions>
                    </trkpt>
                    <trkpt lat="54.62575666666667" lon="10.051588333333333">
                        <ele>0</ele>
                        <time>2022-08-18T09:05:32Z</time>
                                                <extensions>
                            <sog>6.4</sog>
<cog>359.9</cog>
                        </extensions>
                    </trkpt>
                    <trkpt lat="54.626594999999995" lon="10.051578333333334">
                        <ele>0</ele>
                        <time>2022-08-18T09:06:01Z</time>
                                                <extensions>
                            <sog>6.8</sog>
<cog>355.3</cog>
                        </extensions>
                    </trkpt>
                    <trkpt lat="54.62752833333333" lon="10.051561666666666">
                        <ele>0</ele>
                        <time>2022-08-18T09:06:32Z</time>
                                                <extensions>
                            <sog>6.5</sog>
<cog>359.2</cog>
                        </extensions>
                    </trkpt>
                    <trkpt lat="54.62927666666667" lon="10.051596666666667">
                        <ele>0</ele>
                        <time>2022-08-18T09:07:32Z</time>
                                                <extensions>
                            <sog>6.0</sog>
<cog>3.7</cog>
                        </extensions>
                    </trkpt>
                    <trkpt lat="54.63005833333333" lon="10.051573333333332">
                        <ele>0</ele>
                        <time>2022-08-18T09:08:01Z</time>
                                                <extensions>
                            <sog>6.3</sog>
<cog>358.4</cog>
                        </extensions>
                    </trkpt>
                    <trkpt lat="54.631721666666664" lon="10.051626666666667">
                        <ele>0</ele>
                        <time>2022-08-18T09:09:01Z</time>
                                                <extensions>
                            <sog>6.3</sog>
<cog>357.2</cog>
                        </extensions>
                    </trkpt>
                    <trkpt lat="54.640388333333334" lon="10.051549999999999">
                        <ele>0</ele>
                        <time>2022-08-18T09:14:03Z</time>
                                                <extensions>
                            <sog>6.3</sog>
<cog>358.8</cog>
                        </extensions>
                    </trkpt>
                    <trkpt lat="54.64650833333334" lon="10.051525">
                        <ele>0</ele>
                        <time>2022-08-18T09:17:31Z</time>
                                                <extensions>
                            <sog>6.4</sog>
<cog>358.0</cog>
                        </extensions>
                    </trkpt>
                    <trkpt lat="54.648268333333334" lon="10.051518333333332">
                        <ele>0</ele>
                        <time>2022-08-18T09:18:31Z</time>
                                                <extensions>
                            <sog>6.5</sog>
<cog>0.7</cog>
                        </extensions>
                    </trkpt>
                    <trkpt lat="54.65104833333333" lon="10.051511666666666">
                        <ele>0</ele>
                        <time>2022-08-18T09:20:03Z</time>
                                                <extensions>
                            <sog>6.5</sog>
<cog>0.7</cog>
                        </extensions>
                    </trkpt>
                    <trkpt lat="54.65273833333333" lon="10.051541666666667">
                        <ele>0</ele>
                        <time>2022-08-18T09:21:01Z</time>
                                                <extensions>
                            <sog>6.5</sog>
<cog>359.5</cog>
                        </extensions>
                    </trkpt>
                    <trkpt lat="54.660684999999994" lon="10.051575000000001">
                        <ele>0</ele>
                        <time>2022-08-18T09:25:32Z</time>
                                                <extensions>
                            <sog>6.3</sog>
<cog>357.7</cog>
                        </extensions>
                    </trkpt>
                    <trkpt lat="54.66152" lon="10.051591666666667">
                        <ele>0</ele>
                        <time>2022-08-18T09:26:01Z</time>
                                                <extensions>
                            <sog>6.2</sog>
<cog>3.6</cog>
                        </extensions>
                    </trkpt>
                    <trkpt lat="54.66239333333333" lon="10.051588333333333">
                        <ele>0</ele>
                        <time>2022-08-18T09:26:32Z</time>
                                                <extensions>
                            <sog>6.3</sog>
<cog>354.8</cog>
                        </extensions>
                    </trkpt>
                    <trkpt lat="54.664208333333335" lon="10.051348333333333">
                        <ele>0</ele>
                        <time>2022-08-18T09:27:32Z</time>
                                                <extensions>
                            <sog>6.5</sog>
<cog>355.7</cog>
                        </extensions>
                    </trkpt>
                    <trkpt lat="54.665128333333335" lon="10.051226666666668">
                        <ele>0</ele>
                        <time>2022-08-18T09:28:04Z</time>
                                                <extensions>
                            <sog>6.3</sog>
<cog>352.8</cog>
                        </extensions>
                    </trkpt>
                    <trkpt lat="54.66683333333334" lon="10.050928333333333">
                        <ele>0</ele>
                        <time>2022-08-18T09:29:04Z</time>
                                                <extensions>
                            <sog>6.1</sog>
<cog>354.6</cog>
                        </extensions>
                    </trkpt>
                    <trkpt lat="54.66851" lon="10.05053">
                        <ele>0</ele>
                        <time>2022-08-18T09:30:04Z</time>
                                                <extensions>
                            <sog>6.1</sog>
<cog>348.4</cog>
                        </extensions>
                    </trkpt>
                    <trkpt lat="54.670100000000005" lon="10.050025">
                        <ele>0</ele>
                        <time>2022-08-18T09:31:04Z</time>
                                                <extensions>
                            <sog>5.9</sog>
<cog>351.7</cog>
                        </extensions>
                    </trkpt>
                    <trkpt lat="54.67082333333334" lon="10.04978">
                        <ele>0</ele>
                        <time>2022-08-18T09:31:32Z</time>
                                                <extensions>
                            <sog>5.5</sog>
<cog>349.6</cog>
                        </extensions>
                    </trkpt>
                    <trkpt lat="54.67163666666667" lon="10.049523333333333">
                        <ele>0</ele>
                        <time>2022-08-18T09:32:02Z</time>
                                                <extensions>
                            <sog>5.9</sog>
<cog>347.9</cog>
                        </extensions>
                    </trkpt>
                    <trkpt lat="54.67323" lon="10.049063333333333">
                        <ele>0</ele>
                        <time>2022-08-18T09:33:02Z</time>
                                                <extensions>
                            <sog>6.2</sog>
<cog>349.4</cog>
                        </extensions>
                    </trkpt>
                    <trkpt lat="54.67400666666666" lon="10.048813333333333">
                        <ele>0</ele>
                        <time>2022-08-18T09:33:31Z</time>
                                                <extensions>
                            <sog>5.6</sog>
<cog>350.7</cog>
                        </extensions>
                    </trkpt>
                    <trkpt lat="54.674843333333335" lon="10.048543333333333">
                        <ele>0</ele>
                        <time>2022-08-18T09:34:02Z</time>
                                                <extensions>
                            <sog>6.4</sog>
<cog>345.9</cog>
                        </extensions>
                    </trkpt>
                    <trkpt lat="54.67564" lon="10.048228333333332">
                        <ele>0</ele>
                        <time>2022-08-18T09:34:31Z</time>
                                                <extensions>
                            <sog>6.1</sog>
<cog>350.2</cog>
                        </extensions>
                    </trkpt>
                    <trkpt lat="54.67726833333334" lon="10.047766666666666">
                        <ele>0</ele>
                        <time>2022-08-18T09:35:31Z</time>
                                                <extensions>
                            <sog>5.7</sog>
<cog>350.6</cog>
                        </extensions>
                    </trkpt>
                    <trkpt lat="54.67888166666667" lon="10.04739">
                        <ele>0</ele>
                        <time>2022-08-18T09:36:31Z</time>
                                                <extensions>
                            <sog>5.6</sog>
<cog>0.8</cog>
                        </extensions>
                    </trkpt>
                    <trkpt lat="54.68044833333333" lon="10.047001666666667">
                        <ele>0</ele>
                        <time>2022-08-18T09:37:31Z</time>
                                                <extensions>
                            <sog>5.8</sog>
<cog>354.7</cog>
                        </extensions>
                    </trkpt>
                    <trkpt lat="54.68126666666667" lon="10.04688">
                        <ele>0</ele>
                        <time>2022-08-18T09:38:02Z</time>
                                                <extensions>
                            <sog>5.5</sog>
<cog>356.9</cog>
                        </extensions>
                    </trkpt>
                    <trkpt lat="54.68281666666667" lon="10.046586666666666">
                        <ele>0</ele>
                        <time>2022-08-18T09:39:01Z</time>
                                                <extensions>
                            <sog>6.0</sog>
<cog>348.6</cog>
                        </extensions>
                    </trkpt>
                    <trkpt lat="54.683665" lon="10.046353333333334">
                        <ele>0</ele>
                        <time>2022-08-18T09:39:31Z</time>
                                                <extensions>
                            <sog>6.0</sog>
<cog>354.4</cog>
                        </extensions>
                    </trkpt>
                    <trkpt lat="54.68774833333334" lon="10.045276666666666">
                        <ele>0</ele>
                        <time>2022-08-18T09:42:01Z</time>
                                                <extensions>
                            <sog>6.6</sog>
<cog>338.5</cog>
                        </extensions>
                    </trkpt>
                    <trkpt lat="54.69435" lon="10.042383333333333">
                        <ele>0</ele>
                        <time>2022-08-18T09:46:02Z</time>
                                                <extensions>
                            <sog>5.4</sog>
<cog>340.3</cog>
                        </extensions>
                    </trkpt>
                    <trkpt lat="54.695765" lon="10.041644999999999">
                        <ele>0</ele>
                        <time>2022-08-18T09:47:02Z</time>
                                                <extensions>
                            <sog>6.2</sog>
<cog>345.2</cog>
                        </extensions>
                    </trkpt>
                    <trkpt lat="54.69655" lon="10.041163333333333">
                        <ele>0</ele>
                        <time>2022-08-18T09:47:31Z</time>
                                                <extensions>
                            <sog>5.8</sog>
<cog>338.4</cog>
                        </extensions>
                    </trkpt>
                    <trkpt lat="54.697311666666664" lon="10.040600000000001">
                        <ele>0</ele>
                        <time>2022-08-18T09:48:02Z</time>
                                                <extensions>
                            <sog>5.6</sog>
<cog>338.0</cog>
                        </extensions>
                    </trkpt>
                    <trkpt lat="54.69795333333333" lon="10.040086666666667">
                        <ele>0</ele>
                        <time>2022-08-18T09:48:31Z</time>
                                                <extensions>
                            <sog>5.7</sog>
<cog>339.8</cog>
                        </extensions>
                    </trkpt>
                    <trkpt lat="54.69873666666667" lon="10.039663333333333">
                        <ele>0</ele>
                        <time>2022-08-18T09:49:02Z</time>
                                                <extensions>
                            <sog>5.4</sog>
<cog>347.6</cog>
                        </extensions>
                    </trkpt>
                    <trkpt lat="54.70014166666667" lon="10.039031666666666">
                        <ele>0</ele>
                        <time>2022-08-18T09:50:02Z</time>
                                                <extensions>
                            <sog>5.2</sog>
<cog>346.6</cog>
                        </extensions>
                    </trkpt>
                    <trkpt lat="54.70083666666667" lon="10.038701666666666">
                        <ele>0</ele>
                        <time>2022-08-18T09:50:31Z</time>
                                                <extensions>
                            <sog>5.4</sog>
<cog>345.9</cog>
                        </extensions>
                    </trkpt>
                    <trkpt lat="54.70219" lon="10.037908333333332">
                        <ele>0</ele>
                        <time>2022-08-18T09:51:31Z</time>
                                                <extensions>
                            <sog>5.4</sog>
<cog>339.6</cog>
                        </extensions>
                    </trkpt>
                    <trkpt lat="54.70442666666667" lon="10.036624999999999">
                        <ele>0</ele>
                        <time>2022-08-18T09:53:02Z</time>
                                                <extensions>
                            <sog>5.4</sog>
<cog>343.4</cog>
                        </extensions>
                    </trkpt>
                    <trkpt lat="54.70728166666667" lon="10.03494">
                        <ele>0</ele>
                        <time>2022-08-18T09:55:04Z</time>
                                                <extensions>
                            <sog>5.3</sog>
<cog>340.4</cog>
                        </extensions>
                    </trkpt>
                    <trkpt lat="54.708668333333335" lon="10.034040000000001">
                        <ele>0</ele>
                        <time>2022-08-18T09:56:04Z</time>
                                                <extensions>
                            <sog>5.5</sog>
<cog>340.1</cog>
                        </extensions>
                    </trkpt>
                    <trkpt lat="54.710058333333336" lon="10.033158333333335">
                        <ele>0</ele>
                        <time>2022-08-18T09:57:04Z</time>
                                                <extensions>
                            <sog>5.4</sog>
<cog>341.8</cog>
                        </extensions>
                    </trkpt>
                    <trkpt lat="54.71144" lon="10.032328333333334">
                        <ele>0</ele>
                        <time>2022-08-18T09:58:04Z</time>
                                                <extensions>
                            <sog>5.1</sog>
<cog>340.2</cog>
                        </extensions>
                    </trkpt>
                    <trkpt lat="54.718651666666666" lon="10.027436666666667">
                        <ele>0</ele>
                        <time>2022-08-18T10:04:03Z</time>
                                                <extensions>
                            <sog>4.1</sog>
<cog>343.0</cog>
                        </extensions>
                    </trkpt>
                    <trkpt lat="54.72192166666667" lon="10.025028333333333">
                        <ele>0</ele>
                        <time>2022-08-18T10:07:03Z</time>
                                                <extensions>
                            <sog>3.7</sog>
<cog>344.8</cog>
                        </extensions>
                    </trkpt>
                    <trkpt lat="54.723259999999996" lon="10.024040000000001">
                        <ele>0</ele>
                        <time>2022-08-18T10:08:30Z</time>
                                                <extensions>
                            <sog>3.2</sog>
<cog>343.0</cog>
                        </extensions>
                    </trkpt>
                    </trkseg>
                </trk>
</gpx>