<?xml version="1.0" encoding="UTF-8"?>
<gpx version="1.1" creator="AIS-to-GPX Converter" xmlns="http://www.topografix.com/GPX/1/1">
                <trk>
                    <name>anon0312</name>
                    <trkseg>
                                            <trkpt lat="54.01907666666667" lon="9.297149999999998">
                        <ele>0</ele>
                        <time>2022-08-18T01:11:40Z</time>
                                                <extensions>
                            <sog>3.4</sog>
<cog>278.8</cog>
                        </extensions>
                    </trkpt>
                    <trkpt lat="54.01912166666667" lon="9.296661666666667">
                        <ele>0</ele>
                        <time>2022-08-18T01:13:31Z</time>
                                                <extensions>
                            <sog>0.0</sog>
<cog>5.4</cog>
                        </extensions>
                    </trkpt>
                    <trkpt lat="54.01912166666667" lon="9.296663333333333">
                        <ele>0</ele>
                        <time>2022-08-18T01:13:40Z</time>
                                                <extensions>
                            <sog>0.0</sog>
<cog>231.0</cog>
                        </extensions>
                    </trkpt>
                    <trkpt lat="54.01912166666667" lon="9.296663333333333">
                        <ele>0</ele>
                        <time>2022-08-18T01:13:50Z</time>
                                                <extensions>
                            <sog>0.0</sog>
<cog>123.9</cog>
                        </extensions>
                    </trkpt>
                    <trkpt lat="54.01912166666667" lon="9.296663333333333">
                        <ele>0</ele>
                        <time>2022-08-18T01:14:20Z</time>
                                                <extensions>
                            <sog>0.0</sog>
<cog>166.2</cog>
                        </extensions>
                    </trkpt>
                    <trkpt lat="54.01912166666667" lon="9.296663333333333">
                        <ele>0</ele>
                        <time>2022-08-18T01:15:00Z</time>
                                                <extensions>
                            <sog>0.0</sog>
<cog>45.1</cog>
                        </extensions>
                    </trkpt>
                    <trkpt lat="54.01912166666667" lon="9.296664999999999">
                        <ele>0</ele>
                        <time>2022-08-18T01:15:31Z</time>
                                                <extensions>
                            <sog>0.0</sog>
<cog>215.9</cog>
                        </extensions>
                    </trkpt>
                    <trkpt lat="54.01912166666667" lon="9.296664999999999">
                        <ele>0</ele>
                        <time>2022-08-18T01:15:50Z</time>
                                                <extensions>
                            <sog>0.0</sog>
<cog>346.7</cog>
                        </extensions>
                    </trkpt>
                    <trkpt lat="54.01912166666667" lon="9.296664999999999">
                        <ele>0</ele>
                        <time>2022-08-18T01:16:20Z</time>
                                                <extensions>
                            <sog>0.0</sog>
<cog>344.3</cog>
                        </extensions>
                    </trkpt>
                    <trkpt lat="54.01912166666667" lon="9.296664999999999">
                        <ele>0</ele>
                        <time>2022-08-18T01:16:49Z</time>
                                                <extensions>
                            <sog>0.0</sog>
<cog>36.6</cog>
                        </extensions>
                    </trkpt>
                    <trkpt lat="54.01912166666667" lon="9.296664999999999">
                        <ele>0</ele>
                        <time>2022-08-18T01:17:00Z</time>
                                                <extensions>
                            <sog>0.0</sog>
<cog>290.9</cog>
                        </extensions>
                    </trkpt>
                    <trkpt lat="54.01912166666667" lon="9.296664999999999">
                        <ele>0</ele>
                        <time>2022-08-18T01:17:20Z</time>
                                                <extensions>
                            <sog>0.0</sog>
<cog>349.3</cog>
                        </extensions>
                    </trkpt>
                    <trkpt lat="54.01912166666667" lon="9.296671666666667">
                        <ele>0</ele>
                        <time>2022-08-18T01:17:49Z</time>
                                                <extensions>
                            <sog>0.6</sog>
<cog>102.6</cog>
                        </extensions>
                    </trkpt>
                    </trkseg>
                </trk>
</gpx>