<?xml version="1.0" encoding="UTF-8"?>
<gpx version="1.1" creator="AIS-to-GPX Converter" xmlns="http://www.topografix.com/GPX/1/1">
                <trk>
                    <name>anon0396</name>
                    <trkseg>
                                            <trkpt lat="54.45200666666666" lon="10.48269">
                        <ele>0</ele>
                        <time>2022-08-18T10:36:25Z</time>
                                                <extensions>
                            <sog>5.9</sog>
<cog>279.9</cog>
                        </extensions>
                    </trkpt>
                    <trkpt lat="54.45391333333334" lon="10.467465">
                        <ele>0</ele>
                        <time>2022-08-18T10:41:55Z</time>
                                                <extensions>
                            <sog>6.0</sog>
<cog>282.1</cog>
                        </extensions>
                    </trkpt>
                    <trkpt lat="54.454611666666665" lon="10.45468">
                        <ele>0</ele>
                        <time>2022-08-18T10:46:27Z</time>
                                                <extensions>
                            <sog>6.1</sog>
<cog>269.9</cog>
                        </extensions>
                    </trkpt>
                    <trkpt lat="54.45433666666667" lon="10.436825">
                        <ele>0</ele>
                        <time>2022-08-18T10:52:26Z</time>
                                                <extensions>
                            <sog>6.5</sog>
<cog>273.6</cog>
                        </extensions>
                    </trkpt>
                    <trkpt lat="54.45310833333333" lon="10.413703333333332">
                        <ele>0</ele>
                        <time>2022-08-18T10:59:54Z</time>
                                                <extensions>
                            <sog>6.5</sog>
<cog>259.6</cog>
                        </extensions>
                    </trkpt>
                    <trkpt lat="54.452601666666666" lon="10.407473333333334">
                        <ele>0</ele>
                        <time>2022-08-18T11:01:55Z</time>
                                                <extensions>
                            <sog>6.6</sog>
<cog>261.4</cog>
                        </extensions>
                    </trkpt>
                    <trkpt lat="54.45202" lon="10.399751666666667">
                        <ele>0</ele>
                        <time>2022-08-18T11:04:25Z</time>
                                                <extensions>
                            <sog>6.6</sog>
<cog>264.5</cog>
                        </extensions>
                    </trkpt>
                    <trkpt lat="54.451924999999996" lon="10.398266666666666">
                        <ele>0</ele>
                        <time>2022-08-18T11:04:55Z</time>
                                                <extensions>
                            <sog>6.6</sog>
<cog>258.5</cog>
                        </extensions>
                    </trkpt>
                    <trkpt lat="54.45180833333333" lon="10.396736666666667">
                        <ele>0</ele>
                        <time>2022-08-18T11:05:25Z</time>
                                                <extensions>
                            <sog>6.4</sog>
<cog>263.9</cog>
                        </extensions>
                    </trkpt>
                    <trkpt lat="54.451555" lon="10.393581666666668">
                        <ele>0</ele>
                        <time>2022-08-18T11:06:26Z</time>
                                                <extensions>
                            <sog>6.3</sog>
<cog>260.4</cog>
                        </extensions>
                    </trkpt>
                    <trkpt lat="54.45146" lon="10.392153333333333">
                        <ele>0</ele>
                        <time>2022-08-18T11:06:55Z</time>
                                                <extensions>
                            <sog>6.5</sog>
<cog>263.4</cog>
                        </extensions>
                    </trkpt>
                    <trkpt lat="54.451350000000005" lon="10.390578333333334">
                        <ele>0</ele>
                        <time>2022-08-18T11:07:26Z</time>
                                                <extensions>
                            <sog>6.5</sog>
<cog>265.6</cog>
                        </extensions>
                    </trkpt>
                    <trkpt lat="54.45102" lon="10.386035">
                        <ele>0</ele>
                        <time>2022-08-18T11:08:56Z</time>
                                                <extensions>
                            <sog>6.5</sog>
<cog>264.7</cog>
                        </extensions>
                    </trkpt>
                    <trkpt lat="54.45092833333333" lon="10.384498333333333">
                        <ele>0</ele>
                        <time>2022-08-18T11:09:26Z</time>
                                                <extensions>
                            <sog>6.6</sog>
<cog>266.2</cog>
                        </extensions>
                    </trkpt>
                    <trkpt lat="54.450815" lon="10.382978333333334">
                        <ele>0</ele>
                        <time>2022-08-18T11:09:56Z</time>
                                                <extensions>
                            <sog>6.6</sog>
<cog>264.9</cog>
                        </extensions>
                    </trkpt>
                    <trkpt lat="54.45070166666667" lon="10.381453333333333">
                        <ele>0</ele>
                        <time>2022-08-18T11:10:26Z</time>
                                                <extensions>
                            <sog>6.5</sog>
<cog>265.5</cog>
                        </extensions>
                    </trkpt>
                    <trkpt lat="54.450465" lon="10.378428333333334">
                        <ele>0</ele>
                        <time>2022-08-18T11:11:26Z</time>
                                                <extensions>
                            <sog>6.2</sog>
<cog>261.1</cog>
                        </extensions>
                    </trkpt>
                    <trkpt lat="54.450358333333334" lon="10.376908333333335">
                        <ele>0</ele>
                        <time>2022-08-18T11:11:56Z</time>
                                                <extensions>
                            <sog>6.5</sog>
<cog>264.8</cog>
                        </extensions>
                    </trkpt>
                    <trkpt lat="54.45000166666667" lon="10.372368333333332">
                        <ele>0</ele>
                        <time>2022-08-18T11:13:26Z</time>
                                                <extensions>
                            <sog>6.4</sog>
<cog>261.4</cog>
                        </extensions>
                    </trkpt>
                    <trkpt lat="54.449886666666664" lon="10.370863333333334">
                        <ele>0</ele>
                        <time>2022-08-18T11:13:56Z</time>
                                                <extensions>
                            <sog>6.1</sog>
<cog>261.9</cog>
                        </extensions>
                    </trkpt>
                    <trkpt lat="54.449783333333336" lon="10.369361666666666">
                        <ele>0</ele>
                        <time>2022-08-18T11:14:26Z</time>
                                                <extensions>
                            <sog>6.3</sog>
<cog>262.1</cog>
                        </extensions>
                    </trkpt>
                    <trkpt lat="54.44955" lon="10.36641">
                        <ele>0</ele>
                        <time>2022-08-18T11:15:26Z</time>
                                                <extensions>
                            <sog>6.1</sog>
<cog>261.2</cog>
                        </extensions>
                    </trkpt>
                    <trkpt lat="54.449441666666665" lon="10.364935000000001">
                        <ele>0</ele>
                        <time>2022-08-18T11:15:56Z</time>
                                                <extensions>
                            <sog>6.3</sog>
<cog>262.8</cog>
                        </extensions>
                    </trkpt>
                    <trkpt lat="54.44932666666667" lon="10.363468333333334">
                        <ele>0</ele>
                        <time>2022-08-18T11:16:26Z</time>
                                                <extensions>
                            <sog>6.2</sog>
<cog>263.1</cog>
                        </extensions>
                    </trkpt>
                    <trkpt lat="54.449205" lon="10.362006666666668">
                        <ele>0</ele>
                        <time>2022-08-18T11:16:56Z</time>
                                                <extensions>
                            <sog>6.2</sog>
<cog>261.1</cog>
                        </extensions>
                    </trkpt>
                    <trkpt lat="54.44906833333334" lon="10.36056">
                        <ele>0</ele>
                        <time>2022-08-18T11:17:26Z</time>
                                                <extensions>
                            <sog>6.5</sog>
<cog>258.9</cog>
                        </extensions>
                    </trkpt>
                    <trkpt lat="54.44893833333333" lon="10.359111666666667">
                        <ele>0</ele>
                        <time>2022-08-18T11:17:56Z</time>
                                                <extensions>
                            <sog>6.1</sog>
<cog>258.7</cog>
                        </extensions>
                    </trkpt>
                    <trkpt lat="54.44882833333334" lon="10.357655">
                        <ele>0</ele>
                        <time>2022-08-18T11:18:27Z</time>
                                                <extensions>
                            <sog>6.0</sog>
<cog>263.1</cog>
                        </extensions>
                    </trkpt>
                    <trkpt lat="54.448701666666665" lon="10.356206666666667">
                        <ele>0</ele>
                        <time>2022-08-18T11:18:56Z</time>
                                                <extensions>
                            <sog>5.8</sog>
<cog>262.7</cog>
                        </extensions>
                    </trkpt>
                    <trkpt lat="54.44857833333333" lon="10.354718333333333">
                        <ele>0</ele>
                        <time>2022-08-18T11:19:27Z</time>
                                                <extensions>
                            <sog>5.7</sog>
<cog>261.8</cog>
                        </extensions>
                    </trkpt>
                    <trkpt lat="54.448451666666664" lon="10.353325">
                        <ele>0</ele>
                        <time>2022-08-18T11:19:56Z</time>
                                                <extensions>
                            <sog>6.2</sog>
<cog>260.9</cog>
                        </extensions>
                    </trkpt>
                    <trkpt lat="54.448096666666665" lon="10.348936666666667">
                        <ele>0</ele>
                        <time>2022-08-18T11:21:27Z</time>
                                                <extensions>
                            <sog>6.2</sog>
<cog>263.6</cog>
                        </extensions>
                    </trkpt>
                    <trkpt lat="54.447986666666665" lon="10.347481666666665">
                        <ele>0</ele>
                        <time>2022-08-18T11:21:57Z</time>
                                                <extensions>
                            <sog>6.0</sog>
<cog>263.7</cog>
                        </extensions>
                    </trkpt>
                    <trkpt lat="54.447865" lon="10.346048333333332">
                        <ele>0</ele>
                        <time>2022-08-18T11:22:27Z</time>
                                                <extensions>
                            <sog>6.1</sog>
<cog>258.9</cog>
                        </extensions>
                    </trkpt>
                    <trkpt lat="54.447741666666666" lon="10.344608333333333">
                        <ele>0</ele>
                        <time>2022-08-18T11:22:57Z</time>
                                                <extensions>
                            <sog>6.2</sog>
<cog>260.3</cog>
                        </extensions>
                    </trkpt>
                    <trkpt lat="54.447630000000004" lon="10.343226666666668">
                        <ele>0</ele>
                        <time>2022-08-18T11:23:26Z</time>
                                                <extensions>
                            <sog>6.2</sog>
<cog>263.5</cog>
                        </extensions>
                    </trkpt>
                    <trkpt lat="54.44750666666666" lon="10.341743333333334">
                        <ele>0</ele>
                        <time>2022-08-18T11:23:57Z</time>
                                                <extensions>
                            <sog>6.3</sog>
<cog>262.0</cog>
                        </extensions>
                    </trkpt>
                    <trkpt lat="54.4474" lon="10.340288333333332">
                        <ele>0</ele>
                        <time>2022-08-18T11:24:26Z</time>
                                                <extensions>
                            <sog>6.3</sog>
<cog>263.0</cog>
                        </extensions>
                    </trkpt>
                    <trkpt lat="54.447268333333334" lon="10.338843333333333">
                        <ele>0</ele>
                        <time>2022-08-18T11:24:57Z</time>
                                                <extensions>
                            <sog>6.1</sog>
<cog>262.9</cog>
                        </extensions>
                    </trkpt>
                    <trkpt lat="54.447160000000004" lon="10.337401666666667">
                        <ele>0</ele>
                        <time>2022-08-18T11:25:26Z</time>
                                                <extensions>
                            <sog>6.2</sog>
<cog>259.0</cog>
                        </extensions>
                    </trkpt>
                    <trkpt lat="54.44704333333333" lon="10.33601">
                        <ele>0</ele>
                        <time>2022-08-18T11:25:57Z</time>
                                                <extensions>
                            <sog>6.3</sog>
<cog>264.3</cog>
                        </extensions>
                    </trkpt>
                    <trkpt lat="54.446940000000005" lon="10.334561666666668">
                        <ele>0</ele>
                        <time>2022-08-18T11:26:25Z</time>
                                                <extensions>
                            <sog>5.9</sog>
<cog>265.4</cog>
                        </extensions>
                    </trkpt>
                    <trkpt lat="54.44671" lon="10.331723333333334">
                        <ele>0</ele>
                        <time>2022-08-18T11:27:25Z</time>
                                                <extensions>
                            <sog>6.0</sog>
<cog>261.4</cog>
                        </extensions>
                    </trkpt>
                    <trkpt lat="54.446578333333335" lon="10.330191666666668">
                        <ele>0</ele>
                        <time>2022-08-18T11:27:57Z</time>
                                                <extensions>
                            <sog>5.9</sog>
<cog>260.3</cog>
                        </extensions>
                    </trkpt>
                    <trkpt lat="54.44645166666667" lon="10.328858333333333">
                        <ele>0</ele>
                        <time>2022-08-18T11:28:25Z</time>
                                                <extensions>
                            <sog>6.1</sog>
<cog>263.1</cog>
                        </extensions>
                    </trkpt>
                    <trkpt lat="54.446191666666664" lon="10.325946666666665">
                        <ele>0</ele>
                        <time>2022-08-18T11:29:25Z</time>
                                                <extensions>
                            <sog>6.2</sog>
<cog>260.5</cog>
                        </extensions>
                    </trkpt>
                    <trkpt lat="54.44606833333333" lon="10.324485000000001">
                        <ele>0</ele>
                        <time>2022-08-18T11:29:57Z</time>
                                                <extensions>
                            <sog>6.1</sog>
<cog>262.0</cog>
                        </extensions>
                    </trkpt>
                    <trkpt lat="54.44595833333334" lon="10.323211666666667">
                        <ele>0</ele>
                        <time>2022-08-18T11:30:25Z</time>
                                                <extensions>
                            <sog>5.7</sog>
<cog>260.5</cog>
                        </extensions>
                    </trkpt>
                    <trkpt lat="54.44580333333333" lon="10.321776666666667">
                        <ele>0</ele>
                        <time>2022-08-18T11:30:57Z</time>
                                                <extensions>
                            <sog>5.8</sog>
<cog>260.9</cog>
                        </extensions>
                    </trkpt>
                    <trkpt lat="54.445526666666666" lon="10.319065">
                        <ele>0</ele>
                        <time>2022-08-18T11:31:57Z</time>
                                                <extensions>
                            <sog>6.0</sog>
<cog>261.9</cog>
                        </extensions>
                    </trkpt>
                    <trkpt lat="54.44540666666667" lon="10.317784999999999">
                        <ele>0</ele>
                        <time>2022-08-18T11:32:25Z</time>
                                                <extensions>
                            <sog>5.6</sog>
<cog>258.2</cog>
                        </extensions>
                    </trkpt>
                    <trkpt lat="54.44525333333333" lon="10.316391666666668">
                        <ele>0</ele>
                        <time>2022-08-18T11:32:56Z</time>
                                                <extensions>
                            <sog>5.9</sog>
<cog>253.2</cog>
                        </extensions>
                    </trkpt>
                    <trkpt lat="54.44495333333334" lon="10.313683333333334">
                        <ele>0</ele>
                        <time>2022-08-18T11:33:56Z</time>
                                                <extensions>
                            <sog>5.8</sog>
<cog>258.2</cog>
                        </extensions>
                    </trkpt>
                    <trkpt lat="54.4448" lon="10.312338333333335">
                        <ele>0</ele>
                        <time>2022-08-18T11:34:26Z</time>
                                                <extensions>
                            <sog>5.9</sog>
<cog>258.9</cog>
                        </extensions>
                    </trkpt>
                    <trkpt lat="54.444624999999995" lon="10.310984999999999">
                        <ele>0</ele>
                        <time>2022-08-18T11:34:56Z</time>
                                                <extensions>
                            <sog>6.0</sog>
<cog>260.8</cog>
                        </extensions>
                    </trkpt>
                    <trkpt lat="54.444313333333334" lon="10.308256666666667">
                        <ele>0</ele>
                        <time>2022-08-18T11:35:56Z</time>
                                                <extensions>
                            <sog>5.6</sog>
<cog>258.0</cog>
                        </extensions>
                    </trkpt>
                    <trkpt lat="54.44401166666667" lon="10.305530000000001">
                        <ele>0</ele>
                        <time>2022-08-18T11:36:56Z</time>
                                                <extensions>
                            <sog>5.9</sog>
<cog>259.3</cog>
                        </extensions>
                    </trkpt>
                    <trkpt lat="54.44369666666667" lon="10.302818333333333">
                        <ele>0</ele>
                        <time>2022-08-18T11:37:56Z</time>
                                                <extensions>
                            <sog>5.8</sog>
<cog>258.7</cog>
                        </extensions>
                    </trkpt>
                    <trkpt lat="54.44324666666667" lon="10.298761666666667">
                        <ele>0</ele>
                        <time>2022-08-18T11:39:24Z</time>
                                                <extensions>
                            <sog>5.8</sog>
<cog>260.1</cog>
                        </extensions>
                    </trkpt>
                    <trkpt lat="54.44309666666666" lon="10.29739">
                        <ele>0</ele>
                        <time>2022-08-18T11:39:54Z</time>
                                                <extensions>
                            <sog>5.8</sog>
<cog>263.2</cog>
                        </extensions>
                    </trkpt>
                    <trkpt lat="54.44280166666667" lon="10.294683333333333">
                        <ele>0</ele>
                        <time>2022-08-18T11:40:54Z</time>
                                                <extensions>
                            <sog>5.8</sog>
<cog>260.6</cog>
                        </extensions>
                    </trkpt>
                    <trkpt lat="54.4425" lon="10.291876666666667">
                        <ele>0</ele>
                        <time>2022-08-18T11:41:54Z</time>
                                                <extensions>
                            <sog>5.7</sog>
<cog>259.3</cog>
                        </extensions>
                    </trkpt>
                    <trkpt lat="54.44235166666667" lon="10.290496666666666">
                        <ele>0</ele>
                        <time>2022-08-18T11:42:24Z</time>
                                                <extensions>
                            <sog>5.6</sog>
<cog>260.2</cog>
                        </extensions>
                    </trkpt>
                    <trkpt lat="54.441876666666666" lon="10.286425000000001">
                        <ele>0</ele>
                        <time>2022-08-18T11:43:54Z</time>
                                                <extensions>
                            <sog>6.0</sog>
<cog>259.6</cog>
                        </extensions>
                    </trkpt>
                    <trkpt lat="54.441725" lon="10.285018333333333">
                        <ele>0</ele>
                        <time>2022-08-18T11:44:24Z</time>
                                                <extensions>
                            <sog>6.0</sog>
<cog>258.3</cog>
                        </extensions>
                    </trkpt>
                    <trkpt lat="54.441518333333335" lon="10.28367">
                        <ele>0</ele>
                        <time>2022-08-18T11:44:54Z</time>
                                                <extensions>
                            <sog>5.8</sog>
<cog>255.5</cog>
                        </extensions>
                    </trkpt>
                    <trkpt lat="54.44129833333333" lon="10.282324999999998">
                        <ele>0</ele>
                        <time>2022-08-18T11:45:24Z</time>
                                                <extensions>
                            <sog>6.0</sog>
<cog>253.6</cog>
                        </extensions>
                    </trkpt>
                    <trkpt lat="54.441098333333336" lon="10.281025">
                        <ele>0</ele>
                        <time>2022-08-18T11:45:54Z</time>
                                                <extensions>
                            <sog>5.8</sog>
<cog>257.4</cog>
                        </extensions>
                    </trkpt>
                    <trkpt lat="54.440844999999996" lon="10.279548333333334">
                        <ele>0</ele>
                        <time>2022-08-18T11:46:26Z</time>
                                                <extensions>
                            <sog>5.6</sog>
<cog>253.8</cog>
                        </extensions>
                    </trkpt>
                    <trkpt lat="54.44063166666667" lon="10.278298333333334">
                        <ele>0</ele>
                        <time>2022-08-18T11:46:54Z</time>
                                                <extensions>
                            <sog>6.0</sog>
<cog>253.4</cog>
                        </extensions>
                    </trkpt>
                    <trkpt lat="54.44040833333334" lon="10.276906666666667">
                        <ele>0</ele>
                        <time>2022-08-18T11:47:26Z</time>
                                                <extensions>
                            <sog>6.0</sog>
<cog>254.5</cog>
                        </extensions>
                    </trkpt>
                    <trkpt lat="54.44020666666667" lon="10.275648333333333">
                        <ele>0</ele>
                        <time>2022-08-18T11:47:54Z</time>
                                                <extensions>
                            <sog>5.9</sog>
<cog>255.6</cog>
                        </extensions>
                    </trkpt>
                    <trkpt lat="54.43949" lon="10.27146">
                        <ele>0</ele>
                        <time>2022-08-18T11:49:26Z</time>
                                                <extensions>
                            <sog>6.0</sog>
<cog>253.6</cog>
                        </extensions>
                    </trkpt>
                    <trkpt lat="54.43925333333333" lon="10.270058333333333">
                        <ele>0</ele>
                        <time>2022-08-18T11:49:57Z</time>
                                                <extensions>
                            <sog>6.0</sog>
<cog>256.1</cog>
                        </extensions>
                    </trkpt>
                    <trkpt lat="54.439035" lon="10.268795">
                        <ele>0</ele>
                        <time>2022-08-18T11:50:26Z</time>
                                                <extensions>
                            <sog>5.6</sog>
<cog>253.2</cog>
                        </extensions>
                    </trkpt>
                    <trkpt lat="54.43877333333333" lon="10.267406666666666">
                        <ele>0</ele>
                        <time>2022-08-18T11:50:57Z</time>
                                                <extensions>
                            <sog>6.2</sog>
<cog>252.2</cog>
                        </extensions>
                    </trkpt>
                    <trkpt lat="54.43850666666666" lon="10.266006666666668">
                        <ele>0</ele>
                        <time>2022-08-18T11:51:27Z</time>
                                                <extensions>
                            <sog>5.9</sog>
<cog>252.2</cog>
                        </extensions>
                    </trkpt>
                    <trkpt lat="54.438" lon="10.263358333333334">
                        <ele>0</ele>
                        <time>2022-08-18T11:52:27Z</time>
                                                <extensions>
                            <sog>5.9</sog>
<cog>250.6</cog>
                        </extensions>
                    </trkpt>
                    <trkpt lat="54.43771" lon="10.261973333333334">
                        <ele>0</ele>
                        <time>2022-08-18T11:52:57Z</time>
                                                <extensions>
                            <sog>6.2</sog>
<cog>250.1</cog>
                        </extensions>
                    </trkpt>
                    <trkpt lat="54.43743333333334" lon="10.26068">
                        <ele>0</ele>
                        <time>2022-08-18T11:53:27Z</time>
                                                <extensions>
                            <sog>6.2</sog>
<cog>247.5</cog>
                        </extensions>
                    </trkpt>
                    <trkpt lat="54.43713" lon="10.259308333333333">
                        <ele>0</ele>
                        <time>2022-08-18T11:53:57Z</time>
                                                <extensions>
                            <sog>5.7</sog>
<cog>251.6</cog>
                        </extensions>
                    </trkpt>
                    <trkpt lat="54.43684" lon="10.257968333333334">
                        <ele>0</ele>
                        <time>2022-08-18T11:54:27Z</time>
                                                <extensions>
                            <sog>5.9</sog>
<cog>250.4</cog>
                        </extensions>
                    </trkpt>
                    <trkpt lat="54.43616" lon="10.255396666666666">
                        <ele>0</ele>
                        <time>2022-08-18T11:55:27Z</time>
                                                <extensions>
                            <sog>6.0</sog>
<cog>243.5</cog>
                        </extensions>
                    </trkpt>
                    <trkpt lat="54.43582" lon="10.25419">
                        <ele>0</ele>
                        <time>2022-08-18T11:55:55Z</time>
                                                <extensions>
                            <sog>6.1</sog>
<cog>246.4</cog>
                        </extensions>
                    </trkpt>
                    <trkpt lat="54.43542166666667" lon="10.252873333333334">
                        <ele>0</ele>
                        <time>2022-08-18T11:56:27Z</time>
                                                <extensions>
                            <sog>6.1</sog>
<cog>240.6</cog>
                        </extensions>
                    </trkpt>
                    <trkpt lat="54.435028333333335" lon="10.25161">
                        <ele>0</ele>
                        <time>2022-08-18T11:56:55Z</time>
                                                <extensions>
                            <sog>6.1</sog>
<cog>241.3</cog>
                        </extensions>
                    </trkpt>
                    <trkpt lat="54.43461666666667" lon="10.250311666666667">
                        <ele>0</ele>
                        <time>2022-08-18T11:57:27Z</time>
                                                <extensions>
                            <sog>6.4</sog>
<cog>243.0</cog>
                        </extensions>
                    </trkpt>
                    <trkpt lat="54.434245000000004" lon="10.249138333333333">
                        <ele>0</ele>
                        <time>2022-08-18T11:57:55Z</time>
                                                <extensions>
                            <sog>6.0</sog>
<cog>242.6</cog>
                        </extensions>
                    </trkpt>
                    <trkpt lat="54.433805" lon="10.247808333333333">
                        <ele>0</ele>
                        <time>2022-08-18T11:58:27Z</time>
                                                <extensions>
                            <sog>5.9</sog>
<cog>243.7</cog>
                        </extensions>
                    </trkpt>
                    <trkpt lat="54.43344666666667" lon="10.246618333333334">
                        <ele>0</ele>
                        <time>2022-08-18T11:58:55Z</time>
                                                <extensions>
                            <sog>6.2</sog>
<cog>244.4</cog>
                        </extensions>
                    </trkpt>
                    <trkpt lat="54.433005" lon="10.245303333333334">
                        <ele>0</ele>
                        <time>2022-08-18T11:59:27Z</time>
                                                <extensions>
                            <sog>6.0</sog>
<cog>241.0</cog>
                        </extensions>
                    </trkpt>
                    <trkpt lat="54.43169833333333" lon="10.24176">
                        <ele>0</ele>
                        <time>2022-08-18T12:00:55Z</time>
                                                <extensions>
                            <sog>6.3</sog>
<cog>236.6</cog>
                        </extensions>
                    </trkpt>
                    <trkpt lat="54.43169833333333" lon="10.24176">
                        <ele>0</ele>
                        <time>2022-08-18T12:00:55Z</time>
                                                <extensions>
                            <sog>6.3</sog>
<cog>236.6</cog>
                        </extensions>
                    </trkpt>
                    <trkpt lat="54.431205" lon="10.240653333333334">
                        <ele>0</ele>
                        <time>2022-08-18T12:01:24Z</time>
                                                <extensions>
                            <sog>6.0</sog>
<cog>230.0</cog>
                        </extensions>
                    </trkpt>
                    <trkpt lat="54.430645" lon="10.239445">
                        <ele>0</ele>
                        <time>2022-08-18T12:01:55Z</time>
                                                <extensions>
                            <sog>6.3</sog>
<cog>231.7</cog>
                        </extensions>
                    </trkpt>
                    <trkpt lat="54.43012833333333" lon="10.238358333333334">
                        <ele>0</ele>
                        <time>2022-08-18T12:02:24Z</time>
                                                <extensions>
                            <sog>6.4</sog>
<cog>226.1</cog>
                        </extensions>
                    </trkpt>
                    <trkpt lat="54.42841" lon="10.235183333333334">
                        <ele>0</ele>
                        <time>2022-08-18T12:03:55Z</time>
                                                <extensions>
                            <sog>6.2</sog>
<cog>232.4</cog>
                        </extensions>
                    </trkpt>
                    <trkpt lat="54.42782666666667" lon="10.234126666666667">
                        <ele>0</ele>
                        <time>2022-08-18T12:04:24Z</time>
                                                <extensions>
                            <sog>6.3</sog>
<cog>224.9</cog>
                        </extensions>
                    </trkpt>
                    <trkpt lat="54.42722333333334" lon="10.233043333333335">
                        <ele>0</ele>
                        <time>2022-08-18T12:04:55Z</time>
                                                <extensions>
                            <sog>6.1</sog>
<cog>226.2</cog>
                        </extensions>
                    </trkpt>
                    <trkpt lat="54.42664666666667" lon="10.232045">
                        <ele>0</ele>
                        <time>2022-08-18T12:05:24Z</time>
                                                <extensions>
                            <sog>6.2</sog>
<cog>224.0</cog>
                        </extensions>
                    </trkpt>
                    <trkpt lat="54.42605666666667" lon="10.231068333333333">
                        <ele>0</ele>
                        <time>2022-08-18T12:05:54Z</time>
                                                <extensions>
                            <sog>6.1</sog>
<cog>219.8</cog>
                        </extensions>
                    </trkpt>
                    <trkpt lat="54.42540666666666" lon="10.230146666666666">
                        <ele>0</ele>
                        <time>2022-08-18T12:06:24Z</time>
                                                <extensions>
                            <sog>6.0</sog>
<cog>220.8</cog>
                        </extensions>
                    </trkpt>
                    <trkpt lat="54.424105000000004" lon="10.228266666666666">
                        <ele>0</ele>
                        <time>2022-08-18T12:07:24Z</time>
                                                <extensions>
                            <sog>5.8</sog>
<cog>221.0</cog>
                        </extensions>
                    </trkpt>
                    <trkpt lat="54.42346833333333" lon="10.227360000000001">
                        <ele>0</ele>
                        <time>2022-08-18T12:07:54Z</time>
                                                <extensions>
                            <sog>6.0</sog>
<cog>221.3</cog>
                        </extensions>
                    </trkpt>
                    <trkpt lat="54.42222" lon="10.225570000000001">
                        <ele>0</ele>
                        <time>2022-08-18T12:08:54Z</time>
                                                <extensions>
                            <sog>6.0</sog>
<cog>218.0</cog>
                        </extensions>
                    </trkpt>
                    <trkpt lat="54.421508333333335" lon="10.224639999999999">
                        <ele>0</ele>
                        <time>2022-08-18T12:09:27Z</time>
                                                <extensions>
                            <sog>5.9</sog>
<cog>216.5</cog>
                        </extensions>
                    </trkpt>
                    <trkpt lat="54.420895" lon="10.223856666666668">
                        <ele>0</ele>
                        <time>2022-08-18T12:09:54Z</time>
                                                <extensions>
                            <sog>5.9</sog>
<cog>214.6</cog>
                        </extensions>
                    </trkpt>
                    <trkpt lat="54.42019333333334" lon="10.22297">
                        <ele>0</ele>
                        <time>2022-08-18T12:10:27Z</time>
                                                <extensions>
                            <sog>5.9</sog>
<cog>215.7</cog>
                        </extensions>
                    </trkpt>
                    <trkpt lat="54.419576666666664" lon="10.222273333333334">
                        <ele>0</ele>
                        <time>2022-08-18T12:10:54Z</time>
                                                <extensions>
                            <sog>5.9</sog>
<cog>217.5</cog>
                        </extensions>
                    </trkpt>
                    <trkpt lat="54.41885666666667" lon="10.221413333333334">
                        <ele>0</ele>
                        <time>2022-08-18T12:11:27Z</time>
                                                <extensions>
                            <sog>5.9</sog>
<cog>211.3</cog>
                        </extensions>
                    </trkpt>
                    <trkpt lat="54.41820166666666" lon="10.220636666666667">
                        <ele>0</ele>
                        <time>2022-08-18T12:11:54Z</time>
                                                <extensions>
                            <sog>6.0</sog>
<cog>216.7</cog>
                        </extensions>
                    </trkpt>
                    <trkpt lat="54.41748" lon="10.219783333333334">
                        <ele>0</ele>
                        <time>2022-08-18T12:12:27Z</time>
                                                <extensions>
                            <sog>5.9</sog>
<cog>215.8</cog>
                        </extensions>
                    </trkpt>
                    <trkpt lat="54.41686166666667" lon="10.219076666666666">
                        <ele>0</ele>
                        <time>2022-08-18T12:12:54Z</time>
                                                <extensions>
                            <sog>5.9</sog>
<cog>213.3</cog>
                        </extensions>
                    </trkpt>
                    <trkpt lat="54.416084999999995" lon="10.218258333333333">
                        <ele>0</ele>
                        <time>2022-08-18T12:13:26Z</time>
                                                <extensions>
                            <sog>6.1</sog>
<cog>208.7</cog>
                        </extensions>
                    </trkpt>
                    <trkpt lat="54.41544333333333" lon="10.217598333333333">
                        <ele>0</ele>
                        <time>2022-08-18T12:13:54Z</time>
                                                <extensions>
                            <sog>6.0</sog>
<cog>205.9</cog>
                        </extensions>
                    </trkpt>
                    <trkpt lat="54.41461833333334" lon="10.216918333333332">
                        <ele>0</ele>
                        <time>2022-08-18T12:14:27Z</time>
                                                <extensions>
                            <sog>5.9</sog>
<cog>203.4</cog>
                        </extensions>
                    </trkpt>
                    <trkpt lat="54.41391833333333" lon="10.216338333333335">
                        <ele>0</ele>
                        <time>2022-08-18T12:14:54Z</time>
                                                <extensions>
                            <sog>6.0</sog>
<cog>207.6</cog>
                        </extensions>
                    </trkpt>
                    <trkpt lat="54.411633333333334" lon="10.214436666666668">
                        <ele>0</ele>
                        <time>2022-08-18T12:16:26Z</time>
                                                <extensions>
                            <sog>5.9</sog>
<cog>206.4</cog>
                        </extensions>
                    </trkpt>
                    <trkpt lat="54.41088" lon="10.21397">
                        <ele>0</ele>
                        <time>2022-08-18T12:16:54Z</time>
                                                <extensions>
                            <sog>5.9</sog>
<cog>197.2</cog>
                        </extensions>
                    </trkpt>
                    <trkpt lat="54.41001333333334" lon="10.213731666666666">
                        <ele>0</ele>
                        <time>2022-08-18T12:17:26Z</time>
                                                <extensions>
                            <sog>5.9</sog>
<cog>188.0</cog>
                        </extensions>
                    </trkpt>
                    <trkpt lat="54.40928666666667" lon="10.213588333333332">
                        <ele>0</ele>
                        <time>2022-08-18T12:17:54Z</time>
                                                <extensions>
                            <sog>5.9</sog>
<cog>182.8</cog>
                        </extensions>
                    </trkpt>
                    <trkpt lat="54.40766333333333" lon="10.213623333333334">
                        <ele>0</ele>
                        <time>2022-08-18T12:18:54Z</time>
                                                <extensions>
                            <sog>6.0</sog>
<cog>178.3</cog>
                        </extensions>
                    </trkpt>
                    <trkpt lat="54.40675833333333" lon="10.213623333333334">
                        <ele>0</ele>
                        <time>2022-08-18T12:19:26Z</time>
                                                <extensions>
                            <sog>5.9</sog>
<cog>178.9</cog>
                        </extensions>
                    </trkpt>
                    <trkpt lat="54.40604333333333" lon="10.213635">
                        <ele>0</ele>
                        <time>2022-08-18T12:19:54Z</time>
                                                <extensions>
                            <sog>5.5</sog>
<cog>179.7</cog>
                        </extensions>
                    </trkpt>
                    <trkpt lat="54.405285000000006" lon="10.213750000000001">
                        <ele>0</ele>
                        <time>2022-08-18T12:20:26Z</time>
                                                <extensions>
                            <sog>5.4</sog>
<cog>168.3</cog>
                        </extensions>
                    </trkpt>
                    <trkpt lat="54.40461333333334" lon="10.214085">
                        <ele>0</ele>
                        <time>2022-08-18T12:20:54Z</time>
                                                <extensions>
                            <sog>5.4</sog>
<cog>156.4</cog>
                        </extensions>
                    </trkpt>
                    <trkpt lat="54.40325333333333" lon="10.214633333333333">
                        <ele>0</ele>
                        <time>2022-08-18T12:21:54Z</time>
                                                <extensions>
                            <sog>3.4</sog>
<cog>156.8</cog>
                        </extensions>
                    </trkpt>
                    <trkpt lat="54.403040000000004" lon="10.215091666666666">
                        <ele>0</ele>
                        <time>2022-08-18T12:22:26Z</time>
                                                <extensions>
                            <sog>2.7</sog>
<cog>88.6</cog>
                        </extensions>
                    </trkpt>
                    <trkpt lat="54.40303333333333" lon="10.215395000000001">
                        <ele>0</ele>
                        <time>2022-08-18T12:22:54Z</time>
                                                <extensions>
                            <sog>0.6</sog>
<cog>99.6</cog>
                        </extensions>
                    </trkpt>
                    <trkpt lat="54.403495" lon="10.21677">
                        <ele>0</ele>
                        <time>2022-08-18T12:23:54Z</time>
                                                <extensions>
                            <sog>4.3</sog>
<cog>61.4</cog>
                        </extensions>
                    </trkpt>
                    <trkpt lat="54.40350333333333" lon="10.217568333333332">
                        <ele>0</ele>
                        <time>2022-08-18T12:24:26Z</time>
                                                <extensions>
                            <sog>2.5</sog>
<cog>109.0</cog>
                        </extensions>
                    </trkpt>
                    <trkpt lat="54.403254999999994" lon="10.218278333333334">
                        <ele>0</ele>
                        <time>2022-08-18T12:25:26Z</time>
                                                <extensions>
                            <sog>1.2</sog>
<cog>118.1</cog>
                        </extensions>
                    </trkpt>
                    <trkpt lat="54.40321333333333" lon="10.218345">
                        <ele>0</ele>
                        <time>2022-08-18T12:25:54Z</time>
                        <extensions>
    <sog>0.1</sog>
</extensions>
                    </trkpt>
                    <trkpt lat="54.403193333333334" lon="10.21835">
                        <ele>0</ele>
                        <time>2022-08-18T12:26:26Z</time>
                        <extensions>
    <sog>0.1</sog>
</extensions>
                    </trkpt>
                    <trkpt lat="54.40318666666667" lon="10.218346666666667">
                        <ele>0</ele>
                        <time>2022-08-18T12:26:54Z</time>
                        <extensions>
    <sog>0.1</sog>
</extensions>
                    </trkpt>
                    <trkpt lat="54.40318666666667" lon="10.218348333333333">
                        <ele>0</ele>
                        <time>2022-08-18T12:27:26Z</time>
                        <extensions>
    <sog>0.1</sog>
</extensions>
                    </trkpt>
                    <trkpt lat="54.403095" lon="10.218259999999999">
                        <ele>0</ele>
                        <time>2022-08-18T12:30:53Z</time>
                        <extensions>
    <sog>0.0</sog>
</extensions>
                    </trkpt>
                    <trkpt lat="54.40309333333333" lon="10.218245">
                        <ele>0</ele>
                        <time>2022-08-18T12:36:54Z</time>
                        <extensions>
    <sog>0.0</sog>
</extensions>
                    </trkpt>
                    <trkpt lat="54.40324333333333" lon="10.218313333333333">
                        <ele>0</ele>
                        <time>2022-08-18T12:38:24Z</time>
                                                <extensions>
                            <sog>2.2</sog>
<cog>343.9</cog>
                        </extensions>
                    </trkpt>
                    <trkpt lat="54.403445000000005" lon="10.217816666666666">
                        <ele>0</ele>
                        <time>2022-08-18T12:38:53Z</time>
                                                <extensions>
                            <sog>3.2</sog>
<cog>292.6</cog>
                        </extensions>
                    </trkpt>
                    <trkpt lat="54.40358333333334" lon="10.217054999999998">
                        <ele>0</ele>
                        <time>2022-08-18T12:39:24Z</time>
                                                <extensions>
                            <sog>3.6</sog>
<cog>268.0</cog>
                        </extensions>
                    </trkpt>
                    <trkpt lat="54.403305" lon="10.216368333333332">
                        <ele>0</ele>
                        <time>2022-08-18T12:39:53Z</time>
                                                <extensions>
                            <sog>3.6</sog>
<cog>242.6</cog>
                        </extensions>
                    </trkpt>
                    <trkpt lat="54.403215" lon="10.215473333333334">
                        <ele>0</ele>
                        <time>2022-08-18T12:40:24Z</time>
                                                <extensions>
                            <sog>4.2</sog>
<cog>254.8</cog>
                        </extensions>
                    </trkpt>
                    <trkpt lat="54.403115" lon="10.214400000000001">
                        <ele>0</ele>
                        <time>2022-08-18T12:40:53Z</time>
                                                <extensions>
                            <sog>5.0</sog>
<cog>252.4</cog>
                        </extensions>
                    </trkpt>
                    <trkpt lat="54.40271833333334" lon="10.21336">
                        <ele>0</ele>
                        <time>2022-08-18T12:41:24Z</time>
                                                <extensions>
                            <sog>5.3</sog>
<cog>224.1</cog>
                        </extensions>
                    </trkpt>
                    <trkpt lat="54.40221333333333" lon="10.212506666666666">
                        <ele>0</ele>
                        <time>2022-08-18T12:41:53Z</time>
                                                <extensions>
                            <sog>5.4</sog>
<cog>225.8</cog>
                        </extensions>
                    </trkpt>
                    <trkpt lat="54.401741666666666" lon="10.21143">
                        <ele>0</ele>
                        <time>2022-08-18T12:42:24Z</time>
                                                <extensions>
                            <sog>5.6</sog>
<cog>230.1</cog>
                        </extensions>
                    </trkpt>
                    <trkpt lat="54.401245" lon="10.210411666666666">
                        <ele>0</ele>
                        <time>2022-08-18T12:42:53Z</time>
                                                <extensions>
                            <sog>5.5</sog>
<cog>229.1</cog>
                        </extensions>
                    </trkpt>
                    <trkpt lat="54.40068833333333" lon="10.209473333333333">
                        <ele>0</ele>
                        <time>2022-08-18T12:43:24Z</time>
                                                <extensions>
                            <sog>5.5</sog>
<cog>223.6</cog>
                        </extensions>
                    </trkpt>
                    <trkpt lat="54.40015166666667" lon="10.208601666666668">
                        <ele>0</ele>
                        <time>2022-08-18T12:43:53Z</time>
                                                <extensions>
                            <sog>5.4</sog>
<cog>225.6</cog>
                        </extensions>
                    </trkpt>
                    <trkpt lat="54.398955" lon="10.206911666666667">
                        <ele>0</ele>
                        <time>2022-08-18T12:44:53Z</time>
                                                <extensions>
                            <sog>5.1</sog>
<cog>207.8</cog>
                        </extensions>
                    </trkpt>
                    <trkpt lat="54.398273333333336" lon="10.206445">
                        <ele>0</ele>
                        <time>2022-08-18T12:45:24Z</time>
                                                <extensions>
                            <sog>5.7</sog>
<cog>194.9</cog>
                        </extensions>
                    </trkpt>
                    <trkpt lat="54.39747833333333" lon="10.20607">
                        <ele>0</ele>
                        <time>2022-08-18T12:45:56Z</time>
                                                <extensions>
                            <sog>5.7</sog>
<cog>192.7</cog>
                        </extensions>
                    </trkpt>
                    <trkpt lat="54.39676833333333" lon="10.205843333333332">
                        <ele>0</ele>
                        <time>2022-08-18T12:46:24Z</time>
                                                <extensions>
                            <sog>5.6</sog>
<cog>187.4</cog>
                        </extensions>
                    </trkpt>
                    <trkpt lat="54.39521333333333" lon="10.205646666666667">
                        <ele>0</ele>
                        <time>2022-08-18T12:47:24Z</time>
                                                <extensions>
                            <sog>5.7</sog>
<cog>182.9</cog>
                        </extensions>
                    </trkpt>
                    <trkpt lat="54.39438500000001" lon="10.20548">
                        <ele>0</ele>
                        <time>2022-08-18T12:47:56Z</time>
                                                <extensions>
                            <sog>5.6</sog>
<cog>190.1</cog>
                        </extensions>
                    </trkpt>
                    <trkpt lat="54.39366333333333" lon="10.205241666666666">
                        <ele>0</ele>
                        <time>2022-08-18T12:48:24Z</time>
                                                <extensions>
                            <sog>5.8</sog>
<cog>190.2</cog>
                        </extensions>
                    </trkpt>
                    <trkpt lat="54.39284" lon="10.204968333333333">
                        <ele>0</ele>
                        <time>2022-08-18T12:48:56Z</time>
                                                <extensions>
                            <sog>5.8</sog>
<cog>192.5</cog>
                        </extensions>
                    </trkpt>
                    <trkpt lat="54.39212333333333" lon="10.20468">
                        <ele>0</ele>
                        <time>2022-08-18T12:49:24Z</time>
                                                <extensions>
                            <sog>5.7</sog>
<cog>193.6</cog>
                        </extensions>
                    </trkpt>
                    <trkpt lat="54.391375000000004" lon="10.204321666666667">
                        <ele>0</ele>
                        <time>2022-08-18T12:49:54Z</time>
                                                <extensions>
                            <sog>5.7</sog>
<cog>200.2</cog>
                        </extensions>
                    </trkpt>
                    <trkpt lat="54.390636666666666" lon="10.203866666666666">
                        <ele>0</ele>
                        <time>2022-08-18T12:50:24Z</time>
                                                <extensions>
                            <sog>5.7</sog>
<cog>196.5</cog>
                        </extensions>
                    </trkpt>
                    <trkpt lat="54.38987833333333" lon="10.20352">
                        <ele>0</ele>
                        <time>2022-08-18T12:50:54Z</time>
                                                <extensions>
                            <sog>5.8</sog>
<cog>199.1</cog>
                        </extensions>
                    </trkpt>
                    <trkpt lat="54.38845833333333" lon="10.202341666666666">
                        <ele>0</ele>
                        <time>2022-08-18T12:51:54Z</time>
                                                <extensions>
                            <sog>5.9</sog>
<cog>207.6</cog>
                        </extensions>
                    </trkpt>
                    <trkpt lat="54.38774166666667" lon="10.201636666666667">
                        <ele>0</ele>
                        <time>2022-08-18T12:52:25Z</time>
                                                <extensions>
                            <sog>5.8</sog>
<cog>210.1</cog>
                        </extensions>
                    </trkpt>
                    <trkpt lat="54.38706333333334" lon="10.201005">
                        <ele>0</ele>
                        <time>2022-08-18T12:52:54Z</time>
                                                <extensions>
                            <sog>5.6</sog>
<cog>205.7</cog>
                        </extensions>
                    </trkpt>
                    <trkpt lat="54.38628666666667" lon="10.200388333333333">
                        <ele>0</ele>
                        <time>2022-08-18T12:53:25Z</time>
                                                <extensions>
                            <sog>5.8</sog>
<cog>206.5</cog>
                        </extensions>
                    </trkpt>
                    <trkpt lat="54.38562666666667" lon="10.199783333333333">
                        <ele>0</ele>
                        <time>2022-08-18T12:53:54Z</time>
                                                <extensions>
                            <sog>5.8</sog>
<cog>210.7</cog>
                        </extensions>
                    </trkpt>
                    <trkpt lat="54.384908333333335" lon="10.198970000000001">
                        <ele>0</ele>
                        <time>2022-08-18T12:54:25Z</time>
                                                <extensions>
                            <sog>5.8</sog>
<cog>217.9</cog>
                        </extensions>
                    </trkpt>
                    <trkpt lat="54.384294999999995" lon="10.19821">
                        <ele>0</ele>
                        <time>2022-08-18T12:54:54Z</time>
                                                <extensions>
                            <sog>5.8</sog>
<cog>216.3</cog>
                        </extensions>
                    </trkpt>
                    <trkpt lat="54.38359666666667" lon="10.19741">
                        <ele>0</ele>
                        <time>2022-08-18T12:55:25Z</time>
                                                <extensions>
                            <sog>6.0</sog>
<cog>212.2</cog>
                        </extensions>
                    </trkpt>
                    <trkpt lat="54.382925" lon="10.19665">
                        <ele>0</ele>
                        <time>2022-08-18T12:55:54Z</time>
                                                <extensions>
                            <sog>6.0</sog>
<cog>215.6</cog>
                        </extensions>
                    </trkpt>
                    <trkpt lat="54.382176666666666" lon="10.195726666666667">
                        <ele>0</ele>
                        <time>2022-08-18T12:56:27Z</time>
                                                <extensions>
                            <sog>5.9</sog>
<cog>212.9</cog>
                        </extensions>
                    </trkpt>
                    <trkpt lat="54.38156166666667" lon="10.19502">
                        <ele>0</ele>
                        <time>2022-08-18T12:56:54Z</time>
                                                <extensions>
                            <sog>5.9</sog>
<cog>215.7</cog>
                        </extensions>
                    </trkpt>
                    <trkpt lat="54.38084166666667" lon="10.194075">
                        <ele>0</ele>
                        <time>2022-08-18T12:57:27Z</time>
                                                <extensions>
                            <sog>6.1</sog>
<cog>215.6</cog>
                        </extensions>
                    </trkpt>
                    <trkpt lat="54.380203333333334" lon="10.193405">
                        <ele>0</ele>
                        <time>2022-08-18T12:57:54Z</time>
                                                <extensions>
                            <sog>6.0</sog>
<cog>205.0</cog>
                        </extensions>
                    </trkpt>
                    <trkpt lat="54.37934" lon="10.192973333333333">
                        <ele>0</ele>
                        <time>2022-08-18T12:58:27Z</time>
                                                <extensions>
                            <sog>5.9</sog>
<cog>188.8</cog>
                        </extensions>
                    </trkpt>
                    <trkpt lat="54.378593333333335" lon="10.192771666666665">
                        <ele>0</ele>
                        <time>2022-08-18T12:58:54Z</time>
                                                <extensions>
                            <sog>5.8</sog>
<cog>185.5</cog>
                        </extensions>
                    </trkpt>
                    <trkpt lat="54.377743333333335" lon="10.19276">
                        <ele>0</ele>
                        <time>2022-08-18T12:59:27Z</time>
                                                <extensions>
                            <sog>5.7</sog>
<cog>175.7</cog>
                        </extensions>
                    </trkpt>
                    <trkpt lat="54.37703666666666" lon="10.192873333333333">
                        <ele>0</ele>
                        <time>2022-08-18T12:59:54Z</time>
                                                <extensions>
                            <sog>5.7</sog>
<cog>177.2</cog>
                        </extensions>
                    </trkpt>
                    <trkpt lat="54.37547" lon="10.193215">
                        <ele>0</ele>
                        <time>2022-08-18T13:00:54Z</time>
                                                <extensions>
                            <sog>5.6</sog>
<cog>174.0</cog>
                        </extensions>
                    </trkpt>
                    <trkpt lat="54.37547" lon="10.193215">
                        <ele>0</ele>
                        <time>2022-08-18T13:00:54Z</time>
                                                <extensions>
                            <sog>5.6</sog>
<cog>174.0</cog>
                        </extensions>
                    </trkpt>
                    <trkpt lat="54.37459666666667" lon="10.193303333333334">
                        <ele>0</ele>
                        <time>2022-08-18T13:01:27Z</time>
                                                <extensions>
                            <sog>5.7</sog>
<cog>177.7</cog>
                        </extensions>
                    </trkpt>
                    <trkpt lat="54.37385166666666" lon="10.193353333333333">
                        <ele>0</ele>
                        <time>2022-08-18T13:01:54Z</time>
                                                <extensions>
                            <sog>5.8</sog>
<cog>178.4</cog>
                        </extensions>
                    </trkpt>
                    <trkpt lat="54.373355" lon="10.193871666666666">
                        <ele>0</ele>
                        <time>2022-08-18T13:02:26Z</time>
                                                <extensions>
                            <sog>3.8</sog>
<cog>69.1</cog>
                        </extensions>
                    </trkpt>
                    <trkpt lat="54.37363666666667" lon="10.194118333333334">
                        <ele>0</ele>
                        <time>2022-08-18T13:02:54Z</time>
                                                <extensions>
                            <sog>1.8</sog>
<cog>30.7</cog>
                        </extensions>
                    </trkpt>
                    <trkpt lat="54.373780000000004" lon="10.194363333333333">
                        <ele>0</ele>
                        <time>2022-08-18T13:03:26Z</time>
                                                <extensions>
                            <sog>0.5</sog>
<cog>36.0</cog>
                        </extensions>
                    </trkpt>
                    <trkpt lat="54.373735" lon="10.194556666666667">
                        <ele>0</ele>
                        <time>2022-08-18T13:03:54Z</time>
                                                <extensions>
                            <sog>1.9</sog>
<cog>146.4</cog>
                        </extensions>
                    </trkpt>
                    <trkpt lat="54.37354666666667" lon="10.194895">
                        <ele>0</ele>
                        <time>2022-08-18T13:04:26Z</time>
                                                <extensions>
                            <sog>1.6</sog>
<cog>122.8</cog>
                        </extensions>
                    </trkpt>
                    <trkpt lat="54.37345333333334" lon="10.195168333333333">
                        <ele>0</ele>
                        <time>2022-08-18T13:04:55Z</time>
                                                <extensions>
                            <sog>0.8</sog>
<cog>105.7</cog>
                        </extensions>
                    </trkpt>
                    <trkpt lat="54.37347833333333" lon="10.19529">
                        <ele>0</ele>
                        <time>2022-08-18T13:05:55Z</time>
                        <extensions>
    <sog>0.3</sog>
</extensions>
                    </trkpt>
                    <trkpt lat="54.373484999999995" lon="10.195314999999999">
                        <ele>0</ele>
                        <time>2022-08-18T13:06:23Z</time>
                        <extensions>
    <sog>0.4</sog>
</extensions>
                    </trkpt>
                    <trkpt lat="54.37350166666667" lon="10.195343333333334">
                        <ele>0</ele>
                        <time>2022-08-18T13:06:55Z</time>
                        <extensions>
    <sog>0.1</sog>
</extensions>
                    </trkpt>
                    <trkpt lat="54.373513333333335" lon="10.195365">
                        <ele>0</ele>
                        <time>2022-08-18T13:07:23Z</time>
                        <extensions>
    <sog>0.2</sog>
</extensions>
                    </trkpt>
                    <trkpt lat="54.373525" lon="10.195385">
                        <ele>0</ele>
                        <time>2022-08-18T13:07:55Z</time>
                        <extensions>
    <sog>0.2</sog>
</extensions>
                    </trkpt>
                    <trkpt lat="54.373531666666665" lon="10.19539">
                        <ele>0</ele>
                        <time>2022-08-18T13:08:23Z</time>
                        <extensions>
    <sog>0.1</sog>
</extensions>
                    </trkpt>
                    <trkpt lat="54.373540000000006" lon="10.195386666666668">
                        <ele>0</ele>
                        <time>2022-08-18T13:08:55Z</time>
                        <extensions>
    <sog>0.0</sog>
</extensions>
                    </trkpt>
                    <trkpt lat="54.37354666666667" lon="10.195400000000001">
                        <ele>0</ele>
                        <time>2022-08-18T13:11:24Z</time>
                        <extensions>
    <sog>0.0</sog>
</extensions>
                    </trkpt>
                    </trkseg>
                </trk>
</gpx>