<?xml version="1.0" encoding="UTF-8"?>
<gpx version="1.1" creator="AIS-to-GPX Converter" xmlns="http://www.topografix.com/GPX/1/1">
                <trk>
                    <name>anon0278</name>
                    <trkseg>
                                            <trkpt lat="54.475815" lon="9.855811666666666">
                        <ele>0</ele>
                        <time>2022-08-18T00:08:06Z</time>
                        <extensions>
    <sog>0.0</sog>
</extensions>
                    </trkpt>
                    <trkpt lat="54.47581666666667" lon="9.855791666666667">
                        <ele>0</ele>
                        <time>2022-08-18T00:38:06Z</time>
                        <extensions>
    <sog>0.0</sog>
</extensions>
                    </trkpt>
                    <trkpt lat="54.47582" lon="9.855799999999999">
                        <ele>0</ele>
                        <time>2022-08-18T00:44:06Z</time>
                        <extensions>
    <sog>0.0</sog>
</extensions>
                    </trkpt>
                    </trkseg>
                </trk>
</gpx>